{
  "type": "FeatureCollection",
  "features": [
    {
      "type": "Feature",
      "geometry": {
        "type": "Point",
        "coordinates": [
          120.580755,
          24.183962
        ]
      },
      "properties": {
        "routeId": "taichung-kel-0255-55e67d-d6",
        "city": "taichung",
        "route_name": "KEL-0255",
        "car_seq": "KEL-0255",
        "arrival_time": "0620",
        "departure_time": "0625",
        "district": "龍井區",
        "village": "新庄里",
        "location": "新庄街一段171巷12號",
        "type": "沿街",
        "collection_type": "garbage",
        "day_of_week": 6
      }
    },
    {
      "type": "Feature",
      "geometry": {
        "type": "Point",
        "coordinates": [
          120.580755,
          24.183962
        ]
      },
      "properties": {
        "routeId": "taichung-kel-0255-55e67d-d6",
        "city": "taichung",
        "route_name": "KEL-0255",
        "car_seq": "KEL-0255",
        "arrival_time": "0620",
        "departure_time": "0625",
        "district": "龍井區",
        "village": "新庄里",
        "location": "新庄街一段171巷12號",
        "type": "沿街",
        "collection_type": "recycling",
        "day_of_week": 6
      }
    },
    {
      "type": "Feature",
      "geometry": {
        "type": "Point",
        "coordinates": [
          120.580426,
          24.185762
        ]
      },
      "properties": {
        "routeId": "taichung-kel-0255-55e67d-d6",
        "city": "taichung",
        "route_name": "KEL-0255",
        "car_seq": "KEL-0255",
        "arrival_time": "0625",
        "departure_time": "0630",
        "district": "龍井區",
        "village": "新庄里",
        "location": "新庄街一段96巷96弄19號",
        "type": "沿街",
        "collection_type": "garbage",
        "day_of_week": 6
      }
    },
    {
      "type": "Feature",
      "geometry": {
        "type": "Point",
        "coordinates": [
          120.580426,
          24.185762
        ]
      },
      "properties": {
        "routeId": "taichung-kel-0255-55e67d-d6",
        "city": "taichung",
        "route_name": "KEL-0255",
        "car_seq": "KEL-0255",
        "arrival_time": "0625",
        "departure_time": "0630",
        "district": "龍井區",
        "village": "新庄里",
        "location": "新庄街一段96巷96弄19號",
        "type": "沿街",
        "collection_type": "recycling",
        "day_of_week": 6
      }
    },
    {
      "type": "Feature",
      "geometry": {
        "type": "Point",
        "coordinates": [
          120.559518,
          24.196241
        ]
      },
      "properties": {
        "routeId": "taichung-kel-0255-55e67d-d6",
        "city": "taichung",
        "route_name": "KEL-0255",
        "car_seq": "KEL-0255",
        "arrival_time": "0637",
        "departure_time": "0642",
        "district": "龍井區",
        "village": "龍泉里",
        "location": "南社三街79號",
        "type": "沿街",
        "collection_type": "garbage",
        "day_of_week": 6
      }
    },
    {
      "type": "Feature",
      "geometry": {
        "type": "Point",
        "coordinates": [
          120.559518,
          24.196241
        ]
      },
      "properties": {
        "routeId": "taichung-kel-0255-55e67d-d6",
        "city": "taichung",
        "route_name": "KEL-0255",
        "car_seq": "KEL-0255",
        "arrival_time": "0637",
        "departure_time": "0642",
        "district": "龍井區",
        "village": "龍泉里",
        "location": "南社三街79號",
        "type": "沿街",
        "collection_type": "recycling",
        "day_of_week": 6
      }
    },
    {
      "type": "Feature",
      "geometry": {
        "type": "Point",
        "coordinates": [
          120.560139,
          24.19515
        ]
      },
      "properties": {
        "routeId": "taichung-kel-0255-55e67d-d6",
        "city": "taichung",
        "route_name": "KEL-0255",
        "car_seq": "KEL-0255",
        "arrival_time": "0640",
        "departure_time": "0645",
        "district": "龍井區",
        "village": "龍泉里",
        "location": "南社路二段58巷1號",
        "type": "沿街",
        "collection_type": "garbage",
        "day_of_week": 6
      }
    },
    {
      "type": "Feature",
      "geometry": {
        "type": "Point",
        "coordinates": [
          120.560139,
          24.19515
        ]
      },
      "properties": {
        "routeId": "taichung-kel-0255-55e67d-d6",
        "city": "taichung",
        "route_name": "KEL-0255",
        "car_seq": "KEL-0255",
        "arrival_time": "0640",
        "departure_time": "0645",
        "district": "龍井區",
        "village": "龍泉里",
        "location": "南社路二段58巷1號",
        "type": "沿街",
        "collection_type": "recycling",
        "day_of_week": 6
      }
    },
    {
      "type": "Feature",
      "geometry": {
        "type": "Point",
        "coordinates": [
          120.564077,
          24.19422
        ]
      },
      "properties": {
        "routeId": "taichung-kel-0255-55e67d-d6",
        "city": "taichung",
        "route_name": "KEL-0255",
        "car_seq": "KEL-0255",
        "arrival_time": "0642",
        "departure_time": "0647",
        "district": "龍井區",
        "village": "龍泉里",
        "location": "龍社路20號",
        "type": "沿街",
        "collection_type": "garbage",
        "day_of_week": 6
      }
    },
    {
      "type": "Feature",
      "geometry": {
        "type": "Point",
        "coordinates": [
          120.564077,
          24.19422
        ]
      },
      "properties": {
        "routeId": "taichung-kel-0255-55e67d-d6",
        "city": "taichung",
        "route_name": "KEL-0255",
        "car_seq": "KEL-0255",
        "arrival_time": "0642",
        "departure_time": "0647",
        "district": "龍井區",
        "village": "龍泉里",
        "location": "龍社路20號",
        "type": "沿街",
        "collection_type": "recycling",
        "day_of_week": 6
      }
    },
    {
      "type": "Feature",
      "geometry": {
        "type": "Point",
        "coordinates": [
          120.564097,
          24.195405
        ]
      },
      "properties": {
        "routeId": "taichung-kel-0255-55e67d-d6",
        "city": "taichung",
        "route_name": "KEL-0255",
        "car_seq": "KEL-0255",
        "arrival_time": "0650",
        "departure_time": "0655",
        "district": "龍井區",
        "village": "龍泉里",
        "location": "龍社路58號",
        "type": "沿街",
        "collection_type": "garbage",
        "day_of_week": 6
      }
    },
    {
      "type": "Feature",
      "geometry": {
        "type": "Point",
        "coordinates": [
          120.564097,
          24.195405
        ]
      },
      "properties": {
        "routeId": "taichung-kel-0255-55e67d-d6",
        "city": "taichung",
        "route_name": "KEL-0255",
        "car_seq": "KEL-0255",
        "arrival_time": "0650",
        "departure_time": "0655",
        "district": "龍井區",
        "village": "龍泉里",
        "location": "龍社路58號",
        "type": "沿街",
        "collection_type": "recycling",
        "day_of_week": 6
      }
    },
    {
      "type": "Feature",
      "geometry": {
        "type": "Point",
        "coordinates": [
          120.522204,
          24.196829
        ]
      },
      "properties": {
        "routeId": "taichung-kel-0255-55e67d-d6",
        "city": "taichung",
        "route_name": "KEL-0255",
        "car_seq": "KEL-0255",
        "arrival_time": "0705",
        "departure_time": "0715",
        "district": "龍井區",
        "village": "龍津里",
        "location": "臨港東路二段28號",
        "type": "沿街",
        "collection_type": "garbage",
        "day_of_week": 6
      }
    },
    {
      "type": "Feature",
      "geometry": {
        "type": "Point",
        "coordinates": [
          120.522204,
          24.196829
        ]
      },
      "properties": {
        "routeId": "taichung-kel-0255-55e67d-d6",
        "city": "taichung",
        "route_name": "KEL-0255",
        "car_seq": "KEL-0255",
        "arrival_time": "0705",
        "departure_time": "0715",
        "district": "龍井區",
        "village": "龍津里",
        "location": "臨港東路二段28號",
        "type": "沿街",
        "collection_type": "recycling",
        "day_of_week": 6
      }
    },
    {
      "type": "Feature",
      "geometry": {
        "type": "Point",
        "coordinates": [
          120.515446,
          24.199525
        ]
      },
      "properties": {
        "routeId": "taichung-kel-0255-55e67d-d6",
        "city": "taichung",
        "route_name": "KEL-0255",
        "car_seq": "KEL-0255",
        "arrival_time": "0720",
        "departure_time": "0725",
        "district": "龍井區",
        "village": "龍津里",
        "location": "臨港東路二段320巷48號",
        "type": "沿街",
        "collection_type": "garbage",
        "day_of_week": 6
      }
    },
    {
      "type": "Feature",
      "geometry": {
        "type": "Point",
        "coordinates": [
          120.515446,
          24.199525
        ]
      },
      "properties": {
        "routeId": "taichung-kel-0255-55e67d-d6",
        "city": "taichung",
        "route_name": "KEL-0255",
        "car_seq": "KEL-0255",
        "arrival_time": "0720",
        "departure_time": "0725",
        "district": "龍井區",
        "village": "龍津里",
        "location": "臨港東路二段320巷48號",
        "type": "沿街",
        "collection_type": "recycling",
        "day_of_week": 6
      }
    },
    {
      "type": "Feature",
      "geometry": {
        "type": "Point",
        "coordinates": [
          120.507927,
          24.204906
        ]
      },
      "properties": {
        "routeId": "taichung-kel-0255-55e67d-d6",
        "city": "taichung",
        "route_name": "KEL-0255",
        "car_seq": "KEL-0255",
        "arrival_time": "0730",
        "departure_time": "0735",
        "district": "龍井區",
        "village": "麗水里",
        "location": "三港路田仔內巷16號",
        "type": "沿街",
        "collection_type": "garbage",
        "day_of_week": 6
      }
    },
    {
      "type": "Feature",
      "geometry": {
        "type": "Point",
        "coordinates": [
          120.507927,
          24.204906
        ]
      },
      "properties": {
        "routeId": "taichung-kel-0255-55e67d-d6",
        "city": "taichung",
        "route_name": "KEL-0255",
        "car_seq": "KEL-0255",
        "arrival_time": "0730",
        "departure_time": "0735",
        "district": "龍井區",
        "village": "麗水里",
        "location": "三港路田仔內巷16號",
        "type": "沿街",
        "collection_type": "recycling",
        "day_of_week": 6
      }
    },
    {
      "type": "Feature",
      "geometry": {
        "type": "Point",
        "coordinates": [
          120.505416,
          24.207225
        ]
      },
      "properties": {
        "routeId": "taichung-kel-0255-55e67d-d6",
        "city": "taichung",
        "route_name": "KEL-0255",
        "car_seq": "KEL-0255",
        "arrival_time": "0737",
        "departure_time": "0742",
        "district": "龍井區",
        "village": "龍津里",
        "location": "臨港路一段845、852號",
        "type": "沿街",
        "collection_type": "garbage",
        "day_of_week": 6
      }
    },
    {
      "type": "Feature",
      "geometry": {
        "type": "Point",
        "coordinates": [
          120.505416,
          24.207225
        ]
      },
      "properties": {
        "routeId": "taichung-kel-0255-55e67d-d6",
        "city": "taichung",
        "route_name": "KEL-0255",
        "car_seq": "KEL-0255",
        "arrival_time": "0737",
        "departure_time": "0742",
        "district": "龍井區",
        "village": "龍津里",
        "location": "臨港路一段845、852號",
        "type": "沿街",
        "collection_type": "recycling",
        "day_of_week": 6
      }
    },
    {
      "type": "Feature",
      "geometry": {
        "type": "Point",
        "coordinates": [
          120.510155,
          24.199543
        ]
      },
      "properties": {
        "routeId": "taichung-kel-0255-55e67d-d6",
        "city": "taichung",
        "route_name": "KEL-0255",
        "car_seq": "KEL-0255",
        "arrival_time": "0740",
        "departure_time": "0745",
        "district": "龍井區",
        "village": "麗水里",
        "location": "龍港路1號",
        "type": "沿街",
        "collection_type": "garbage",
        "day_of_week": 6
      }
    },
    {
      "type": "Feature",
      "geometry": {
        "type": "Point",
        "coordinates": [
          120.510155,
          24.199543
        ]
      },
      "properties": {
        "routeId": "taichung-kel-0255-55e67d-d6",
        "city": "taichung",
        "route_name": "KEL-0255",
        "car_seq": "KEL-0255",
        "arrival_time": "0740",
        "departure_time": "0745",
        "district": "龍井區",
        "village": "麗水里",
        "location": "龍港路1號",
        "type": "沿街",
        "collection_type": "recycling",
        "day_of_week": 6
      }
    },
    {
      "type": "Feature",
      "geometry": {
        "type": "Point",
        "coordinates": [
          120.497935,
          24.202093
        ]
      },
      "properties": {
        "routeId": "taichung-kel-0255-55e67d-d6",
        "city": "taichung",
        "route_name": "KEL-0255",
        "car_seq": "KEL-0255",
        "arrival_time": "0747",
        "departure_time": "0752",
        "district": "龍井區",
        "village": "麗水里",
        "location": "三港路水裡港巷21-45號",
        "type": "沿街",
        "collection_type": "garbage",
        "day_of_week": 6
      }
    },
    {
      "type": "Feature",
      "geometry": {
        "type": "Point",
        "coordinates": [
          120.497935,
          24.202093
        ]
      },
      "properties": {
        "routeId": "taichung-kel-0255-55e67d-d6",
        "city": "taichung",
        "route_name": "KEL-0255",
        "car_seq": "KEL-0255",
        "arrival_time": "0747",
        "departure_time": "0752",
        "district": "龍井區",
        "village": "麗水里",
        "location": "三港路水裡港巷21-45號",
        "type": "沿街",
        "collection_type": "recycling",
        "day_of_week": 6
      }
    },
    {
      "type": "Feature",
      "geometry": {
        "type": "Point",
        "coordinates": [
          120.498607,
          24.201006
        ]
      },
      "properties": {
        "routeId": "taichung-kel-0255-55e67d-d6",
        "city": "taichung",
        "route_name": "KEL-0255",
        "car_seq": "KEL-0255",
        "arrival_time": "0755",
        "departure_time": "0800",
        "district": "龍井區",
        "village": "麗水里",
        "location": "三港路水裡港巷26號",
        "type": "沿街",
        "collection_type": "garbage",
        "day_of_week": 6
      }
    },
    {
      "type": "Feature",
      "geometry": {
        "type": "Point",
        "coordinates": [
          120.498607,
          24.201006
        ]
      },
      "properties": {
        "routeId": "taichung-kel-0255-55e67d-d6",
        "city": "taichung",
        "route_name": "KEL-0255",
        "car_seq": "KEL-0255",
        "arrival_time": "0755",
        "departure_time": "0800",
        "district": "龍井區",
        "village": "麗水里",
        "location": "三港路水裡港巷26號",
        "type": "沿街",
        "collection_type": "recycling",
        "day_of_week": 6
      }
    },
    {
      "type": "Feature",
      "geometry": {
        "type": "Point",
        "coordinates": [
          120.508206,
          24.197175
        ]
      },
      "properties": {
        "routeId": "taichung-kel-0255-55e67d-d6",
        "city": "taichung",
        "route_name": "KEL-0255",
        "car_seq": "KEL-0255",
        "arrival_time": "0810",
        "departure_time": "0815",
        "district": "龍井區",
        "village": "福田里",
        "location": "茄投路海埔仔巷7-67號",
        "type": "沿街",
        "collection_type": "garbage",
        "day_of_week": 6
      }
    },
    {
      "type": "Feature",
      "geometry": {
        "type": "Point",
        "coordinates": [
          120.508206,
          24.197175
        ]
      },
      "properties": {
        "routeId": "taichung-kel-0255-55e67d-d6",
        "city": "taichung",
        "route_name": "KEL-0255",
        "car_seq": "KEL-0255",
        "arrival_time": "0810",
        "departure_time": "0815",
        "district": "龍井區",
        "village": "福田里",
        "location": "茄投路海埔仔巷7-67號",
        "type": "沿街",
        "collection_type": "recycling",
        "day_of_week": 6
      }
    },
    {
      "type": "Feature",
      "geometry": {
        "type": "Point",
        "coordinates": [
          120.578827,
          24.184412
        ]
      },
      "properties": {
        "routeId": "taichung-kel-0255-55e67d-d6",
        "city": "taichung",
        "route_name": "KEL-0255",
        "car_seq": "KEL-0255",
        "arrival_time": "0915",
        "departure_time": "0920",
        "district": "龍井區",
        "village": "新庄里",
        "location": "新仁路22巷25號",
        "type": "沿街",
        "collection_type": "garbage",
        "day_of_week": 6
      }
    },
    {
      "type": "Feature",
      "geometry": {
        "type": "Point",
        "coordinates": [
          120.578827,
          24.184412
        ]
      },
      "properties": {
        "routeId": "taichung-kel-0255-55e67d-d6",
        "city": "taichung",
        "route_name": "KEL-0255",
        "car_seq": "KEL-0255",
        "arrival_time": "0915",
        "departure_time": "0920",
        "district": "龍井區",
        "village": "新庄里",
        "location": "新仁路22巷25號",
        "type": "沿街",
        "collection_type": "recycling",
        "day_of_week": 6
      }
    },
    {
      "type": "Feature",
      "geometry": {
        "type": "Point",
        "coordinates": [
          120.58932,
          24.180358
        ]
      },
      "properties": {
        "routeId": "taichung-kel-0255-55e67d-d6",
        "city": "taichung",
        "route_name": "KEL-0255",
        "car_seq": "KEL-0255",
        "arrival_time": "0920",
        "departure_time": "0925",
        "district": "龍井區",
        "village": "新東里",
        "location": "新興路25巷4號",
        "type": "沿街",
        "collection_type": "garbage",
        "day_of_week": 6
      }
    },
    {
      "type": "Feature",
      "geometry": {
        "type": "Point",
        "coordinates": [
          120.58932,
          24.180358
        ]
      },
      "properties": {
        "routeId": "taichung-kel-0255-55e67d-d6",
        "city": "taichung",
        "route_name": "KEL-0255",
        "car_seq": "KEL-0255",
        "arrival_time": "0920",
        "departure_time": "0925",
        "district": "龍井區",
        "village": "新東里",
        "location": "新興路25巷4號",
        "type": "沿街",
        "collection_type": "recycling",
        "day_of_week": 6
      }
    },
    {
      "type": "Feature",
      "geometry": {
        "type": "Point",
        "coordinates": [
          120.586561,
          24.177702
        ]
      },
      "properties": {
        "routeId": "taichung-kel-0255-55e67d-d6",
        "city": "taichung",
        "route_name": "KEL-0255",
        "car_seq": "KEL-0255",
        "arrival_time": "0925",
        "departure_time": "0928",
        "district": "龍井區",
        "village": "新東里",
        "location": "遊園南路319巷153-5號",
        "type": "沿街",
        "collection_type": "garbage",
        "day_of_week": 6
      }
    },
    {
      "type": "Feature",
      "geometry": {
        "type": "Point",
        "coordinates": [
          120.586561,
          24.177702
        ]
      },
      "properties": {
        "routeId": "taichung-kel-0255-55e67d-d6",
        "city": "taichung",
        "route_name": "KEL-0255",
        "car_seq": "KEL-0255",
        "arrival_time": "0925",
        "departure_time": "0928",
        "district": "龍井區",
        "village": "新東里",
        "location": "遊園南路319巷153-5號",
        "type": "沿街",
        "collection_type": "recycling",
        "day_of_week": 6
      }
    },
    {
      "type": "Feature",
      "geometry": {
        "type": "Point",
        "coordinates": [
          120.583816,
          24.180502
        ]
      },
      "properties": {
        "routeId": "taichung-kel-0255-55e67d-d6",
        "city": "taichung",
        "route_name": "KEL-0255",
        "car_seq": "KEL-0255",
        "arrival_time": "0934",
        "departure_time": "0939",
        "district": "龍井區",
        "village": "新東里",
        "location": "遊園南路269巷1號",
        "type": "沿街",
        "collection_type": "garbage",
        "day_of_week": 6
      }
    },
    {
      "type": "Feature",
      "geometry": {
        "type": "Point",
        "coordinates": [
          120.583816,
          24.180502
        ]
      },
      "properties": {
        "routeId": "taichung-kel-0255-55e67d-d6",
        "city": "taichung",
        "route_name": "KEL-0255",
        "car_seq": "KEL-0255",
        "arrival_time": "0934",
        "departure_time": "0939",
        "district": "龍井區",
        "village": "新東里",
        "location": "遊園南路269巷1號",
        "type": "沿街",
        "collection_type": "recycling",
        "day_of_week": 6
      }
    },
    {
      "type": "Feature",
      "geometry": {
        "type": "Point",
        "coordinates": [
          120.583935,
          24.182161
        ]
      },
      "properties": {
        "routeId": "taichung-kel-0255-55e67d-d6",
        "city": "taichung",
        "route_name": "KEL-0255",
        "car_seq": "KEL-0255",
        "arrival_time": "0935",
        "departure_time": "0940",
        "district": "龍井區",
        "village": "新東里",
        "location": "新興路94-1號",
        "type": "沿街",
        "collection_type": "garbage",
        "day_of_week": 6
      }
    },
    {
      "type": "Feature",
      "geometry": {
        "type": "Point",
        "coordinates": [
          120.583935,
          24.182161
        ]
      },
      "properties": {
        "routeId": "taichung-kel-0255-55e67d-d6",
        "city": "taichung",
        "route_name": "KEL-0255",
        "car_seq": "KEL-0255",
        "arrival_time": "0935",
        "departure_time": "0940",
        "district": "龍井區",
        "village": "新東里",
        "location": "新興路94-1號",
        "type": "沿街",
        "collection_type": "recycling",
        "day_of_week": 6
      }
    },
    {
      "type": "Feature",
      "geometry": {
        "type": "Point",
        "coordinates": [
          120.592832,
          24.181981
        ]
      },
      "properties": {
        "routeId": "taichung-kel-0255-55e67d-d6",
        "city": "taichung",
        "route_name": "KEL-0255",
        "car_seq": "KEL-0255",
        "arrival_time": "0950",
        "departure_time": "0955",
        "district": "龍井區",
        "village": "新東里",
        "location": "臺灣大道五段3巷35號",
        "type": "沿街",
        "collection_type": "garbage",
        "day_of_week": 6
      }
    },
    {
      "type": "Feature",
      "geometry": {
        "type": "Point",
        "coordinates": [
          120.592832,
          24.181981
        ]
      },
      "properties": {
        "routeId": "taichung-kel-0255-55e67d-d6",
        "city": "taichung",
        "route_name": "KEL-0255",
        "car_seq": "KEL-0255",
        "arrival_time": "0950",
        "departure_time": "0955",
        "district": "龍井區",
        "village": "新東里",
        "location": "臺灣大道五段3巷35號",
        "type": "沿街",
        "collection_type": "recycling",
        "day_of_week": 6
      }
    },
    {
      "type": "Feature",
      "geometry": {
        "type": "Point",
        "coordinates": [
          120.585761,
          24.185787
        ]
      },
      "properties": {
        "routeId": "taichung-kel-0255-55e67d-d6",
        "city": "taichung",
        "route_name": "KEL-0255",
        "car_seq": "KEL-0255",
        "arrival_time": "0955",
        "departure_time": "1000",
        "district": "龍井區",
        "village": "新東里",
        "location": "臺灣大道五段299號",
        "type": "沿街",
        "collection_type": "garbage",
        "day_of_week": 6
      }
    },
    {
      "type": "Feature",
      "geometry": {
        "type": "Point",
        "coordinates": [
          120.585761,
          24.185787
        ]
      },
      "properties": {
        "routeId": "taichung-kel-0255-55e67d-d6",
        "city": "taichung",
        "route_name": "KEL-0255",
        "car_seq": "KEL-0255",
        "arrival_time": "0955",
        "departure_time": "1000",
        "district": "龍井區",
        "village": "新東里",
        "location": "臺灣大道五段299號",
        "type": "沿街",
        "collection_type": "recycling",
        "day_of_week": 6
      }
    },
    {
      "type": "Feature",
      "geometry": {
        "type": "Point",
        "coordinates": [
          120.592876,
          24.182694
        ]
      },
      "properties": {
        "routeId": "taichung-kel-0255-55e67d-d6",
        "city": "taichung",
        "route_name": "KEL-0255",
        "car_seq": "KEL-0255",
        "arrival_time": "1000",
        "departure_time": "1005",
        "district": "龍井區",
        "village": "新東里",
        "location": "臺灣大道五段3巷2號",
        "type": "沿街",
        "collection_type": "garbage",
        "day_of_week": 6
      }
    },
    {
      "type": "Feature",
      "geometry": {
        "type": "Point",
        "coordinates": [
          120.592876,
          24.182694
        ]
      },
      "properties": {
        "routeId": "taichung-kel-0255-55e67d-d6",
        "city": "taichung",
        "route_name": "KEL-0255",
        "car_seq": "KEL-0255",
        "arrival_time": "1000",
        "departure_time": "1005",
        "district": "龍井區",
        "village": "新東里",
        "location": "臺灣大道五段3巷2號",
        "type": "沿街",
        "collection_type": "recycling",
        "day_of_week": 6
      }
    },
    {
      "type": "Feature",
      "geometry": {
        "type": "Point",
        "coordinates": [
          120.584597,
          24.182061
        ]
      },
      "properties": {
        "routeId": "taichung-kel-0255-55e67d-d6",
        "city": "taichung",
        "route_name": "KEL-0255",
        "car_seq": "KEL-0255",
        "arrival_time": "1007",
        "departure_time": "1012",
        "district": "龍井區",
        "village": "新東里",
        "location": "新興路96-30號",
        "type": "沿街",
        "collection_type": "garbage",
        "day_of_week": 6
      }
    },
    {
      "type": "Feature",
      "geometry": {
        "type": "Point",
        "coordinates": [
          120.584597,
          24.182061
        ]
      },
      "properties": {
        "routeId": "taichung-kel-0255-55e67d-d6",
        "city": "taichung",
        "route_name": "KEL-0255",
        "car_seq": "KEL-0255",
        "arrival_time": "1007",
        "departure_time": "1012",
        "district": "龍井區",
        "village": "新東里",
        "location": "新興路96-30號",
        "type": "沿街",
        "collection_type": "recycling",
        "day_of_week": 6
      }
    },
    {
      "type": "Feature",
      "geometry": {
        "type": "Point",
        "coordinates": [
          120.581287,
          24.184843
        ]
      },
      "properties": {
        "routeId": "taichung-kel-0255-55e67d-d6",
        "city": "taichung",
        "route_name": "KEL-0255",
        "car_seq": "KEL-0255",
        "arrival_time": "1010",
        "departure_time": "1015",
        "district": "龍井區",
        "village": "新庄里",
        "location": "新庄街一段137號",
        "type": "沿街",
        "collection_type": "garbage",
        "day_of_week": 6
      }
    },
    {
      "type": "Feature",
      "geometry": {
        "type": "Point",
        "coordinates": [
          120.581287,
          24.184843
        ]
      },
      "properties": {
        "routeId": "taichung-kel-0255-55e67d-d6",
        "city": "taichung",
        "route_name": "KEL-0255",
        "car_seq": "KEL-0255",
        "arrival_time": "1010",
        "departure_time": "1015",
        "district": "龍井區",
        "village": "新庄里",
        "location": "新庄街一段137號",
        "type": "沿街",
        "collection_type": "recycling",
        "day_of_week": 6
      }
    },
    {
      "type": "Feature",
      "geometry": {
        "type": "Point",
        "coordinates": [
          120.582901,
          24.186454
        ]
      },
      "properties": {
        "routeId": "taichung-kel-0255-55e67d-d6",
        "city": "taichung",
        "route_name": "KEL-0255",
        "car_seq": "KEL-0255",
        "arrival_time": "1015",
        "departure_time": "1020",
        "district": "龍井區",
        "village": "新庄里",
        "location": "新庄街一段27號",
        "type": "沿街",
        "collection_type": "garbage",
        "day_of_week": 6
      }
    },
    {
      "type": "Feature",
      "geometry": {
        "type": "Point",
        "coordinates": [
          120.522454,
          24.219814
        ]
      },
      "properties": {
        "routeId": "taichung-kel-0255-55e67d-d6",
        "city": "taichung",
        "route_name": "KEL-0255",
        "car_seq": "KEL-0255",
        "arrival_time": "1030",
        "departure_time": "1032",
        "district": "龍井區",
        "village": "忠和里",
        "location": "台西南路202號",
        "type": "沿街",
        "collection_type": "garbage",
        "day_of_week": 6
      }
    },
    {
      "type": "Feature",
      "geometry": {
        "type": "Point",
        "coordinates": [
          120.515461,
          24.212721
        ]
      },
      "properties": {
        "routeId": "taichung-kel-0255-55e67d-d6",
        "city": "taichung",
        "route_name": "KEL-0255",
        "car_seq": "KEL-0255",
        "arrival_time": "1040",
        "departure_time": "1042",
        "district": "龍井區",
        "village": "忠和里",
        "location": "工業路177巷8號",
        "type": "沿街",
        "collection_type": "garbage",
        "day_of_week": 6
      }
    },
    {
      "type": "Feature",
      "geometry": {
        "type": "Point",
        "coordinates": [
          120.509629,
          24.209413
        ]
      },
      "properties": {
        "routeId": "taichung-kel-0255-55e67d-d6",
        "city": "taichung",
        "route_name": "KEL-0255",
        "car_seq": "KEL-0255",
        "arrival_time": "1045",
        "departure_time": "1050",
        "district": "龍井區",
        "village": "龍津里",
        "location": "蚵寮路255巷58號",
        "type": "沿街",
        "collection_type": "garbage",
        "day_of_week": 6
      }
    },
    {
      "type": "Feature",
      "geometry": {
        "type": "Point",
        "coordinates": [
          120.505416,
          24.210419
        ]
      },
      "properties": {
        "routeId": "taichung-kel-0255-55e67d-d6",
        "city": "taichung",
        "route_name": "KEL-0255",
        "car_seq": "KEL-0255",
        "arrival_time": "1050",
        "departure_time": "1055",
        "district": "龍井區",
        "village": "麗水里",
        "location": "龍昌路10號沿線",
        "type": "沿街",
        "collection_type": "garbage",
        "day_of_week": 6
      }
    }
  ]
}