{
  "type": "FeatureCollection",
  "features": [
    {
      "type": "Feature",
      "geometry": {
        "type": "Point",
        "coordinates": [
          120.554398,
          24.223672
        ]
      },
      "properties": {
        "routeId": "taichung-040-q3-66352b-d4",
        "city": "taichung",
        "route_name": "040-Q3",
        "car_seq": "040-Q3",
        "arrival_time": "1710",
        "departure_time": "1730",
        "district": "沙鹿區",
        "village": "斗抵里",
        "location": "天仁街70號",
        "type": "定點",
        "collection_type": "garbage",
        "day_of_week": 4
      }
    },
    {
      "type": "Feature",
      "geometry": {
        "type": "Point",
        "coordinates": [
          120.554398,
          24.223672
        ]
      },
      "properties": {
        "routeId": "taichung-040-q3-66352b-d4",
        "city": "taichung",
        "route_name": "040-Q3",
        "car_seq": "040-Q3",
        "arrival_time": "1710",
        "departure_time": "1730",
        "district": "沙鹿區",
        "village": "斗抵里",
        "location": "天仁街70號",
        "type": "定點",
        "collection_type": "recycling",
        "day_of_week": 4
      }
    },
    {
      "type": "Feature",
      "geometry": {
        "type": "Point",
        "coordinates": [
          120.554188,
          24.212344
        ]
      },
      "properties": {
        "routeId": "taichung-040-q3-66352b-d4",
        "city": "taichung",
        "route_name": "040-Q3",
        "car_seq": "040-Q3",
        "arrival_time": "1735",
        "departure_time": "1740",
        "district": "沙鹿區",
        "village": "斗抵里",
        "location": "沙田路斗南巷66號",
        "type": "定點",
        "collection_type": "garbage",
        "day_of_week": 4
      }
    },
    {
      "type": "Feature",
      "geometry": {
        "type": "Point",
        "coordinates": [
          120.554188,
          24.212344
        ]
      },
      "properties": {
        "routeId": "taichung-040-q3-66352b-d4",
        "city": "taichung",
        "route_name": "040-Q3",
        "car_seq": "040-Q3",
        "arrival_time": "1735",
        "departure_time": "1740",
        "district": "沙鹿區",
        "village": "斗抵里",
        "location": "沙田路斗南巷66號",
        "type": "定點",
        "collection_type": "recycling",
        "day_of_week": 4
      }
    },
    {
      "type": "Feature",
      "geometry": {
        "type": "Point",
        "coordinates": [
          120.557098,
          24.231773
        ]
      },
      "properties": {
        "routeId": "taichung-040-q3-66352b-d4",
        "city": "taichung",
        "route_name": "040-Q3",
        "car_seq": "040-Q3",
        "arrival_time": "1750",
        "departure_time": "1808",
        "district": "沙鹿區",
        "village": "興安里",
        "location": "斗潭路459號",
        "type": "定點",
        "collection_type": "garbage",
        "day_of_week": 4
      }
    },
    {
      "type": "Feature",
      "geometry": {
        "type": "Point",
        "coordinates": [
          120.557098,
          24.231773
        ]
      },
      "properties": {
        "routeId": "taichung-040-q3-66352b-d4",
        "city": "taichung",
        "route_name": "040-Q3",
        "car_seq": "040-Q3",
        "arrival_time": "1800",
        "departure_time": "1810",
        "district": "沙鹿區",
        "village": "興安里",
        "location": "斗潭路459號",
        "type": "定點",
        "collection_type": "recycling",
        "day_of_week": 4
      }
    },
    {
      "type": "Feature",
      "geometry": {
        "type": "Point",
        "coordinates": [
          120.559448,
          24.231739
        ]
      },
      "properties": {
        "routeId": "taichung-040-q3-66352b-d4",
        "city": "taichung",
        "route_name": "040-Q3",
        "car_seq": "040-Q3",
        "arrival_time": "1813",
        "departure_time": "1818",
        "district": "沙鹿區",
        "village": "興仁里",
        "location": "四平街6巷2號",
        "type": "定點",
        "collection_type": "garbage",
        "day_of_week": 4
      }
    },
    {
      "type": "Feature",
      "geometry": {
        "type": "Point",
        "coordinates": [
          120.559448,
          24.231739
        ]
      },
      "properties": {
        "routeId": "taichung-040-q3-66352b-d4",
        "city": "taichung",
        "route_name": "040-Q3",
        "car_seq": "040-Q3",
        "arrival_time": "1815",
        "departure_time": "1820",
        "district": "沙鹿區",
        "village": "興仁里",
        "location": "四平街6巷2號",
        "type": "定點",
        "collection_type": "recycling",
        "day_of_week": 4
      }
    },
    {
      "type": "Feature",
      "geometry": {
        "type": "Point",
        "coordinates": [
          120.573739,
          24.260455
        ]
      },
      "properties": {
        "routeId": "taichung-040-q3-66352b-d4",
        "city": "taichung",
        "route_name": "040-Q3",
        "car_seq": "040-Q3",
        "arrival_time": "1845",
        "departure_time": "1900",
        "district": "沙鹿區",
        "village": "鹿峰里",
        "location": "星河路691號",
        "type": "定點",
        "collection_type": "recycling",
        "day_of_week": 4
      }
    },
    {
      "type": "Feature",
      "geometry": {
        "type": "Point",
        "coordinates": [
          120.573739,
          24.260455
        ]
      },
      "properties": {
        "routeId": "taichung-040-q3-66352b-d4",
        "city": "taichung",
        "route_name": "040-Q3",
        "car_seq": "040-Q3",
        "arrival_time": "1850",
        "departure_time": "1900",
        "district": "沙鹿區",
        "village": "鹿峰里",
        "location": "星河路691號",
        "type": "定點",
        "collection_type": "garbage",
        "day_of_week": 4
      }
    },
    {
      "type": "Feature",
      "geometry": {
        "type": "Point",
        "coordinates": [
          120.567783,
          24.257124
        ]
      },
      "properties": {
        "routeId": "taichung-040-q3-66352b-d4",
        "city": "taichung",
        "route_name": "040-Q3",
        "car_seq": "040-Q3",
        "arrival_time": "1905",
        "departure_time": "1915",
        "district": "沙鹿區",
        "village": "鹿峰里",
        "location": "星海路32號旁",
        "type": "定點",
        "collection_type": "garbage",
        "day_of_week": 4
      }
    },
    {
      "type": "Feature",
      "geometry": {
        "type": "Point",
        "coordinates": [
          120.56937,
          24.253339
        ]
      },
      "properties": {
        "routeId": "taichung-040-q3-66352b-d4",
        "city": "taichung",
        "route_name": "040-Q3",
        "car_seq": "040-Q3",
        "arrival_time": "1910",
        "departure_time": "1940",
        "district": "沙鹿區",
        "village": "鹿峰里",
        "location": "星河路100巷2號",
        "type": "定點",
        "collection_type": "recycling",
        "day_of_week": 4
      }
    },
    {
      "type": "Feature",
      "geometry": {
        "type": "Point",
        "coordinates": [
          120.56937,
          24.253339
        ]
      },
      "properties": {
        "routeId": "taichung-040-q3-66352b-d4",
        "city": "taichung",
        "route_name": "040-Q3",
        "car_seq": "040-Q3",
        "arrival_time": "1920",
        "departure_time": "1940",
        "district": "沙鹿區",
        "village": "鹿峰里",
        "location": "星河路100巷2號",
        "type": "定點",
        "collection_type": "garbage",
        "day_of_week": 4
      }
    },
    {
      "type": "Feature",
      "geometry": {
        "type": "Point",
        "coordinates": [
          120.566597,
          24.243919
        ]
      },
      "properties": {
        "routeId": "taichung-040-q3-66352b-d4",
        "city": "taichung",
        "route_name": "040-Q3",
        "car_seq": "040-Q3",
        "arrival_time": "1950",
        "departure_time": "2030",
        "district": "沙鹿區",
        "village": "鹿寮里",
        "location": "光華路385號",
        "type": "定點",
        "collection_type": "garbage",
        "day_of_week": 4
      }
    },
    {
      "type": "Feature",
      "geometry": {
        "type": "Point",
        "coordinates": [
          120.566597,
          24.243919
        ]
      },
      "properties": {
        "routeId": "taichung-040-q3-66352b-d4",
        "city": "taichung",
        "route_name": "040-Q3",
        "car_seq": "040-Q3",
        "arrival_time": "1950",
        "departure_time": "2030",
        "district": "沙鹿區",
        "village": "鹿寮里",
        "location": "光華路385號",
        "type": "定點",
        "collection_type": "recycling",
        "day_of_week": 4
      }
    }
  ]
}