{
  "type": "FeatureCollection",
  "features": [
    {
      "type": "Feature",
      "geometry": {
        "type": "Point",
        "coordinates": [
          120.65673124442841,
          24.339175384364427
        ]
      },
      "properties": {
        "routeId": "taichung-ked-9070-035de3-d5",
        "city": "taichung",
        "route_name": "KED-9070",
        "car_seq": "KED-9070",
        "arrival_time": "0640",
        "departure_time": "0645",
        "district": "外埔區",
        "village": "中山里",
        "location": "中山路500號",
        "type": "沿街",
        "collection_type": "garbage",
        "day_of_week": 5
      }
    },
    {
      "type": "Feature",
      "geometry": {
        "type": "Point",
        "coordinates": [
          120.65673124442841,
          24.339175384364427
        ]
      },
      "properties": {
        "routeId": "taichung-ked-9070-035de3-d5",
        "city": "taichung",
        "route_name": "KED-9070",
        "car_seq": "KED-9070",
        "arrival_time": "0640",
        "departure_time": "0645",
        "district": "外埔區",
        "village": "中山里",
        "location": "中山路500號",
        "type": "沿街",
        "collection_type": "recycling",
        "day_of_week": 5
      }
    },
    {
      "type": "Feature",
      "geometry": {
        "type": "Point",
        "coordinates": [
          120.65820751088424,
          24.337352993681545
        ]
      },
      "properties": {
        "routeId": "taichung-ked-9070-035de3-d5",
        "city": "taichung",
        "route_name": "KED-9070",
        "car_seq": "KED-9070",
        "arrival_time": "0645",
        "departure_time": "0650",
        "district": "外埔區",
        "village": "中山里",
        "location": "中山路456巷26號",
        "type": "沿街",
        "collection_type": "garbage",
        "day_of_week": 5
      }
    },
    {
      "type": "Feature",
      "geometry": {
        "type": "Point",
        "coordinates": [
          120.65820751088424,
          24.337352993681545
        ]
      },
      "properties": {
        "routeId": "taichung-ked-9070-035de3-d5",
        "city": "taichung",
        "route_name": "KED-9070",
        "car_seq": "KED-9070",
        "arrival_time": "0645",
        "departure_time": "0650",
        "district": "外埔區",
        "village": "中山里",
        "location": "中山路456巷26號",
        "type": "沿街",
        "collection_type": "recycling",
        "day_of_week": 5
      }
    },
    {
      "type": "Feature",
      "geometry": {
        "type": "Point",
        "coordinates": [
          120.65501834591836,
          24.337437304298582
        ]
      },
      "properties": {
        "routeId": "taichung-ked-9070-035de3-d5",
        "city": "taichung",
        "route_name": "KED-9070",
        "car_seq": "KED-9070",
        "arrival_time": "0648",
        "departure_time": "0653",
        "district": "外埔區",
        "village": "中山里",
        "location": "中山路365號",
        "type": "沿街",
        "collection_type": "garbage",
        "day_of_week": 5
      }
    },
    {
      "type": "Feature",
      "geometry": {
        "type": "Point",
        "coordinates": [
          120.65501834591836,
          24.337437304298582
        ]
      },
      "properties": {
        "routeId": "taichung-ked-9070-035de3-d5",
        "city": "taichung",
        "route_name": "KED-9070",
        "car_seq": "KED-9070",
        "arrival_time": "0648",
        "departure_time": "0653",
        "district": "外埔區",
        "village": "中山里",
        "location": "中山路365號",
        "type": "沿街",
        "collection_type": "recycling",
        "day_of_week": 5
      }
    },
    {
      "type": "Feature",
      "geometry": {
        "type": "Point",
        "coordinates": [
          120.65576279557202,
          24.33209590518153
        ]
      },
      "properties": {
        "routeId": "taichung-ked-9070-035de3-d5",
        "city": "taichung",
        "route_name": "KED-9070",
        "car_seq": "KED-9070",
        "arrival_time": "0650",
        "departure_time": "0655",
        "district": "外埔區",
        "village": "六分里",
        "location": "六分路237號",
        "type": "沿街",
        "collection_type": "garbage",
        "day_of_week": 5
      }
    },
    {
      "type": "Feature",
      "geometry": {
        "type": "Point",
        "coordinates": [
          120.65576279557202,
          24.33209590518153
        ]
      },
      "properties": {
        "routeId": "taichung-ked-9070-035de3-d5",
        "city": "taichung",
        "route_name": "KED-9070",
        "car_seq": "KED-9070",
        "arrival_time": "0650",
        "departure_time": "0655",
        "district": "外埔區",
        "village": "六分里",
        "location": "六分路237號",
        "type": "沿街",
        "collection_type": "recycling",
        "day_of_week": 5
      }
    },
    {
      "type": "Feature",
      "geometry": {
        "type": "Point",
        "coordinates": [
          120.65808437817967,
          24.331459718535864
        ]
      },
      "properties": {
        "routeId": "taichung-ked-9070-035de3-d5",
        "city": "taichung",
        "route_name": "KED-9070",
        "car_seq": "KED-9070",
        "arrival_time": "0657",
        "departure_time": "0702",
        "district": "外埔區",
        "village": "六分里",
        "location": "六分路189號",
        "type": "沿街",
        "collection_type": "garbage",
        "day_of_week": 5
      }
    },
    {
      "type": "Feature",
      "geometry": {
        "type": "Point",
        "coordinates": [
          120.65808437817967,
          24.331459718535864
        ]
      },
      "properties": {
        "routeId": "taichung-ked-9070-035de3-d5",
        "city": "taichung",
        "route_name": "KED-9070",
        "car_seq": "KED-9070",
        "arrival_time": "0657",
        "departure_time": "0702",
        "district": "外埔區",
        "village": "六分里",
        "location": "六分路189號",
        "type": "沿街",
        "collection_type": "recycling",
        "day_of_week": 5
      }
    },
    {
      "type": "Feature",
      "geometry": {
        "type": "Point",
        "coordinates": [
          120.66172423971896,
          24.331519169314625
        ]
      },
      "properties": {
        "routeId": "taichung-ked-9070-035de3-d5",
        "city": "taichung",
        "route_name": "KED-9070",
        "car_seq": "KED-9070",
        "arrival_time": "0701",
        "departure_time": "0706",
        "district": "外埔區",
        "village": "六分里",
        "location": "六分路169之4號",
        "type": "沿街",
        "collection_type": "garbage",
        "day_of_week": 5
      }
    },
    {
      "type": "Feature",
      "geometry": {
        "type": "Point",
        "coordinates": [
          120.66172423971896,
          24.331519169314625
        ]
      },
      "properties": {
        "routeId": "taichung-ked-9070-035de3-d5",
        "city": "taichung",
        "route_name": "KED-9070",
        "car_seq": "KED-9070",
        "arrival_time": "0701",
        "departure_time": "0706",
        "district": "外埔區",
        "village": "六分里",
        "location": "六分路169之4號",
        "type": "沿街",
        "collection_type": "recycling",
        "day_of_week": 5
      }
    },
    {
      "type": "Feature",
      "geometry": {
        "type": "Point",
        "coordinates": [
          120.65716803246524,
          24.330548639778275
        ]
      },
      "properties": {
        "routeId": "taichung-ked-9070-035de3-d5",
        "city": "taichung",
        "route_name": "KED-9070",
        "car_seq": "KED-9070",
        "arrival_time": "0705",
        "departure_time": "0710",
        "district": "外埔區",
        "village": "大同里",
        "location": "中山路284巷7號",
        "type": "沿街",
        "collection_type": "garbage",
        "day_of_week": 5
      }
    },
    {
      "type": "Feature",
      "geometry": {
        "type": "Point",
        "coordinates": [
          120.65716803246524,
          24.330548639778275
        ]
      },
      "properties": {
        "routeId": "taichung-ked-9070-035de3-d5",
        "city": "taichung",
        "route_name": "KED-9070",
        "car_seq": "KED-9070",
        "arrival_time": "0705",
        "departure_time": "0710",
        "district": "外埔區",
        "village": "大同里",
        "location": "中山路284巷7號",
        "type": "沿街",
        "collection_type": "recycling",
        "day_of_week": 5
      }
    },
    {
      "type": "Feature",
      "geometry": {
        "type": "Point",
        "coordinates": [
          120.65592298904582,
          24.33135353654472
        ]
      },
      "properties": {
        "routeId": "taichung-ked-9070-035de3-d5",
        "city": "taichung",
        "route_name": "KED-9070",
        "car_seq": "KED-9070",
        "arrival_time": "0707",
        "departure_time": "0712",
        "district": "外埔區",
        "village": "大同里",
        "location": "中山路277號",
        "type": "沿街",
        "collection_type": "garbage",
        "day_of_week": 5
      }
    },
    {
      "type": "Feature",
      "geometry": {
        "type": "Point",
        "coordinates": [
          120.65592298904582,
          24.33135353654472
        ]
      },
      "properties": {
        "routeId": "taichung-ked-9070-035de3-d5",
        "city": "taichung",
        "route_name": "KED-9070",
        "car_seq": "KED-9070",
        "arrival_time": "0707",
        "departure_time": "0712",
        "district": "外埔區",
        "village": "大同里",
        "location": "中山路277號",
        "type": "沿街",
        "collection_type": "recycling",
        "day_of_week": 5
      }
    },
    {
      "type": "Feature",
      "geometry": {
        "type": "Point",
        "coordinates": [
          120.65716623784577,
          24.332750159767553
        ]
      },
      "properties": {
        "routeId": "taichung-ked-9070-035de3-d5",
        "city": "taichung",
        "route_name": "KED-9070",
        "car_seq": "KED-9070",
        "arrival_time": "0710",
        "departure_time": "0715",
        "district": "外埔區",
        "village": "六分里",
        "location": "六分路280巷34號",
        "type": "沿街",
        "collection_type": "garbage",
        "day_of_week": 5
      }
    },
    {
      "type": "Feature",
      "geometry": {
        "type": "Point",
        "coordinates": [
          120.65716623784577,
          24.332750159767553
        ]
      },
      "properties": {
        "routeId": "taichung-ked-9070-035de3-d5",
        "city": "taichung",
        "route_name": "KED-9070",
        "car_seq": "KED-9070",
        "arrival_time": "0710",
        "departure_time": "0715",
        "district": "外埔區",
        "village": "六分里",
        "location": "六分路280巷34號",
        "type": "沿街",
        "collection_type": "recycling",
        "day_of_week": 5
      }
    },
    {
      "type": "Feature",
      "geometry": {
        "type": "Point",
        "coordinates": [
          120.65819921187541,
          24.332215033907783
        ]
      },
      "properties": {
        "routeId": "taichung-ked-9070-035de3-d5",
        "city": "taichung",
        "route_name": "KED-9070",
        "car_seq": "KED-9070",
        "arrival_time": "0712",
        "departure_time": "0717",
        "district": "外埔區",
        "village": "六分里",
        "location": "六分路222巷42號",
        "type": "定點",
        "collection_type": "garbage",
        "day_of_week": 5
      }
    },
    {
      "type": "Feature",
      "geometry": {
        "type": "Point",
        "coordinates": [
          120.65819921187541,
          24.332215033907783
        ]
      },
      "properties": {
        "routeId": "taichung-ked-9070-035de3-d5",
        "city": "taichung",
        "route_name": "KED-9070",
        "car_seq": "KED-9070",
        "arrival_time": "0712",
        "departure_time": "0717",
        "district": "外埔區",
        "village": "六分里",
        "location": "六分路222巷42號",
        "type": "定點",
        "collection_type": "recycling",
        "day_of_week": 5
      }
    },
    {
      "type": "Feature",
      "geometry": {
        "type": "Point",
        "coordinates": [
          120.65560285869653,
          24.331298942953556
        ]
      },
      "properties": {
        "routeId": "taichung-ked-9070-035de3-d5",
        "city": "taichung",
        "route_name": "KED-9070",
        "car_seq": "KED-9070",
        "arrival_time": "0724",
        "departure_time": "0729",
        "district": "外埔區",
        "village": "大同里",
        "location": "六分路257巷13號",
        "type": "定點",
        "collection_type": "garbage",
        "day_of_week": 5
      }
    },
    {
      "type": "Feature",
      "geometry": {
        "type": "Point",
        "coordinates": [
          120.65560285869653,
          24.331298942953556
        ]
      },
      "properties": {
        "routeId": "taichung-ked-9070-035de3-d5",
        "city": "taichung",
        "route_name": "KED-9070",
        "car_seq": "KED-9070",
        "arrival_time": "0724",
        "departure_time": "0729",
        "district": "外埔區",
        "village": "大同里",
        "location": "六分路257巷13號",
        "type": "定點",
        "collection_type": "recycling",
        "day_of_week": 5
      }
    },
    {
      "type": "Feature",
      "geometry": {
        "type": "Point",
        "coordinates": [
          120.65490025729567,
          24.331879099417602
        ]
      },
      "properties": {
        "routeId": "taichung-ked-9070-035de3-d5",
        "city": "taichung",
        "route_name": "KED-9070",
        "car_seq": "KED-9070",
        "arrival_time": "0728",
        "departure_time": "0733",
        "district": "外埔區",
        "village": "大同里",
        "location": "六分路277號",
        "type": "沿街",
        "collection_type": "garbage",
        "day_of_week": 5
      }
    },
    {
      "type": "Feature",
      "geometry": {
        "type": "Point",
        "coordinates": [
          120.65490025729567,
          24.331879099417602
        ]
      },
      "properties": {
        "routeId": "taichung-ked-9070-035de3-d5",
        "city": "taichung",
        "route_name": "KED-9070",
        "car_seq": "KED-9070",
        "arrival_time": "0728",
        "departure_time": "0733",
        "district": "外埔區",
        "village": "大同里",
        "location": "六分路277號",
        "type": "沿街",
        "collection_type": "recycling",
        "day_of_week": 5
      }
    },
    {
      "type": "Feature",
      "geometry": {
        "type": "Point",
        "coordinates": [
          120.6522693135958,
          24.33298660468917
        ]
      },
      "properties": {
        "routeId": "taichung-ked-9070-035de3-d5",
        "city": "taichung",
        "route_name": "KED-9070",
        "car_seq": "KED-9070",
        "arrival_time": "0732",
        "departure_time": "0737",
        "district": "外埔區",
        "village": "大同里",
        "location": "甲后路三段1060號",
        "type": "沿街",
        "collection_type": "garbage",
        "day_of_week": 5
      }
    },
    {
      "type": "Feature",
      "geometry": {
        "type": "Point",
        "coordinates": [
          120.6522693135958,
          24.33298660468917
        ]
      },
      "properties": {
        "routeId": "taichung-ked-9070-035de3-d5",
        "city": "taichung",
        "route_name": "KED-9070",
        "car_seq": "KED-9070",
        "arrival_time": "0732",
        "departure_time": "0737",
        "district": "外埔區",
        "village": "大同里",
        "location": "甲后路三段1060號",
        "type": "沿街",
        "collection_type": "recycling",
        "day_of_week": 5
      }
    },
    {
      "type": "Feature",
      "geometry": {
        "type": "Point",
        "coordinates": [
          120.64912229564536,
          24.335410176547565
        ]
      },
      "properties": {
        "routeId": "taichung-ked-9070-035de3-d5",
        "city": "taichung",
        "route_name": "KED-9070",
        "car_seq": "KED-9070",
        "arrival_time": "0734",
        "departure_time": "0739",
        "district": "外埔區",
        "village": "大同里",
        "location": "甲后路四段91巷11號",
        "type": "沿街",
        "collection_type": "garbage",
        "day_of_week": 5
      }
    },
    {
      "type": "Feature",
      "geometry": {
        "type": "Point",
        "coordinates": [
          120.64912229564536,
          24.335410176547565
        ]
      },
      "properties": {
        "routeId": "taichung-ked-9070-035de3-d5",
        "city": "taichung",
        "route_name": "KED-9070",
        "car_seq": "KED-9070",
        "arrival_time": "0734",
        "departure_time": "0739",
        "district": "外埔區",
        "village": "大同里",
        "location": "甲后路四段91巷11號",
        "type": "沿街",
        "collection_type": "recycling",
        "day_of_week": 5
      }
    },
    {
      "type": "Feature",
      "geometry": {
        "type": "Point",
        "coordinates": [
          120.63589130397438,
          24.333585230219786
        ]
      },
      "properties": {
        "routeId": "taichung-ked-9070-035de3-d5",
        "city": "taichung",
        "route_name": "KED-9070",
        "car_seq": "KED-9070",
        "arrival_time": "0742",
        "departure_time": "0747",
        "district": "外埔區",
        "village": "水美里",
        "location": "后寮路46號",
        "type": "沿街",
        "collection_type": "garbage",
        "day_of_week": 5
      }
    },
    {
      "type": "Feature",
      "geometry": {
        "type": "Point",
        "coordinates": [
          120.63589130397438,
          24.333585230219786
        ]
      },
      "properties": {
        "routeId": "taichung-ked-9070-035de3-d5",
        "city": "taichung",
        "route_name": "KED-9070",
        "car_seq": "KED-9070",
        "arrival_time": "0742",
        "departure_time": "0747",
        "district": "外埔區",
        "village": "水美里",
        "location": "后寮路46號",
        "type": "沿街",
        "collection_type": "recycling",
        "day_of_week": 5
      }
    },
    {
      "type": "Feature",
      "geometry": {
        "type": "Point",
        "coordinates": [
          120.64197733678456,
          24.33564957893154
        ]
      },
      "properties": {
        "routeId": "taichung-ked-9070-035de3-d5",
        "city": "taichung",
        "route_name": "KED-9070",
        "car_seq": "KED-9070",
        "arrival_time": "0745",
        "departure_time": "0750",
        "district": "外埔區",
        "village": "大同里",
        "location": "后寮路33之11號",
        "type": "沿街",
        "collection_type": "garbage",
        "day_of_week": 5
      }
    },
    {
      "type": "Feature",
      "geometry": {
        "type": "Point",
        "coordinates": [
          120.64197733678456,
          24.33564957893154
        ]
      },
      "properties": {
        "routeId": "taichung-ked-9070-035de3-d5",
        "city": "taichung",
        "route_name": "KED-9070",
        "car_seq": "KED-9070",
        "arrival_time": "0745",
        "departure_time": "0750",
        "district": "外埔區",
        "village": "大同里",
        "location": "后寮路33之11號",
        "type": "沿街",
        "collection_type": "recycling",
        "day_of_week": 5
      }
    },
    {
      "type": "Feature",
      "geometry": {
        "type": "Point",
        "coordinates": [
          120.64294930214798,
          24.331994762949602
        ]
      },
      "properties": {
        "routeId": "taichung-ked-9070-035de3-d5",
        "city": "taichung",
        "route_name": "KED-9070",
        "car_seq": "KED-9070",
        "arrival_time": "0748",
        "departure_time": "0753",
        "district": "外埔區",
        "village": "大同里",
        "location": "后寮路15號",
        "type": "定點",
        "collection_type": "garbage",
        "day_of_week": 5
      }
    },
    {
      "type": "Feature",
      "geometry": {
        "type": "Point",
        "coordinates": [
          120.64294930214798,
          24.331994762949602
        ]
      },
      "properties": {
        "routeId": "taichung-ked-9070-035de3-d5",
        "city": "taichung",
        "route_name": "KED-9070",
        "car_seq": "KED-9070",
        "arrival_time": "0748",
        "departure_time": "0753",
        "district": "外埔區",
        "village": "大同里",
        "location": "后寮路15號",
        "type": "定點",
        "collection_type": "recycling",
        "day_of_week": 5
      }
    },
    {
      "type": "Feature",
      "geometry": {
        "type": "Point",
        "coordinates": [
          120.65307465342882,
          24.331559407115964
        ]
      },
      "properties": {
        "routeId": "taichung-ked-9070-035de3-d5",
        "city": "taichung",
        "route_name": "KED-9070",
        "car_seq": "KED-9070",
        "arrival_time": "0805",
        "departure_time": "0810",
        "district": "外埔區",
        "village": "大同里",
        "location": "重光路1號",
        "type": "沿街",
        "collection_type": "garbage",
        "day_of_week": 5
      }
    },
    {
      "type": "Feature",
      "geometry": {
        "type": "Point",
        "coordinates": [
          120.65307465342882,
          24.331559407115964
        ]
      },
      "properties": {
        "routeId": "taichung-ked-9070-035de3-d5",
        "city": "taichung",
        "route_name": "KED-9070",
        "car_seq": "KED-9070",
        "arrival_time": "0805",
        "departure_time": "0810",
        "district": "外埔區",
        "village": "大同里",
        "location": "重光路1號",
        "type": "沿街",
        "collection_type": "recycling",
        "day_of_week": 5
      }
    },
    {
      "type": "Feature",
      "geometry": {
        "type": "Point",
        "coordinates": [
          120.65178776692446,
          24.332586523847933
        ]
      },
      "properties": {
        "routeId": "taichung-ked-9070-035de3-d5",
        "city": "taichung",
        "route_name": "KED-9070",
        "car_seq": "KED-9070",
        "arrival_time": "0810",
        "departure_time": "0815",
        "district": "外埔區",
        "village": "大同里",
        "location": "外埔路936號",
        "type": "沿街",
        "collection_type": "garbage",
        "day_of_week": 5
      }
    },
    {
      "type": "Feature",
      "geometry": {
        "type": "Point",
        "coordinates": [
          120.65178776692446,
          24.332586523847933
        ]
      },
      "properties": {
        "routeId": "taichung-ked-9070-035de3-d5",
        "city": "taichung",
        "route_name": "KED-9070",
        "car_seq": "KED-9070",
        "arrival_time": "0810",
        "departure_time": "0815",
        "district": "外埔區",
        "village": "大同里",
        "location": "外埔路936號",
        "type": "沿街",
        "collection_type": "recycling",
        "day_of_week": 5
      }
    },
    {
      "type": "Feature",
      "geometry": {
        "type": "Point",
        "coordinates": [
          120.65125887742963,
          24.331623559533362
        ]
      },
      "properties": {
        "routeId": "taichung-ked-9070-035de3-d5",
        "city": "taichung",
        "route_name": "KED-9070",
        "car_seq": "KED-9070",
        "arrival_time": "0812",
        "departure_time": "0817",
        "district": "外埔區",
        "village": "大同里",
        "location": "重光路29巷12號",
        "type": "沿街",
        "collection_type": "garbage",
        "day_of_week": 5
      }
    },
    {
      "type": "Feature",
      "geometry": {
        "type": "Point",
        "coordinates": [
          120.65125887742963,
          24.331623559533362
        ]
      },
      "properties": {
        "routeId": "taichung-ked-9070-035de3-d5",
        "city": "taichung",
        "route_name": "KED-9070",
        "car_seq": "KED-9070",
        "arrival_time": "0812",
        "departure_time": "0817",
        "district": "外埔區",
        "village": "大同里",
        "location": "重光路29巷12號",
        "type": "沿街",
        "collection_type": "recycling",
        "day_of_week": 5
      }
    },
    {
      "type": "Feature",
      "geometry": {
        "type": "Point",
        "coordinates": [
          120.65070712043918,
          24.330475191837753
        ]
      },
      "properties": {
        "routeId": "taichung-ked-9070-035de3-d5",
        "city": "taichung",
        "route_name": "KED-9070",
        "car_seq": "KED-9070",
        "arrival_time": "0817",
        "departure_time": "0822",
        "district": "外埔區",
        "village": "大同里",
        "location": "重光路54之1號",
        "type": "定點",
        "collection_type": "garbage",
        "day_of_week": 5
      }
    },
    {
      "type": "Feature",
      "geometry": {
        "type": "Point",
        "coordinates": [
          120.65070712043918,
          24.330475191837753
        ]
      },
      "properties": {
        "routeId": "taichung-ked-9070-035de3-d5",
        "city": "taichung",
        "route_name": "KED-9070",
        "car_seq": "KED-9070",
        "arrival_time": "0817",
        "departure_time": "0822",
        "district": "外埔區",
        "village": "大同里",
        "location": "重光路54之1號",
        "type": "定點",
        "collection_type": "recycling",
        "day_of_week": 5
      }
    },
    {
      "type": "Feature",
      "geometry": {
        "type": "Point",
        "coordinates": [
          120.65200575594923,
          24.3309612757228
        ]
      },
      "properties": {
        "routeId": "taichung-ked-9070-035de3-d5",
        "city": "taichung",
        "route_name": "KED-9070",
        "car_seq": "KED-9070",
        "arrival_time": "0822",
        "departure_time": "0827",
        "district": "外埔區",
        "village": "大同里",
        "location": "中山路7號",
        "type": "沿街",
        "collection_type": "garbage",
        "day_of_week": 5
      }
    },
    {
      "type": "Feature",
      "geometry": {
        "type": "Point",
        "coordinates": [
          120.65200575594923,
          24.3309612757228
        ]
      },
      "properties": {
        "routeId": "taichung-ked-9070-035de3-d5",
        "city": "taichung",
        "route_name": "KED-9070",
        "car_seq": "KED-9070",
        "arrival_time": "0822",
        "departure_time": "0827",
        "district": "外埔區",
        "village": "大同里",
        "location": "中山路7號",
        "type": "沿街",
        "collection_type": "recycling",
        "day_of_week": 5
      }
    },
    {
      "type": "Feature",
      "geometry": {
        "type": "Point",
        "coordinates": [
          120.65425975708489,
          24.330005498569797
        ]
      },
      "properties": {
        "routeId": "taichung-ked-9070-035de3-d5",
        "city": "taichung",
        "route_name": "KED-9070",
        "car_seq": "KED-9070",
        "arrival_time": "0828",
        "departure_time": "0833",
        "district": "外埔區",
        "village": "大同里",
        "location": "甲后路三段937巷1號",
        "type": "沿街",
        "collection_type": "garbage",
        "day_of_week": 5
      }
    },
    {
      "type": "Feature",
      "geometry": {
        "type": "Point",
        "coordinates": [
          120.65446374931066,
          24.329818429161843
        ]
      },
      "properties": {
        "routeId": "taichung-ked-9070-035de3-d5",
        "city": "taichung",
        "route_name": "KED-9070",
        "car_seq": "KED-9070",
        "arrival_time": "0828",
        "departure_time": "0833",
        "district": "外埔區",
        "village": "大同里",
        "location": "甲后路三段937巷13號",
        "type": "沿街",
        "collection_type": "recycling",
        "day_of_week": 5
      }
    },
    {
      "type": "Feature",
      "geometry": {
        "type": "Point",
        "coordinates": [
          120.65496281725291,
          24.32936593456158
        ]
      },
      "properties": {
        "routeId": "taichung-ked-9070-035de3-d5",
        "city": "taichung",
        "route_name": "KED-9070",
        "car_seq": "KED-9070",
        "arrival_time": "0838",
        "departure_time": "0843",
        "district": "外埔區",
        "village": "大同里",
        "location": "甲后路三段937巷39號",
        "type": "沿街",
        "collection_type": "garbage",
        "day_of_week": 5
      }
    },
    {
      "type": "Feature",
      "geometry": {
        "type": "Point",
        "coordinates": [
          120.65496281725291,
          24.32936593456158
        ]
      },
      "properties": {
        "routeId": "taichung-ked-9070-035de3-d5",
        "city": "taichung",
        "route_name": "KED-9070",
        "car_seq": "KED-9070",
        "arrival_time": "0838",
        "departure_time": "0843",
        "district": "外埔區",
        "village": "大同里",
        "location": "甲后路三段937巷39號",
        "type": "沿街",
        "collection_type": "recycling",
        "day_of_week": 5
      }
    },
    {
      "type": "Feature",
      "geometry": {
        "type": "Point",
        "coordinates": [
          120.65447257470328,
          24.32803543171628
        ]
      },
      "properties": {
        "routeId": "taichung-ked-9070-035de3-d5",
        "city": "taichung",
        "route_name": "KED-9070",
        "car_seq": "KED-9070",
        "arrival_time": "0842",
        "departure_time": "0847",
        "district": "外埔區",
        "village": "大同里",
        "location": "中山路116號",
        "type": "沿街",
        "collection_type": "garbage",
        "day_of_week": 5
      }
    },
    {
      "type": "Feature",
      "geometry": {
        "type": "Point",
        "coordinates": [
          120.65447257470328,
          24.32803543171628
        ]
      },
      "properties": {
        "routeId": "taichung-ked-9070-035de3-d5",
        "city": "taichung",
        "route_name": "KED-9070",
        "car_seq": "KED-9070",
        "arrival_time": "0842",
        "departure_time": "0847",
        "district": "外埔區",
        "village": "大同里",
        "location": "中山路116號",
        "type": "沿街",
        "collection_type": "recycling",
        "day_of_week": 5
      }
    },
    {
      "type": "Feature",
      "geometry": {
        "type": "Point",
        "coordinates": [
          120.65597691444553,
          24.328490582798345
        ]
      },
      "properties": {
        "routeId": "taichung-ked-9070-035de3-d5",
        "city": "taichung",
        "route_name": "KED-9070",
        "car_seq": "KED-9070",
        "arrival_time": "0847",
        "departure_time": "0852",
        "district": "外埔區",
        "village": "大同里",
        "location": "甲后路三段937巷107號",
        "type": "沿街",
        "collection_type": "garbage",
        "day_of_week": 5
      }
    },
    {
      "type": "Feature",
      "geometry": {
        "type": "Point",
        "coordinates": [
          120.65597691444553,
          24.328490582798345
        ]
      },
      "properties": {
        "routeId": "taichung-ked-9070-035de3-d5",
        "city": "taichung",
        "route_name": "KED-9070",
        "car_seq": "KED-9070",
        "arrival_time": "0847",
        "departure_time": "0852",
        "district": "外埔區",
        "village": "大同里",
        "location": "甲后路三段937巷107號",
        "type": "沿街",
        "collection_type": "recycling",
        "day_of_week": 5
      }
    },
    {
      "type": "Feature",
      "geometry": {
        "type": "Point",
        "coordinates": [
          120.65647758238609,
          24.32779884307749
        ]
      },
      "properties": {
        "routeId": "taichung-ked-9070-035de3-d5",
        "city": "taichung",
        "route_name": "KED-9070",
        "car_seq": "KED-9070",
        "arrival_time": "0850",
        "departure_time": "0855",
        "district": "外埔區",
        "village": "大同里",
        "location": "甲后路三段937巷90號",
        "type": "定點",
        "collection_type": "garbage",
        "day_of_week": 5
      }
    },
    {
      "type": "Feature",
      "geometry": {
        "type": "Point",
        "coordinates": [
          120.65647758238609,
          24.32779884307749
        ]
      },
      "properties": {
        "routeId": "taichung-ked-9070-035de3-d5",
        "city": "taichung",
        "route_name": "KED-9070",
        "car_seq": "KED-9070",
        "arrival_time": "0850",
        "departure_time": "0855",
        "district": "外埔區",
        "village": "大同里",
        "location": "甲后路三段937巷90號",
        "type": "定點",
        "collection_type": "recycling",
        "day_of_week": 5
      }
    },
    {
      "type": "Feature",
      "geometry": {
        "type": "Point",
        "coordinates": [
          120.65380692773408,
          24.33143776013712
        ]
      },
      "properties": {
        "routeId": "taichung-ked-9070-035de3-d5",
        "city": "taichung",
        "route_name": "KED-9070",
        "car_seq": "KED-9070",
        "arrival_time": "0858",
        "departure_time": "0903",
        "district": "外埔區",
        "village": "大同里",
        "location": "甲后路三段996號",
        "type": "沿街",
        "collection_type": "garbage",
        "day_of_week": 5
      }
    },
    {
      "type": "Feature",
      "geometry": {
        "type": "Point",
        "coordinates": [
          120.65380692773408,
          24.33143776013712
        ]
      },
      "properties": {
        "routeId": "taichung-ked-9070-035de3-d5",
        "city": "taichung",
        "route_name": "KED-9070",
        "car_seq": "KED-9070",
        "arrival_time": "0858",
        "departure_time": "0903",
        "district": "外埔區",
        "village": "大同里",
        "location": "甲后路三段996號",
        "type": "沿街",
        "collection_type": "recycling",
        "day_of_week": 5
      }
    },
    {
      "type": "Feature",
      "geometry": {
        "type": "Point",
        "coordinates": [
          120.65455429727507,
          24.33175949872712
        ]
      },
      "properties": {
        "routeId": "taichung-ked-9070-035de3-d5",
        "city": "taichung",
        "route_name": "KED-9070",
        "car_seq": "KED-9070",
        "arrival_time": "0902",
        "departure_time": "0907",
        "district": "外埔區",
        "village": "大同里",
        "location": "六分路297號",
        "type": "沿街",
        "collection_type": "garbage",
        "day_of_week": 5
      }
    },
    {
      "type": "Feature",
      "geometry": {
        "type": "Point",
        "coordinates": [
          120.6534441556103,
          24.331504135606735
        ]
      },
      "properties": {
        "routeId": "taichung-ked-9070-035de3-d5",
        "city": "taichung",
        "route_name": "KED-9070",
        "car_seq": "KED-9070",
        "arrival_time": "0902",
        "departure_time": "0907",
        "district": "外埔區",
        "village": "大同里",
        "location": "甲后路三段1015號",
        "type": "沿街",
        "collection_type": "recycling",
        "day_of_week": 5
      }
    },
    {
      "type": "Feature",
      "geometry": {
        "type": "Point",
        "coordinates": [
          120.65481999943637,
          24.33010973234772
        ]
      },
      "properties": {
        "routeId": "taichung-ked-9070-035de3-d5",
        "city": "taichung",
        "route_name": "KED-9070",
        "car_seq": "KED-9070",
        "arrival_time": "0905",
        "departure_time": "0910",
        "district": "外埔區",
        "village": "大同里",
        "location": "甲后路三段923號",
        "type": "沿街",
        "collection_type": "garbage",
        "day_of_week": 5
      }
    },
    {
      "type": "Feature",
      "geometry": {
        "type": "Point",
        "coordinates": [
          120.65481999943637,
          24.33010973234772
        ]
      },
      "properties": {
        "routeId": "taichung-ked-9070-035de3-d5",
        "city": "taichung",
        "route_name": "KED-9070",
        "car_seq": "KED-9070",
        "arrival_time": "0905",
        "departure_time": "0910",
        "district": "外埔區",
        "village": "大同里",
        "location": "甲后路三段923號",
        "type": "沿街",
        "collection_type": "recycling",
        "day_of_week": 5
      }
    },
    {
      "type": "Feature",
      "geometry": {
        "type": "Point",
        "coordinates": [
          120.6563643602345,
          24.328687472806216
        ]
      },
      "properties": {
        "routeId": "taichung-ked-9070-035de3-d5",
        "city": "taichung",
        "route_name": "KED-9070",
        "car_seq": "KED-9070",
        "arrival_time": "0908",
        "departure_time": "0913",
        "district": "外埔區",
        "village": "大同里",
        "location": "甲后路三段831號",
        "type": "沿街",
        "collection_type": "garbage",
        "day_of_week": 5
      }
    },
    {
      "type": "Feature",
      "geometry": {
        "type": "Point",
        "coordinates": [
          120.6563643602345,
          24.328687472806216
        ]
      },
      "properties": {
        "routeId": "taichung-ked-9070-035de3-d5",
        "city": "taichung",
        "route_name": "KED-9070",
        "car_seq": "KED-9070",
        "arrival_time": "0908",
        "departure_time": "0913",
        "district": "外埔區",
        "village": "大同里",
        "location": "甲后路三段831號",
        "type": "沿街",
        "collection_type": "recycling",
        "day_of_week": 5
      }
    },
    {
      "type": "Feature",
      "geometry": {
        "type": "Point",
        "coordinates": [
          120.65908510888188,
          24.326503152437702
        ]
      },
      "properties": {
        "routeId": "taichung-ked-9070-035de3-d5",
        "city": "taichung",
        "route_name": "KED-9070",
        "car_seq": "KED-9070",
        "arrival_time": "0914",
        "departure_time": "0919",
        "district": "外埔區",
        "village": "大同里",
        "location": "甲后路三段738號",
        "type": "沿街",
        "collection_type": "garbage",
        "day_of_week": 5
      }
    },
    {
      "type": "Feature",
      "geometry": {
        "type": "Point",
        "coordinates": [
          120.65908510888188,
          24.326503152437702
        ]
      },
      "properties": {
        "routeId": "taichung-ked-9070-035de3-d5",
        "city": "taichung",
        "route_name": "KED-9070",
        "car_seq": "KED-9070",
        "arrival_time": "0914",
        "departure_time": "0919",
        "district": "外埔區",
        "village": "大同里",
        "location": "甲后路三段738號",
        "type": "沿街",
        "collection_type": "recycling",
        "day_of_week": 5
      }
    },
    {
      "type": "Feature",
      "geometry": {
        "type": "Point",
        "coordinates": [
          120.65727863099877,
          24.328157302684737
        ]
      },
      "properties": {
        "routeId": "taichung-ked-9070-035de3-d5",
        "city": "taichung",
        "route_name": "KED-9070",
        "car_seq": "KED-9070",
        "arrival_time": "0917",
        "departure_time": "0922",
        "district": "外埔區",
        "village": "大同里",
        "location": "甲后路三段820號",
        "type": "沿街",
        "collection_type": "garbage",
        "day_of_week": 5
      }
    },
    {
      "type": "Feature",
      "geometry": {
        "type": "Point",
        "coordinates": [
          120.65727863099877,
          24.328157302684737
        ]
      },
      "properties": {
        "routeId": "taichung-ked-9070-035de3-d5",
        "city": "taichung",
        "route_name": "KED-9070",
        "car_seq": "KED-9070",
        "arrival_time": "0917",
        "departure_time": "0922",
        "district": "外埔區",
        "village": "大同里",
        "location": "甲后路三段820號",
        "type": "沿街",
        "collection_type": "recycling",
        "day_of_week": 5
      }
    },
    {
      "type": "Feature",
      "geometry": {
        "type": "Point",
        "coordinates": [
          120.65560670558577,
          24.330641282662206
        ]
      },
      "properties": {
        "routeId": "taichung-ked-9070-035de3-d5",
        "city": "taichung",
        "route_name": "KED-9070",
        "car_seq": "KED-9070",
        "arrival_time": "0920",
        "departure_time": "0925",
        "district": "外埔區",
        "village": "大同里",
        "location": "甲后路三段938巷21號",
        "type": "沿街",
        "collection_type": "garbage",
        "day_of_week": 5
      }
    },
    {
      "type": "Feature",
      "geometry": {
        "type": "Point",
        "coordinates": [
          120.65560670558577,
          24.330641282662206
        ]
      },
      "properties": {
        "routeId": "taichung-ked-9070-035de3-d5",
        "city": "taichung",
        "route_name": "KED-9070",
        "car_seq": "KED-9070",
        "arrival_time": "0920",
        "departure_time": "0925",
        "district": "外埔區",
        "village": "大同里",
        "location": "甲后路三段938巷21號",
        "type": "沿街",
        "collection_type": "recycling",
        "day_of_week": 5
      }
    },
    {
      "type": "Feature",
      "geometry": {
        "type": "Point",
        "coordinates": [
          120.65729415387592,
          24.328808388729737
        ]
      },
      "properties": {
        "routeId": "taichung-ked-9070-035de3-d5",
        "city": "taichung",
        "route_name": "KED-9070",
        "car_seq": "KED-9070",
        "arrival_time": "0920",
        "departure_time": "0925",
        "district": "外埔區",
        "village": "大同里",
        "location": "中山路220巷6號",
        "type": "沿街",
        "collection_type": "garbage",
        "day_of_week": 5
      }
    },
    {
      "type": "Feature",
      "geometry": {
        "type": "Point",
        "coordinates": [
          120.65729415387592,
          24.328808388729737
        ]
      },
      "properties": {
        "routeId": "taichung-ked-9070-035de3-d5",
        "city": "taichung",
        "route_name": "KED-9070",
        "car_seq": "KED-9070",
        "arrival_time": "0920",
        "departure_time": "0925",
        "district": "外埔區",
        "village": "大同里",
        "location": "中山路220巷6號",
        "type": "沿街",
        "collection_type": "recycling",
        "day_of_week": 5
      }
    },
    {
      "type": "Feature",
      "geometry": {
        "type": "Point",
        "coordinates": [
          120.65435944834279,
          24.331212163915364
        ]
      },
      "properties": {
        "routeId": "taichung-ked-9070-035de3-d5",
        "city": "taichung",
        "route_name": "KED-9070",
        "car_seq": "KED-9070",
        "arrival_time": "0922",
        "departure_time": "0927",
        "district": "外埔區",
        "village": "大同里",
        "location": "甲后路三段968號",
        "type": "沿街",
        "collection_type": "garbage",
        "day_of_week": 5
      }
    },
    {
      "type": "Feature",
      "geometry": {
        "type": "Point",
        "coordinates": [
          120.65435944834279,
          24.331212163915364
        ]
      },
      "properties": {
        "routeId": "taichung-ked-9070-035de3-d5",
        "city": "taichung",
        "route_name": "KED-9070",
        "car_seq": "KED-9070",
        "arrival_time": "0922",
        "departure_time": "0927",
        "district": "外埔區",
        "village": "大同里",
        "location": "甲后路三段968號",
        "type": "沿街",
        "collection_type": "recycling",
        "day_of_week": 5
      }
    },
    {
      "type": "Feature",
      "geometry": {
        "type": "Point",
        "coordinates": [
          120.65242788223011,
          24.33048521886941
        ]
      },
      "properties": {
        "routeId": "taichung-ked-9070-035de3-d5",
        "city": "taichung",
        "route_name": "KED-9070",
        "car_seq": "KED-9070",
        "arrival_time": "0927",
        "departure_time": "0932",
        "district": "外埔區",
        "village": "大同里",
        "location": "中山路35巷5號",
        "type": "沿街",
        "collection_type": "garbage",
        "day_of_week": 5
      }
    },
    {
      "type": "Feature",
      "geometry": {
        "type": "Point",
        "coordinates": [
          120.65242788223011,
          24.33048521886941
        ]
      },
      "properties": {
        "routeId": "taichung-ked-9070-035de3-d5",
        "city": "taichung",
        "route_name": "KED-9070",
        "car_seq": "KED-9070",
        "arrival_time": "0927",
        "departure_time": "0932",
        "district": "外埔區",
        "village": "大同里",
        "location": "中山路35巷5號",
        "type": "沿街",
        "collection_type": "recycling",
        "day_of_week": 5
      }
    },
    {
      "type": "Feature",
      "geometry": {
        "type": "Point",
        "coordinates": [
          120.65396831278319,
          24.334520220889374
        ]
      },
      "properties": {
        "routeId": "taichung-ked-9070-035de3-d5",
        "city": "taichung",
        "route_name": "KED-9070",
        "car_seq": "KED-9070",
        "arrival_time": "0931",
        "departure_time": "0936",
        "district": "外埔區",
        "village": "中山里",
        "location": "中山路345之10號",
        "type": "沿街",
        "collection_type": "garbage",
        "day_of_week": 5
      }
    },
    {
      "type": "Feature",
      "geometry": {
        "type": "Point",
        "coordinates": [
          120.65396831278319,
          24.334520220889374
        ]
      },
      "properties": {
        "routeId": "taichung-ked-9070-035de3-d5",
        "city": "taichung",
        "route_name": "KED-9070",
        "car_seq": "KED-9070",
        "arrival_time": "0931",
        "departure_time": "0936",
        "district": "外埔區",
        "village": "中山里",
        "location": "中山路345之10號",
        "type": "沿街",
        "collection_type": "recycling",
        "day_of_week": 5
      }
    },
    {
      "type": "Feature",
      "geometry": {
        "type": "Point",
        "coordinates": [
          120.65509366116996,
          24.335898921805168
        ]
      },
      "properties": {
        "routeId": "taichung-ked-9070-035de3-d5",
        "city": "taichung",
        "route_name": "KED-9070",
        "car_seq": "KED-9070",
        "arrival_time": "0935",
        "departure_time": "0940",
        "district": "外埔區",
        "village": "中山里",
        "location": "中山路408號",
        "type": "沿街",
        "collection_type": "garbage",
        "day_of_week": 5
      }
    },
    {
      "type": "Feature",
      "geometry": {
        "type": "Point",
        "coordinates": [
          120.65509366116996,
          24.335898921805168
        ]
      },
      "properties": {
        "routeId": "taichung-ked-9070-035de3-d5",
        "city": "taichung",
        "route_name": "KED-9070",
        "car_seq": "KED-9070",
        "arrival_time": "0935",
        "departure_time": "0940",
        "district": "外埔區",
        "village": "中山里",
        "location": "中山路408號",
        "type": "沿街",
        "collection_type": "recycling",
        "day_of_week": 5
      }
    },
    {
      "type": "Feature",
      "geometry": {
        "type": "Point",
        "coordinates": [
          120.65610109761504,
          24.33841165119754
        ]
      },
      "properties": {
        "routeId": "taichung-ked-9070-035de3-d5",
        "city": "taichung",
        "route_name": "KED-9070",
        "car_seq": "KED-9070",
        "arrival_time": "0940",
        "departure_time": "0945",
        "district": "外埔區",
        "village": "中山里",
        "location": "中山路486號",
        "type": "沿街",
        "collection_type": "garbage",
        "day_of_week": 5
      }
    },
    {
      "type": "Feature",
      "geometry": {
        "type": "Point",
        "coordinates": [
          120.65610109761504,
          24.33841165119754
        ]
      },
      "properties": {
        "routeId": "taichung-ked-9070-035de3-d5",
        "city": "taichung",
        "route_name": "KED-9070",
        "car_seq": "KED-9070",
        "arrival_time": "0940",
        "departure_time": "0945",
        "district": "外埔區",
        "village": "中山里",
        "location": "中山路486號",
        "type": "沿街",
        "collection_type": "recycling",
        "day_of_week": 5
      }
    }
  ]
}