{
  "type": "FeatureCollection",
  "features": [
    {
      "type": "Feature",
      "geometry": {
        "type": "Point",
        "coordinates": [
          120.64199,
          24.068496
        ]
      },
      "properties": {
        "routeId": "taichung-ked-9060-2d8db1-d4",
        "city": "taichung",
        "route_name": "KED-9060",
        "car_seq": "KED-9060",
        "arrival_time": "0630",
        "departure_time": "0635",
        "district": "烏日區",
        "village": "螺潭里",
        "location": "溪南路二段26號",
        "type": "沿街",
        "collection_type": "garbage",
        "day_of_week": 4
      }
    },
    {
      "type": "Feature",
      "geometry": {
        "type": "Point",
        "coordinates": [
          120.64199,
          24.068496
        ]
      },
      "properties": {
        "routeId": "taichung-ked-9060-2d8db1-d4",
        "city": "taichung",
        "route_name": "KED-9060",
        "car_seq": "KED-9060",
        "arrival_time": "0630",
        "departure_time": "0635",
        "district": "烏日區",
        "village": "螺潭里",
        "location": "溪南路二段26號",
        "type": "沿街",
        "collection_type": "recycling",
        "day_of_week": 4
      }
    },
    {
      "type": "Feature",
      "geometry": {
        "type": "Point",
        "coordinates": [
          120.642622,
          24.062937
        ]
      },
      "properties": {
        "routeId": "taichung-ked-9060-2d8db1-d4",
        "city": "taichung",
        "route_name": "KED-9060",
        "car_seq": "KED-9060",
        "arrival_time": "0640",
        "departure_time": "0645",
        "district": "烏日區",
        "village": "螺潭里",
        "location": "溪南路二段358號",
        "type": "沿街",
        "collection_type": "garbage",
        "day_of_week": 4
      }
    },
    {
      "type": "Feature",
      "geometry": {
        "type": "Point",
        "coordinates": [
          120.642622,
          24.062937
        ]
      },
      "properties": {
        "routeId": "taichung-ked-9060-2d8db1-d4",
        "city": "taichung",
        "route_name": "KED-9060",
        "car_seq": "KED-9060",
        "arrival_time": "0640",
        "departure_time": "0645",
        "district": "烏日區",
        "village": "螺潭里",
        "location": "溪南路二段358號",
        "type": "沿街",
        "collection_type": "recycling",
        "day_of_week": 4
      }
    },
    {
      "type": "Feature",
      "geometry": {
        "type": "Point",
        "coordinates": [
          120.645703,
          24.057075
        ]
      },
      "properties": {
        "routeId": "taichung-ked-9060-2d8db1-d4",
        "city": "taichung",
        "route_name": "KED-9060",
        "car_seq": "KED-9060",
        "arrival_time": "0645",
        "departure_time": "0650",
        "district": "烏日區",
        "village": "北里里",
        "location": "溪南路二段620號",
        "type": "沿街",
        "collection_type": "garbage",
        "day_of_week": 4
      }
    },
    {
      "type": "Feature",
      "geometry": {
        "type": "Point",
        "coordinates": [
          120.645703,
          24.057075
        ]
      },
      "properties": {
        "routeId": "taichung-ked-9060-2d8db1-d4",
        "city": "taichung",
        "route_name": "KED-9060",
        "car_seq": "KED-9060",
        "arrival_time": "0645",
        "departure_time": "0650",
        "district": "烏日區",
        "village": "北里里",
        "location": "溪南路二段620號",
        "type": "沿街",
        "collection_type": "recycling",
        "day_of_week": 4
      }
    },
    {
      "type": "Feature",
      "geometry": {
        "type": "Point",
        "coordinates": [
          120.646855,
          24.055011
        ]
      },
      "properties": {
        "routeId": "taichung-ked-9060-2d8db1-d4",
        "city": "taichung",
        "route_name": "KED-9060",
        "car_seq": "KED-9060",
        "arrival_time": "0650",
        "departure_time": "0655",
        "district": "烏日區",
        "village": "北里里",
        "location": "溪南路三段6號",
        "type": "沿街",
        "collection_type": "garbage",
        "day_of_week": 4
      }
    },
    {
      "type": "Feature",
      "geometry": {
        "type": "Point",
        "coordinates": [
          120.646855,
          24.055011
        ]
      },
      "properties": {
        "routeId": "taichung-ked-9060-2d8db1-d4",
        "city": "taichung",
        "route_name": "KED-9060",
        "car_seq": "KED-9060",
        "arrival_time": "0650",
        "departure_time": "0655",
        "district": "烏日區",
        "village": "北里里",
        "location": "溪南路三段6號",
        "type": "沿街",
        "collection_type": "recycling",
        "day_of_week": 4
      }
    },
    {
      "type": "Feature",
      "geometry": {
        "type": "Point",
        "coordinates": [
          120.647878,
          24.053267
        ]
      },
      "properties": {
        "routeId": "taichung-ked-9060-2d8db1-d4",
        "city": "taichung",
        "route_name": "KED-9060",
        "car_seq": "KED-9060",
        "arrival_time": "0655",
        "departure_time": "0700",
        "district": "烏日區",
        "village": "南里里",
        "location": "溪南路三段108號",
        "type": "沿街",
        "collection_type": "garbage",
        "day_of_week": 4
      }
    },
    {
      "type": "Feature",
      "geometry": {
        "type": "Point",
        "coordinates": [
          120.647878,
          24.053267
        ]
      },
      "properties": {
        "routeId": "taichung-ked-9060-2d8db1-d4",
        "city": "taichung",
        "route_name": "KED-9060",
        "car_seq": "KED-9060",
        "arrival_time": "0655",
        "departure_time": "0700",
        "district": "烏日區",
        "village": "南里里",
        "location": "溪南路三段108號",
        "type": "沿街",
        "collection_type": "recycling",
        "day_of_week": 4
      }
    },
    {
      "type": "Feature",
      "geometry": {
        "type": "Point",
        "coordinates": [
          120.652269,
          24.048266
        ]
      },
      "properties": {
        "routeId": "taichung-ked-9060-2d8db1-d4",
        "city": "taichung",
        "route_name": "KED-9060",
        "car_seq": "KED-9060",
        "arrival_time": "0700",
        "departure_time": "0710",
        "district": "烏日區",
        "village": "南里里",
        "location": "溪南路三段508號",
        "type": "沿街",
        "collection_type": "garbage",
        "day_of_week": 4
      }
    },
    {
      "type": "Feature",
      "geometry": {
        "type": "Point",
        "coordinates": [
          120.652269,
          24.048266
        ]
      },
      "properties": {
        "routeId": "taichung-ked-9060-2d8db1-d4",
        "city": "taichung",
        "route_name": "KED-9060",
        "car_seq": "KED-9060",
        "arrival_time": "0700",
        "departure_time": "0710",
        "district": "烏日區",
        "village": "南里里",
        "location": "溪南路三段508號",
        "type": "沿街",
        "collection_type": "recycling",
        "day_of_week": 4
      }
    },
    {
      "type": "Feature",
      "geometry": {
        "type": "Point",
        "coordinates": [
          120.657133,
          24.042857
        ]
      },
      "properties": {
        "routeId": "taichung-ked-9060-2d8db1-d4",
        "city": "taichung",
        "route_name": "KED-9060",
        "car_seq": "KED-9060",
        "arrival_time": "0710",
        "departure_time": "0715",
        "district": "烏日區",
        "village": "南里里",
        "location": "溪南路三段860號",
        "type": "沿街",
        "collection_type": "garbage",
        "day_of_week": 4
      }
    },
    {
      "type": "Feature",
      "geometry": {
        "type": "Point",
        "coordinates": [
          120.657133,
          24.042857
        ]
      },
      "properties": {
        "routeId": "taichung-ked-9060-2d8db1-d4",
        "city": "taichung",
        "route_name": "KED-9060",
        "car_seq": "KED-9060",
        "arrival_time": "0710",
        "departure_time": "0715",
        "district": "烏日區",
        "village": "南里里",
        "location": "溪南路三段860號",
        "type": "沿街",
        "collection_type": "recycling",
        "day_of_week": 4
      }
    },
    {
      "type": "Feature",
      "geometry": {
        "type": "Point",
        "coordinates": [
          120.656484,
          24.041772
        ]
      },
      "properties": {
        "routeId": "taichung-ked-9060-2d8db1-d4",
        "city": "taichung",
        "route_name": "KED-9060",
        "car_seq": "KED-9060",
        "arrival_time": "0715",
        "departure_time": "0720",
        "district": "烏日區",
        "village": "南里里",
        "location": "溪南路三段928巷58弄61號",
        "type": "沿街",
        "collection_type": "garbage",
        "day_of_week": 4
      }
    },
    {
      "type": "Feature",
      "geometry": {
        "type": "Point",
        "coordinates": [
          120.656484,
          24.041772
        ]
      },
      "properties": {
        "routeId": "taichung-ked-9060-2d8db1-d4",
        "city": "taichung",
        "route_name": "KED-9060",
        "car_seq": "KED-9060",
        "arrival_time": "0715",
        "departure_time": "0720",
        "district": "烏日區",
        "village": "南里里",
        "location": "溪南路三段928巷58弄61號",
        "type": "沿街",
        "collection_type": "recycling",
        "day_of_week": 4
      }
    },
    {
      "type": "Feature",
      "geometry": {
        "type": "Point",
        "coordinates": [
          120.656711,
          24.046817
        ]
      },
      "properties": {
        "routeId": "taichung-ked-9060-2d8db1-d4",
        "city": "taichung",
        "route_name": "KED-9060",
        "car_seq": "KED-9060",
        "arrival_time": "0720",
        "departure_time": "0725",
        "district": "烏日區",
        "village": "南里里",
        "location": "溪南路三段503巷116弄13號",
        "type": "沿街",
        "collection_type": "garbage",
        "day_of_week": 4
      }
    },
    {
      "type": "Feature",
      "geometry": {
        "type": "Point",
        "coordinates": [
          120.656711,
          24.046817
        ]
      },
      "properties": {
        "routeId": "taichung-ked-9060-2d8db1-d4",
        "city": "taichung",
        "route_name": "KED-9060",
        "car_seq": "KED-9060",
        "arrival_time": "0720",
        "departure_time": "0725",
        "district": "烏日區",
        "village": "南里里",
        "location": "溪南路三段503巷116弄13號",
        "type": "沿街",
        "collection_type": "recycling",
        "day_of_week": 4
      }
    },
    {
      "type": "Feature",
      "geometry": {
        "type": "Point",
        "coordinates": [
          120.651878,
          24.049927
        ]
      },
      "properties": {
        "routeId": "taichung-ked-9060-2d8db1-d4",
        "city": "taichung",
        "route_name": "KED-9060",
        "car_seq": "KED-9060",
        "arrival_time": "0725",
        "departure_time": "0730",
        "district": "烏日區",
        "village": "南里里",
        "location": "溪南路三段345巷35弄30號",
        "type": "沿街",
        "collection_type": "garbage",
        "day_of_week": 4
      }
    },
    {
      "type": "Feature",
      "geometry": {
        "type": "Point",
        "coordinates": [
          120.651878,
          24.049927
        ]
      },
      "properties": {
        "routeId": "taichung-ked-9060-2d8db1-d4",
        "city": "taichung",
        "route_name": "KED-9060",
        "car_seq": "KED-9060",
        "arrival_time": "0725",
        "departure_time": "0730",
        "district": "烏日區",
        "village": "南里里",
        "location": "溪南路三段345巷35弄30號",
        "type": "沿街",
        "collection_type": "recycling",
        "day_of_week": 4
      }
    },
    {
      "type": "Feature",
      "geometry": {
        "type": "Point",
        "coordinates": [
          120.648,
          24.053951
        ]
      },
      "properties": {
        "routeId": "taichung-ked-9060-2d8db1-d4",
        "city": "taichung",
        "route_name": "KED-9060",
        "car_seq": "KED-9060",
        "arrival_time": "0730",
        "departure_time": "0740",
        "district": "烏日區",
        "village": "南里里",
        "location": "溪南路三段55巷2弄6號",
        "type": "沿街",
        "collection_type": "garbage",
        "day_of_week": 4
      }
    },
    {
      "type": "Feature",
      "geometry": {
        "type": "Point",
        "coordinates": [
          120.648,
          24.053951
        ]
      },
      "properties": {
        "routeId": "taichung-ked-9060-2d8db1-d4",
        "city": "taichung",
        "route_name": "KED-9060",
        "car_seq": "KED-9060",
        "arrival_time": "0730",
        "departure_time": "0740",
        "district": "烏日區",
        "village": "南里里",
        "location": "溪南路三段55巷2弄6號",
        "type": "沿街",
        "collection_type": "recycling",
        "day_of_week": 4
      }
    },
    {
      "type": "Feature",
      "geometry": {
        "type": "Point",
        "coordinates": [
          120.64832,
          24.056728
        ]
      },
      "properties": {
        "routeId": "taichung-ked-9060-2d8db1-d4",
        "city": "taichung",
        "route_name": "KED-9060",
        "car_seq": "KED-9060",
        "arrival_time": "0745",
        "departure_time": "0750",
        "district": "烏日區",
        "village": "北里里",
        "location": "太明路308巷25號",
        "type": "沿街",
        "collection_type": "garbage",
        "day_of_week": 4
      }
    },
    {
      "type": "Feature",
      "geometry": {
        "type": "Point",
        "coordinates": [
          120.64832,
          24.056728
        ]
      },
      "properties": {
        "routeId": "taichung-ked-9060-2d8db1-d4",
        "city": "taichung",
        "route_name": "KED-9060",
        "car_seq": "KED-9060",
        "arrival_time": "0745",
        "departure_time": "0750",
        "district": "烏日區",
        "village": "北里里",
        "location": "太明路308巷25號",
        "type": "沿街",
        "collection_type": "recycling",
        "day_of_week": 4
      }
    },
    {
      "type": "Feature",
      "geometry": {
        "type": "Point",
        "coordinates": [
          120.646358,
          24.05524
        ]
      },
      "properties": {
        "routeId": "taichung-ked-9060-2d8db1-d4",
        "city": "taichung",
        "route_name": "KED-9060",
        "car_seq": "KED-9060",
        "arrival_time": "0757",
        "departure_time": "0802",
        "district": "烏日區",
        "village": "北里里",
        "location": "溪南路二段696巷16號",
        "type": "沿街",
        "collection_type": "garbage",
        "day_of_week": 4
      }
    },
    {
      "type": "Feature",
      "geometry": {
        "type": "Point",
        "coordinates": [
          120.646358,
          24.05524
        ]
      },
      "properties": {
        "routeId": "taichung-ked-9060-2d8db1-d4",
        "city": "taichung",
        "route_name": "KED-9060",
        "car_seq": "KED-9060",
        "arrival_time": "0757",
        "departure_time": "0802",
        "district": "烏日區",
        "village": "北里里",
        "location": "溪南路二段696巷16號",
        "type": "沿街",
        "collection_type": "recycling",
        "day_of_week": 4
      }
    },
    {
      "type": "Feature",
      "geometry": {
        "type": "Point",
        "coordinates": [
          120.646845,
          24.056269
        ]
      },
      "properties": {
        "routeId": "taichung-ked-9060-2d8db1-d4",
        "city": "taichung",
        "route_name": "KED-9060",
        "car_seq": "KED-9060",
        "arrival_time": "0802",
        "departure_time": "0807",
        "district": "烏日區",
        "village": "北里里",
        "location": "溪南路二段639巷1號",
        "type": "沿街",
        "collection_type": "garbage",
        "day_of_week": 4
      }
    },
    {
      "type": "Feature",
      "geometry": {
        "type": "Point",
        "coordinates": [
          120.646845,
          24.056269
        ]
      },
      "properties": {
        "routeId": "taichung-ked-9060-2d8db1-d4",
        "city": "taichung",
        "route_name": "KED-9060",
        "car_seq": "KED-9060",
        "arrival_time": "0802",
        "departure_time": "0807",
        "district": "烏日區",
        "village": "北里里",
        "location": "溪南路二段639巷1號",
        "type": "沿街",
        "collection_type": "recycling",
        "day_of_week": 4
      }
    },
    {
      "type": "Feature",
      "geometry": {
        "type": "Point",
        "coordinates": [
          120.644036,
          24.061353
        ]
      },
      "properties": {
        "routeId": "taichung-ked-9060-2d8db1-d4",
        "city": "taichung",
        "route_name": "KED-9060",
        "car_seq": "KED-9060",
        "arrival_time": "0807",
        "departure_time": "0812",
        "district": "烏日區",
        "village": "螺潭里",
        "location": "溪南路二段375巷11號",
        "type": "沿街",
        "collection_type": "garbage",
        "day_of_week": 4
      }
    },
    {
      "type": "Feature",
      "geometry": {
        "type": "Point",
        "coordinates": [
          120.644036,
          24.061353
        ]
      },
      "properties": {
        "routeId": "taichung-ked-9060-2d8db1-d4",
        "city": "taichung",
        "route_name": "KED-9060",
        "car_seq": "KED-9060",
        "arrival_time": "0807",
        "departure_time": "0812",
        "district": "烏日區",
        "village": "螺潭里",
        "location": "溪南路二段375巷11號",
        "type": "沿街",
        "collection_type": "recycling",
        "day_of_week": 4
      }
    },
    {
      "type": "Feature",
      "geometry": {
        "type": "Point",
        "coordinates": [
          120.643562,
          24.064174
        ]
      },
      "properties": {
        "routeId": "taichung-ked-9060-2d8db1-d4",
        "city": "taichung",
        "route_name": "KED-9060",
        "car_seq": "KED-9060",
        "arrival_time": "0815",
        "departure_time": "0820",
        "district": "烏日區",
        "village": "螺潭里",
        "location": "溪南路二段227巷50弄46號",
        "type": "沿街",
        "collection_type": "garbage",
        "day_of_week": 4
      }
    },
    {
      "type": "Feature",
      "geometry": {
        "type": "Point",
        "coordinates": [
          120.643562,
          24.064174
        ]
      },
      "properties": {
        "routeId": "taichung-ked-9060-2d8db1-d4",
        "city": "taichung",
        "route_name": "KED-9060",
        "car_seq": "KED-9060",
        "arrival_time": "0815",
        "departure_time": "0820",
        "district": "烏日區",
        "village": "螺潭里",
        "location": "溪南路二段227巷50弄46號",
        "type": "沿街",
        "collection_type": "recycling",
        "day_of_week": 4
      }
    },
    {
      "type": "Feature",
      "geometry": {
        "type": "Point",
        "coordinates": [
          120.64358,
          24.062467
        ]
      },
      "properties": {
        "routeId": "taichung-ked-9060-2d8db1-d4",
        "city": "taichung",
        "route_name": "KED-9060",
        "car_seq": "KED-9060",
        "arrival_time": "0820",
        "departure_time": "0825",
        "district": "烏日區",
        "village": "螺潭里",
        "location": "溪南路二段321巷12號",
        "type": "沿街",
        "collection_type": "garbage",
        "day_of_week": 4
      }
    },
    {
      "type": "Feature",
      "geometry": {
        "type": "Point",
        "coordinates": [
          120.64358,
          24.062467
        ]
      },
      "properties": {
        "routeId": "taichung-ked-9060-2d8db1-d4",
        "city": "taichung",
        "route_name": "KED-9060",
        "car_seq": "KED-9060",
        "arrival_time": "0820",
        "departure_time": "0825",
        "district": "烏日區",
        "village": "螺潭里",
        "location": "溪南路二段321巷12號",
        "type": "沿街",
        "collection_type": "recycling",
        "day_of_week": 4
      }
    },
    {
      "type": "Feature",
      "geometry": {
        "type": "Point",
        "coordinates": [
          120.642594,
          24.065605
        ]
      },
      "properties": {
        "routeId": "taichung-ked-9060-2d8db1-d4",
        "city": "taichung",
        "route_name": "KED-9060",
        "car_seq": "KED-9060",
        "arrival_time": "0825",
        "departure_time": "0830",
        "district": "烏日區",
        "village": "螺潭里",
        "location": "溪南路二段157號",
        "type": "沿街",
        "collection_type": "garbage",
        "day_of_week": 4
      }
    },
    {
      "type": "Feature",
      "geometry": {
        "type": "Point",
        "coordinates": [
          120.642594,
          24.065605
        ]
      },
      "properties": {
        "routeId": "taichung-ked-9060-2d8db1-d4",
        "city": "taichung",
        "route_name": "KED-9060",
        "car_seq": "KED-9060",
        "arrival_time": "0825",
        "departure_time": "0830",
        "district": "烏日區",
        "village": "螺潭里",
        "location": "溪南路二段157號",
        "type": "沿街",
        "collection_type": "recycling",
        "day_of_week": 4
      }
    },
    {
      "type": "Feature",
      "geometry": {
        "type": "Point",
        "coordinates": [
          120.642234,
          24.067333
        ]
      },
      "properties": {
        "routeId": "taichung-ked-9060-2d8db1-d4",
        "city": "taichung",
        "route_name": "KED-9060",
        "car_seq": "KED-9060",
        "arrival_time": "0830",
        "departure_time": "0835",
        "district": "烏日區",
        "village": "螺潭里",
        "location": "溪南路二段65號",
        "type": "沿街",
        "collection_type": "garbage",
        "day_of_week": 4
      }
    },
    {
      "type": "Feature",
      "geometry": {
        "type": "Point",
        "coordinates": [
          120.642234,
          24.067333
        ]
      },
      "properties": {
        "routeId": "taichung-ked-9060-2d8db1-d4",
        "city": "taichung",
        "route_name": "KED-9060",
        "car_seq": "KED-9060",
        "arrival_time": "0830",
        "departure_time": "0835",
        "district": "烏日區",
        "village": "螺潭里",
        "location": "溪南路二段65號",
        "type": "沿街",
        "collection_type": "recycling",
        "day_of_week": 4
      }
    },
    {
      "type": "Feature",
      "geometry": {
        "type": "Point",
        "coordinates": [
          120.648619,
          24.067056
        ]
      },
      "properties": {
        "routeId": "taichung-ked-9060-2d8db1-d4",
        "city": "taichung",
        "route_name": "KED-9060",
        "car_seq": "KED-9060",
        "arrival_time": "0913",
        "departure_time": "0918",
        "district": "烏日區",
        "village": "螺潭里",
        "location": "太明路成豐巷235弄58號",
        "type": "沿街",
        "collection_type": "garbage",
        "day_of_week": 4
      }
    },
    {
      "type": "Feature",
      "geometry": {
        "type": "Point",
        "coordinates": [
          120.648619,
          24.067056
        ]
      },
      "properties": {
        "routeId": "taichung-ked-9060-2d8db1-d4",
        "city": "taichung",
        "route_name": "KED-9060",
        "car_seq": "KED-9060",
        "arrival_time": "0913",
        "departure_time": "0918",
        "district": "烏日區",
        "village": "螺潭里",
        "location": "太明路成豐巷235弄58號",
        "type": "沿街",
        "collection_type": "recycling",
        "day_of_week": 4
      }
    },
    {
      "type": "Feature",
      "geometry": {
        "type": "Point",
        "coordinates": [
          120.652342,
          24.065329
        ]
      },
      "properties": {
        "routeId": "taichung-ked-9060-2d8db1-d4",
        "city": "taichung",
        "route_name": "KED-9060",
        "car_seq": "KED-9060",
        "arrival_time": "0918",
        "departure_time": "0923",
        "district": "烏日區",
        "village": "螺潭里",
        "location": "太明路成豐巷346號",
        "type": "沿街",
        "collection_type": "garbage",
        "day_of_week": 4
      }
    },
    {
      "type": "Feature",
      "geometry": {
        "type": "Point",
        "coordinates": [
          120.652342,
          24.065329
        ]
      },
      "properties": {
        "routeId": "taichung-ked-9060-2d8db1-d4",
        "city": "taichung",
        "route_name": "KED-9060",
        "car_seq": "KED-9060",
        "arrival_time": "0918",
        "departure_time": "0923",
        "district": "烏日區",
        "village": "螺潭里",
        "location": "太明路成豐巷346號",
        "type": "沿街",
        "collection_type": "recycling",
        "day_of_week": 4
      }
    },
    {
      "type": "Feature",
      "geometry": {
        "type": "Point",
        "coordinates": [
          120.652631,
          24.063507
        ]
      },
      "properties": {
        "routeId": "taichung-ked-9060-2d8db1-d4",
        "city": "taichung",
        "route_name": "KED-9060",
        "car_seq": "KED-9060",
        "arrival_time": "0920",
        "departure_time": "0925",
        "district": "烏日區",
        "village": "北里里",
        "location": "太明路成豐巷171號",
        "type": "沿街",
        "collection_type": "garbage",
        "day_of_week": 4
      }
    },
    {
      "type": "Feature",
      "geometry": {
        "type": "Point",
        "coordinates": [
          120.652631,
          24.063507
        ]
      },
      "properties": {
        "routeId": "taichung-ked-9060-2d8db1-d4",
        "city": "taichung",
        "route_name": "KED-9060",
        "car_seq": "KED-9060",
        "arrival_time": "0920",
        "departure_time": "0925",
        "district": "烏日區",
        "village": "北里里",
        "location": "太明路成豐巷171號",
        "type": "沿街",
        "collection_type": "recycling",
        "day_of_week": 4
      }
    },
    {
      "type": "Feature",
      "geometry": {
        "type": "Point",
        "coordinates": [
          120.656334,
          24.06183
        ]
      },
      "properties": {
        "routeId": "taichung-ked-9060-2d8db1-d4",
        "city": "taichung",
        "route_name": "KED-9060",
        "car_seq": "KED-9060",
        "arrival_time": "0925",
        "departure_time": "0930",
        "district": "烏日區",
        "village": "北里里",
        "location": "太明路成豐巷166弄47號",
        "type": "沿街",
        "collection_type": "garbage",
        "day_of_week": 4
      }
    },
    {
      "type": "Feature",
      "geometry": {
        "type": "Point",
        "coordinates": [
          120.656334,
          24.06183
        ]
      },
      "properties": {
        "routeId": "taichung-ked-9060-2d8db1-d4",
        "city": "taichung",
        "route_name": "KED-9060",
        "car_seq": "KED-9060",
        "arrival_time": "0925",
        "departure_time": "0930",
        "district": "烏日區",
        "village": "北里里",
        "location": "太明路成豐巷166弄47號",
        "type": "沿街",
        "collection_type": "recycling",
        "day_of_week": 4
      }
    },
    {
      "type": "Feature",
      "geometry": {
        "type": "Point",
        "coordinates": [
          120.654526,
          24.06087
        ]
      },
      "properties": {
        "routeId": "taichung-ked-9060-2d8db1-d4",
        "city": "taichung",
        "route_name": "KED-9060",
        "car_seq": "KED-9060",
        "arrival_time": "0930",
        "departure_time": "0935",
        "district": "烏日區",
        "village": "北里里",
        "location": "太明路成豐巷117號",
        "type": "沿街",
        "collection_type": "garbage",
        "day_of_week": 4
      }
    },
    {
      "type": "Feature",
      "geometry": {
        "type": "Point",
        "coordinates": [
          120.654526,
          24.06087
        ]
      },
      "properties": {
        "routeId": "taichung-ked-9060-2d8db1-d4",
        "city": "taichung",
        "route_name": "KED-9060",
        "car_seq": "KED-9060",
        "arrival_time": "0930",
        "departure_time": "0935",
        "district": "烏日區",
        "village": "北里里",
        "location": "太明路成豐巷117號",
        "type": "沿街",
        "collection_type": "recycling",
        "day_of_week": 4
      }
    },
    {
      "type": "Feature",
      "geometry": {
        "type": "Point",
        "coordinates": [
          120.655018,
          24.056823
        ]
      },
      "properties": {
        "routeId": "taichung-ked-9060-2d8db1-d4",
        "city": "taichung",
        "route_name": "KED-9060",
        "car_seq": "KED-9060",
        "arrival_time": "0935",
        "departure_time": "0940",
        "district": "烏日區",
        "village": "北里里",
        "location": "太明路156號",
        "type": "沿街",
        "collection_type": "garbage",
        "day_of_week": 4
      }
    },
    {
      "type": "Feature",
      "geometry": {
        "type": "Point",
        "coordinates": [
          120.655018,
          24.056823
        ]
      },
      "properties": {
        "routeId": "taichung-ked-9060-2d8db1-d4",
        "city": "taichung",
        "route_name": "KED-9060",
        "car_seq": "KED-9060",
        "arrival_time": "0935",
        "departure_time": "0940",
        "district": "烏日區",
        "village": "北里里",
        "location": "太明路156號",
        "type": "沿街",
        "collection_type": "recycling",
        "day_of_week": 4
      }
    },
    {
      "type": "Feature",
      "geometry": {
        "type": "Point",
        "coordinates": [
          120.659827,
          24.057956
        ]
      },
      "properties": {
        "routeId": "taichung-ked-9060-2d8db1-d4",
        "city": "taichung",
        "route_name": "KED-9060",
        "car_seq": "KED-9060",
        "arrival_time": "0945",
        "departure_time": "0950",
        "district": "烏日區",
        "village": "北里里",
        "location": "太明路67巷17號",
        "type": "沿街",
        "collection_type": "garbage",
        "day_of_week": 4
      }
    },
    {
      "type": "Feature",
      "geometry": {
        "type": "Point",
        "coordinates": [
          120.659827,
          24.057956
        ]
      },
      "properties": {
        "routeId": "taichung-ked-9060-2d8db1-d4",
        "city": "taichung",
        "route_name": "KED-9060",
        "car_seq": "KED-9060",
        "arrival_time": "0945",
        "departure_time": "0950",
        "district": "烏日區",
        "village": "北里里",
        "location": "太明路67巷17號",
        "type": "沿街",
        "collection_type": "recycling",
        "day_of_week": 4
      }
    },
    {
      "type": "Feature",
      "geometry": {
        "type": "Point",
        "coordinates": [
          120.660934,
          24.059176
        ]
      },
      "properties": {
        "routeId": "taichung-ked-9060-2d8db1-d4",
        "city": "taichung",
        "route_name": "KED-9060",
        "car_seq": "KED-9060",
        "arrival_time": "0950",
        "departure_time": "0955",
        "district": "烏日區",
        "village": "北里里",
        "location": "太明路11號",
        "type": "沿街",
        "collection_type": "garbage",
        "day_of_week": 4
      }
    },
    {
      "type": "Feature",
      "geometry": {
        "type": "Point",
        "coordinates": [
          120.660934,
          24.059176
        ]
      },
      "properties": {
        "routeId": "taichung-ked-9060-2d8db1-d4",
        "city": "taichung",
        "route_name": "KED-9060",
        "car_seq": "KED-9060",
        "arrival_time": "0950",
        "departure_time": "0955",
        "district": "烏日區",
        "village": "北里里",
        "location": "太明路11號",
        "type": "沿街",
        "collection_type": "recycling",
        "day_of_week": 4
      }
    },
    {
      "type": "Feature",
      "geometry": {
        "type": "Point",
        "coordinates": [
          120.657747,
          24.058084
        ]
      },
      "properties": {
        "routeId": "taichung-ked-9060-2d8db1-d4",
        "city": "taichung",
        "route_name": "KED-9060",
        "car_seq": "KED-9060",
        "arrival_time": "0955",
        "departure_time": "1000",
        "district": "烏日區",
        "village": "北里里",
        "location": "太明路130號",
        "type": "沿街",
        "collection_type": "garbage",
        "day_of_week": 4
      }
    },
    {
      "type": "Feature",
      "geometry": {
        "type": "Point",
        "coordinates": [
          120.657747,
          24.058084
        ]
      },
      "properties": {
        "routeId": "taichung-ked-9060-2d8db1-d4",
        "city": "taichung",
        "route_name": "KED-9060",
        "car_seq": "KED-9060",
        "arrival_time": "0955",
        "departure_time": "1000",
        "district": "烏日區",
        "village": "北里里",
        "location": "太明路130號",
        "type": "沿街",
        "collection_type": "recycling",
        "day_of_week": 4
      }
    },
    {
      "type": "Feature",
      "geometry": {
        "type": "Point",
        "coordinates": [
          120.659859,
          24.055164
        ]
      },
      "properties": {
        "routeId": "taichung-ked-9060-2d8db1-d4",
        "city": "taichung",
        "route_name": "KED-9060",
        "car_seq": "KED-9060",
        "arrival_time": "1005",
        "departure_time": "1010",
        "district": "烏日區",
        "village": "北里里",
        "location": "太明路成豐巷96-8號",
        "type": "沿街",
        "collection_type": "garbage",
        "day_of_week": 4
      }
    },
    {
      "type": "Feature",
      "geometry": {
        "type": "Point",
        "coordinates": [
          120.659859,
          24.055164
        ]
      },
      "properties": {
        "routeId": "taichung-ked-9060-2d8db1-d4",
        "city": "taichung",
        "route_name": "KED-9060",
        "car_seq": "KED-9060",
        "arrival_time": "1005",
        "departure_time": "1010",
        "district": "烏日區",
        "village": "北里里",
        "location": "太明路成豐巷96-8號",
        "type": "沿街",
        "collection_type": "recycling",
        "day_of_week": 4
      }
    },
    {
      "type": "Feature",
      "geometry": {
        "type": "Point",
        "coordinates": [
          120.65851,
          24.051189
        ]
      },
      "properties": {
        "routeId": "taichung-ked-9060-2d8db1-d4",
        "city": "taichung",
        "route_name": "KED-9060",
        "car_seq": "KED-9060",
        "arrival_time": "1015",
        "departure_time": "1020",
        "district": "烏日區",
        "village": "北里里",
        "location": "太明路成豐巷31號",
        "type": "沿街",
        "collection_type": "garbage",
        "day_of_week": 4
      }
    },
    {
      "type": "Feature",
      "geometry": {
        "type": "Point",
        "coordinates": [
          120.65851,
          24.051189
        ]
      },
      "properties": {
        "routeId": "taichung-ked-9060-2d8db1-d4",
        "city": "taichung",
        "route_name": "KED-9060",
        "car_seq": "KED-9060",
        "arrival_time": "1015",
        "departure_time": "1020",
        "district": "烏日區",
        "village": "北里里",
        "location": "太明路成豐巷31號",
        "type": "沿街",
        "collection_type": "recycling",
        "day_of_week": 4
      }
    },
    {
      "type": "Feature",
      "geometry": {
        "type": "Point",
        "coordinates": [
          120.658851,
          24.048714
        ]
      },
      "properties": {
        "routeId": "taichung-ked-9060-2d8db1-d4",
        "city": "taichung",
        "route_name": "KED-9060",
        "car_seq": "KED-9060",
        "arrival_time": "1020",
        "departure_time": "1025",
        "district": "烏日區",
        "village": "北里里",
        "location": "太明路成豐巷28-10號",
        "type": "沿街",
        "collection_type": "garbage",
        "day_of_week": 4
      }
    },
    {
      "type": "Feature",
      "geometry": {
        "type": "Point",
        "coordinates": [
          120.658851,
          24.048714
        ]
      },
      "properties": {
        "routeId": "taichung-ked-9060-2d8db1-d4",
        "city": "taichung",
        "route_name": "KED-9060",
        "car_seq": "KED-9060",
        "arrival_time": "1020",
        "departure_time": "1025",
        "district": "烏日區",
        "village": "北里里",
        "location": "太明路成豐巷28-10號",
        "type": "沿街",
        "collection_type": "recycling",
        "day_of_week": 4
      }
    },
    {
      "type": "Feature",
      "geometry": {
        "type": "Point",
        "coordinates": [
          120.653685,
          24.059927
        ]
      },
      "properties": {
        "routeId": "taichung-ked-9060-2d8db1-d4",
        "city": "taichung",
        "route_name": "KED-9060",
        "car_seq": "KED-9060",
        "arrival_time": "1025",
        "departure_time": "1035",
        "district": "烏日區",
        "village": "北里里",
        "location": "太明路成豐巷101弄48號",
        "type": "沿街",
        "collection_type": "garbage",
        "day_of_week": 4
      }
    },
    {
      "type": "Feature",
      "geometry": {
        "type": "Point",
        "coordinates": [
          120.653685,
          24.059927
        ]
      },
      "properties": {
        "routeId": "taichung-ked-9060-2d8db1-d4",
        "city": "taichung",
        "route_name": "KED-9060",
        "car_seq": "KED-9060",
        "arrival_time": "1025",
        "departure_time": "1035",
        "district": "烏日區",
        "village": "北里里",
        "location": "太明路成豐巷101弄48號",
        "type": "沿街",
        "collection_type": "recycling",
        "day_of_week": 4
      }
    },
    {
      "type": "Feature",
      "geometry": {
        "type": "Point",
        "coordinates": [
          120.648818,
          24.065622
        ]
      },
      "properties": {
        "routeId": "taichung-ked-9060-2d8db1-d4",
        "city": "taichung",
        "route_name": "KED-9060",
        "car_seq": "KED-9060",
        "arrival_time": "1035",
        "departure_time": "1040",
        "district": "烏日區",
        "village": "螺潭里",
        "location": "太明路成豐巷215弄28號",
        "type": "沿街",
        "collection_type": "garbage",
        "day_of_week": 4
      }
    },
    {
      "type": "Feature",
      "geometry": {
        "type": "Point",
        "coordinates": [
          120.648818,
          24.065622
        ]
      },
      "properties": {
        "routeId": "taichung-ked-9060-2d8db1-d4",
        "city": "taichung",
        "route_name": "KED-9060",
        "car_seq": "KED-9060",
        "arrival_time": "1035",
        "departure_time": "1040",
        "district": "烏日區",
        "village": "螺潭里",
        "location": "太明路成豐巷215弄28號",
        "type": "沿街",
        "collection_type": "recycling",
        "day_of_week": 4
      }
    },
    {
      "type": "Feature",
      "geometry": {
        "type": "Point",
        "coordinates": [
          120.646441,
          24.063766
        ]
      },
      "properties": {
        "routeId": "taichung-ked-9060-2d8db1-d4",
        "city": "taichung",
        "route_name": "KED-9060",
        "car_seq": "KED-9060",
        "arrival_time": "1040",
        "departure_time": "1048",
        "district": "烏日區",
        "village": "螺潭里",
        "location": "環中路八段1328巷15弄31號",
        "type": "沿街",
        "collection_type": "garbage",
        "day_of_week": 4
      }
    },
    {
      "type": "Feature",
      "geometry": {
        "type": "Point",
        "coordinates": [
          120.646441,
          24.063766
        ]
      },
      "properties": {
        "routeId": "taichung-ked-9060-2d8db1-d4",
        "city": "taichung",
        "route_name": "KED-9060",
        "car_seq": "KED-9060",
        "arrival_time": "1040",
        "departure_time": "1048",
        "district": "烏日區",
        "village": "螺潭里",
        "location": "環中路八段1328巷15弄31號",
        "type": "沿街",
        "collection_type": "recycling",
        "day_of_week": 4
      }
    },
    {
      "type": "Feature",
      "geometry": {
        "type": "Point",
        "coordinates": [
          120.647308,
          24.057706
        ]
      },
      "properties": {
        "routeId": "taichung-ked-9060-2d8db1-d4",
        "city": "taichung",
        "route_name": "KED-9060",
        "car_seq": "KED-9060",
        "arrival_time": "1048",
        "departure_time": "1055",
        "district": "烏日區",
        "village": "螺潭里",
        "location": "太明北路140號",
        "type": "沿街",
        "collection_type": "garbage",
        "day_of_week": 4
      }
    },
    {
      "type": "Feature",
      "geometry": {
        "type": "Point",
        "coordinates": [
          120.647308,
          24.057706
        ]
      },
      "properties": {
        "routeId": "taichung-ked-9060-2d8db1-d4",
        "city": "taichung",
        "route_name": "KED-9060",
        "car_seq": "KED-9060",
        "arrival_time": "1048",
        "departure_time": "1055",
        "district": "烏日區",
        "village": "螺潭里",
        "location": "太明北路140號",
        "type": "沿街",
        "collection_type": "recycling",
        "day_of_week": 4
      }
    },
    {
      "type": "Feature",
      "geometry": {
        "type": "Point",
        "coordinates": [
          120.643379,
          24.05806
        ]
      },
      "properties": {
        "routeId": "taichung-ked-9060-2d8db1-d4",
        "city": "taichung",
        "route_name": "KED-9060",
        "car_seq": "KED-9060",
        "arrival_time": "1245",
        "departure_time": "1250",
        "district": "烏日區",
        "village": "北里里",
        "location": "溪南路二段516巷90弄1號",
        "type": "沿街",
        "collection_type": "garbage",
        "day_of_week": 4
      }
    },
    {
      "type": "Feature",
      "geometry": {
        "type": "Point",
        "coordinates": [
          120.643379,
          24.05806
        ]
      },
      "properties": {
        "routeId": "taichung-ked-9060-2d8db1-d4",
        "city": "taichung",
        "route_name": "KED-9060",
        "car_seq": "KED-9060",
        "arrival_time": "1245",
        "departure_time": "1250",
        "district": "烏日區",
        "village": "北里里",
        "location": "溪南路二段516巷90弄1號",
        "type": "沿街",
        "collection_type": "recycling",
        "day_of_week": 4
      }
    },
    {
      "type": "Feature",
      "geometry": {
        "type": "Point",
        "coordinates": [
          120.638735,
          24.064378
        ]
      },
      "properties": {
        "routeId": "taichung-ked-9060-2d8db1-d4",
        "city": "taichung",
        "route_name": "KED-9060",
        "car_seq": "KED-9060",
        "arrival_time": "1255",
        "departure_time": "1300",
        "district": "烏日區",
        "village": "螺潭里",
        "location": "溪南路二段270巷168號",
        "type": "沿街",
        "collection_type": "garbage",
        "day_of_week": 4
      }
    },
    {
      "type": "Feature",
      "geometry": {
        "type": "Point",
        "coordinates": [
          120.638735,
          24.064378
        ]
      },
      "properties": {
        "routeId": "taichung-ked-9060-2d8db1-d4",
        "city": "taichung",
        "route_name": "KED-9060",
        "car_seq": "KED-9060",
        "arrival_time": "1255",
        "departure_time": "1300",
        "district": "烏日區",
        "village": "螺潭里",
        "location": "溪南路二段270巷168號",
        "type": "沿街",
        "collection_type": "recycling",
        "day_of_week": 4
      }
    },
    {
      "type": "Feature",
      "geometry": {
        "type": "Point",
        "coordinates": [
          120.639464,
          24.05954
        ]
      },
      "properties": {
        "routeId": "taichung-ked-9060-2d8db1-d4",
        "city": "taichung",
        "route_name": "KED-9060",
        "car_seq": "KED-9060",
        "arrival_time": "1300",
        "departure_time": "1305",
        "district": "烏日區",
        "village": "螺潭里",
        "location": "慶光路72號",
        "type": "沿街",
        "collection_type": "garbage",
        "day_of_week": 4
      }
    },
    {
      "type": "Feature",
      "geometry": {
        "type": "Point",
        "coordinates": [
          120.639464,
          24.05954
        ]
      },
      "properties": {
        "routeId": "taichung-ked-9060-2d8db1-d4",
        "city": "taichung",
        "route_name": "KED-9060",
        "car_seq": "KED-9060",
        "arrival_time": "1300",
        "departure_time": "1305",
        "district": "烏日區",
        "village": "螺潭里",
        "location": "慶光路72號",
        "type": "沿街",
        "collection_type": "recycling",
        "day_of_week": 4
      }
    },
    {
      "type": "Feature",
      "geometry": {
        "type": "Point",
        "coordinates": [
          120.635965,
          24.067039
        ]
      },
      "properties": {
        "routeId": "taichung-ked-9060-2d8db1-d4",
        "city": "taichung",
        "route_name": "KED-9060",
        "car_seq": "KED-9060",
        "arrival_time": "1305",
        "departure_time": "1310",
        "district": "烏日區",
        "village": "螺潭里",
        "location": "溪南路二段68巷368弄10號",
        "type": "沿街",
        "collection_type": "garbage",
        "day_of_week": 4
      }
    },
    {
      "type": "Feature",
      "geometry": {
        "type": "Point",
        "coordinates": [
          120.635965,
          24.067039
        ]
      },
      "properties": {
        "routeId": "taichung-ked-9060-2d8db1-d4",
        "city": "taichung",
        "route_name": "KED-9060",
        "car_seq": "KED-9060",
        "arrival_time": "1305",
        "departure_time": "1310",
        "district": "烏日區",
        "village": "螺潭里",
        "location": "溪南路二段68巷368弄10號",
        "type": "沿街",
        "collection_type": "recycling",
        "day_of_week": 4
      }
    },
    {
      "type": "Feature",
      "geometry": {
        "type": "Point",
        "coordinates": [
          120.630782,
          24.071224
        ]
      },
      "properties": {
        "routeId": "taichung-ked-9060-2d8db1-d4",
        "city": "taichung",
        "route_name": "KED-9060",
        "car_seq": "KED-9060",
        "arrival_time": "1310",
        "departure_time": "1315",
        "district": "烏日區",
        "village": "螺潭里",
        "location": "慶光路83-17號",
        "type": "沿街",
        "collection_type": "garbage",
        "day_of_week": 4
      }
    },
    {
      "type": "Feature",
      "geometry": {
        "type": "Point",
        "coordinates": [
          120.630782,
          24.071224
        ]
      },
      "properties": {
        "routeId": "taichung-ked-9060-2d8db1-d4",
        "city": "taichung",
        "route_name": "KED-9060",
        "car_seq": "KED-9060",
        "arrival_time": "1310",
        "departure_time": "1315",
        "district": "烏日區",
        "village": "螺潭里",
        "location": "慶光路83-17號",
        "type": "沿街",
        "collection_type": "recycling",
        "day_of_week": 4
      }
    },
    {
      "type": "Feature",
      "geometry": {
        "type": "Point",
        "coordinates": [
          120.627632,
          24.076798
        ]
      },
      "properties": {
        "routeId": "taichung-ked-9060-2d8db1-d4",
        "city": "taichung",
        "route_name": "KED-9060",
        "car_seq": "KED-9060",
        "arrival_time": "1315",
        "departure_time": "1320",
        "district": "烏日區",
        "village": "螺潭里",
        "location": "慶光路96號",
        "type": "沿街",
        "collection_type": "garbage",
        "day_of_week": 4
      }
    },
    {
      "type": "Feature",
      "geometry": {
        "type": "Point",
        "coordinates": [
          120.627632,
          24.076798
        ]
      },
      "properties": {
        "routeId": "taichung-ked-9060-2d8db1-d4",
        "city": "taichung",
        "route_name": "KED-9060",
        "car_seq": "KED-9060",
        "arrival_time": "1315",
        "departure_time": "1320",
        "district": "烏日區",
        "village": "螺潭里",
        "location": "慶光路96號",
        "type": "沿街",
        "collection_type": "recycling",
        "day_of_week": 4
      }
    },
    {
      "type": "Feature",
      "geometry": {
        "type": "Point",
        "coordinates": [
          120.625578,
          24.085999
        ]
      },
      "properties": {
        "routeId": "taichung-ked-9060-2d8db1-d4",
        "city": "taichung",
        "route_name": "KED-9060",
        "car_seq": "KED-9060",
        "arrival_time": "1320",
        "departure_time": "1325",
        "district": "烏日區",
        "village": "螺潭里",
        "location": "慶光路112-1號",
        "type": "沿街",
        "collection_type": "garbage",
        "day_of_week": 4
      }
    },
    {
      "type": "Feature",
      "geometry": {
        "type": "Point",
        "coordinates": [
          120.625578,
          24.085999
        ]
      },
      "properties": {
        "routeId": "taichung-ked-9060-2d8db1-d4",
        "city": "taichung",
        "route_name": "KED-9060",
        "car_seq": "KED-9060",
        "arrival_time": "1320",
        "departure_time": "1325",
        "district": "烏日區",
        "village": "螺潭里",
        "location": "慶光路112-1號",
        "type": "沿街",
        "collection_type": "recycling",
        "day_of_week": 4
      }
    }
  ]
}