{
  "type": "FeatureCollection",
  "features": [
    {
      "type": "Feature",
      "geometry": {
        "type": "Point",
        "coordinates": [
          120.54956309722947,
          24.15639813642993
        ]
      },
      "properties": {
        "routeId": "taichung-875-vp-f7ba23-d4",
        "city": "taichung",
        "route_name": "875-VP",
        "car_seq": "875-VP",
        "arrival_time": "1559",
        "departure_time": "1600",
        "district": "大肚區",
        "village": "頂街里",
        "location": "華山路300巷3弄1號",
        "type": "沿街",
        "collection_type": "garbage",
        "day_of_week": 4
      }
    },
    {
      "type": "Feature",
      "geometry": {
        "type": "Point",
        "coordinates": [
          120.54518874403433,
          24.15374488571353
        ]
      },
      "properties": {
        "routeId": "taichung-875-vp-f7ba23-d4",
        "city": "taichung",
        "route_name": "875-VP",
        "car_seq": "875-VP",
        "arrival_time": "1606",
        "departure_time": "1607",
        "district": "大肚區",
        "village": "大肚里",
        "location": "福利路133巷3號",
        "type": "沿街",
        "collection_type": "garbage",
        "day_of_week": 4
      }
    },
    {
      "type": "Feature",
      "geometry": {
        "type": "Point",
        "coordinates": [
          120.54650355733199,
          24.151387335607627
        ]
      },
      "properties": {
        "routeId": "taichung-875-vp-f7ba23-d4",
        "city": "taichung",
        "route_name": "875-VP",
        "car_seq": "875-VP",
        "arrival_time": "1615",
        "departure_time": "1616",
        "district": "大肚區",
        "village": "大肚里",
        "location": "自治路79巷9號",
        "type": "沿街",
        "collection_type": "garbage",
        "day_of_week": 4
      }
    },
    {
      "type": "Feature",
      "geometry": {
        "type": "Point",
        "coordinates": [
          120.5469853036591,
          24.152986114848705
        ]
      },
      "properties": {
        "routeId": "taichung-875-vp-f7ba23-d4",
        "city": "taichung",
        "route_name": "875-VP",
        "car_seq": "875-VP",
        "arrival_time": "1623",
        "departure_time": "1624",
        "district": "大肚區",
        "village": "大肚里",
        "location": "育英路16號",
        "type": "沿街",
        "collection_type": "garbage",
        "day_of_week": 4
      }
    },
    {
      "type": "Feature",
      "geometry": {
        "type": "Point",
        "coordinates": [
          120.54931780378995,
          24.14740332384883
        ]
      },
      "properties": {
        "routeId": "taichung-875-vp-f7ba23-d4",
        "city": "taichung",
        "route_name": "875-VP",
        "car_seq": "875-VP",
        "arrival_time": "1635",
        "departure_time": "1636",
        "district": "大肚區",
        "village": "大東里",
        "location": "自由路166號",
        "type": "沿街",
        "collection_type": "garbage",
        "day_of_week": 4
      }
    },
    {
      "type": "Feature",
      "geometry": {
        "type": "Point",
        "coordinates": [
          120.55145402136075,
          24.148095747015155
        ]
      },
      "properties": {
        "routeId": "taichung-875-vp-f7ba23-d4",
        "city": "taichung",
        "route_name": "875-VP",
        "car_seq": "875-VP",
        "arrival_time": "1637",
        "departure_time": "1638",
        "district": "大肚區",
        "village": "大東里",
        "location": "仁德路66東一巷25號",
        "type": "沿街",
        "collection_type": "garbage",
        "day_of_week": 4
      }
    },
    {
      "type": "Feature",
      "geometry": {
        "type": "Point",
        "coordinates": [
          120.55236835883605,
          24.147883039361115
        ]
      },
      "properties": {
        "routeId": "taichung-875-vp-f7ba23-d4",
        "city": "taichung",
        "route_name": "875-VP",
        "car_seq": "875-VP",
        "arrival_time": "1642",
        "departure_time": "1643",
        "district": "大肚區",
        "village": "大東里",
        "location": "仁德路181巷 1 號",
        "type": "沿街",
        "collection_type": "garbage",
        "day_of_week": 4
      }
    },
    {
      "type": "Feature",
      "geometry": {
        "type": "Point",
        "coordinates": [
          120.54857270835994,
          24.154061674141065
        ]
      },
      "properties": {
        "routeId": "taichung-875-vp-f7ba23-d4",
        "city": "taichung",
        "route_name": "875-VP",
        "car_seq": "875-VP",
        "arrival_time": "1705",
        "departure_time": "1706",
        "district": "大肚區",
        "village": "頂街里",
        "location": "自由路484號",
        "type": "沿街",
        "collection_type": "garbage",
        "day_of_week": 4
      }
    },
    {
      "type": "Feature",
      "geometry": {
        "type": "Point",
        "coordinates": [
          120.5475508476377,
          24.15108495883286
        ]
      },
      "properties": {
        "routeId": "taichung-875-vp-f7ba23-d4",
        "city": "taichung",
        "route_name": "875-VP",
        "car_seq": "875-VP",
        "arrival_time": "1711",
        "departure_time": "1712",
        "district": "大肚區",
        "village": "大東里",
        "location": "育英路84號",
        "type": "沿街",
        "collection_type": "garbage",
        "day_of_week": 4
      }
    },
    {
      "type": "Feature",
      "geometry": {
        "type": "Point",
        "coordinates": [
          120.5410739803433,
          24.150242354413113
        ]
      },
      "properties": {
        "routeId": "taichung-875-vp-f7ba23-d4",
        "city": "taichung",
        "route_name": "875-VP",
        "car_seq": "875-VP",
        "arrival_time": "1728",
        "departure_time": "1729",
        "district": "大肚區",
        "village": "永和里",
        "location": "文昌路一段185巷18號",
        "type": "沿街",
        "collection_type": "garbage",
        "day_of_week": 4
      }
    },
    {
      "type": "Feature",
      "geometry": {
        "type": "Point",
        "coordinates": [
          120.5437713489119,
          24.14962457305291
        ]
      },
      "properties": {
        "routeId": "taichung-875-vp-f7ba23-d4",
        "city": "taichung",
        "route_name": "875-VP",
        "car_seq": "875-VP",
        "arrival_time": "1730",
        "departure_time": "1731",
        "district": "大肚區",
        "village": "永和里",
        "location": "平和街24號",
        "type": "沿街",
        "collection_type": "garbage",
        "day_of_week": 4
      }
    },
    {
      "type": "Feature",
      "geometry": {
        "type": "Point",
        "coordinates": [
          120.54382038710568,
          24.143931746451276
        ]
      },
      "properties": {
        "routeId": "taichung-875-vp-f7ba23-d4",
        "city": "taichung",
        "route_name": "875-VP",
        "car_seq": "875-VP",
        "arrival_time": "1808",
        "departure_time": "1809",
        "district": "大肚區",
        "village": "永和里",
        "location": "溪洲路201號",
        "type": "沿街",
        "collection_type": "garbage",
        "day_of_week": 4
      }
    },
    {
      "type": "Feature",
      "geometry": {
        "type": "Point",
        "coordinates": [
          120.54585514801053,
          24.131451387788232
        ]
      },
      "properties": {
        "routeId": "taichung-875-vp-f7ba23-d4",
        "city": "taichung",
        "route_name": "875-VP",
        "car_seq": "875-VP",
        "arrival_time": "1813",
        "departure_time": "1814",
        "district": "大肚區",
        "village": "新興里",
        "location": "溪洲路26之20號",
        "type": "沿街",
        "collection_type": "garbage",
        "day_of_week": 4
      }
    },
    {
      "type": "Feature",
      "geometry": {
        "type": "Point",
        "coordinates": [
          120.544690825631,
          24.148448311568114
        ]
      },
      "properties": {
        "routeId": "taichung-875-vp-f7ba23-d4",
        "city": "taichung",
        "route_name": "875-VP",
        "car_seq": "875-VP",
        "arrival_time": "1819",
        "departure_time": "1820",
        "district": "大肚區",
        "village": "永和里",
        "location": "永和街7號",
        "type": "沿街",
        "collection_type": "garbage",
        "day_of_week": 4
      }
    },
    {
      "type": "Feature",
      "geometry": {
        "type": "Point",
        "coordinates": [
          120.53781355801505,
          24.15022457860665
        ]
      },
      "properties": {
        "routeId": "taichung-875-vp-f7ba23-d4",
        "city": "taichung",
        "route_name": "875-VP",
        "car_seq": "875-VP",
        "arrival_time": "1823",
        "departure_time": "1824",
        "district": "大肚區",
        "village": "磺溪里",
        "location": "文昌一街62號",
        "type": "沿街",
        "collection_type": "garbage",
        "day_of_week": 4
      }
    },
    {
      "type": "Feature",
      "geometry": {
        "type": "Point",
        "coordinates": [
          120.53751247236825,
          24.151145755832594
        ]
      },
      "properties": {
        "routeId": "taichung-875-vp-f7ba23-d4",
        "city": "taichung",
        "route_name": "875-VP",
        "car_seq": "875-VP",
        "arrival_time": "1826",
        "departure_time": "1827",
        "district": "大肚區",
        "village": "磺溪里",
        "location": "福興街39號",
        "type": "沿街",
        "collection_type": "garbage",
        "day_of_week": 4
      }
    },
    {
      "type": "Feature",
      "geometry": {
        "type": "Point",
        "coordinates": [
          120.5385937273285,
          24.152556609241326
        ]
      },
      "properties": {
        "routeId": "taichung-875-vp-f7ba23-d4",
        "city": "taichung",
        "route_name": "875-VP",
        "car_seq": "875-VP",
        "arrival_time": "1829",
        "departure_time": "1830",
        "district": "大肚區",
        "village": "磺溪里",
        "location": "文昌二街83巷9號",
        "type": "沿街",
        "collection_type": "garbage",
        "day_of_week": 4
      }
    },
    {
      "type": "Feature",
      "geometry": {
        "type": "Point",
        "coordinates": [
          120.53308773305253,
          24.15351953019855
        ]
      },
      "properties": {
        "routeId": "taichung-875-vp-f7ba23-d4",
        "city": "taichung",
        "route_name": "875-VP",
        "car_seq": "875-VP",
        "arrival_time": "1917",
        "departure_time": "1918",
        "district": "大肚區",
        "village": "永順里",
        "location": "文昌路2段310巷22號",
        "type": "沿街",
        "collection_type": "garbage",
        "day_of_week": 4
      }
    },
    {
      "type": "Feature",
      "geometry": {
        "type": "Point",
        "coordinates": [
          120.53408766542775,
          24.15741611971459
        ]
      },
      "properties": {
        "routeId": "taichung-875-vp-f7ba23-d4",
        "city": "taichung",
        "route_name": "875-VP",
        "car_seq": "875-VP",
        "arrival_time": "1921",
        "departure_time": "1922",
        "district": "大肚區",
        "village": "永順里",
        "location": "文昌路2段584巷19號",
        "type": "沿街",
        "collection_type": "garbage",
        "day_of_week": 4
      }
    },
    {
      "type": "Feature",
      "geometry": {
        "type": "Point",
        "coordinates": [
          120.5352106435599,
          24.159788398327144
        ]
      },
      "properties": {
        "routeId": "taichung-875-vp-f7ba23-d4",
        "city": "taichung",
        "route_name": "875-VP",
        "car_seq": "875-VP",
        "arrival_time": "1927",
        "departure_time": "1928",
        "district": "大肚區",
        "village": "永順里",
        "location": "文昌路2段588巷63弄14號",
        "type": "沿街",
        "collection_type": "garbage",
        "day_of_week": 4
      }
    },
    {
      "type": "Feature",
      "geometry": {
        "type": "Point",
        "coordinates": [
          120.54215084025061,
          24.150882445895398
        ]
      },
      "properties": {
        "routeId": "taichung-875-vp-f7ba23-d4",
        "city": "taichung",
        "route_name": "875-VP",
        "car_seq": "875-VP",
        "arrival_time": "1948",
        "departure_time": "1949",
        "district": "大肚區",
        "village": "大肚里",
        "location": "紙廠路37號",
        "type": "沿街",
        "collection_type": "garbage",
        "day_of_week": 4
      }
    },
    {
      "type": "Feature",
      "geometry": {
        "type": "Point",
        "coordinates": [
          120.5441336655302,
          24.151722283189798
        ]
      },
      "properties": {
        "routeId": "taichung-875-vp-f7ba23-d4",
        "city": "taichung",
        "route_name": "875-VP",
        "car_seq": "875-VP",
        "arrival_time": "1951",
        "departure_time": "1952",
        "district": "大肚區",
        "village": "大肚里",
        "location": "華昌街20號",
        "type": "沿街",
        "collection_type": "garbage",
        "day_of_week": 4
      }
    },
    {
      "type": "Feature",
      "geometry": {
        "type": "Point",
        "coordinates": [
          120.54301222260054,
          24.15442430477207
        ]
      },
      "properties": {
        "routeId": "taichung-875-vp-f7ba23-d4",
        "city": "taichung",
        "route_name": "875-VP",
        "car_seq": "875-VP",
        "arrival_time": "2001",
        "departure_time": "2002",
        "district": "大肚區",
        "village": "頂街里",
        "location": "華山路17號",
        "type": "沿街",
        "collection_type": "garbage",
        "day_of_week": 4
      }
    },
    {
      "type": "Feature",
      "geometry": {
        "type": "Point",
        "coordinates": [
          120.54433616017846,
          24.153050434211675
        ]
      },
      "properties": {
        "routeId": "taichung-875-vp-f7ba23-d4",
        "city": "taichung",
        "route_name": "875-VP",
        "car_seq": "875-VP",
        "arrival_time": "2002",
        "departure_time": "2003",
        "district": "大肚區",
        "village": "頂街里",
        "location": "育樂街3號",
        "type": "沿街",
        "collection_type": "garbage",
        "day_of_week": 4
      }
    }
  ]
}