{
  "type": "FeatureCollection",
  "features": [
    {
      "type": "Feature",
      "geometry": {
        "type": "Point",
        "coordinates": [
          120.66287715880931,
          24.34026734363396
        ]
      },
      "properties": {
        "routeId": "taichung-kee-6906-a93ace-d1",
        "city": "taichung",
        "route_name": "KEE-6906",
        "car_seq": "KEE-6906",
        "arrival_time": "0636",
        "departure_time": "0641",
        "district": "外埔區",
        "village": "中山里",
        "location": "大馬路156號",
        "type": "沿街",
        "collection_type": "garbage",
        "day_of_week": 1
      }
    },
    {
      "type": "Feature",
      "geometry": {
        "type": "Point",
        "coordinates": [
          120.66287715880931,
          24.34026734363396
        ]
      },
      "properties": {
        "routeId": "taichung-kee-6906-a93ace-d1",
        "city": "taichung",
        "route_name": "KEE-6906",
        "car_seq": "KEE-6906",
        "arrival_time": "0636",
        "departure_time": "0641",
        "district": "外埔區",
        "village": "中山里",
        "location": "大馬路156號",
        "type": "沿街",
        "collection_type": "recycling",
        "day_of_week": 1
      }
    },
    {
      "type": "Feature",
      "geometry": {
        "type": "Point",
        "coordinates": [
          120.65588293563037,
          24.338681532069522
        ]
      },
      "properties": {
        "routeId": "taichung-kee-6906-a93ace-d1",
        "city": "taichung",
        "route_name": "KEE-6906",
        "car_seq": "KEE-6906",
        "arrival_time": "0641",
        "departure_time": "0646",
        "district": "外埔區",
        "village": "中山里",
        "location": "大馬路167號",
        "type": "沿街",
        "collection_type": "garbage",
        "day_of_week": 1
      }
    },
    {
      "type": "Feature",
      "geometry": {
        "type": "Point",
        "coordinates": [
          120.65588293563037,
          24.338681532069522
        ]
      },
      "properties": {
        "routeId": "taichung-kee-6906-a93ace-d1",
        "city": "taichung",
        "route_name": "KEE-6906",
        "car_seq": "KEE-6906",
        "arrival_time": "0641",
        "departure_time": "0646",
        "district": "外埔區",
        "village": "中山里",
        "location": "大馬路167號",
        "type": "沿街",
        "collection_type": "recycling",
        "day_of_week": 1
      }
    },
    {
      "type": "Feature",
      "geometry": {
        "type": "Point",
        "coordinates": [
          120.64767693660419,
          24.340410049193874
        ]
      },
      "properties": {
        "routeId": "taichung-kee-6906-a93ace-d1",
        "city": "taichung",
        "route_name": "KEE-6906",
        "car_seq": "KEE-6906",
        "arrival_time": "0648",
        "departure_time": "0653",
        "district": "外埔區",
        "village": "大東里",
        "location": "大馬路莊內巷2號",
        "type": "沿街",
        "collection_type": "garbage",
        "day_of_week": 1
      }
    },
    {
      "type": "Feature",
      "geometry": {
        "type": "Point",
        "coordinates": [
          120.64767693660419,
          24.340410049193874
        ]
      },
      "properties": {
        "routeId": "taichung-kee-6906-a93ace-d1",
        "city": "taichung",
        "route_name": "KEE-6906",
        "car_seq": "KEE-6906",
        "arrival_time": "0648",
        "departure_time": "0653",
        "district": "外埔區",
        "village": "大東里",
        "location": "大馬路莊內巷2號",
        "type": "沿街",
        "collection_type": "recycling",
        "day_of_week": 1
      }
    },
    {
      "type": "Feature",
      "geometry": {
        "type": "Point",
        "coordinates": [
          120.64652146918024,
          24.340020457369242
        ]
      },
      "properties": {
        "routeId": "taichung-kee-6906-a93ace-d1",
        "city": "taichung",
        "route_name": "KEE-6906",
        "car_seq": "KEE-6906",
        "arrival_time": "0658",
        "departure_time": "0703",
        "district": "外埔區",
        "village": "大東里",
        "location": "大馬路313號",
        "type": "沿街",
        "collection_type": "garbage",
        "day_of_week": 1
      }
    },
    {
      "type": "Feature",
      "geometry": {
        "type": "Point",
        "coordinates": [
          120.64652146918024,
          24.340020457369242
        ]
      },
      "properties": {
        "routeId": "taichung-kee-6906-a93ace-d1",
        "city": "taichung",
        "route_name": "KEE-6906",
        "car_seq": "KEE-6906",
        "arrival_time": "0658",
        "departure_time": "0703",
        "district": "外埔區",
        "village": "大東里",
        "location": "大馬路313號",
        "type": "沿街",
        "collection_type": "recycling",
        "day_of_week": 1
      }
    },
    {
      "type": "Feature",
      "geometry": {
        "type": "Point",
        "coordinates": [
          120.64133919310959,
          24.34120413122232
        ]
      },
      "properties": {
        "routeId": "taichung-kee-6906-a93ace-d1",
        "city": "taichung",
        "route_name": "KEE-6906",
        "car_seq": "KEE-6906",
        "arrival_time": "0702",
        "departure_time": "0707",
        "district": "外埔區",
        "village": "大東里",
        "location": "大馬路506號",
        "type": "沿街",
        "collection_type": "garbage",
        "day_of_week": 1
      }
    },
    {
      "type": "Feature",
      "geometry": {
        "type": "Point",
        "coordinates": [
          120.64133919310959,
          24.34120413122232
        ]
      },
      "properties": {
        "routeId": "taichung-kee-6906-a93ace-d1",
        "city": "taichung",
        "route_name": "KEE-6906",
        "car_seq": "KEE-6906",
        "arrival_time": "0702",
        "departure_time": "0707",
        "district": "外埔區",
        "village": "大東里",
        "location": "大馬路506號",
        "type": "沿街",
        "collection_type": "recycling",
        "day_of_week": 1
      }
    },
    {
      "type": "Feature",
      "geometry": {
        "type": "Point",
        "coordinates": [
          120.64203084131235,
          24.341111113048985
        ]
      },
      "properties": {
        "routeId": "taichung-kee-6906-a93ace-d1",
        "city": "taichung",
        "route_name": "KEE-6906",
        "car_seq": "KEE-6906",
        "arrival_time": "0708",
        "departure_time": "0713",
        "district": "外埔區",
        "village": "大東里",
        "location": "大馬路470號",
        "type": "沿街",
        "collection_type": "garbage",
        "day_of_week": 1
      }
    },
    {
      "type": "Feature",
      "geometry": {
        "type": "Point",
        "coordinates": [
          120.64203084131235,
          24.341111113048985
        ]
      },
      "properties": {
        "routeId": "taichung-kee-6906-a93ace-d1",
        "city": "taichung",
        "route_name": "KEE-6906",
        "car_seq": "KEE-6906",
        "arrival_time": "0708",
        "departure_time": "0713",
        "district": "外埔區",
        "village": "大東里",
        "location": "大馬路470號",
        "type": "沿街",
        "collection_type": "recycling",
        "day_of_week": 1
      }
    },
    {
      "type": "Feature",
      "geometry": {
        "type": "Point",
        "coordinates": [
          120.64191252545496,
          24.342533632568284
        ]
      },
      "properties": {
        "routeId": "taichung-kee-6906-a93ace-d1",
        "city": "taichung",
        "route_name": "KEE-6906",
        "car_seq": "KEE-6906",
        "arrival_time": "0725",
        "departure_time": "0730",
        "district": "外埔區",
        "village": "大東里",
        "location": "甲后路五段46巷168弄7號",
        "type": "定點",
        "collection_type": "garbage",
        "day_of_week": 1
      }
    },
    {
      "type": "Feature",
      "geometry": {
        "type": "Point",
        "coordinates": [
          120.64191252545496,
          24.342533632568284
        ]
      },
      "properties": {
        "routeId": "taichung-kee-6906-a93ace-d1",
        "city": "taichung",
        "route_name": "KEE-6906",
        "car_seq": "KEE-6906",
        "arrival_time": "0725",
        "departure_time": "0730",
        "district": "外埔區",
        "village": "大東里",
        "location": "甲后路五段46巷168弄7號",
        "type": "定點",
        "collection_type": "recycling",
        "day_of_week": 1
      }
    },
    {
      "type": "Feature",
      "geometry": {
        "type": "Point",
        "coordinates": [
          120.63894495754523,
          24.342549352553814
        ]
      },
      "properties": {
        "routeId": "taichung-kee-6906-a93ace-d1",
        "city": "taichung",
        "route_name": "KEE-6906",
        "car_seq": "KEE-6906",
        "arrival_time": "0727",
        "departure_time": "0732",
        "district": "外埔區",
        "village": "大東里",
        "location": "甲后路五段46巷13號",
        "type": "定點",
        "collection_type": "garbage",
        "day_of_week": 1
      }
    },
    {
      "type": "Feature",
      "geometry": {
        "type": "Point",
        "coordinates": [
          120.63894495754523,
          24.342549352553814
        ]
      },
      "properties": {
        "routeId": "taichung-kee-6906-a93ace-d1",
        "city": "taichung",
        "route_name": "KEE-6906",
        "car_seq": "KEE-6906",
        "arrival_time": "0727",
        "departure_time": "0732",
        "district": "外埔區",
        "village": "大東里",
        "location": "甲后路五段46巷13號",
        "type": "定點",
        "collection_type": "recycling",
        "day_of_week": 1
      }
    },
    {
      "type": "Feature",
      "geometry": {
        "type": "Point",
        "coordinates": [
          120.63825876934868,
          24.342205065425983
        ]
      },
      "properties": {
        "routeId": "taichung-kee-6906-a93ace-d1",
        "city": "taichung",
        "route_name": "KEE-6906",
        "car_seq": "KEE-6906",
        "arrival_time": "0745",
        "departure_time": "0750",
        "district": "外埔區",
        "village": "大東里",
        "location": "甲后路五段78號",
        "type": "沿街",
        "collection_type": "garbage",
        "day_of_week": 1
      }
    },
    {
      "type": "Feature",
      "geometry": {
        "type": "Point",
        "coordinates": [
          120.63825876934868,
          24.342205065425983
        ]
      },
      "properties": {
        "routeId": "taichung-kee-6906-a93ace-d1",
        "city": "taichung",
        "route_name": "KEE-6906",
        "car_seq": "KEE-6906",
        "arrival_time": "0745",
        "departure_time": "0750",
        "district": "外埔區",
        "village": "大東里",
        "location": "甲后路五段78號",
        "type": "沿街",
        "collection_type": "recycling",
        "day_of_week": 1
      }
    },
    {
      "type": "Feature",
      "geometry": {
        "type": "Point",
        "coordinates": [
          120.63791314656662,
          24.344239885915396
        ]
      },
      "properties": {
        "routeId": "taichung-kee-6906-a93ace-d1",
        "city": "taichung",
        "route_name": "KEE-6906",
        "car_seq": "KEE-6906",
        "arrival_time": "0751",
        "departure_time": "0756",
        "district": "外埔區",
        "village": "大東里",
        "location": "甲后路五段130巷52弄16號",
        "type": "沿街",
        "collection_type": "garbage",
        "day_of_week": 1
      }
    },
    {
      "type": "Feature",
      "geometry": {
        "type": "Point",
        "coordinates": [
          120.63791314656662,
          24.344239885915396
        ]
      },
      "properties": {
        "routeId": "taichung-kee-6906-a93ace-d1",
        "city": "taichung",
        "route_name": "KEE-6906",
        "car_seq": "KEE-6906",
        "arrival_time": "0751",
        "departure_time": "0756",
        "district": "外埔區",
        "village": "大東里",
        "location": "甲后路五段130巷52弄16號",
        "type": "沿街",
        "collection_type": "recycling",
        "day_of_week": 1
      }
    },
    {
      "type": "Feature",
      "geometry": {
        "type": "Point",
        "coordinates": [
          120.63913841601834,
          24.34292641464892
        ]
      },
      "properties": {
        "routeId": "taichung-kee-6906-a93ace-d1",
        "city": "taichung",
        "route_name": "KEE-6906",
        "car_seq": "KEE-6906",
        "arrival_time": "0800",
        "departure_time": "0805",
        "district": "外埔區",
        "village": "大東里",
        "location": "甲后路五段128巷55弄1號",
        "type": "沿街",
        "collection_type": "garbage",
        "day_of_week": 1
      }
    },
    {
      "type": "Feature",
      "geometry": {
        "type": "Point",
        "coordinates": [
          120.63913841601834,
          24.34292641464892
        ]
      },
      "properties": {
        "routeId": "taichung-kee-6906-a93ace-d1",
        "city": "taichung",
        "route_name": "KEE-6906",
        "car_seq": "KEE-6906",
        "arrival_time": "0800",
        "departure_time": "0805",
        "district": "外埔區",
        "village": "大東里",
        "location": "甲后路五段128巷55弄1號",
        "type": "沿街",
        "collection_type": "recycling",
        "day_of_week": 1
      }
    },
    {
      "type": "Feature",
      "geometry": {
        "type": "Point",
        "coordinates": [
          120.6398004182435,
          24.343625455103954
        ]
      },
      "properties": {
        "routeId": "taichung-kee-6906-a93ace-d1",
        "city": "taichung",
        "route_name": "KEE-6906",
        "car_seq": "KEE-6906",
        "arrival_time": "0810",
        "departure_time": "0815",
        "district": "外埔區",
        "village": "大東里",
        "location": "甲后路五段130巷46弄62號",
        "type": "定點",
        "collection_type": "garbage",
        "day_of_week": 1
      }
    },
    {
      "type": "Feature",
      "geometry": {
        "type": "Point",
        "coordinates": [
          120.6398004182435,
          24.343625455103954
        ]
      },
      "properties": {
        "routeId": "taichung-kee-6906-a93ace-d1",
        "city": "taichung",
        "route_name": "KEE-6906",
        "car_seq": "KEE-6906",
        "arrival_time": "0810",
        "departure_time": "0815",
        "district": "外埔區",
        "village": "大東里",
        "location": "甲后路五段130巷46弄62號",
        "type": "定點",
        "collection_type": "recycling",
        "day_of_week": 1
      }
    },
    {
      "type": "Feature",
      "geometry": {
        "type": "Point",
        "coordinates": [
          120.63760778898121,
          24.342843500180336
        ]
      },
      "properties": {
        "routeId": "taichung-kee-6906-a93ace-d1",
        "city": "taichung",
        "route_name": "KEE-6906",
        "car_seq": "KEE-6906",
        "arrival_time": "0823",
        "departure_time": "0828",
        "district": "外埔區",
        "village": "大東里",
        "location": "甲后路五段128巷2號",
        "type": "沿街",
        "collection_type": "garbage",
        "day_of_week": 1
      }
    },
    {
      "type": "Feature",
      "geometry": {
        "type": "Point",
        "coordinates": [
          120.63760778898121,
          24.342843500180336
        ]
      },
      "properties": {
        "routeId": "taichung-kee-6906-a93ace-d1",
        "city": "taichung",
        "route_name": "KEE-6906",
        "car_seq": "KEE-6906",
        "arrival_time": "0823",
        "departure_time": "0828",
        "district": "外埔區",
        "village": "大東里",
        "location": "甲后路五段128巷2號",
        "type": "沿街",
        "collection_type": "recycling",
        "day_of_week": 1
      }
    },
    {
      "type": "Feature",
      "geometry": {
        "type": "Point",
        "coordinates": [
          120.63713556380712,
          24.342921122857373
        ]
      },
      "properties": {
        "routeId": "taichung-kee-6906-a93ace-d1",
        "city": "taichung",
        "route_name": "KEE-6906",
        "car_seq": "KEE-6906",
        "arrival_time": "0910",
        "departure_time": "0915",
        "district": "外埔區",
        "village": "大東里",
        "location": "甲后路五段146號",
        "type": "沿街",
        "collection_type": "garbage",
        "day_of_week": 1
      }
    },
    {
      "type": "Feature",
      "geometry": {
        "type": "Point",
        "coordinates": [
          120.63713556380712,
          24.342921122857373
        ]
      },
      "properties": {
        "routeId": "taichung-kee-6906-a93ace-d1",
        "city": "taichung",
        "route_name": "KEE-6906",
        "car_seq": "KEE-6906",
        "arrival_time": "0910",
        "departure_time": "0915",
        "district": "外埔區",
        "village": "大東里",
        "location": "甲后路五段146號",
        "type": "沿街",
        "collection_type": "recycling",
        "day_of_week": 1
      }
    },
    {
      "type": "Feature",
      "geometry": {
        "type": "Point",
        "coordinates": [
          120.63722734412622,
          24.34397941173947
        ]
      },
      "properties": {
        "routeId": "taichung-kee-6906-a93ace-d1",
        "city": "taichung",
        "route_name": "KEE-6906",
        "car_seq": "KEE-6906",
        "arrival_time": "0915",
        "departure_time": "0920",
        "district": "外埔區",
        "village": "大東里",
        "location": "甲后路五段180巷46號",
        "type": "沿街",
        "collection_type": "garbage",
        "day_of_week": 1
      }
    },
    {
      "type": "Feature",
      "geometry": {
        "type": "Point",
        "coordinates": [
          120.63722734412622,
          24.34397941173947
        ]
      },
      "properties": {
        "routeId": "taichung-kee-6906-a93ace-d1",
        "city": "taichung",
        "route_name": "KEE-6906",
        "car_seq": "KEE-6906",
        "arrival_time": "0915",
        "departure_time": "0920",
        "district": "外埔區",
        "village": "大東里",
        "location": "甲后路五段180巷46號",
        "type": "沿街",
        "collection_type": "recycling",
        "day_of_week": 1
      }
    },
    {
      "type": "Feature",
      "geometry": {
        "type": "Point",
        "coordinates": [
          120.63610047829954,
          24.343827191877825
        ]
      },
      "properties": {
        "routeId": "taichung-kee-6906-a93ace-d1",
        "city": "taichung",
        "route_name": "KEE-6906",
        "car_seq": "KEE-6906",
        "arrival_time": "0920",
        "departure_time": "0925",
        "district": "外埔區",
        "village": "大東里",
        "location": "甲后路五段230巷2號",
        "type": "沿街",
        "collection_type": "garbage",
        "day_of_week": 1
      }
    },
    {
      "type": "Feature",
      "geometry": {
        "type": "Point",
        "coordinates": [
          120.63610047829954,
          24.343827191877825
        ]
      },
      "properties": {
        "routeId": "taichung-kee-6906-a93ace-d1",
        "city": "taichung",
        "route_name": "KEE-6906",
        "car_seq": "KEE-6906",
        "arrival_time": "0920",
        "departure_time": "0925",
        "district": "外埔區",
        "village": "大東里",
        "location": "甲后路五段230巷2號",
        "type": "沿街",
        "collection_type": "recycling",
        "day_of_week": 1
      }
    },
    {
      "type": "Feature",
      "geometry": {
        "type": "Point",
        "coordinates": [
          120.63540872005193,
          24.343962402374867
        ]
      },
      "properties": {
        "routeId": "taichung-kee-6906-a93ace-d1",
        "city": "taichung",
        "route_name": "KEE-6906",
        "car_seq": "KEE-6906",
        "arrival_time": "0925",
        "departure_time": "0930",
        "district": "外埔區",
        "village": "大東里",
        "location": "甲后路五段260號",
        "type": "定點",
        "collection_type": "garbage",
        "day_of_week": 1
      }
    },
    {
      "type": "Feature",
      "geometry": {
        "type": "Point",
        "coordinates": [
          120.63540872005193,
          24.343962402374867
        ]
      },
      "properties": {
        "routeId": "taichung-kee-6906-a93ace-d1",
        "city": "taichung",
        "route_name": "KEE-6906",
        "car_seq": "KEE-6906",
        "arrival_time": "0925",
        "departure_time": "0930",
        "district": "外埔區",
        "village": "大東里",
        "location": "甲后路五段260號",
        "type": "定點",
        "collection_type": "recycling",
        "day_of_week": 1
      }
    },
    {
      "type": "Feature",
      "geometry": {
        "type": "Point",
        "coordinates": [
          120.63610582708303,
          24.343279710168186
        ]
      },
      "properties": {
        "routeId": "taichung-kee-6906-a93ace-d1",
        "city": "taichung",
        "route_name": "KEE-6906",
        "car_seq": "KEE-6906",
        "arrival_time": "0932",
        "departure_time": "0937",
        "district": "外埔區",
        "village": "大東里",
        "location": "甲后路五段131號",
        "type": "沿街",
        "collection_type": "garbage",
        "day_of_week": 1
      }
    },
    {
      "type": "Feature",
      "geometry": {
        "type": "Point",
        "coordinates": [
          120.63610582708303,
          24.343279710168186
        ]
      },
      "properties": {
        "routeId": "taichung-kee-6906-a93ace-d1",
        "city": "taichung",
        "route_name": "KEE-6906",
        "car_seq": "KEE-6906",
        "arrival_time": "0932",
        "departure_time": "0937",
        "district": "外埔區",
        "village": "大東里",
        "location": "甲后路五段131號",
        "type": "沿街",
        "collection_type": "recycling",
        "day_of_week": 1
      }
    },
    {
      "type": "Feature",
      "geometry": {
        "type": "Point",
        "coordinates": [
          120.63855785261386,
          24.341626537328704
        ]
      },
      "properties": {
        "routeId": "taichung-kee-6906-a93ace-d1",
        "city": "taichung",
        "route_name": "KEE-6906",
        "car_seq": "KEE-6906",
        "arrival_time": "0950",
        "departure_time": "0955",
        "district": "外埔區",
        "village": "大東里",
        "location": "甲后路五段9號",
        "type": "定點",
        "collection_type": "garbage",
        "day_of_week": 1
      }
    },
    {
      "type": "Feature",
      "geometry": {
        "type": "Point",
        "coordinates": [
          120.63855785261386,
          24.341626537328704
        ]
      },
      "properties": {
        "routeId": "taichung-kee-6906-a93ace-d1",
        "city": "taichung",
        "route_name": "KEE-6906",
        "car_seq": "KEE-6906",
        "arrival_time": "0950",
        "departure_time": "0955",
        "district": "外埔區",
        "village": "大東里",
        "location": "甲后路五段9號",
        "type": "定點",
        "collection_type": "recycling",
        "day_of_week": 1
      }
    },
    {
      "type": "Feature",
      "geometry": {
        "type": "Point",
        "coordinates": [
          120.63701503417425,
          24.340038516826844
        ]
      },
      "properties": {
        "routeId": "taichung-kee-6906-a93ace-d1",
        "city": "taichung",
        "route_name": "KEE-6906",
        "car_seq": "KEE-6906",
        "arrival_time": "0955",
        "departure_time": "1000",
        "district": "外埔區",
        "village": "大東里",
        "location": "甲東路33巷18號",
        "type": "沿街",
        "collection_type": "garbage",
        "day_of_week": 1
      }
    },
    {
      "type": "Feature",
      "geometry": {
        "type": "Point",
        "coordinates": [
          120.63701503417425,
          24.340038516826844
        ]
      },
      "properties": {
        "routeId": "taichung-kee-6906-a93ace-d1",
        "city": "taichung",
        "route_name": "KEE-6906",
        "car_seq": "KEE-6906",
        "arrival_time": "0955",
        "departure_time": "1000",
        "district": "外埔區",
        "village": "大東里",
        "location": "甲東路33巷18號",
        "type": "沿街",
        "collection_type": "recycling",
        "day_of_week": 1
      }
    },
    {
      "type": "Feature",
      "geometry": {
        "type": "Point",
        "coordinates": [
          120.63551405203307,
          24.341854724213274
        ]
      },
      "properties": {
        "routeId": "taichung-kee-6906-a93ace-d1",
        "city": "taichung",
        "route_name": "KEE-6906",
        "car_seq": "KEE-6906",
        "arrival_time": "1000",
        "departure_time": "1005",
        "district": "外埔區",
        "village": "大東里",
        "location": "甲東路36巷51弄1號",
        "type": "沿街",
        "collection_type": "garbage",
        "day_of_week": 1
      }
    },
    {
      "type": "Feature",
      "geometry": {
        "type": "Point",
        "coordinates": [
          120.63551405203307,
          24.341854724213274
        ]
      },
      "properties": {
        "routeId": "taichung-kee-6906-a93ace-d1",
        "city": "taichung",
        "route_name": "KEE-6906",
        "car_seq": "KEE-6906",
        "arrival_time": "1000",
        "departure_time": "1005",
        "district": "外埔區",
        "village": "大東里",
        "location": "甲東路36巷51弄1號",
        "type": "沿街",
        "collection_type": "recycling",
        "day_of_week": 1
      }
    },
    {
      "type": "Feature",
      "geometry": {
        "type": "Point",
        "coordinates": [
          120.63478046769995,
          24.343997522094092
        ]
      },
      "properties": {
        "routeId": "taichung-kee-6906-a93ace-d1",
        "city": "taichung",
        "route_name": "KEE-6906",
        "car_seq": "KEE-6906",
        "arrival_time": "1010",
        "departure_time": "1015",
        "district": "外埔區",
        "village": "大東里",
        "location": "甲后路五段185巷5號",
        "type": "沿街",
        "collection_type": "garbage",
        "day_of_week": 1
      }
    },
    {
      "type": "Feature",
      "geometry": {
        "type": "Point",
        "coordinates": [
          120.63478046769995,
          24.343997522094092
        ]
      },
      "properties": {
        "routeId": "taichung-kee-6906-a93ace-d1",
        "city": "taichung",
        "route_name": "KEE-6906",
        "car_seq": "KEE-6906",
        "arrival_time": "1010",
        "departure_time": "1015",
        "district": "外埔區",
        "village": "大東里",
        "location": "甲后路五段185巷5號",
        "type": "沿街",
        "collection_type": "recycling",
        "day_of_week": 1
      }
    },
    {
      "type": "Feature",
      "geometry": {
        "type": "Point",
        "coordinates": [
          120.64598215464933,
          24.341457357741472
        ]
      },
      "properties": {
        "routeId": "taichung-kee-6906-a93ace-d1",
        "city": "taichung",
        "route_name": "KEE-6906",
        "car_seq": "KEE-6906",
        "arrival_time": "1016",
        "departure_time": "1021",
        "district": "外埔區",
        "village": "大東里",
        "location": "大馬路莊內巷1弄1之2號",
        "type": "沿街",
        "collection_type": "garbage",
        "day_of_week": 1
      }
    },
    {
      "type": "Feature",
      "geometry": {
        "type": "Point",
        "coordinates": [
          120.64598215464933,
          24.341457357741472
        ]
      },
      "properties": {
        "routeId": "taichung-kee-6906-a93ace-d1",
        "city": "taichung",
        "route_name": "KEE-6906",
        "car_seq": "KEE-6906",
        "arrival_time": "1016",
        "departure_time": "1021",
        "district": "外埔區",
        "village": "大東里",
        "location": "大馬路莊內巷1弄1之2號",
        "type": "沿街",
        "collection_type": "recycling",
        "day_of_week": 1
      }
    },
    {
      "type": "Feature",
      "geometry": {
        "type": "Point",
        "coordinates": [
          120.64397251008344,
          24.34440064217211
        ]
      },
      "properties": {
        "routeId": "taichung-kee-6906-a93ace-d1",
        "city": "taichung",
        "route_name": "KEE-6906",
        "car_seq": "KEE-6906",
        "arrival_time": "1022",
        "departure_time": "1027",
        "district": "外埔區",
        "village": "鐵山里",
        "location": "長生路499號",
        "type": "沿街",
        "collection_type": "garbage",
        "day_of_week": 1
      }
    },
    {
      "type": "Feature",
      "geometry": {
        "type": "Point",
        "coordinates": [
          120.64397251008344,
          24.34440064217211
        ]
      },
      "properties": {
        "routeId": "taichung-kee-6906-a93ace-d1",
        "city": "taichung",
        "route_name": "KEE-6906",
        "car_seq": "KEE-6906",
        "arrival_time": "1022",
        "departure_time": "1027",
        "district": "外埔區",
        "village": "鐵山里",
        "location": "長生路499號",
        "type": "沿街",
        "collection_type": "recycling",
        "day_of_week": 1
      }
    },
    {
      "type": "Feature",
      "geometry": {
        "type": "Point",
        "coordinates": [
          120.64170214141022,
          24.344067993877726
        ]
      },
      "properties": {
        "routeId": "taichung-kee-6906-a93ace-d1",
        "city": "taichung",
        "route_name": "KEE-6906",
        "car_seq": "KEE-6906",
        "arrival_time": "1030",
        "departure_time": "1035",
        "district": "外埔區",
        "village": "大東里",
        "location": "大馬路482巷79弄17號",
        "type": "沿街",
        "collection_type": "garbage",
        "day_of_week": 1
      }
    },
    {
      "type": "Feature",
      "geometry": {
        "type": "Point",
        "coordinates": [
          120.64170214141022,
          24.344067993877726
        ]
      },
      "properties": {
        "routeId": "taichung-kee-6906-a93ace-d1",
        "city": "taichung",
        "route_name": "KEE-6906",
        "car_seq": "KEE-6906",
        "arrival_time": "1030",
        "departure_time": "1035",
        "district": "外埔區",
        "village": "大東里",
        "location": "大馬路482巷79弄17號",
        "type": "沿街",
        "collection_type": "recycling",
        "day_of_week": 1
      }
    },
    {
      "type": "Feature",
      "geometry": {
        "type": "Point",
        "coordinates": [
          120.64261079136003,
          24.34265898614077
        ]
      },
      "properties": {
        "routeId": "taichung-kee-6906-a93ace-d1",
        "city": "taichung",
        "route_name": "KEE-6906",
        "car_seq": "KEE-6906",
        "arrival_time": "1035",
        "departure_time": "1040",
        "district": "外埔區",
        "village": "大東里",
        "location": "大馬路482巷43弄12號",
        "type": "沿街",
        "collection_type": "garbage",
        "day_of_week": 1
      }
    },
    {
      "type": "Feature",
      "geometry": {
        "type": "Point",
        "coordinates": [
          120.64261079136003,
          24.34265898614077
        ]
      },
      "properties": {
        "routeId": "taichung-kee-6906-a93ace-d1",
        "city": "taichung",
        "route_name": "KEE-6906",
        "car_seq": "KEE-6906",
        "arrival_time": "1035",
        "departure_time": "1040",
        "district": "外埔區",
        "village": "大東里",
        "location": "大馬路482巷43弄12號",
        "type": "沿街",
        "collection_type": "recycling",
        "day_of_week": 1
      }
    }
  ]
}