{
  "type": "FeatureCollection",
  "features": [
    {
      "type": "Feature",
      "geometry": {
        "type": "Point",
        "coordinates": [
          120.535698,
          24.176922
        ]
      },
      "properties": {
        "routeId": "taichung-425-s7-4a3c8e-d2",
        "city": "taichung",
        "route_name": "425-S7",
        "car_seq": "425-S7",
        "arrival_time": "0620",
        "departure_time": "0625",
        "district": "龍井區",
        "village": "龍東里",
        "location": "茄投路一段249號",
        "type": "沿街",
        "collection_type": "garbage",
        "day_of_week": 2
      }
    },
    {
      "type": "Feature",
      "geometry": {
        "type": "Point",
        "coordinates": [
          120.535698,
          24.176922
        ]
      },
      "properties": {
        "routeId": "taichung-425-s7-4a3c8e-d2",
        "city": "taichung",
        "route_name": "425-S7",
        "car_seq": "425-S7",
        "arrival_time": "0620",
        "departure_time": "0625",
        "district": "龍井區",
        "village": "龍東里",
        "location": "茄投路一段249號",
        "type": "沿街",
        "collection_type": "recycling",
        "day_of_week": 2
      }
    },
    {
      "type": "Feature",
      "geometry": {
        "type": "Point",
        "coordinates": [
          120.535117,
          24.177689
        ]
      },
      "properties": {
        "routeId": "taichung-425-s7-4a3c8e-d2",
        "city": "taichung",
        "route_name": "425-S7",
        "car_seq": "425-S7",
        "arrival_time": "0625",
        "departure_time": "0630",
        "district": "龍井區",
        "village": "龍東里",
        "location": "舊車路7巷7號",
        "type": "沿街",
        "collection_type": "garbage",
        "day_of_week": 2
      }
    },
    {
      "type": "Feature",
      "geometry": {
        "type": "Point",
        "coordinates": [
          120.535117,
          24.177689
        ]
      },
      "properties": {
        "routeId": "taichung-425-s7-4a3c8e-d2",
        "city": "taichung",
        "route_name": "425-S7",
        "car_seq": "425-S7",
        "arrival_time": "0625",
        "departure_time": "0630",
        "district": "龍井區",
        "village": "龍東里",
        "location": "舊車路7巷7號",
        "type": "沿街",
        "collection_type": "recycling",
        "day_of_week": 2
      }
    },
    {
      "type": "Feature",
      "geometry": {
        "type": "Point",
        "coordinates": [
          120.529959,
          24.178716
        ]
      },
      "properties": {
        "routeId": "taichung-425-s7-4a3c8e-d2",
        "city": "taichung",
        "route_name": "425-S7",
        "car_seq": "425-S7",
        "arrival_time": "0635",
        "departure_time": "0640",
        "district": "龍井區",
        "village": "龍東里",
        "location": "茄投路78號",
        "type": "沿街",
        "collection_type": "garbage",
        "day_of_week": 2
      }
    },
    {
      "type": "Feature",
      "geometry": {
        "type": "Point",
        "coordinates": [
          120.529959,
          24.178716
        ]
      },
      "properties": {
        "routeId": "taichung-425-s7-4a3c8e-d2",
        "city": "taichung",
        "route_name": "425-S7",
        "car_seq": "425-S7",
        "arrival_time": "0635",
        "departure_time": "0640",
        "district": "龍井區",
        "village": "龍東里",
        "location": "茄投路78號",
        "type": "沿街",
        "collection_type": "recycling",
        "day_of_week": 2
      }
    },
    {
      "type": "Feature",
      "geometry": {
        "type": "Point",
        "coordinates": [
          120.522238,
          24.183911
        ]
      },
      "properties": {
        "routeId": "taichung-425-s7-4a3c8e-d2",
        "city": "taichung",
        "route_name": "425-S7",
        "car_seq": "425-S7",
        "arrival_time": "0645",
        "departure_time": "0650",
        "district": "龍井區",
        "village": "龍西里",
        "location": "茄投路田尾厝巷3號",
        "type": "沿街",
        "collection_type": "garbage",
        "day_of_week": 2
      }
    },
    {
      "type": "Feature",
      "geometry": {
        "type": "Point",
        "coordinates": [
          120.522238,
          24.183911
        ]
      },
      "properties": {
        "routeId": "taichung-425-s7-4a3c8e-d2",
        "city": "taichung",
        "route_name": "425-S7",
        "car_seq": "425-S7",
        "arrival_time": "0645",
        "departure_time": "0650",
        "district": "龍井區",
        "village": "龍西里",
        "location": "茄投路田尾厝巷3號",
        "type": "沿街",
        "collection_type": "recycling",
        "day_of_week": 2
      }
    },
    {
      "type": "Feature",
      "geometry": {
        "type": "Point",
        "coordinates": [
          120.528785,
          24.179068
        ]
      },
      "properties": {
        "routeId": "taichung-425-s7-4a3c8e-d2",
        "city": "taichung",
        "route_name": "425-S7",
        "car_seq": "425-S7",
        "arrival_time": "0650",
        "departure_time": "0655",
        "district": "龍井區",
        "village": "龍東里",
        "location": "龍門路2號",
        "type": "沿街",
        "collection_type": "garbage",
        "day_of_week": 2
      }
    },
    {
      "type": "Feature",
      "geometry": {
        "type": "Point",
        "coordinates": [
          120.528785,
          24.179068
        ]
      },
      "properties": {
        "routeId": "taichung-425-s7-4a3c8e-d2",
        "city": "taichung",
        "route_name": "425-S7",
        "car_seq": "425-S7",
        "arrival_time": "0650",
        "departure_time": "0655",
        "district": "龍井區",
        "village": "龍東里",
        "location": "龍門路2號",
        "type": "沿街",
        "collection_type": "recycling",
        "day_of_week": 2
      }
    },
    {
      "type": "Feature",
      "geometry": {
        "type": "Point",
        "coordinates": [
          120.52789,
          24.181774
        ]
      },
      "properties": {
        "routeId": "taichung-425-s7-4a3c8e-d2",
        "city": "taichung",
        "route_name": "425-S7",
        "car_seq": "425-S7",
        "arrival_time": "0653",
        "departure_time": "0658",
        "district": "龍井區",
        "village": "龍西里",
        "location": "龍門路43巷60號",
        "type": "沿街",
        "collection_type": "garbage",
        "day_of_week": 2
      }
    },
    {
      "type": "Feature",
      "geometry": {
        "type": "Point",
        "coordinates": [
          120.52789,
          24.181774
        ]
      },
      "properties": {
        "routeId": "taichung-425-s7-4a3c8e-d2",
        "city": "taichung",
        "route_name": "425-S7",
        "car_seq": "425-S7",
        "arrival_time": "0653",
        "departure_time": "0658",
        "district": "龍井區",
        "village": "龍西里",
        "location": "龍門路43巷60號",
        "type": "沿街",
        "collection_type": "recycling",
        "day_of_week": 2
      }
    },
    {
      "type": "Feature",
      "geometry": {
        "type": "Point",
        "coordinates": [
          120.53088,
          24.184318
        ]
      },
      "properties": {
        "routeId": "taichung-425-s7-4a3c8e-d2",
        "city": "taichung",
        "route_name": "425-S7",
        "car_seq": "425-S7",
        "arrival_time": "0655",
        "departure_time": "0700",
        "district": "龍井區",
        "village": "龍東里",
        "location": "龍門路80巷22號",
        "type": "沿街",
        "collection_type": "garbage",
        "day_of_week": 2
      }
    },
    {
      "type": "Feature",
      "geometry": {
        "type": "Point",
        "coordinates": [
          120.53088,
          24.184318
        ]
      },
      "properties": {
        "routeId": "taichung-425-s7-4a3c8e-d2",
        "city": "taichung",
        "route_name": "425-S7",
        "car_seq": "425-S7",
        "arrival_time": "0655",
        "departure_time": "0700",
        "district": "龍井區",
        "village": "龍東里",
        "location": "龍門路80巷22號",
        "type": "沿街",
        "collection_type": "recycling",
        "day_of_week": 2
      }
    },
    {
      "type": "Feature",
      "geometry": {
        "type": "Point",
        "coordinates": [
          120.530996,
          24.186733
        ]
      },
      "properties": {
        "routeId": "taichung-425-s7-4a3c8e-d2",
        "city": "taichung",
        "route_name": "425-S7",
        "car_seq": "425-S7",
        "arrival_time": "0700",
        "departure_time": "0705",
        "district": "龍井區",
        "village": "田中里",
        "location": "龍北路391巷118號",
        "type": "沿街",
        "collection_type": "garbage",
        "day_of_week": 2
      }
    },
    {
      "type": "Feature",
      "geometry": {
        "type": "Point",
        "coordinates": [
          120.530996,
          24.186733
        ]
      },
      "properties": {
        "routeId": "taichung-425-s7-4a3c8e-d2",
        "city": "taichung",
        "route_name": "425-S7",
        "car_seq": "425-S7",
        "arrival_time": "0700",
        "departure_time": "0705",
        "district": "龍井區",
        "village": "田中里",
        "location": "龍北路391巷118號",
        "type": "沿街",
        "collection_type": "recycling",
        "day_of_week": 2
      }
    },
    {
      "type": "Feature",
      "geometry": {
        "type": "Point",
        "coordinates": [
          120.529933,
          24.188611
        ]
      },
      "properties": {
        "routeId": "taichung-425-s7-4a3c8e-d2",
        "city": "taichung",
        "route_name": "425-S7",
        "car_seq": "425-S7",
        "arrival_time": "0710",
        "departure_time": "0715",
        "district": "龍井區",
        "village": "田中里",
        "location": "龍北路278號",
        "type": "沿街",
        "collection_type": "garbage",
        "day_of_week": 2
      }
    },
    {
      "type": "Feature",
      "geometry": {
        "type": "Point",
        "coordinates": [
          120.529933,
          24.188611
        ]
      },
      "properties": {
        "routeId": "taichung-425-s7-4a3c8e-d2",
        "city": "taichung",
        "route_name": "425-S7",
        "car_seq": "425-S7",
        "arrival_time": "0710",
        "departure_time": "0715",
        "district": "龍井區",
        "village": "田中里",
        "location": "龍北路278號",
        "type": "沿街",
        "collection_type": "recycling",
        "day_of_week": 2
      }
    },
    {
      "type": "Feature",
      "geometry": {
        "type": "Point",
        "coordinates": [
          120.531083,
          24.194378
        ]
      },
      "properties": {
        "routeId": "taichung-425-s7-4a3c8e-d2",
        "city": "taichung",
        "route_name": "425-S7",
        "car_seq": "425-S7",
        "arrival_time": "0720",
        "departure_time": "0725",
        "district": "龍井區",
        "village": "田中里",
        "location": "龍北路1號",
        "type": "沿街",
        "collection_type": "garbage",
        "day_of_week": 2
      }
    },
    {
      "type": "Feature",
      "geometry": {
        "type": "Point",
        "coordinates": [
          120.531083,
          24.194378
        ]
      },
      "properties": {
        "routeId": "taichung-425-s7-4a3c8e-d2",
        "city": "taichung",
        "route_name": "425-S7",
        "car_seq": "425-S7",
        "arrival_time": "0720",
        "departure_time": "0725",
        "district": "龍井區",
        "village": "田中里",
        "location": "龍北路1號",
        "type": "沿街",
        "collection_type": "recycling",
        "day_of_week": 2
      }
    },
    {
      "type": "Feature",
      "geometry": {
        "type": "Point",
        "coordinates": [
          120.512423,
          24.198322
        ]
      },
      "properties": {
        "routeId": "taichung-425-s7-4a3c8e-d2",
        "city": "taichung",
        "route_name": "425-S7",
        "car_seq": "425-S7",
        "arrival_time": "0730",
        "departure_time": "0735",
        "district": "龍井區",
        "village": "福田里",
        "location": "臨港路一段11巷10號",
        "type": "沿街",
        "collection_type": "garbage",
        "day_of_week": 2
      }
    },
    {
      "type": "Feature",
      "geometry": {
        "type": "Point",
        "coordinates": [
          120.512423,
          24.198322
        ]
      },
      "properties": {
        "routeId": "taichung-425-s7-4a3c8e-d2",
        "city": "taichung",
        "route_name": "425-S7",
        "car_seq": "425-S7",
        "arrival_time": "0730",
        "departure_time": "0735",
        "district": "龍井區",
        "village": "福田里",
        "location": "臨港路一段11巷10號",
        "type": "沿街",
        "collection_type": "recycling",
        "day_of_week": 2
      }
    },
    {
      "type": "Feature",
      "geometry": {
        "type": "Point",
        "coordinates": [
          120.533244,
          24.176204
        ]
      },
      "properties": {
        "routeId": "taichung-425-s7-4a3c8e-d2",
        "city": "taichung",
        "route_name": "425-S7",
        "car_seq": "425-S7",
        "arrival_time": "0735",
        "departure_time": "0740",
        "district": "龍井區",
        "village": "福田里",
        "location": "茄投路3號",
        "type": "沿街",
        "collection_type": "garbage",
        "day_of_week": 2
      }
    },
    {
      "type": "Feature",
      "geometry": {
        "type": "Point",
        "coordinates": [
          120.533244,
          24.176204
        ]
      },
      "properties": {
        "routeId": "taichung-425-s7-4a3c8e-d2",
        "city": "taichung",
        "route_name": "425-S7",
        "car_seq": "425-S7",
        "arrival_time": "0735",
        "departure_time": "0740",
        "district": "龍井區",
        "village": "福田里",
        "location": "茄投路3號",
        "type": "沿街",
        "collection_type": "recycling",
        "day_of_week": 2
      }
    },
    {
      "type": "Feature",
      "geometry": {
        "type": "Point",
        "coordinates": [
          120.514366,
          24.196905
        ]
      },
      "properties": {
        "routeId": "taichung-425-s7-4a3c8e-d2",
        "city": "taichung",
        "route_name": "425-S7",
        "car_seq": "425-S7",
        "arrival_time": "0740",
        "departure_time": "0745",
        "district": "龍井區",
        "village": "福田里",
        "location": "臨港東路二段325巷25號",
        "type": "沿街",
        "collection_type": "garbage",
        "day_of_week": 2
      }
    },
    {
      "type": "Feature",
      "geometry": {
        "type": "Point",
        "coordinates": [
          120.514366,
          24.196905
        ]
      },
      "properties": {
        "routeId": "taichung-425-s7-4a3c8e-d2",
        "city": "taichung",
        "route_name": "425-S7",
        "car_seq": "425-S7",
        "arrival_time": "0740",
        "departure_time": "0745",
        "district": "龍井區",
        "village": "福田里",
        "location": "臨港東路二段325巷25號",
        "type": "沿街",
        "collection_type": "recycling",
        "day_of_week": 2
      }
    },
    {
      "type": "Feature",
      "geometry": {
        "type": "Point",
        "coordinates": [
          120.518523,
          24.196701
        ]
      },
      "properties": {
        "routeId": "taichung-425-s7-4a3c8e-d2",
        "city": "taichung",
        "route_name": "425-S7",
        "car_seq": "425-S7",
        "arrival_time": "0745",
        "departure_time": "0750",
        "district": "龍井區",
        "village": "福田里",
        "location": "臨港東路二段155巷20號",
        "type": "沿街",
        "collection_type": "garbage",
        "day_of_week": 2
      }
    },
    {
      "type": "Feature",
      "geometry": {
        "type": "Point",
        "coordinates": [
          120.518523,
          24.196701
        ]
      },
      "properties": {
        "routeId": "taichung-425-s7-4a3c8e-d2",
        "city": "taichung",
        "route_name": "425-S7",
        "car_seq": "425-S7",
        "arrival_time": "0745",
        "departure_time": "0750",
        "district": "龍井區",
        "village": "福田里",
        "location": "臨港東路二段155巷20號",
        "type": "沿街",
        "collection_type": "recycling",
        "day_of_week": 2
      }
    },
    {
      "type": "Feature",
      "geometry": {
        "type": "Point",
        "coordinates": [
          120.523591,
          24.203137
        ]
      },
      "properties": {
        "routeId": "taichung-425-s7-4a3c8e-d2",
        "city": "taichung",
        "route_name": "425-S7",
        "car_seq": "425-S7",
        "arrival_time": "0750",
        "departure_time": "0755",
        "district": "龍井區",
        "village": "福田里",
        "location": "福頭崙巷4號",
        "type": "沿街",
        "collection_type": "garbage",
        "day_of_week": 2
      }
    },
    {
      "type": "Feature",
      "geometry": {
        "type": "Point",
        "coordinates": [
          120.523591,
          24.203137
        ]
      },
      "properties": {
        "routeId": "taichung-425-s7-4a3c8e-d2",
        "city": "taichung",
        "route_name": "425-S7",
        "car_seq": "425-S7",
        "arrival_time": "0750",
        "departure_time": "0755",
        "district": "龍井區",
        "village": "福田里",
        "location": "福頭崙巷4號",
        "type": "沿街",
        "collection_type": "recycling",
        "day_of_week": 2
      }
    },
    {
      "type": "Feature",
      "geometry": {
        "type": "Point",
        "coordinates": [
          120.522025,
          24.184791
        ]
      },
      "properties": {
        "routeId": "taichung-425-s7-4a3c8e-d2",
        "city": "taichung",
        "route_name": "425-S7",
        "car_seq": "425-S7",
        "arrival_time": "0850",
        "departure_time": "0855",
        "district": "龍井區",
        "village": "龍西里",
        "location": "茄投路田尾厝巷16弄1號",
        "type": "沿街",
        "collection_type": "garbage",
        "day_of_week": 2
      }
    },
    {
      "type": "Feature",
      "geometry": {
        "type": "Point",
        "coordinates": [
          120.522025,
          24.184791
        ]
      },
      "properties": {
        "routeId": "taichung-425-s7-4a3c8e-d2",
        "city": "taichung",
        "route_name": "425-S7",
        "car_seq": "425-S7",
        "arrival_time": "0850",
        "departure_time": "0855",
        "district": "龍井區",
        "village": "龍西里",
        "location": "茄投路田尾厝巷16弄1號",
        "type": "沿街",
        "collection_type": "recycling",
        "day_of_week": 2
      }
    },
    {
      "type": "Feature",
      "geometry": {
        "type": "Point",
        "coordinates": [
          120.524434,
          24.179949
        ]
      },
      "properties": {
        "routeId": "taichung-425-s7-4a3c8e-d2",
        "city": "taichung",
        "route_name": "425-S7",
        "car_seq": "425-S7",
        "arrival_time": "0855",
        "departure_time": "0900",
        "district": "龍井區",
        "village": "龍西里",
        "location": "茄投路147號",
        "type": "沿街",
        "collection_type": "garbage",
        "day_of_week": 2
      }
    },
    {
      "type": "Feature",
      "geometry": {
        "type": "Point",
        "coordinates": [
          120.524434,
          24.179949
        ]
      },
      "properties": {
        "routeId": "taichung-425-s7-4a3c8e-d2",
        "city": "taichung",
        "route_name": "425-S7",
        "car_seq": "425-S7",
        "arrival_time": "0855",
        "departure_time": "0900",
        "district": "龍井區",
        "village": "龍西里",
        "location": "茄投路147號",
        "type": "沿街",
        "collection_type": "recycling",
        "day_of_week": 2
      }
    },
    {
      "type": "Feature",
      "geometry": {
        "type": "Point",
        "coordinates": [
          120.53079,
          24.179328
        ]
      },
      "properties": {
        "routeId": "taichung-425-s7-4a3c8e-d2",
        "city": "taichung",
        "route_name": "425-S7",
        "car_seq": "425-S7",
        "arrival_time": "0912",
        "departure_time": "0917",
        "district": "龍井區",
        "village": "龍西里",
        "location": "文昌路606號",
        "type": "沿街",
        "collection_type": "garbage",
        "day_of_week": 2
      }
    },
    {
      "type": "Feature",
      "geometry": {
        "type": "Point",
        "coordinates": [
          120.53079,
          24.179328
        ]
      },
      "properties": {
        "routeId": "taichung-425-s7-4a3c8e-d2",
        "city": "taichung",
        "route_name": "425-S7",
        "car_seq": "425-S7",
        "arrival_time": "0912",
        "departure_time": "0917",
        "district": "龍井區",
        "village": "龍西里",
        "location": "文昌路606號",
        "type": "沿街",
        "collection_type": "recycling",
        "day_of_week": 2
      }
    },
    {
      "type": "Feature",
      "geometry": {
        "type": "Point",
        "coordinates": [
          120.530472,
          24.183813
        ]
      },
      "properties": {
        "routeId": "taichung-425-s7-4a3c8e-d2",
        "city": "taichung",
        "route_name": "425-S7",
        "car_seq": "425-S7",
        "arrival_time": "0915",
        "departure_time": "0920",
        "district": "龍井區",
        "village": "龍東里",
        "location": "舊車路121號",
        "type": "沿街",
        "collection_type": "garbage",
        "day_of_week": 2
      }
    },
    {
      "type": "Feature",
      "geometry": {
        "type": "Point",
        "coordinates": [
          120.530472,
          24.183813
        ]
      },
      "properties": {
        "routeId": "taichung-425-s7-4a3c8e-d2",
        "city": "taichung",
        "route_name": "425-S7",
        "car_seq": "425-S7",
        "arrival_time": "0915",
        "departure_time": "0920",
        "district": "龍井區",
        "village": "龍東里",
        "location": "舊車路121號",
        "type": "沿街",
        "collection_type": "recycling",
        "day_of_week": 2
      }
    },
    {
      "type": "Feature",
      "geometry": {
        "type": "Point",
        "coordinates": [
          120.529977,
          24.185603
        ]
      },
      "properties": {
        "routeId": "taichung-425-s7-4a3c8e-d2",
        "city": "taichung",
        "route_name": "425-S7",
        "car_seq": "425-S7",
        "arrival_time": "0920",
        "departure_time": "0925",
        "district": "龍井區",
        "village": "田中里",
        "location": "龍北路351號",
        "type": "沿街",
        "collection_type": "garbage",
        "day_of_week": 2
      }
    },
    {
      "type": "Feature",
      "geometry": {
        "type": "Point",
        "coordinates": [
          120.529977,
          24.185603
        ]
      },
      "properties": {
        "routeId": "taichung-425-s7-4a3c8e-d2",
        "city": "taichung",
        "route_name": "425-S7",
        "car_seq": "425-S7",
        "arrival_time": "0920",
        "departure_time": "0925",
        "district": "龍井區",
        "village": "田中里",
        "location": "龍北路351號",
        "type": "沿街",
        "collection_type": "recycling",
        "day_of_week": 2
      }
    },
    {
      "type": "Feature",
      "geometry": {
        "type": "Point",
        "coordinates": [
          120.530445,
          24.191777
        ]
      },
      "properties": {
        "routeId": "taichung-425-s7-4a3c8e-d2",
        "city": "taichung",
        "route_name": "425-S7",
        "car_seq": "425-S7",
        "arrival_time": "0925",
        "departure_time": "0930",
        "district": "龍井區",
        "village": "田中里",
        "location": "龍北路120號",
        "type": "沿街",
        "collection_type": "garbage",
        "day_of_week": 2
      }
    },
    {
      "type": "Feature",
      "geometry": {
        "type": "Point",
        "coordinates": [
          120.530445,
          24.191777
        ]
      },
      "properties": {
        "routeId": "taichung-425-s7-4a3c8e-d2",
        "city": "taichung",
        "route_name": "425-S7",
        "car_seq": "425-S7",
        "arrival_time": "0925",
        "departure_time": "0930",
        "district": "龍井區",
        "village": "田中里",
        "location": "龍北路120號",
        "type": "沿街",
        "collection_type": "recycling",
        "day_of_week": 2
      }
    },
    {
      "type": "Feature",
      "geometry": {
        "type": "Point",
        "coordinates": [
          120.524947,
          24.195656
        ]
      },
      "properties": {
        "routeId": "taichung-425-s7-4a3c8e-d2",
        "city": "taichung",
        "route_name": "425-S7",
        "car_seq": "425-S7",
        "arrival_time": "0950",
        "departure_time": "0955",
        "district": "龍井區",
        "village": "龍津里",
        "location": "臨港東路一段255巷3號",
        "type": "沿街",
        "collection_type": "garbage",
        "day_of_week": 2
      }
    },
    {
      "type": "Feature",
      "geometry": {
        "type": "Point",
        "coordinates": [
          120.524947,
          24.195656
        ]
      },
      "properties": {
        "routeId": "taichung-425-s7-4a3c8e-d2",
        "city": "taichung",
        "route_name": "425-S7",
        "car_seq": "425-S7",
        "arrival_time": "0950",
        "departure_time": "0955",
        "district": "龍井區",
        "village": "龍津里",
        "location": "臨港東路一段255巷3號",
        "type": "沿街",
        "collection_type": "recycling",
        "day_of_week": 2
      }
    },
    {
      "type": "Feature",
      "geometry": {
        "type": "Point",
        "coordinates": [
          120.528004,
          24.187697
        ]
      },
      "properties": {
        "routeId": "taichung-425-s7-4a3c8e-d2",
        "city": "taichung",
        "route_name": "425-S7",
        "car_seq": "425-S7",
        "arrival_time": "1000",
        "departure_time": "1005",
        "district": "龍井區",
        "village": "田中里",
        "location": "舊車路福壽巷1號",
        "type": "沿街",
        "collection_type": "garbage",
        "day_of_week": 2
      }
    },
    {
      "type": "Feature",
      "geometry": {
        "type": "Point",
        "coordinates": [
          120.528004,
          24.187697
        ]
      },
      "properties": {
        "routeId": "taichung-425-s7-4a3c8e-d2",
        "city": "taichung",
        "route_name": "425-S7",
        "car_seq": "425-S7",
        "arrival_time": "1000",
        "departure_time": "1005",
        "district": "龍井區",
        "village": "田中里",
        "location": "舊車路福壽巷1號",
        "type": "沿街",
        "collection_type": "recycling",
        "day_of_week": 2
      }
    },
    {
      "type": "Feature",
      "geometry": {
        "type": "Point",
        "coordinates": [
          120.525233,
          24.182734
        ]
      },
      "properties": {
        "routeId": "taichung-425-s7-4a3c8e-d2",
        "city": "taichung",
        "route_name": "425-S7",
        "car_seq": "425-S7",
        "arrival_time": "1015",
        "departure_time": "1020",
        "district": "龍井區",
        "village": "龍西里",
        "location": "龍門路159號",
        "type": "沿街",
        "collection_type": "garbage",
        "day_of_week": 2
      }
    },
    {
      "type": "Feature",
      "geometry": {
        "type": "Point",
        "coordinates": [
          120.525233,
          24.182734
        ]
      },
      "properties": {
        "routeId": "taichung-425-s7-4a3c8e-d2",
        "city": "taichung",
        "route_name": "425-S7",
        "car_seq": "425-S7",
        "arrival_time": "1015",
        "departure_time": "1020",
        "district": "龍井區",
        "village": "龍西里",
        "location": "龍門路159號",
        "type": "沿街",
        "collection_type": "recycling",
        "day_of_week": 2
      }
    },
    {
      "type": "Feature",
      "geometry": {
        "type": "Point",
        "coordinates": [
          120.528206,
          24.191324
        ]
      },
      "properties": {
        "routeId": "taichung-425-s7-4a3c8e-d2",
        "city": "taichung",
        "route_name": "425-S7",
        "car_seq": "425-S7",
        "arrival_time": "1020",
        "departure_time": "1025",
        "district": "龍井區",
        "village": "田中里",
        "location": "臨港東路一段155巷171弄1號",
        "type": "沿街",
        "collection_type": "garbage",
        "day_of_week": 2
      }
    },
    {
      "type": "Feature",
      "geometry": {
        "type": "Point",
        "coordinates": [
          120.528206,
          24.191324
        ]
      },
      "properties": {
        "routeId": "taichung-425-s7-4a3c8e-d2",
        "city": "taichung",
        "route_name": "425-S7",
        "car_seq": "425-S7",
        "arrival_time": "1020",
        "departure_time": "1025",
        "district": "龍井區",
        "village": "田中里",
        "location": "臨港東路一段155巷171弄1號",
        "type": "沿街",
        "collection_type": "recycling",
        "day_of_week": 2
      }
    },
    {
      "type": "Feature",
      "geometry": {
        "type": "Point",
        "coordinates": [
          120.538786,
          24.192101
        ]
      },
      "properties": {
        "routeId": "taichung-425-s7-4a3c8e-d2",
        "city": "taichung",
        "route_name": "425-S7",
        "car_seq": "425-S7",
        "arrival_time": "1030",
        "departure_time": "1035",
        "district": "龍井區",
        "village": "田中里",
        "location": "觀光路135巷35號",
        "type": "沿街",
        "collection_type": "garbage",
        "day_of_week": 2
      }
    },
    {
      "type": "Feature",
      "geometry": {
        "type": "Point",
        "coordinates": [
          120.538786,
          24.192101
        ]
      },
      "properties": {
        "routeId": "taichung-425-s7-4a3c8e-d2",
        "city": "taichung",
        "route_name": "425-S7",
        "car_seq": "425-S7",
        "arrival_time": "1030",
        "departure_time": "1035",
        "district": "龍井區",
        "village": "田中里",
        "location": "觀光路135巷35號",
        "type": "沿街",
        "collection_type": "recycling",
        "day_of_week": 2
      }
    },
    {
      "type": "Feature",
      "geometry": {
        "type": "Point",
        "coordinates": [
          120.535912,
          24.177182
        ]
      },
      "properties": {
        "routeId": "taichung-425-s7-4a3c8e-d2",
        "city": "taichung",
        "route_name": "425-S7",
        "car_seq": "425-S7",
        "arrival_time": "1035",
        "departure_time": "1040",
        "district": "龍井區",
        "village": "龍東里",
        "location": "茄投路一段226號",
        "type": "沿街",
        "collection_type": "garbage",
        "day_of_week": 2
      }
    },
    {
      "type": "Feature",
      "geometry": {
        "type": "Point",
        "coordinates": [
          120.535912,
          24.177182
        ]
      },
      "properties": {
        "routeId": "taichung-425-s7-4a3c8e-d2",
        "city": "taichung",
        "route_name": "425-S7",
        "car_seq": "425-S7",
        "arrival_time": "1035",
        "departure_time": "1040",
        "district": "龍井區",
        "village": "龍東里",
        "location": "茄投路一段226號",
        "type": "沿街",
        "collection_type": "recycling",
        "day_of_week": 2
      }
    },
    {
      "type": "Feature",
      "geometry": {
        "type": "Point",
        "coordinates": [
          120.535422,
          24.179877
        ]
      },
      "properties": {
        "routeId": "taichung-425-s7-4a3c8e-d2",
        "city": "taichung",
        "route_name": "425-S7",
        "car_seq": "425-S7",
        "arrival_time": "1040",
        "departure_time": "1045",
        "district": "龍井區",
        "village": "龍東里",
        "location": "舊車路1號",
        "type": "沿街",
        "collection_type": "garbage",
        "day_of_week": 2
      }
    },
    {
      "type": "Feature",
      "geometry": {
        "type": "Point",
        "coordinates": [
          120.535422,
          24.179877
        ]
      },
      "properties": {
        "routeId": "taichung-425-s7-4a3c8e-d2",
        "city": "taichung",
        "route_name": "425-S7",
        "car_seq": "425-S7",
        "arrival_time": "1040",
        "departure_time": "1045",
        "district": "龍井區",
        "village": "龍東里",
        "location": "舊車路1號",
        "type": "沿街",
        "collection_type": "recycling",
        "day_of_week": 2
      }
    },
    {
      "type": "Feature",
      "geometry": {
        "type": "Point",
        "coordinates": [
          120.527856,
          24.186706
        ]
      },
      "properties": {
        "routeId": "taichung-425-s7-4a3c8e-d2",
        "city": "taichung",
        "route_name": "425-S7",
        "car_seq": "425-S7",
        "arrival_time": "1045",
        "departure_time": "1050",
        "district": "龍井區",
        "village": "龍東里",
        "location": "舊車路89巷號",
        "type": "沿街",
        "collection_type": "garbage",
        "day_of_week": 2
      }
    },
    {
      "type": "Feature",
      "geometry": {
        "type": "Point",
        "coordinates": [
          120.527856,
          24.186706
        ]
      },
      "properties": {
        "routeId": "taichung-425-s7-4a3c8e-d2",
        "city": "taichung",
        "route_name": "425-S7",
        "car_seq": "425-S7",
        "arrival_time": "1045",
        "departure_time": "1050",
        "district": "龍井區",
        "village": "龍東里",
        "location": "舊車路89巷號",
        "type": "沿街",
        "collection_type": "recycling",
        "day_of_week": 2
      }
    },
    {
      "type": "Feature",
      "geometry": {
        "type": "Point",
        "coordinates": [
          120.530131,
          24.187965
        ]
      },
      "properties": {
        "routeId": "taichung-425-s7-4a3c8e-d2",
        "city": "taichung",
        "route_name": "425-S7",
        "car_seq": "425-S7",
        "arrival_time": "1050",
        "departure_time": "1055",
        "district": "龍井區",
        "village": "田中里",
        "location": "龍北路255巷1號",
        "type": "沿街",
        "collection_type": "garbage",
        "day_of_week": 2
      }
    },
    {
      "type": "Feature",
      "geometry": {
        "type": "Point",
        "coordinates": [
          120.530131,
          24.187965
        ]
      },
      "properties": {
        "routeId": "taichung-425-s7-4a3c8e-d2",
        "city": "taichung",
        "route_name": "425-S7",
        "car_seq": "425-S7",
        "arrival_time": "1050",
        "departure_time": "1055",
        "district": "龍井區",
        "village": "田中里",
        "location": "龍北路255巷1號",
        "type": "沿街",
        "collection_type": "recycling",
        "day_of_week": 2
      }
    },
    {
      "type": "Feature",
      "geometry": {
        "type": "Point",
        "coordinates": [
          120.511882,
          24.198827
        ]
      },
      "properties": {
        "routeId": "taichung-425-s7-4a3c8e-d2",
        "city": "taichung",
        "route_name": "425-S7",
        "car_seq": "425-S7",
        "arrival_time": "1055",
        "departure_time": "1100",
        "district": "龍井區",
        "village": "田中里",
        "location": "臨港路一段33號",
        "type": "沿街",
        "collection_type": "garbage",
        "day_of_week": 2
      }
    },
    {
      "type": "Feature",
      "geometry": {
        "type": "Point",
        "coordinates": [
          120.511882,
          24.198827
        ]
      },
      "properties": {
        "routeId": "taichung-425-s7-4a3c8e-d2",
        "city": "taichung",
        "route_name": "425-S7",
        "car_seq": "425-S7",
        "arrival_time": "1055",
        "departure_time": "1100",
        "district": "龍井區",
        "village": "田中里",
        "location": "臨港路一段33號",
        "type": "沿街",
        "collection_type": "recycling",
        "day_of_week": 2
      }
    },
    {
      "type": "Feature",
      "geometry": {
        "type": "Point",
        "coordinates": [
          120.530163,
          24.192409
        ]
      },
      "properties": {
        "routeId": "taichung-425-s7-4a3c8e-d2",
        "city": "taichung",
        "route_name": "425-S7",
        "car_seq": "425-S7",
        "arrival_time": "1100",
        "departure_time": "1105",
        "district": "龍井區",
        "village": "龍津里",
        "location": "龍北路118巷號",
        "type": "沿街",
        "collection_type": "garbage",
        "day_of_week": 2
      }
    },
    {
      "type": "Feature",
      "geometry": {
        "type": "Point",
        "coordinates": [
          120.530163,
          24.192409
        ]
      },
      "properties": {
        "routeId": "taichung-425-s7-4a3c8e-d2",
        "city": "taichung",
        "route_name": "425-S7",
        "car_seq": "425-S7",
        "arrival_time": "1100",
        "departure_time": "1105",
        "district": "龍井區",
        "village": "龍津里",
        "location": "龍北路118巷號",
        "type": "沿街",
        "collection_type": "recycling",
        "day_of_week": 2
      }
    }
  ]
}