{
  "type": "FeatureCollection",
  "features": [
    {
      "type": "Feature",
      "geometry": {
        "type": "Point",
        "coordinates": [
          120.660607,
          24.159503
        ]
      },
      "properties": {
        "routeId": "taichung-kel-0238-e41226-d1",
        "city": "taichung",
        "route_name": "KEL-0238",
        "car_seq": "KEL-0238",
        "arrival_time": "1445",
        "departure_time": "1445",
        "district": "西區",
        "village": "忠誠里",
        "location": "博館路232號",
        "type": "沿街",
        "collection_type": "garbage",
        "day_of_week": 1
      }
    },
    {
      "type": "Feature",
      "geometry": {
        "type": "Point",
        "coordinates": [
          120.660607,
          24.159503
        ]
      },
      "properties": {
        "routeId": "taichung-kel-0238-e41226-d1",
        "city": "taichung",
        "route_name": "KEL-0238",
        "car_seq": "KEL-0238",
        "arrival_time": "1445",
        "departure_time": "1445",
        "district": "西區",
        "village": "忠誠里",
        "location": "博館路232號",
        "type": "沿街",
        "collection_type": "recycling",
        "day_of_week": 1
      }
    },
    {
      "type": "Feature",
      "geometry": {
        "type": "Point",
        "coordinates": [
          120.660766,
          24.160108
        ]
      },
      "properties": {
        "routeId": "taichung-kel-0238-e41226-d1",
        "city": "taichung",
        "route_name": "KEL-0238",
        "car_seq": "KEL-0238",
        "arrival_time": "1447",
        "departure_time": "1449",
        "district": "西區",
        "village": "忠誠里",
        "location": "明禮街16號",
        "type": "沿街",
        "collection_type": "garbage",
        "day_of_week": 1
      }
    },
    {
      "type": "Feature",
      "geometry": {
        "type": "Point",
        "coordinates": [
          120.660766,
          24.160108
        ]
      },
      "properties": {
        "routeId": "taichung-kel-0238-e41226-d1",
        "city": "taichung",
        "route_name": "KEL-0238",
        "car_seq": "KEL-0238",
        "arrival_time": "1447",
        "departure_time": "1449",
        "district": "西區",
        "village": "忠誠里",
        "location": "明禮街16號",
        "type": "沿街",
        "collection_type": "recycling",
        "day_of_week": 1
      }
    },
    {
      "type": "Feature",
      "geometry": {
        "type": "Point",
        "coordinates": [
          120.661627,
          24.160778
        ]
      },
      "properties": {
        "routeId": "taichung-kel-0238-e41226-d1",
        "city": "taichung",
        "route_name": "KEL-0238",
        "car_seq": "KEL-0238",
        "arrival_time": "1450",
        "departure_time": "1452",
        "district": "西區",
        "village": "忠誠里",
        "location": "忠義街8巷10號",
        "type": "沿街",
        "collection_type": "garbage",
        "day_of_week": 1
      }
    },
    {
      "type": "Feature",
      "geometry": {
        "type": "Point",
        "coordinates": [
          120.661627,
          24.160778
        ]
      },
      "properties": {
        "routeId": "taichung-kel-0238-e41226-d1",
        "city": "taichung",
        "route_name": "KEL-0238",
        "car_seq": "KEL-0238",
        "arrival_time": "1450",
        "departure_time": "1452",
        "district": "西區",
        "village": "忠誠里",
        "location": "忠義街8巷10號",
        "type": "沿街",
        "collection_type": "recycling",
        "day_of_week": 1
      }
    },
    {
      "type": "Feature",
      "geometry": {
        "type": "Point",
        "coordinates": [
          120.662261,
          24.161667
        ]
      },
      "properties": {
        "routeId": "taichung-kel-0238-e41226-d1",
        "city": "taichung",
        "route_name": "KEL-0238",
        "car_seq": "KEL-0238",
        "arrival_time": "1456",
        "departure_time": "1459",
        "district": "西區",
        "village": "忠誠里",
        "location": "華美西街一段207號",
        "type": "沿街",
        "collection_type": "garbage",
        "day_of_week": 1
      }
    },
    {
      "type": "Feature",
      "geometry": {
        "type": "Point",
        "coordinates": [
          120.662261,
          24.161667
        ]
      },
      "properties": {
        "routeId": "taichung-kel-0238-e41226-d1",
        "city": "taichung",
        "route_name": "KEL-0238",
        "car_seq": "KEL-0238",
        "arrival_time": "1456",
        "departure_time": "1459",
        "district": "西區",
        "village": "忠誠里",
        "location": "華美西街一段207號",
        "type": "沿街",
        "collection_type": "recycling",
        "day_of_week": 1
      }
    },
    {
      "type": "Feature",
      "geometry": {
        "type": "Point",
        "coordinates": [
          120.662161,
          24.162268
        ]
      },
      "properties": {
        "routeId": "taichung-kel-0238-e41226-d1",
        "city": "taichung",
        "route_name": "KEL-0238",
        "car_seq": "KEL-0238",
        "arrival_time": "1456",
        "departure_time": "1459",
        "district": "西區",
        "village": "忠誠里",
        "location": "明智街12號",
        "type": "沿街",
        "collection_type": "garbage",
        "day_of_week": 1
      }
    },
    {
      "type": "Feature",
      "geometry": {
        "type": "Point",
        "coordinates": [
          120.662161,
          24.162268
        ]
      },
      "properties": {
        "routeId": "taichung-kel-0238-e41226-d1",
        "city": "taichung",
        "route_name": "KEL-0238",
        "car_seq": "KEL-0238",
        "arrival_time": "1456",
        "departure_time": "1459",
        "district": "西區",
        "village": "忠誠里",
        "location": "明智街12號",
        "type": "沿街",
        "collection_type": "recycling",
        "day_of_week": 1
      }
    },
    {
      "type": "Feature",
      "geometry": {
        "type": "Point",
        "coordinates": [
          120.661899,
          24.162625
        ]
      },
      "properties": {
        "routeId": "taichung-kel-0238-e41226-d1",
        "city": "taichung",
        "route_name": "KEL-0238",
        "car_seq": "KEL-0238",
        "arrival_time": "1459",
        "departure_time": "1500",
        "district": "西區",
        "village": "忠誠里",
        "location": "明智街32號",
        "type": "沿街",
        "collection_type": "garbage",
        "day_of_week": 1
      }
    },
    {
      "type": "Feature",
      "geometry": {
        "type": "Point",
        "coordinates": [
          120.661899,
          24.162625
        ]
      },
      "properties": {
        "routeId": "taichung-kel-0238-e41226-d1",
        "city": "taichung",
        "route_name": "KEL-0238",
        "car_seq": "KEL-0238",
        "arrival_time": "1459",
        "departure_time": "1500",
        "district": "西區",
        "village": "忠誠里",
        "location": "明智街32號",
        "type": "沿街",
        "collection_type": "recycling",
        "day_of_week": 1
      }
    },
    {
      "type": "Feature",
      "geometry": {
        "type": "Point",
        "coordinates": [
          120.662471,
          24.162512
        ]
      },
      "properties": {
        "routeId": "taichung-kel-0238-e41226-d1",
        "city": "taichung",
        "route_name": "KEL-0238",
        "car_seq": "KEL-0238",
        "arrival_time": "1500",
        "departure_time": "1502",
        "district": "西區",
        "village": "忠誠里",
        "location": "華美西街一段219號",
        "type": "沿街",
        "collection_type": "garbage",
        "day_of_week": 1
      }
    },
    {
      "type": "Feature",
      "geometry": {
        "type": "Point",
        "coordinates": [
          120.662471,
          24.162512
        ]
      },
      "properties": {
        "routeId": "taichung-kel-0238-e41226-d1",
        "city": "taichung",
        "route_name": "KEL-0238",
        "car_seq": "KEL-0238",
        "arrival_time": "1500",
        "departure_time": "1502",
        "district": "西區",
        "village": "忠誠里",
        "location": "華美西街一段219號",
        "type": "沿街",
        "collection_type": "recycling",
        "day_of_week": 1
      }
    },
    {
      "type": "Feature",
      "geometry": {
        "type": "Point",
        "coordinates": [
          120.661657,
          24.161733
        ]
      },
      "properties": {
        "routeId": "taichung-kel-0238-e41226-d1",
        "city": "taichung",
        "route_name": "KEL-0238",
        "car_seq": "KEL-0238",
        "arrival_time": "1501",
        "departure_time": "1504",
        "district": "西區",
        "village": "忠誠里",
        "location": "明禮街71號",
        "type": "沿街",
        "collection_type": "garbage",
        "day_of_week": 1
      }
    },
    {
      "type": "Feature",
      "geometry": {
        "type": "Point",
        "coordinates": [
          120.661657,
          24.161733
        ]
      },
      "properties": {
        "routeId": "taichung-kel-0238-e41226-d1",
        "city": "taichung",
        "route_name": "KEL-0238",
        "car_seq": "KEL-0238",
        "arrival_time": "1501",
        "departure_time": "1504",
        "district": "西區",
        "village": "忠誠里",
        "location": "明禮街71號",
        "type": "沿街",
        "collection_type": "recycling",
        "day_of_week": 1
      }
    },
    {
      "type": "Feature",
      "geometry": {
        "type": "Point",
        "coordinates": [
          120.660931,
          24.160751
        ]
      },
      "properties": {
        "routeId": "taichung-kel-0238-e41226-d1",
        "city": "taichung",
        "route_name": "KEL-0238",
        "car_seq": "KEL-0238",
        "arrival_time": "1505",
        "departure_time": "1507",
        "district": "西區",
        "village": "忠誠里",
        "location": "忠義街24號",
        "type": "沿街",
        "collection_type": "garbage",
        "day_of_week": 1
      }
    },
    {
      "type": "Feature",
      "geometry": {
        "type": "Point",
        "coordinates": [
          120.660931,
          24.160751
        ]
      },
      "properties": {
        "routeId": "taichung-kel-0238-e41226-d1",
        "city": "taichung",
        "route_name": "KEL-0238",
        "car_seq": "KEL-0238",
        "arrival_time": "1505",
        "departure_time": "1507",
        "district": "西區",
        "village": "忠誠里",
        "location": "忠義街24號",
        "type": "沿街",
        "collection_type": "recycling",
        "day_of_week": 1
      }
    },
    {
      "type": "Feature",
      "geometry": {
        "type": "Point",
        "coordinates": [
          120.662516,
          24.161337
        ]
      },
      "properties": {
        "routeId": "taichung-kel-0238-e41226-d1",
        "city": "taichung",
        "route_name": "KEL-0238",
        "car_seq": "KEL-0238",
        "arrival_time": "1509",
        "departure_time": "1510",
        "district": "西區",
        "village": "忠誠里",
        "location": "忠明路117號",
        "type": "沿街",
        "collection_type": "garbage",
        "day_of_week": 1
      }
    },
    {
      "type": "Feature",
      "geometry": {
        "type": "Point",
        "coordinates": [
          120.662516,
          24.161337
        ]
      },
      "properties": {
        "routeId": "taichung-kel-0238-e41226-d1",
        "city": "taichung",
        "route_name": "KEL-0238",
        "car_seq": "KEL-0238",
        "arrival_time": "1509",
        "departure_time": "1510",
        "district": "西區",
        "village": "忠誠里",
        "location": "忠明路117號",
        "type": "沿街",
        "collection_type": "recycling",
        "day_of_week": 1
      }
    },
    {
      "type": "Feature",
      "geometry": {
        "type": "Point",
        "coordinates": [
          120.661644,
          24.160501
        ]
      },
      "properties": {
        "routeId": "taichung-kel-0238-e41226-d1",
        "city": "taichung",
        "route_name": "KEL-0238",
        "car_seq": "KEL-0238",
        "arrival_time": "1512",
        "departure_time": "1515",
        "district": "西區",
        "village": "忠誠里",
        "location": "忠明路59號",
        "type": "沿街",
        "collection_type": "garbage",
        "day_of_week": 1
      }
    },
    {
      "type": "Feature",
      "geometry": {
        "type": "Point",
        "coordinates": [
          120.661644,
          24.160501
        ]
      },
      "properties": {
        "routeId": "taichung-kel-0238-e41226-d1",
        "city": "taichung",
        "route_name": "KEL-0238",
        "car_seq": "KEL-0238",
        "arrival_time": "1512",
        "departure_time": "1515",
        "district": "西區",
        "village": "忠誠里",
        "location": "忠明路59號",
        "type": "沿街",
        "collection_type": "recycling",
        "day_of_week": 1
      }
    },
    {
      "type": "Feature",
      "geometry": {
        "type": "Point",
        "coordinates": [
          120.660967,
          24.159479
        ]
      },
      "properties": {
        "routeId": "taichung-kel-0238-e41226-d1",
        "city": "taichung",
        "route_name": "KEL-0238",
        "car_seq": "KEL-0238",
        "arrival_time": "1514",
        "departure_time": "1515",
        "district": "西區",
        "village": "忠誠里",
        "location": "忠明路9號",
        "type": "沿街",
        "collection_type": "garbage",
        "day_of_week": 1
      }
    },
    {
      "type": "Feature",
      "geometry": {
        "type": "Point",
        "coordinates": [
          120.660967,
          24.159479
        ]
      },
      "properties": {
        "routeId": "taichung-kel-0238-e41226-d1",
        "city": "taichung",
        "route_name": "KEL-0238",
        "car_seq": "KEL-0238",
        "arrival_time": "1514",
        "departure_time": "1515",
        "district": "西區",
        "village": "忠誠里",
        "location": "忠明路9號",
        "type": "沿街",
        "collection_type": "recycling",
        "day_of_week": 1
      }
    },
    {
      "type": "Feature",
      "geometry": {
        "type": "Point",
        "coordinates": [
          120.660298,
          24.157657
        ]
      },
      "properties": {
        "routeId": "taichung-kel-0238-e41226-d1",
        "city": "taichung",
        "route_name": "KEL-0238",
        "car_seq": "KEL-0238",
        "arrival_time": "1514",
        "departure_time": "1515",
        "district": "西區",
        "village": "忠誠里",
        "location": "忠明路2號",
        "type": "沿街",
        "collection_type": "garbage",
        "day_of_week": 1
      }
    },
    {
      "type": "Feature",
      "geometry": {
        "type": "Point",
        "coordinates": [
          120.660298,
          24.157657
        ]
      },
      "properties": {
        "routeId": "taichung-kel-0238-e41226-d1",
        "city": "taichung",
        "route_name": "KEL-0238",
        "car_seq": "KEL-0238",
        "arrival_time": "1514",
        "departure_time": "1515",
        "district": "西區",
        "village": "忠誠里",
        "location": "忠明路2號",
        "type": "沿街",
        "collection_type": "recycling",
        "day_of_week": 1
      }
    },
    {
      "type": "Feature",
      "geometry": {
        "type": "Point",
        "coordinates": [
          120.660636,
          24.158152
        ]
      },
      "properties": {
        "routeId": "taichung-kel-0238-e41226-d1",
        "city": "taichung",
        "route_name": "KEL-0238",
        "car_seq": "KEL-0238",
        "arrival_time": "1516",
        "departure_time": "1517",
        "district": "西區",
        "village": "忠誠里",
        "location": "忠明路26號",
        "type": "沿街",
        "collection_type": "garbage",
        "day_of_week": 1
      }
    },
    {
      "type": "Feature",
      "geometry": {
        "type": "Point",
        "coordinates": [
          120.660636,
          24.158152
        ]
      },
      "properties": {
        "routeId": "taichung-kel-0238-e41226-d1",
        "city": "taichung",
        "route_name": "KEL-0238",
        "car_seq": "KEL-0238",
        "arrival_time": "1516",
        "departure_time": "1517",
        "district": "西區",
        "village": "忠誠里",
        "location": "忠明路26號",
        "type": "沿街",
        "collection_type": "recycling",
        "day_of_week": 1
      }
    },
    {
      "type": "Feature",
      "geometry": {
        "type": "Point",
        "coordinates": [
          120.661411,
          24.159375
        ]
      },
      "properties": {
        "routeId": "taichung-kel-0238-e41226-d1",
        "city": "taichung",
        "route_name": "KEL-0238",
        "car_seq": "KEL-0238",
        "arrival_time": "1517",
        "departure_time": "1518",
        "district": "西區",
        "village": "忠誠里",
        "location": "忠明路68號",
        "type": "沿街",
        "collection_type": "garbage",
        "day_of_week": 1
      }
    },
    {
      "type": "Feature",
      "geometry": {
        "type": "Point",
        "coordinates": [
          120.661411,
          24.159375
        ]
      },
      "properties": {
        "routeId": "taichung-kel-0238-e41226-d1",
        "city": "taichung",
        "route_name": "KEL-0238",
        "car_seq": "KEL-0238",
        "arrival_time": "1517",
        "departure_time": "1518",
        "district": "西區",
        "village": "忠誠里",
        "location": "忠明路68號",
        "type": "沿街",
        "collection_type": "recycling",
        "day_of_week": 1
      }
    },
    {
      "type": "Feature",
      "geometry": {
        "type": "Point",
        "coordinates": [
          120.661799,
          24.159953
        ]
      },
      "properties": {
        "routeId": "taichung-kel-0238-e41226-d1",
        "city": "taichung",
        "route_name": "KEL-0238",
        "car_seq": "KEL-0238",
        "arrival_time": "1518",
        "departure_time": "1519",
        "district": "西區",
        "village": "忠誠里",
        "location": "忠明路100號",
        "type": "沿街",
        "collection_type": "garbage",
        "day_of_week": 1
      }
    },
    {
      "type": "Feature",
      "geometry": {
        "type": "Point",
        "coordinates": [
          120.661799,
          24.159953
        ]
      },
      "properties": {
        "routeId": "taichung-kel-0238-e41226-d1",
        "city": "taichung",
        "route_name": "KEL-0238",
        "car_seq": "KEL-0238",
        "arrival_time": "1518",
        "departure_time": "1519",
        "district": "西區",
        "village": "忠誠里",
        "location": "忠明路100號",
        "type": "沿街",
        "collection_type": "recycling",
        "day_of_week": 1
      }
    },
    {
      "type": "Feature",
      "geometry": {
        "type": "Point",
        "coordinates": [
          120.662181,
          24.160458
        ]
      },
      "properties": {
        "routeId": "taichung-kel-0238-e41226-d1",
        "city": "taichung",
        "route_name": "KEL-0238",
        "car_seq": "KEL-0238",
        "arrival_time": "1519",
        "departure_time": "1520",
        "district": "西區",
        "village": "忠誠里",
        "location": "忠明路128號",
        "type": "沿街",
        "collection_type": "garbage",
        "day_of_week": 1
      }
    },
    {
      "type": "Feature",
      "geometry": {
        "type": "Point",
        "coordinates": [
          120.662181,
          24.160458
        ]
      },
      "properties": {
        "routeId": "taichung-kel-0238-e41226-d1",
        "city": "taichung",
        "route_name": "KEL-0238",
        "car_seq": "KEL-0238",
        "arrival_time": "1519",
        "departure_time": "1520",
        "district": "西區",
        "village": "忠誠里",
        "location": "忠明路128號",
        "type": "沿街",
        "collection_type": "recycling",
        "day_of_week": 1
      }
    },
    {
      "type": "Feature",
      "geometry": {
        "type": "Point",
        "coordinates": [
          120.662888,
          24.160647
        ]
      },
      "properties": {
        "routeId": "taichung-kel-0238-e41226-d1",
        "city": "taichung",
        "route_name": "KEL-0238",
        "car_seq": "KEL-0238",
        "arrival_time": "1520",
        "departure_time": "1522",
        "district": "西區",
        "village": "忠誠里",
        "location": "華美西街一段203之1號",
        "type": "沿街",
        "collection_type": "garbage",
        "day_of_week": 1
      }
    },
    {
      "type": "Feature",
      "geometry": {
        "type": "Point",
        "coordinates": [
          120.662888,
          24.160647
        ]
      },
      "properties": {
        "routeId": "taichung-kel-0238-e41226-d1",
        "city": "taichung",
        "route_name": "KEL-0238",
        "car_seq": "KEL-0238",
        "arrival_time": "1520",
        "departure_time": "1522",
        "district": "西區",
        "village": "忠誠里",
        "location": "華美西街一段203之1號",
        "type": "沿街",
        "collection_type": "recycling",
        "day_of_week": 1
      }
    },
    {
      "type": "Feature",
      "geometry": {
        "type": "Point",
        "coordinates": [
          120.663518,
          24.157592
        ]
      },
      "properties": {
        "routeId": "taichung-kel-0238-e41226-d1",
        "city": "taichung",
        "route_name": "KEL-0238",
        "car_seq": "KEL-0238",
        "arrival_time": "1523",
        "departure_time": "1524",
        "district": "西區",
        "village": "忠明里",
        "location": "博館路167號",
        "type": "沿街",
        "collection_type": "garbage",
        "day_of_week": 1
      }
    },
    {
      "type": "Feature",
      "geometry": {
        "type": "Point",
        "coordinates": [
          120.663518,
          24.157592
        ]
      },
      "properties": {
        "routeId": "taichung-kel-0238-e41226-d1",
        "city": "taichung",
        "route_name": "KEL-0238",
        "car_seq": "KEL-0238",
        "arrival_time": "1523",
        "departure_time": "1524",
        "district": "西區",
        "village": "忠明里",
        "location": "博館路167號",
        "type": "沿街",
        "collection_type": "recycling",
        "day_of_week": 1
      }
    },
    {
      "type": "Feature",
      "geometry": {
        "type": "Point",
        "coordinates": [
          120.665126,
          24.156396
        ]
      },
      "properties": {
        "routeId": "taichung-kel-0238-e41226-d1",
        "city": "taichung",
        "route_name": "KEL-0238",
        "car_seq": "KEL-0238",
        "arrival_time": "1525",
        "departure_time": "1526",
        "district": "西區",
        "village": "忠明里",
        "location": "博館路121號",
        "type": "沿街",
        "collection_type": "garbage",
        "day_of_week": 1
      }
    },
    {
      "type": "Feature",
      "geometry": {
        "type": "Point",
        "coordinates": [
          120.665126,
          24.156396
        ]
      },
      "properties": {
        "routeId": "taichung-kel-0238-e41226-d1",
        "city": "taichung",
        "route_name": "KEL-0238",
        "car_seq": "KEL-0238",
        "arrival_time": "1525",
        "departure_time": "1526",
        "district": "西區",
        "village": "忠明里",
        "location": "博館路121號",
        "type": "沿街",
        "collection_type": "recycling",
        "day_of_week": 1
      }
    },
    {
      "type": "Feature",
      "geometry": {
        "type": "Point",
        "coordinates": [
          120.663625,
          24.155284
        ]
      },
      "properties": {
        "routeId": "taichung-kel-0238-e41226-d1",
        "city": "taichung",
        "route_name": "KEL-0238",
        "car_seq": "KEL-0238",
        "arrival_time": "1526",
        "departure_time": "1529",
        "district": "西區",
        "village": "忠明里",
        "location": "台灣大道二段418號",
        "type": "沿街",
        "collection_type": "garbage",
        "day_of_week": 1
      }
    },
    {
      "type": "Feature",
      "geometry": {
        "type": "Point",
        "coordinates": [
          120.663625,
          24.155284
        ]
      },
      "properties": {
        "routeId": "taichung-kel-0238-e41226-d1",
        "city": "taichung",
        "route_name": "KEL-0238",
        "car_seq": "KEL-0238",
        "arrival_time": "1526",
        "departure_time": "1529",
        "district": "西區",
        "village": "忠明里",
        "location": "台灣大道二段418號",
        "type": "沿街",
        "collection_type": "recycling",
        "day_of_week": 1
      }
    },
    {
      "type": "Feature",
      "geometry": {
        "type": "Point",
        "coordinates": [
          120.65844,
          24.158234
        ]
      },
      "properties": {
        "routeId": "taichung-kel-0238-e41226-d1",
        "city": "taichung",
        "route_name": "KEL-0238",
        "car_seq": "KEL-0238",
        "arrival_time": "1529",
        "departure_time": "1530",
        "district": "西區",
        "village": "忠誠里",
        "location": "台灣大道二段566號",
        "type": "沿街",
        "collection_type": "garbage",
        "day_of_week": 1
      }
    },
    {
      "type": "Feature",
      "geometry": {
        "type": "Point",
        "coordinates": [
          120.65844,
          24.158234
        ]
      },
      "properties": {
        "routeId": "taichung-kel-0238-e41226-d1",
        "city": "taichung",
        "route_name": "KEL-0238",
        "car_seq": "KEL-0238",
        "arrival_time": "1529",
        "departure_time": "1530",
        "district": "西區",
        "village": "忠誠里",
        "location": "台灣大道二段566號",
        "type": "沿街",
        "collection_type": "recycling",
        "day_of_week": 1
      }
    },
    {
      "type": "Feature",
      "geometry": {
        "type": "Point",
        "coordinates": [
          120.65877,
          24.157195
        ]
      },
      "properties": {
        "routeId": "taichung-kel-0238-e41226-d1",
        "city": "taichung",
        "route_name": "KEL-0238",
        "car_seq": "KEL-0238",
        "arrival_time": "1530",
        "departure_time": "1532",
        "district": "西區",
        "village": "忠誠里",
        "location": "台灣大道二段549號",
        "type": "沿街",
        "collection_type": "garbage",
        "day_of_week": 1
      }
    },
    {
      "type": "Feature",
      "geometry": {
        "type": "Point",
        "coordinates": [
          120.65877,
          24.157195
        ]
      },
      "properties": {
        "routeId": "taichung-kel-0238-e41226-d1",
        "city": "taichung",
        "route_name": "KEL-0238",
        "car_seq": "KEL-0238",
        "arrival_time": "1530",
        "departure_time": "1532",
        "district": "西區",
        "village": "忠誠里",
        "location": "台灣大道二段549號",
        "type": "沿街",
        "collection_type": "recycling",
        "day_of_week": 1
      }
    },
    {
      "type": "Feature",
      "geometry": {
        "type": "Point",
        "coordinates": [
          120.658366,
          24.156791
        ]
      },
      "properties": {
        "routeId": "taichung-kel-0238-e41226-d1",
        "city": "taichung",
        "route_name": "KEL-0238",
        "car_seq": "KEL-0238",
        "arrival_time": "1531",
        "departure_time": "1534",
        "district": "西區",
        "village": "忠誠里",
        "location": "精誠三街25號",
        "type": "沿街",
        "collection_type": "garbage",
        "day_of_week": 1
      }
    },
    {
      "type": "Feature",
      "geometry": {
        "type": "Point",
        "coordinates": [
          120.658366,
          24.156791
        ]
      },
      "properties": {
        "routeId": "taichung-kel-0238-e41226-d1",
        "city": "taichung",
        "route_name": "KEL-0238",
        "car_seq": "KEL-0238",
        "arrival_time": "1531",
        "departure_time": "1534",
        "district": "西區",
        "village": "忠誠里",
        "location": "精誠三街25號",
        "type": "沿街",
        "collection_type": "recycling",
        "day_of_week": 1
      }
    },
    {
      "type": "Feature",
      "geometry": {
        "type": "Point",
        "coordinates": [
          120.657615,
          24.157294
        ]
      },
      "properties": {
        "routeId": "taichung-kel-0238-e41226-d1",
        "city": "taichung",
        "route_name": "KEL-0238",
        "car_seq": "KEL-0238",
        "arrival_time": "1539",
        "departure_time": "1540",
        "district": "西區",
        "village": "忠誠里",
        "location": "精誠二街7號",
        "type": "沿街",
        "collection_type": "garbage",
        "day_of_week": 1
      }
    },
    {
      "type": "Feature",
      "geometry": {
        "type": "Point",
        "coordinates": [
          120.657615,
          24.157294
        ]
      },
      "properties": {
        "routeId": "taichung-kel-0238-e41226-d1",
        "city": "taichung",
        "route_name": "KEL-0238",
        "car_seq": "KEL-0238",
        "arrival_time": "1539",
        "departure_time": "1540",
        "district": "西區",
        "village": "忠誠里",
        "location": "精誠二街7號",
        "type": "沿街",
        "collection_type": "recycling",
        "day_of_week": 1
      }
    },
    {
      "type": "Feature",
      "geometry": {
        "type": "Point",
        "coordinates": [
          120.657444,
          24.156786
        ]
      },
      "properties": {
        "routeId": "taichung-kel-0238-e41226-d1",
        "city": "taichung",
        "route_name": "KEL-0238",
        "car_seq": "KEL-0238",
        "arrival_time": "1540",
        "departure_time": "1542",
        "district": "西區",
        "village": "忠誠里",
        "location": "精誠三街12號",
        "type": "沿街",
        "collection_type": "garbage",
        "day_of_week": 1
      }
    },
    {
      "type": "Feature",
      "geometry": {
        "type": "Point",
        "coordinates": [
          120.657444,
          24.156786
        ]
      },
      "properties": {
        "routeId": "taichung-kel-0238-e41226-d1",
        "city": "taichung",
        "route_name": "KEL-0238",
        "car_seq": "KEL-0238",
        "arrival_time": "1540",
        "departure_time": "1542",
        "district": "西區",
        "village": "忠誠里",
        "location": "精誠三街12號",
        "type": "沿街",
        "collection_type": "recycling",
        "day_of_week": 1
      }
    },
    {
      "type": "Feature",
      "geometry": {
        "type": "Point",
        "coordinates": [
          120.657922,
          24.156119
        ]
      },
      "properties": {
        "routeId": "taichung-kel-0238-e41226-d1",
        "city": "taichung",
        "route_name": "KEL-0238",
        "car_seq": "KEL-0238",
        "arrival_time": "1541",
        "departure_time": "1544",
        "district": "西區",
        "village": "忠誠里",
        "location": "精誠三街44號",
        "type": "沿街",
        "collection_type": "garbage",
        "day_of_week": 1
      }
    },
    {
      "type": "Feature",
      "geometry": {
        "type": "Point",
        "coordinates": [
          120.657922,
          24.156119
        ]
      },
      "properties": {
        "routeId": "taichung-kel-0238-e41226-d1",
        "city": "taichung",
        "route_name": "KEL-0238",
        "car_seq": "KEL-0238",
        "arrival_time": "1541",
        "departure_time": "1544",
        "district": "西區",
        "village": "忠誠里",
        "location": "精誠三街44號",
        "type": "沿街",
        "collection_type": "recycling",
        "day_of_week": 1
      }
    },
    {
      "type": "Feature",
      "geometry": {
        "type": "Point",
        "coordinates": [
          120.65705,
          24.156293
        ]
      },
      "properties": {
        "routeId": "taichung-kel-0238-e41226-d1",
        "city": "taichung",
        "route_name": "KEL-0238",
        "car_seq": "KEL-0238",
        "arrival_time": "1546",
        "departure_time": "1549",
        "district": "西區",
        "village": "忠誠里",
        "location": "精誠四街3號",
        "type": "沿街",
        "collection_type": "garbage",
        "day_of_week": 1
      }
    },
    {
      "type": "Feature",
      "geometry": {
        "type": "Point",
        "coordinates": [
          120.65705,
          24.156293
        ]
      },
      "properties": {
        "routeId": "taichung-kel-0238-e41226-d1",
        "city": "taichung",
        "route_name": "KEL-0238",
        "car_seq": "KEL-0238",
        "arrival_time": "1546",
        "departure_time": "1549",
        "district": "西區",
        "village": "忠誠里",
        "location": "精誠四街3號",
        "type": "沿街",
        "collection_type": "recycling",
        "day_of_week": 1
      }
    },
    {
      "type": "Feature",
      "geometry": {
        "type": "Point",
        "coordinates": [
          120.657555,
          24.157461
        ]
      },
      "properties": {
        "routeId": "taichung-kel-0238-e41226-d1",
        "city": "taichung",
        "route_name": "KEL-0238",
        "car_seq": "KEL-0238",
        "arrival_time": "1546",
        "departure_time": "1549",
        "district": "西區",
        "village": "忠誠里",
        "location": "精誠一街6號",
        "type": "沿街",
        "collection_type": "garbage",
        "day_of_week": 1
      }
    },
    {
      "type": "Feature",
      "geometry": {
        "type": "Point",
        "coordinates": [
          120.657555,
          24.157461
        ]
      },
      "properties": {
        "routeId": "taichung-kel-0238-e41226-d1",
        "city": "taichung",
        "route_name": "KEL-0238",
        "car_seq": "KEL-0238",
        "arrival_time": "1546",
        "departure_time": "1549",
        "district": "西區",
        "village": "忠誠里",
        "location": "精誠一街6號",
        "type": "沿街",
        "collection_type": "recycling",
        "day_of_week": 1
      }
    },
    {
      "type": "Feature",
      "geometry": {
        "type": "Point",
        "coordinates": [
          120.658668,
          24.156973
        ]
      },
      "properties": {
        "routeId": "taichung-kel-0238-e41226-d1",
        "city": "taichung",
        "route_name": "KEL-0238",
        "car_seq": "KEL-0238",
        "arrival_time": "1550",
        "departure_time": "1553",
        "district": "西區",
        "village": "忠誠里",
        "location": "精誠一街27號",
        "type": "沿街",
        "collection_type": "garbage",
        "day_of_week": 1
      }
    },
    {
      "type": "Feature",
      "geometry": {
        "type": "Point",
        "coordinates": [
          120.658668,
          24.156973
        ]
      },
      "properties": {
        "routeId": "taichung-kel-0238-e41226-d1",
        "city": "taichung",
        "route_name": "KEL-0238",
        "car_seq": "KEL-0238",
        "arrival_time": "1550",
        "departure_time": "1553",
        "district": "西區",
        "village": "忠誠里",
        "location": "精誠一街27號",
        "type": "沿街",
        "collection_type": "recycling",
        "day_of_week": 1
      }
    },
    {
      "type": "Feature",
      "geometry": {
        "type": "Point",
        "coordinates": [
          120.658704,
          24.156116
        ]
      },
      "properties": {
        "routeId": "taichung-kel-0238-e41226-d1",
        "city": "taichung",
        "route_name": "KEL-0238",
        "car_seq": "KEL-0238",
        "arrival_time": "1551",
        "departure_time": "1554",
        "district": "西區",
        "village": "忠誠里",
        "location": "忠明南路16號",
        "type": "沿街",
        "collection_type": "garbage",
        "day_of_week": 1
      }
    },
    {
      "type": "Feature",
      "geometry": {
        "type": "Point",
        "coordinates": [
          120.658704,
          24.156116
        ]
      },
      "properties": {
        "routeId": "taichung-kel-0238-e41226-d1",
        "city": "taichung",
        "route_name": "KEL-0238",
        "car_seq": "KEL-0238",
        "arrival_time": "1551",
        "departure_time": "1554",
        "district": "西區",
        "village": "忠誠里",
        "location": "忠明南路16號",
        "type": "沿街",
        "collection_type": "recycling",
        "day_of_week": 1
      }
    },
    {
      "type": "Feature",
      "geometry": {
        "type": "Point",
        "coordinates": [
          120.658219,
          24.155297
        ]
      },
      "properties": {
        "routeId": "taichung-kel-0238-e41226-d1",
        "city": "taichung",
        "route_name": "KEL-0238",
        "car_seq": "KEL-0238",
        "arrival_time": "1551",
        "departure_time": "1554",
        "district": "西區",
        "village": "忠誠里",
        "location": "忠明南路54號",
        "type": "沿街",
        "collection_type": "garbage",
        "day_of_week": 1
      }
    },
    {
      "type": "Feature",
      "geometry": {
        "type": "Point",
        "coordinates": [
          120.658219,
          24.155297
        ]
      },
      "properties": {
        "routeId": "taichung-kel-0238-e41226-d1",
        "city": "taichung",
        "route_name": "KEL-0238",
        "car_seq": "KEL-0238",
        "arrival_time": "1551",
        "departure_time": "1554",
        "district": "西區",
        "village": "忠誠里",
        "location": "忠明南路54號",
        "type": "沿街",
        "collection_type": "recycling",
        "day_of_week": 1
      }
    },
    {
      "type": "Feature",
      "geometry": {
        "type": "Point",
        "coordinates": [
          120.657185,
          24.155664
        ]
      },
      "properties": {
        "routeId": "taichung-kel-0238-e41226-d1",
        "city": "taichung",
        "route_name": "KEL-0238",
        "car_seq": "KEL-0238",
        "arrival_time": "1555",
        "departure_time": "1557",
        "district": "西區",
        "village": "忠誠里",
        "location": "精誠五街13號",
        "type": "沿街",
        "collection_type": "garbage",
        "day_of_week": 1
      }
    },
    {
      "type": "Feature",
      "geometry": {
        "type": "Point",
        "coordinates": [
          120.657185,
          24.155664
        ]
      },
      "properties": {
        "routeId": "taichung-kel-0238-e41226-d1",
        "city": "taichung",
        "route_name": "KEL-0238",
        "car_seq": "KEL-0238",
        "arrival_time": "1555",
        "departure_time": "1557",
        "district": "西區",
        "village": "忠誠里",
        "location": "精誠五街13號",
        "type": "沿街",
        "collection_type": "recycling",
        "day_of_week": 1
      }
    },
    {
      "type": "Feature",
      "geometry": {
        "type": "Point",
        "coordinates": [
          120.65646,
          24.155214
        ]
      },
      "properties": {
        "routeId": "taichung-kel-0238-e41226-d1",
        "city": "taichung",
        "route_name": "KEL-0238",
        "car_seq": "KEL-0238",
        "arrival_time": "1559",
        "departure_time": "1600",
        "district": "西區",
        "village": "忠誠里",
        "location": "精誠六街6號",
        "type": "沿街",
        "collection_type": "garbage",
        "day_of_week": 1
      }
    },
    {
      "type": "Feature",
      "geometry": {
        "type": "Point",
        "coordinates": [
          120.65646,
          24.155214
        ]
      },
      "properties": {
        "routeId": "taichung-kel-0238-e41226-d1",
        "city": "taichung",
        "route_name": "KEL-0238",
        "car_seq": "KEL-0238",
        "arrival_time": "1559",
        "departure_time": "1600",
        "district": "西區",
        "village": "忠誠里",
        "location": "精誠六街6號",
        "type": "沿街",
        "collection_type": "recycling",
        "day_of_week": 1
      }
    },
    {
      "type": "Feature",
      "geometry": {
        "type": "Point",
        "coordinates": [
          120.657415,
          24.154692
        ]
      },
      "properties": {
        "routeId": "taichung-kel-0238-e41226-d1",
        "city": "taichung",
        "route_name": "KEL-0238",
        "car_seq": "KEL-0238",
        "arrival_time": "1604",
        "departure_time": "1605",
        "district": "西區",
        "village": "忠誠里",
        "location": "精誠六街32號",
        "type": "沿街",
        "collection_type": "garbage",
        "day_of_week": 1
      }
    },
    {
      "type": "Feature",
      "geometry": {
        "type": "Point",
        "coordinates": [
          120.657415,
          24.154692
        ]
      },
      "properties": {
        "routeId": "taichung-kel-0238-e41226-d1",
        "city": "taichung",
        "route_name": "KEL-0238",
        "car_seq": "KEL-0238",
        "arrival_time": "1604",
        "departure_time": "1605",
        "district": "西區",
        "village": "忠誠里",
        "location": "精誠六街32號",
        "type": "沿街",
        "collection_type": "recycling",
        "day_of_week": 1
      }
    },
    {
      "type": "Feature",
      "geometry": {
        "type": "Point",
        "coordinates": [
          120.65742,
          24.15452
        ]
      },
      "properties": {
        "routeId": "taichung-kel-0238-e41226-d1",
        "city": "taichung",
        "route_name": "KEL-0238",
        "car_seq": "KEL-0238",
        "arrival_time": "1605",
        "departure_time": "1607",
        "district": "西區",
        "village": "忠誠里",
        "location": "精誠七街17號",
        "type": "沿街",
        "collection_type": "garbage",
        "day_of_week": 1
      }
    },
    {
      "type": "Feature",
      "geometry": {
        "type": "Point",
        "coordinates": [
          120.65742,
          24.15452
        ]
      },
      "properties": {
        "routeId": "taichung-kel-0238-e41226-d1",
        "city": "taichung",
        "route_name": "KEL-0238",
        "car_seq": "KEL-0238",
        "arrival_time": "1605",
        "departure_time": "1607",
        "district": "西區",
        "village": "忠誠里",
        "location": "精誠七街17號",
        "type": "沿街",
        "collection_type": "recycling",
        "day_of_week": 1
      }
    },
    {
      "type": "Feature",
      "geometry": {
        "type": "Point",
        "coordinates": [
          120.656277,
          24.155156
        ]
      },
      "properties": {
        "routeId": "taichung-kel-0238-e41226-d1",
        "city": "taichung",
        "route_name": "KEL-0238",
        "car_seq": "KEL-0238",
        "arrival_time": "1610",
        "departure_time": "1612",
        "district": "西區",
        "village": "忠誠里",
        "location": "精誠七街1號",
        "type": "沿街",
        "collection_type": "garbage",
        "day_of_week": 1
      }
    },
    {
      "type": "Feature",
      "geometry": {
        "type": "Point",
        "coordinates": [
          120.656277,
          24.155156
        ]
      },
      "properties": {
        "routeId": "taichung-kel-0238-e41226-d1",
        "city": "taichung",
        "route_name": "KEL-0238",
        "car_seq": "KEL-0238",
        "arrival_time": "1610",
        "departure_time": "1612",
        "district": "西區",
        "village": "忠誠里",
        "location": "精誠七街1號",
        "type": "沿街",
        "collection_type": "recycling",
        "day_of_week": 1
      }
    },
    {
      "type": "Feature",
      "geometry": {
        "type": "Point",
        "coordinates": [
          120.655978,
          24.154778
        ]
      },
      "properties": {
        "routeId": "taichung-kel-0238-e41226-d1",
        "city": "taichung",
        "route_name": "KEL-0238",
        "car_seq": "KEL-0238",
        "arrival_time": "1614",
        "departure_time": "1615",
        "district": "西區",
        "village": "忠誠里",
        "location": "精誠八街1號",
        "type": "沿街",
        "collection_type": "garbage",
        "day_of_week": 1
      }
    },
    {
      "type": "Feature",
      "geometry": {
        "type": "Point",
        "coordinates": [
          120.655978,
          24.154778
        ]
      },
      "properties": {
        "routeId": "taichung-kel-0238-e41226-d1",
        "city": "taichung",
        "route_name": "KEL-0238",
        "car_seq": "KEL-0238",
        "arrival_time": "1614",
        "departure_time": "1615",
        "district": "西區",
        "village": "忠誠里",
        "location": "精誠八街1號",
        "type": "沿街",
        "collection_type": "recycling",
        "day_of_week": 1
      }
    },
    {
      "type": "Feature",
      "geometry": {
        "type": "Point",
        "coordinates": [
          120.656747,
          24.154133
        ]
      },
      "properties": {
        "routeId": "taichung-kel-0238-e41226-d1",
        "city": "taichung",
        "route_name": "KEL-0238",
        "car_seq": "KEL-0238",
        "arrival_time": "1614",
        "departure_time": "1615",
        "district": "西區",
        "village": "忠誠里",
        "location": "精誠八街14巷1號",
        "type": "沿街",
        "collection_type": "garbage",
        "day_of_week": 1
      }
    },
    {
      "type": "Feature",
      "geometry": {
        "type": "Point",
        "coordinates": [
          120.656747,
          24.154133
        ]
      },
      "properties": {
        "routeId": "taichung-kel-0238-e41226-d1",
        "city": "taichung",
        "route_name": "KEL-0238",
        "car_seq": "KEL-0238",
        "arrival_time": "1614",
        "departure_time": "1615",
        "district": "西區",
        "village": "忠誠里",
        "location": "精誠八街14巷1號",
        "type": "沿街",
        "collection_type": "recycling",
        "day_of_week": 1
      }
    },
    {
      "type": "Feature",
      "geometry": {
        "type": "Point",
        "coordinates": [
          120.655041,
          24.154115
        ]
      },
      "properties": {
        "routeId": "taichung-kel-0238-e41226-d1",
        "city": "taichung",
        "route_name": "KEL-0238",
        "car_seq": "KEL-0238",
        "arrival_time": "1616",
        "departure_time": "1619",
        "district": "西區",
        "village": "公平里",
        "location": "精誠路126號",
        "type": "沿街",
        "collection_type": "garbage",
        "day_of_week": 1
      }
    },
    {
      "type": "Feature",
      "geometry": {
        "type": "Point",
        "coordinates": [
          120.655041,
          24.154115
        ]
      },
      "properties": {
        "routeId": "taichung-kel-0238-e41226-d1",
        "city": "taichung",
        "route_name": "KEL-0238",
        "car_seq": "KEL-0238",
        "arrival_time": "1616",
        "departure_time": "1619",
        "district": "西區",
        "village": "公平里",
        "location": "精誠路126號",
        "type": "沿街",
        "collection_type": "recycling",
        "day_of_week": 1
      }
    },
    {
      "type": "Feature",
      "geometry": {
        "type": "Point",
        "coordinates": [
          120.655935,
          24.154084
        ]
      },
      "properties": {
        "routeId": "taichung-kel-0238-e41226-d1",
        "city": "taichung",
        "route_name": "KEL-0238",
        "car_seq": "KEL-0238",
        "arrival_time": "1616",
        "departure_time": "1619",
        "district": "西區",
        "village": "忠誠里",
        "location": "精誠九街5號",
        "type": "沿街",
        "collection_type": "garbage",
        "day_of_week": 1
      }
    },
    {
      "type": "Feature",
      "geometry": {
        "type": "Point",
        "coordinates": [
          120.655935,
          24.154084
        ]
      },
      "properties": {
        "routeId": "taichung-kel-0238-e41226-d1",
        "city": "taichung",
        "route_name": "KEL-0238",
        "car_seq": "KEL-0238",
        "arrival_time": "1616",
        "departure_time": "1619",
        "district": "西區",
        "village": "忠誠里",
        "location": "精誠九街5號",
        "type": "沿街",
        "collection_type": "recycling",
        "day_of_week": 1
      }
    },
    {
      "type": "Feature",
      "geometry": {
        "type": "Point",
        "coordinates": [
          120.654594,
          24.154467
        ]
      },
      "properties": {
        "routeId": "taichung-kel-0238-e41226-d1",
        "city": "taichung",
        "route_name": "KEL-0238",
        "car_seq": "KEL-0238",
        "arrival_time": "1620",
        "departure_time": "1623",
        "district": "西區",
        "village": "公平里",
        "location": "大業北路19號",
        "type": "沿街",
        "collection_type": "garbage",
        "day_of_week": 1
      }
    },
    {
      "type": "Feature",
      "geometry": {
        "type": "Point",
        "coordinates": [
          120.654594,
          24.154467
        ]
      },
      "properties": {
        "routeId": "taichung-kel-0238-e41226-d1",
        "city": "taichung",
        "route_name": "KEL-0238",
        "car_seq": "KEL-0238",
        "arrival_time": "1620",
        "departure_time": "1623",
        "district": "西區",
        "village": "公平里",
        "location": "大業北路19號",
        "type": "沿街",
        "collection_type": "recycling",
        "day_of_week": 1
      }
    },
    {
      "type": "Feature",
      "geometry": {
        "type": "Point",
        "coordinates": [
          120.65389,
          24.1555
        ]
      },
      "properties": {
        "routeId": "taichung-kel-0238-e41226-d1",
        "city": "taichung",
        "route_name": "KEL-0238",
        "car_seq": "KEL-0238",
        "arrival_time": "1621",
        "departure_time": "1624",
        "district": "西區",
        "village": "公平里",
        "location": "東興路280號",
        "type": "沿街",
        "collection_type": "garbage",
        "day_of_week": 1
      }
    },
    {
      "type": "Feature",
      "geometry": {
        "type": "Point",
        "coordinates": [
          120.65389,
          24.1555
        ]
      },
      "properties": {
        "routeId": "taichung-kel-0238-e41226-d1",
        "city": "taichung",
        "route_name": "KEL-0238",
        "car_seq": "KEL-0238",
        "arrival_time": "1621",
        "departure_time": "1624",
        "district": "西區",
        "village": "公平里",
        "location": "東興路280號",
        "type": "沿街",
        "collection_type": "recycling",
        "day_of_week": 1
      }
    },
    {
      "type": "Feature",
      "geometry": {
        "type": "Point",
        "coordinates": [
          120.655244,
          24.154769
        ]
      },
      "properties": {
        "routeId": "taichung-kel-0238-e41226-d1",
        "city": "taichung",
        "route_name": "KEL-0238",
        "car_seq": "KEL-0238",
        "arrival_time": "1625",
        "departure_time": "1627",
        "district": "西區",
        "village": "公平里",
        "location": "大隆路9號",
        "type": "沿街",
        "collection_type": "garbage",
        "day_of_week": 1
      }
    },
    {
      "type": "Feature",
      "geometry": {
        "type": "Point",
        "coordinates": [
          120.655244,
          24.154769
        ]
      },
      "properties": {
        "routeId": "taichung-kel-0238-e41226-d1",
        "city": "taichung",
        "route_name": "KEL-0238",
        "car_seq": "KEL-0238",
        "arrival_time": "1625",
        "departure_time": "1627",
        "district": "西區",
        "village": "公平里",
        "location": "大隆路9號",
        "type": "沿街",
        "collection_type": "recycling",
        "day_of_week": 1
      }
    },
    {
      "type": "Feature",
      "geometry": {
        "type": "Point",
        "coordinates": [
          120.660045,
          24.159832
        ]
      },
      "properties": {
        "routeId": "taichung-kel-0238-e41226-d1",
        "city": "taichung",
        "route_name": "KEL-0238",
        "car_seq": "KEL-0238",
        "arrival_time": "1830",
        "departure_time": "1830",
        "district": "西區",
        "village": "忠誠里",
        "location": "博館路252號",
        "type": "沿街",
        "collection_type": "garbage",
        "day_of_week": 1
      }
    },
    {
      "type": "Feature",
      "geometry": {
        "type": "Point",
        "coordinates": [
          120.660045,
          24.159832
        ]
      },
      "properties": {
        "routeId": "taichung-kel-0238-e41226-d1",
        "city": "taichung",
        "route_name": "KEL-0238",
        "car_seq": "KEL-0238",
        "arrival_time": "1830",
        "departure_time": "1830",
        "district": "西區",
        "village": "忠誠里",
        "location": "博館路252號",
        "type": "沿街",
        "collection_type": "recycling",
        "day_of_week": 1
      }
    },
    {
      "type": "Feature",
      "geometry": {
        "type": "Point",
        "coordinates": [
          120.660832,
          24.160957
        ]
      },
      "properties": {
        "routeId": "taichung-kel-0238-e41226-d1",
        "city": "taichung",
        "route_name": "KEL-0238",
        "car_seq": "KEL-0238",
        "arrival_time": "1831",
        "departure_time": "1834",
        "district": "西區",
        "village": "忠誠里",
        "location": "忠義街38巷2號",
        "type": "沿街",
        "collection_type": "garbage",
        "day_of_week": 1
      }
    },
    {
      "type": "Feature",
      "geometry": {
        "type": "Point",
        "coordinates": [
          120.660832,
          24.160957
        ]
      },
      "properties": {
        "routeId": "taichung-kel-0238-e41226-d1",
        "city": "taichung",
        "route_name": "KEL-0238",
        "car_seq": "KEL-0238",
        "arrival_time": "1831",
        "departure_time": "1834",
        "district": "西區",
        "village": "忠誠里",
        "location": "忠義街38巷2號",
        "type": "沿街",
        "collection_type": "recycling",
        "day_of_week": 1
      }
    },
    {
      "type": "Feature",
      "geometry": {
        "type": "Point",
        "coordinates": [
          120.660737,
          24.162068
        ]
      },
      "properties": {
        "routeId": "taichung-kel-0238-e41226-d1",
        "city": "taichung",
        "route_name": "KEL-0238",
        "car_seq": "KEL-0238",
        "arrival_time": "1836",
        "departure_time": "1839",
        "district": "西區",
        "village": "忠誠里",
        "location": "忠義街38巷7弄16號",
        "type": "沿街",
        "collection_type": "garbage",
        "day_of_week": 1
      }
    },
    {
      "type": "Feature",
      "geometry": {
        "type": "Point",
        "coordinates": [
          120.660737,
          24.162068
        ]
      },
      "properties": {
        "routeId": "taichung-kel-0238-e41226-d1",
        "city": "taichung",
        "route_name": "KEL-0238",
        "car_seq": "KEL-0238",
        "arrival_time": "1836",
        "departure_time": "1839",
        "district": "西區",
        "village": "忠誠里",
        "location": "忠義街38巷7弄16號",
        "type": "沿街",
        "collection_type": "recycling",
        "day_of_week": 1
      }
    },
    {
      "type": "Feature",
      "geometry": {
        "type": "Point",
        "coordinates": [
          120.660222,
          24.160719
        ]
      },
      "properties": {
        "routeId": "taichung-kel-0238-e41226-d1",
        "city": "taichung",
        "route_name": "KEL-0238",
        "car_seq": "KEL-0238",
        "arrival_time": "1839",
        "departure_time": "1840",
        "district": "西區",
        "village": "忠誠里",
        "location": "忠義街51巷1號",
        "type": "沿街",
        "collection_type": "garbage",
        "day_of_week": 1
      }
    },
    {
      "type": "Feature",
      "geometry": {
        "type": "Point",
        "coordinates": [
          120.660222,
          24.160719
        ]
      },
      "properties": {
        "routeId": "taichung-kel-0238-e41226-d1",
        "city": "taichung",
        "route_name": "KEL-0238",
        "car_seq": "KEL-0238",
        "arrival_time": "1839",
        "departure_time": "1840",
        "district": "西區",
        "village": "忠誠里",
        "location": "忠義街51巷1號",
        "type": "沿街",
        "collection_type": "recycling",
        "day_of_week": 1
      }
    },
    {
      "type": "Feature",
      "geometry": {
        "type": "Point",
        "coordinates": [
          120.659649,
          24.160312
        ]
      },
      "properties": {
        "routeId": "taichung-kel-0238-e41226-d1",
        "city": "taichung",
        "route_name": "KEL-0238",
        "car_seq": "KEL-0238",
        "arrival_time": "1844",
        "departure_time": "1845",
        "district": "西區",
        "village": "忠誠里",
        "location": "忠義街51巷32號",
        "type": "沿街",
        "collection_type": "garbage",
        "day_of_week": 1
      }
    },
    {
      "type": "Feature",
      "geometry": {
        "type": "Point",
        "coordinates": [
          120.659649,
          24.160312
        ]
      },
      "properties": {
        "routeId": "taichung-kel-0238-e41226-d1",
        "city": "taichung",
        "route_name": "KEL-0238",
        "car_seq": "KEL-0238",
        "arrival_time": "1844",
        "departure_time": "1845",
        "district": "西區",
        "village": "忠誠里",
        "location": "忠義街51巷32號",
        "type": "沿街",
        "collection_type": "recycling",
        "day_of_week": 1
      }
    },
    {
      "type": "Feature",
      "geometry": {
        "type": "Point",
        "coordinates": [
          120.659392,
          24.159623
        ]
      },
      "properties": {
        "routeId": "taichung-kel-0238-e41226-d1",
        "city": "taichung",
        "route_name": "KEL-0238",
        "car_seq": "KEL-0238",
        "arrival_time": "1846",
        "departure_time": "1849",
        "district": "西區",
        "village": "忠誠里",
        "location": "台灣大道二段580巷40號",
        "type": "沿街",
        "collection_type": "garbage",
        "day_of_week": 1
      }
    },
    {
      "type": "Feature",
      "geometry": {
        "type": "Point",
        "coordinates": [
          120.659392,
          24.159623
        ]
      },
      "properties": {
        "routeId": "taichung-kel-0238-e41226-d1",
        "city": "taichung",
        "route_name": "KEL-0238",
        "car_seq": "KEL-0238",
        "arrival_time": "1846",
        "departure_time": "1849",
        "district": "西區",
        "village": "忠誠里",
        "location": "台灣大道二段580巷40號",
        "type": "沿街",
        "collection_type": "recycling",
        "day_of_week": 1
      }
    },
    {
      "type": "Feature",
      "geometry": {
        "type": "Point",
        "coordinates": [
          120.658394,
          24.158801
        ]
      },
      "properties": {
        "routeId": "taichung-kel-0238-e41226-d1",
        "city": "taichung",
        "route_name": "KEL-0238",
        "car_seq": "KEL-0238",
        "arrival_time": "1851",
        "departure_time": "1854",
        "district": "西區",
        "village": "忠誠里",
        "location": "太原路一段20號",
        "type": "沿街",
        "collection_type": "garbage",
        "day_of_week": 1
      }
    },
    {
      "type": "Feature",
      "geometry": {
        "type": "Point",
        "coordinates": [
          120.658394,
          24.158801
        ]
      },
      "properties": {
        "routeId": "taichung-kel-0238-e41226-d1",
        "city": "taichung",
        "route_name": "KEL-0238",
        "car_seq": "KEL-0238",
        "arrival_time": "1851",
        "departure_time": "1854",
        "district": "西區",
        "village": "忠誠里",
        "location": "太原路一段20號",
        "type": "沿街",
        "collection_type": "recycling",
        "day_of_week": 1
      }
    },
    {
      "type": "Feature",
      "geometry": {
        "type": "Point",
        "coordinates": [
          120.658559,
          24.158694
        ]
      },
      "properties": {
        "routeId": "taichung-kel-0238-e41226-d1",
        "city": "taichung",
        "route_name": "KEL-0238",
        "car_seq": "KEL-0238",
        "arrival_time": "1851",
        "departure_time": "1854",
        "district": "西區",
        "village": "忠誠里",
        "location": "台灣大道二段580巷9號",
        "type": "沿街",
        "collection_type": "garbage",
        "day_of_week": 1
      }
    },
    {
      "type": "Feature",
      "geometry": {
        "type": "Point",
        "coordinates": [
          120.658559,
          24.158694
        ]
      },
      "properties": {
        "routeId": "taichung-kel-0238-e41226-d1",
        "city": "taichung",
        "route_name": "KEL-0238",
        "car_seq": "KEL-0238",
        "arrival_time": "1851",
        "departure_time": "1854",
        "district": "西區",
        "village": "忠誠里",
        "location": "台灣大道二段580巷9號",
        "type": "沿街",
        "collection_type": "recycling",
        "day_of_week": 1
      }
    },
    {
      "type": "Feature",
      "geometry": {
        "type": "Point",
        "coordinates": [
          120.658931,
          24.159631
        ]
      },
      "properties": {
        "routeId": "taichung-kel-0238-e41226-d1",
        "city": "taichung",
        "route_name": "KEL-0238",
        "car_seq": "KEL-0238",
        "arrival_time": "1856",
        "departure_time": "1859",
        "district": "西區",
        "village": "忠誠里",
        "location": "太原路一段66號",
        "type": "沿街",
        "collection_type": "garbage",
        "day_of_week": 1
      }
    },
    {
      "type": "Feature",
      "geometry": {
        "type": "Point",
        "coordinates": [
          120.658931,
          24.159631
        ]
      },
      "properties": {
        "routeId": "taichung-kel-0238-e41226-d1",
        "city": "taichung",
        "route_name": "KEL-0238",
        "car_seq": "KEL-0238",
        "arrival_time": "1856",
        "departure_time": "1859",
        "district": "西區",
        "village": "忠誠里",
        "location": "太原路一段66號",
        "type": "沿街",
        "collection_type": "recycling",
        "day_of_week": 1
      }
    },
    {
      "type": "Feature",
      "geometry": {
        "type": "Point",
        "coordinates": [
          120.66112,
          24.162503
        ]
      },
      "properties": {
        "routeId": "taichung-kel-0238-e41226-d1",
        "city": "taichung",
        "route_name": "KEL-0238",
        "car_seq": "KEL-0238",
        "arrival_time": "1856",
        "departure_time": "1916",
        "district": "西區",
        "village": "忠誠里",
        "location": "太原路一段188號",
        "type": "沿街",
        "collection_type": "recycling",
        "day_of_week": 1
      }
    },
    {
      "type": "Feature",
      "geometry": {
        "type": "Point",
        "coordinates": [
          120.659343,
          24.160264
        ]
      },
      "properties": {
        "routeId": "taichung-kel-0238-e41226-d1",
        "city": "taichung",
        "route_name": "KEL-0238",
        "car_seq": "KEL-0238",
        "arrival_time": "1859",
        "departure_time": "1900",
        "district": "西區",
        "village": "忠誠里",
        "location": "太原路一段92號",
        "type": "沿街",
        "collection_type": "garbage",
        "day_of_week": 1
      }
    },
    {
      "type": "Feature",
      "geometry": {
        "type": "Point",
        "coordinates": [
          120.659343,
          24.160264
        ]
      },
      "properties": {
        "routeId": "taichung-kel-0238-e41226-d1",
        "city": "taichung",
        "route_name": "KEL-0238",
        "car_seq": "KEL-0238",
        "arrival_time": "1859",
        "departure_time": "1900",
        "district": "西區",
        "village": "忠誠里",
        "location": "太原路一段92號",
        "type": "沿街",
        "collection_type": "recycling",
        "day_of_week": 1
      }
    },
    {
      "type": "Feature",
      "geometry": {
        "type": "Point",
        "coordinates": [
          120.660096,
          24.161335
        ]
      },
      "properties": {
        "routeId": "taichung-kel-0238-e41226-d1",
        "city": "taichung",
        "route_name": "KEL-0238",
        "car_seq": "KEL-0238",
        "arrival_time": "1901",
        "departure_time": "1904",
        "district": "西區",
        "village": "忠誠里",
        "location": "太原路一段140號",
        "type": "沿街",
        "collection_type": "garbage",
        "day_of_week": 1
      }
    },
    {
      "type": "Feature",
      "geometry": {
        "type": "Point",
        "coordinates": [
          120.660096,
          24.161335
        ]
      },
      "properties": {
        "routeId": "taichung-kel-0238-e41226-d1",
        "city": "taichung",
        "route_name": "KEL-0238",
        "car_seq": "KEL-0238",
        "arrival_time": "1901",
        "departure_time": "1904",
        "district": "西區",
        "village": "忠誠里",
        "location": "太原路一段140號",
        "type": "沿街",
        "collection_type": "recycling",
        "day_of_week": 1
      }
    },
    {
      "type": "Feature",
      "geometry": {
        "type": "Point",
        "coordinates": [
          120.66112,
          24.162503
        ]
      },
      "properties": {
        "routeId": "taichung-kel-0238-e41226-d1",
        "city": "taichung",
        "route_name": "KEL-0238",
        "car_seq": "KEL-0238",
        "arrival_time": "1906",
        "departure_time": "1909",
        "district": "西區",
        "village": "忠誠里",
        "location": "太原路一段188號",
        "type": "沿街",
        "collection_type": "garbage",
        "day_of_week": 1
      }
    },
    {
      "type": "Feature",
      "geometry": {
        "type": "Point",
        "coordinates": [
          120.662819,
          24.156552
        ]
      },
      "properties": {
        "routeId": "taichung-kel-0238-e41226-d1",
        "city": "taichung",
        "route_name": "KEL-0238",
        "car_seq": "KEL-0238",
        "arrival_time": "1911",
        "departure_time": "1915",
        "district": "西區",
        "village": "忠明里",
        "location": "博館三街77號",
        "type": "沿街",
        "collection_type": "garbage",
        "day_of_week": 1
      }
    },
    {
      "type": "Feature",
      "geometry": {
        "type": "Point",
        "coordinates": [
          120.662819,
          24.156552
        ]
      },
      "properties": {
        "routeId": "taichung-kel-0238-e41226-d1",
        "city": "taichung",
        "route_name": "KEL-0238",
        "car_seq": "KEL-0238",
        "arrival_time": "1911",
        "departure_time": "1915",
        "district": "西區",
        "village": "忠明里",
        "location": "博館三街77號",
        "type": "沿街",
        "collection_type": "recycling",
        "day_of_week": 1
      }
    },
    {
      "type": "Feature",
      "geometry": {
        "type": "Point",
        "coordinates": [
          120.663649,
          24.156928
        ]
      },
      "properties": {
        "routeId": "taichung-kel-0238-e41226-d1",
        "city": "taichung",
        "route_name": "KEL-0238",
        "car_seq": "KEL-0238",
        "arrival_time": "1916",
        "departure_time": "1919",
        "district": "西區",
        "village": "忠明里",
        "location": "健行路1019號",
        "type": "沿街",
        "collection_type": "garbage",
        "day_of_week": 1
      }
    },
    {
      "type": "Feature",
      "geometry": {
        "type": "Point",
        "coordinates": [
          120.663649,
          24.156928
        ]
      },
      "properties": {
        "routeId": "taichung-kel-0238-e41226-d1",
        "city": "taichung",
        "route_name": "KEL-0238",
        "car_seq": "KEL-0238",
        "arrival_time": "1916",
        "departure_time": "1919",
        "district": "西區",
        "village": "忠明里",
        "location": "健行路1019號",
        "type": "沿街",
        "collection_type": "recycling",
        "day_of_week": 1
      }
    },
    {
      "type": "Feature",
      "geometry": {
        "type": "Point",
        "coordinates": [
          120.664565,
          24.156914
        ]
      },
      "properties": {
        "routeId": "taichung-kel-0238-e41226-d1",
        "city": "taichung",
        "route_name": "KEL-0238",
        "car_seq": "KEL-0238",
        "arrival_time": "1919",
        "departure_time": "1920",
        "district": "西區",
        "village": "忠明里",
        "location": "博館路127號",
        "type": "沿街",
        "collection_type": "garbage",
        "day_of_week": 1
      }
    },
    {
      "type": "Feature",
      "geometry": {
        "type": "Point",
        "coordinates": [
          120.664565,
          24.156914
        ]
      },
      "properties": {
        "routeId": "taichung-kel-0238-e41226-d1",
        "city": "taichung",
        "route_name": "KEL-0238",
        "car_seq": "KEL-0238",
        "arrival_time": "1919",
        "departure_time": "1920",
        "district": "西區",
        "village": "忠明里",
        "location": "博館路127號",
        "type": "沿街",
        "collection_type": "recycling",
        "day_of_week": 1
      }
    },
    {
      "type": "Feature",
      "geometry": {
        "type": "Point",
        "coordinates": [
          120.664479,
          24.155963
        ]
      },
      "properties": {
        "routeId": "taichung-kel-0238-e41226-d1",
        "city": "taichung",
        "route_name": "KEL-0238",
        "car_seq": "KEL-0238",
        "arrival_time": "1924",
        "departure_time": "1925",
        "district": "西區",
        "village": "忠明里",
        "location": "中興街341號",
        "type": "沿街",
        "collection_type": "garbage",
        "day_of_week": 1
      }
    },
    {
      "type": "Feature",
      "geometry": {
        "type": "Point",
        "coordinates": [
          120.664479,
          24.155963
        ]
      },
      "properties": {
        "routeId": "taichung-kel-0238-e41226-d1",
        "city": "taichung",
        "route_name": "KEL-0238",
        "car_seq": "KEL-0238",
        "arrival_time": "1924",
        "departure_time": "1925",
        "district": "西區",
        "village": "忠明里",
        "location": "中興街341號",
        "type": "沿街",
        "collection_type": "recycling",
        "day_of_week": 1
      }
    },
    {
      "type": "Feature",
      "geometry": {
        "type": "Point",
        "coordinates": [
          120.663028,
          24.156753
        ]
      },
      "properties": {
        "routeId": "taichung-kel-0238-e41226-d1",
        "city": "taichung",
        "route_name": "KEL-0238",
        "car_seq": "KEL-0238",
        "arrival_time": "1926",
        "departure_time": "1929",
        "district": "西區",
        "village": "忠明里",
        "location": "博館三街78號",
        "type": "沿街",
        "collection_type": "garbage",
        "day_of_week": 1
      }
    },
    {
      "type": "Feature",
      "geometry": {
        "type": "Point",
        "coordinates": [
          120.663028,
          24.156753
        ]
      },
      "properties": {
        "routeId": "taichung-kel-0238-e41226-d1",
        "city": "taichung",
        "route_name": "KEL-0238",
        "car_seq": "KEL-0238",
        "arrival_time": "1926",
        "departure_time": "1929",
        "district": "西區",
        "village": "忠明里",
        "location": "博館三街78號",
        "type": "沿街",
        "collection_type": "recycling",
        "day_of_week": 1
      }
    },
    {
      "type": "Feature",
      "geometry": {
        "type": "Point",
        "coordinates": [
          120.662156,
          24.156911
        ]
      },
      "properties": {
        "routeId": "taichung-kel-0238-e41226-d1",
        "city": "taichung",
        "route_name": "KEL-0238",
        "car_seq": "KEL-0238",
        "arrival_time": "1929",
        "departure_time": "1930",
        "district": "西區",
        "village": "忠明里",
        "location": "中美街605號",
        "type": "沿街",
        "collection_type": "garbage",
        "day_of_week": 1
      }
    },
    {
      "type": "Feature",
      "geometry": {
        "type": "Point",
        "coordinates": [
          120.662156,
          24.156911
        ]
      },
      "properties": {
        "routeId": "taichung-kel-0238-e41226-d1",
        "city": "taichung",
        "route_name": "KEL-0238",
        "car_seq": "KEL-0238",
        "arrival_time": "1929",
        "departure_time": "1930",
        "district": "西區",
        "village": "忠明里",
        "location": "中美街605號",
        "type": "沿街",
        "collection_type": "recycling",
        "day_of_week": 1
      }
    },
    {
      "type": "Feature",
      "geometry": {
        "type": "Point",
        "coordinates": [
          120.661878,
          24.156516
        ]
      },
      "properties": {
        "routeId": "taichung-kel-0238-e41226-d1",
        "city": "taichung",
        "route_name": "KEL-0238",
        "car_seq": "KEL-0238",
        "arrival_time": "1931",
        "departure_time": "1934",
        "district": "西區",
        "village": "忠明里",
        "location": "中美街587號",
        "type": "沿街",
        "collection_type": "garbage",
        "day_of_week": 1
      }
    },
    {
      "type": "Feature",
      "geometry": {
        "type": "Point",
        "coordinates": [
          120.661878,
          24.156516
        ]
      },
      "properties": {
        "routeId": "taichung-kel-0238-e41226-d1",
        "city": "taichung",
        "route_name": "KEL-0238",
        "car_seq": "KEL-0238",
        "arrival_time": "1931",
        "departure_time": "1934",
        "district": "西區",
        "village": "忠明里",
        "location": "中美街587號",
        "type": "沿街",
        "collection_type": "recycling",
        "day_of_week": 1
      }
    },
    {
      "type": "Feature",
      "geometry": {
        "type": "Point",
        "coordinates": [
          120.661831,
          24.156731
        ]
      },
      "properties": {
        "routeId": "taichung-kel-0238-e41226-d1",
        "city": "taichung",
        "route_name": "KEL-0238",
        "car_seq": "KEL-0238",
        "arrival_time": "1931",
        "departure_time": "1934",
        "district": "西區",
        "village": "忠明里",
        "location": "台灣大道二段482巷18號",
        "type": "沿街",
        "collection_type": "garbage",
        "day_of_week": 1
      }
    },
    {
      "type": "Feature",
      "geometry": {
        "type": "Point",
        "coordinates": [
          120.661831,
          24.156731
        ]
      },
      "properties": {
        "routeId": "taichung-kel-0238-e41226-d1",
        "city": "taichung",
        "route_name": "KEL-0238",
        "car_seq": "KEL-0238",
        "arrival_time": "1931",
        "departure_time": "1934",
        "district": "西區",
        "village": "忠明里",
        "location": "台灣大道二段482巷18號",
        "type": "沿街",
        "collection_type": "recycling",
        "day_of_week": 1
      }
    },
    {
      "type": "Feature",
      "geometry": {
        "type": "Point",
        "coordinates": [
          120.662235,
          24.157337
        ]
      },
      "properties": {
        "routeId": "taichung-kel-0238-e41226-d1",
        "city": "taichung",
        "route_name": "KEL-0238",
        "car_seq": "KEL-0238",
        "arrival_time": "1934",
        "departure_time": "1935",
        "district": "西區",
        "village": "忠明里",
        "location": "台灣大道二段482巷30號",
        "type": "沿街",
        "collection_type": "garbage",
        "day_of_week": 1
      }
    },
    {
      "type": "Feature",
      "geometry": {
        "type": "Point",
        "coordinates": [
          120.662235,
          24.157337
        ]
      },
      "properties": {
        "routeId": "taichung-kel-0238-e41226-d1",
        "city": "taichung",
        "route_name": "KEL-0238",
        "car_seq": "KEL-0238",
        "arrival_time": "1934",
        "departure_time": "1935",
        "district": "西區",
        "village": "忠明里",
        "location": "台灣大道二段482巷30號",
        "type": "沿街",
        "collection_type": "recycling",
        "day_of_week": 1
      }
    },
    {
      "type": "Feature",
      "geometry": {
        "type": "Point",
        "coordinates": [
          120.662666,
          24.157986
        ]
      },
      "properties": {
        "routeId": "taichung-kel-0238-e41226-d1",
        "city": "taichung",
        "route_name": "KEL-0238",
        "car_seq": "KEL-0238",
        "arrival_time": "1936",
        "departure_time": "1939",
        "district": "西區",
        "village": "忠明里",
        "location": "台灣大道二段482巷50號",
        "type": "沿街",
        "collection_type": "garbage",
        "day_of_week": 1
      }
    },
    {
      "type": "Feature",
      "geometry": {
        "type": "Point",
        "coordinates": [
          120.662666,
          24.157986
        ]
      },
      "properties": {
        "routeId": "taichung-kel-0238-e41226-d1",
        "city": "taichung",
        "route_name": "KEL-0238",
        "car_seq": "KEL-0238",
        "arrival_time": "1936",
        "departure_time": "1939",
        "district": "西區",
        "village": "忠明里",
        "location": "台灣大道二段482巷50號",
        "type": "沿街",
        "collection_type": "recycling",
        "day_of_week": 1
      }
    },
    {
      "type": "Feature",
      "geometry": {
        "type": "Point",
        "coordinates": [
          120.661704,
          24.157233
        ]
      },
      "properties": {
        "routeId": "taichung-kel-0238-e41226-d1",
        "city": "taichung",
        "route_name": "KEL-0238",
        "car_seq": "KEL-0238",
        "arrival_time": "1939",
        "departure_time": "1940",
        "district": "西區",
        "village": "忠明里",
        "location": "華美街524號",
        "type": "沿街",
        "collection_type": "garbage",
        "day_of_week": 1
      }
    },
    {
      "type": "Feature",
      "geometry": {
        "type": "Point",
        "coordinates": [
          120.661704,
          24.157233
        ]
      },
      "properties": {
        "routeId": "taichung-kel-0238-e41226-d1",
        "city": "taichung",
        "route_name": "KEL-0238",
        "car_seq": "KEL-0238",
        "arrival_time": "1939",
        "departure_time": "1940",
        "district": "西區",
        "village": "忠明里",
        "location": "華美街524號",
        "type": "沿街",
        "collection_type": "recycling",
        "day_of_week": 1
      }
    },
    {
      "type": "Feature",
      "geometry": {
        "type": "Point",
        "coordinates": [
          120.662904,
          24.160437
        ]
      },
      "properties": {
        "routeId": "taichung-kel-0238-e41226-d1",
        "city": "taichung",
        "route_name": "KEL-0238",
        "car_seq": "KEL-0238",
        "arrival_time": "1941",
        "departure_time": "1944",
        "district": "西區",
        "village": "忠誠里",
        "location": "華美西街一段203號",
        "type": "沿街",
        "collection_type": "garbage",
        "day_of_week": 1
      }
    },
    {
      "type": "Feature",
      "geometry": {
        "type": "Point",
        "coordinates": [
          120.662904,
          24.160437
        ]
      },
      "properties": {
        "routeId": "taichung-kel-0238-e41226-d1",
        "city": "taichung",
        "route_name": "KEL-0238",
        "car_seq": "KEL-0238",
        "arrival_time": "1941",
        "departure_time": "1944",
        "district": "西區",
        "village": "忠誠里",
        "location": "華美西街一段203號",
        "type": "沿街",
        "collection_type": "recycling",
        "day_of_week": 1
      }
    },
    {
      "type": "Feature",
      "geometry": {
        "type": "Point",
        "coordinates": [
          120.661441,
          24.158736
        ]
      },
      "properties": {
        "routeId": "taichung-kel-0238-e41226-d1",
        "city": "taichung",
        "route_name": "KEL-0238",
        "car_seq": "KEL-0238",
        "arrival_time": "1941",
        "departure_time": "1944",
        "district": "西區",
        "village": "忠誠里",
        "location": "博館路221號",
        "type": "沿街",
        "collection_type": "garbage",
        "day_of_week": 1
      }
    },
    {
      "type": "Feature",
      "geometry": {
        "type": "Point",
        "coordinates": [
          120.661441,
          24.158736
        ]
      },
      "properties": {
        "routeId": "taichung-kel-0238-e41226-d1",
        "city": "taichung",
        "route_name": "KEL-0238",
        "car_seq": "KEL-0238",
        "arrival_time": "1941",
        "departure_time": "1944",
        "district": "西區",
        "village": "忠誠里",
        "location": "博館路221號",
        "type": "沿街",
        "collection_type": "recycling",
        "day_of_week": 1
      }
    },
    {
      "type": "Feature",
      "geometry": {
        "type": "Point",
        "coordinates": [
          120.662532,
          24.159866
        ]
      },
      "properties": {
        "routeId": "taichung-kel-0238-e41226-d1",
        "city": "taichung",
        "route_name": "KEL-0238",
        "car_seq": "KEL-0238",
        "arrival_time": "1946",
        "departure_time": "1949",
        "district": "西區",
        "village": "忠誠里",
        "location": "華美西街一段187號",
        "type": "沿街",
        "collection_type": "garbage",
        "day_of_week": 1
      }
    },
    {
      "type": "Feature",
      "geometry": {
        "type": "Point",
        "coordinates": [
          120.662532,
          24.159866
        ]
      },
      "properties": {
        "routeId": "taichung-kel-0238-e41226-d1",
        "city": "taichung",
        "route_name": "KEL-0238",
        "car_seq": "KEL-0238",
        "arrival_time": "1946",
        "departure_time": "1949",
        "district": "西區",
        "village": "忠誠里",
        "location": "華美西街一段187號",
        "type": "沿街",
        "collection_type": "recycling",
        "day_of_week": 1
      }
    },
    {
      "type": "Feature",
      "geometry": {
        "type": "Point",
        "coordinates": [
          120.661641,
          24.158384
        ]
      },
      "properties": {
        "routeId": "taichung-kel-0238-e41226-d1",
        "city": "taichung",
        "route_name": "KEL-0238",
        "car_seq": "KEL-0238",
        "arrival_time": "1946",
        "departure_time": "1949",
        "district": "西區",
        "village": "忠誠里",
        "location": "華美西街一段160號",
        "type": "沿街",
        "collection_type": "garbage",
        "day_of_week": 1
      }
    },
    {
      "type": "Feature",
      "geometry": {
        "type": "Point",
        "coordinates": [
          120.661641,
          24.158384
        ]
      },
      "properties": {
        "routeId": "taichung-kel-0238-e41226-d1",
        "city": "taichung",
        "route_name": "KEL-0238",
        "car_seq": "KEL-0238",
        "arrival_time": "1946",
        "departure_time": "1949",
        "district": "西區",
        "village": "忠誠里",
        "location": "華美西街一段160號",
        "type": "沿街",
        "collection_type": "recycling",
        "day_of_week": 1
      }
    },
    {
      "type": "Feature",
      "geometry": {
        "type": "Point",
        "coordinates": [
          120.660799,
          24.157993
        ]
      },
      "properties": {
        "routeId": "taichung-kel-0238-e41226-d1",
        "city": "taichung",
        "route_name": "KEL-0238",
        "car_seq": "KEL-0238",
        "arrival_time": "1949",
        "departure_time": "1950",
        "district": "西區",
        "village": "忠誠里",
        "location": "博館三街136號",
        "type": "沿街",
        "collection_type": "recycling",
        "day_of_week": 1
      }
    },
    {
      "type": "Feature",
      "geometry": {
        "type": "Point",
        "coordinates": [
          120.658362,
          24.156224
        ]
      },
      "properties": {
        "routeId": "taichung-kel-0238-e41226-d1",
        "city": "taichung",
        "route_name": "KEL-0238",
        "car_seq": "KEL-0238",
        "arrival_time": "2045",
        "departure_time": "2050",
        "district": "西區",
        "village": "忠誠里",
        "location": "忠明南路12巷7號",
        "type": "定點",
        "collection_type": "garbage",
        "day_of_week": 1
      }
    },
    {
      "type": "Feature",
      "geometry": {
        "type": "Point",
        "coordinates": [
          120.658362,
          24.156224
        ]
      },
      "properties": {
        "routeId": "taichung-kel-0238-e41226-d1",
        "city": "taichung",
        "route_name": "KEL-0238",
        "car_seq": "KEL-0238",
        "arrival_time": "2045",
        "departure_time": "2050",
        "district": "西區",
        "village": "忠誠里",
        "location": "忠明南路12巷7號",
        "type": "定點",
        "collection_type": "recycling",
        "day_of_week": 1
      }
    }
  ]
}