{
  "type": "FeatureCollection",
  "features": [
    {
      "type": "Feature",
      "geometry": {
        "type": "Point",
        "coordinates": [
          120.575439,
          24.281663
        ]
      },
      "properties": {
        "routeId": "taichung-ked-3329-a722fc-d1",
        "city": "taichung",
        "route_name": "KED-3329",
        "car_seq": "KED-3329",
        "arrival_time": "0613",
        "departure_time": "0618",
        "district": "清水區",
        "village": "田寮里",
        "location": "高美路162之16號",
        "type": "沿街",
        "collection_type": "garbage",
        "day_of_week": 1
      }
    },
    {
      "type": "Feature",
      "geometry": {
        "type": "Point",
        "coordinates": [
          120.575439,
          24.281663
        ]
      },
      "properties": {
        "routeId": "taichung-ked-3329-a722fc-d1",
        "city": "taichung",
        "route_name": "KED-3329",
        "car_seq": "KED-3329",
        "arrival_time": "0613",
        "departure_time": "0618",
        "district": "清水區",
        "village": "田寮里",
        "location": "高美路162之16號",
        "type": "沿街",
        "collection_type": "recycling",
        "day_of_week": 1
      }
    },
    {
      "type": "Feature",
      "geometry": {
        "type": "Point",
        "coordinates": [
          120.575,
          24.287354
        ]
      },
      "properties": {
        "routeId": "taichung-ked-3329-a722fc-d1",
        "city": "taichung",
        "route_name": "KED-3329",
        "car_seq": "KED-3329",
        "arrival_time": "0618",
        "departure_time": "0623",
        "district": "清水區",
        "village": "國姓里",
        "location": "高美路238之1號",
        "type": "沿街",
        "collection_type": "garbage",
        "day_of_week": 1
      }
    },
    {
      "type": "Feature",
      "geometry": {
        "type": "Point",
        "coordinates": [
          120.575,
          24.287354
        ]
      },
      "properties": {
        "routeId": "taichung-ked-3329-a722fc-d1",
        "city": "taichung",
        "route_name": "KED-3329",
        "car_seq": "KED-3329",
        "arrival_time": "0618",
        "departure_time": "0623",
        "district": "清水區",
        "village": "國姓里",
        "location": "高美路238之1號",
        "type": "沿街",
        "collection_type": "recycling",
        "day_of_week": 1
      }
    },
    {
      "type": "Feature",
      "geometry": {
        "type": "Point",
        "coordinates": [
          120.566574,
          24.292165
        ]
      },
      "properties": {
        "routeId": "taichung-ked-3329-a722fc-d1",
        "city": "taichung",
        "route_name": "KED-3329",
        "car_seq": "KED-3329",
        "arrival_time": "0623",
        "departure_time": "0628",
        "district": "清水區",
        "village": "臨江里",
        "location": "高美路392巷7號",
        "type": "定點",
        "collection_type": "garbage",
        "day_of_week": 1
      }
    },
    {
      "type": "Feature",
      "geometry": {
        "type": "Point",
        "coordinates": [
          120.566574,
          24.292165
        ]
      },
      "properties": {
        "routeId": "taichung-ked-3329-a722fc-d1",
        "city": "taichung",
        "route_name": "KED-3329",
        "car_seq": "KED-3329",
        "arrival_time": "0623",
        "departure_time": "0628",
        "district": "清水區",
        "village": "臨江里",
        "location": "高美路392巷7號",
        "type": "定點",
        "collection_type": "recycling",
        "day_of_week": 1
      }
    },
    {
      "type": "Feature",
      "geometry": {
        "type": "Point",
        "coordinates": [
          120.566029,
          24.292756
        ]
      },
      "properties": {
        "routeId": "taichung-ked-3329-a722fc-d1",
        "city": "taichung",
        "route_name": "KED-3329",
        "car_seq": "KED-3329",
        "arrival_time": "0635",
        "departure_time": "0640",
        "district": "清水區",
        "village": "臨江里",
        "location": "高美路422巷2號",
        "type": "定點",
        "collection_type": "garbage",
        "day_of_week": 1
      }
    },
    {
      "type": "Feature",
      "geometry": {
        "type": "Point",
        "coordinates": [
          120.566029,
          24.292756
        ]
      },
      "properties": {
        "routeId": "taichung-ked-3329-a722fc-d1",
        "city": "taichung",
        "route_name": "KED-3329",
        "car_seq": "KED-3329",
        "arrival_time": "0635",
        "departure_time": "0640",
        "district": "清水區",
        "village": "臨江里",
        "location": "高美路422巷2號",
        "type": "定點",
        "collection_type": "recycling",
        "day_of_week": 1
      }
    },
    {
      "type": "Feature",
      "geometry": {
        "type": "Point",
        "coordinates": [
          120.563074,
          24.294726
        ]
      },
      "properties": {
        "routeId": "taichung-ked-3329-a722fc-d1",
        "city": "taichung",
        "route_name": "KED-3329",
        "car_seq": "KED-3329",
        "arrival_time": "0642",
        "departure_time": "0647",
        "district": "清水區",
        "village": "臨江里",
        "location": "高美路425巷9號",
        "type": "沿街",
        "collection_type": "garbage",
        "day_of_week": 1
      }
    },
    {
      "type": "Feature",
      "geometry": {
        "type": "Point",
        "coordinates": [
          120.563074,
          24.294726
        ]
      },
      "properties": {
        "routeId": "taichung-ked-3329-a722fc-d1",
        "city": "taichung",
        "route_name": "KED-3329",
        "car_seq": "KED-3329",
        "arrival_time": "0642",
        "departure_time": "0647",
        "district": "清水區",
        "village": "臨江里",
        "location": "高美路425巷9號",
        "type": "沿街",
        "collection_type": "recycling",
        "day_of_week": 1
      }
    },
    {
      "type": "Feature",
      "geometry": {
        "type": "Point",
        "coordinates": [
          120.544281,
          24.290928
        ]
      },
      "properties": {
        "routeId": "taichung-ked-3329-a722fc-d1",
        "city": "taichung",
        "route_name": "KED-3329",
        "car_seq": "KED-3329",
        "arrival_time": "0649",
        "departure_time": "0654",
        "district": "清水區",
        "village": "海濱里",
        "location": "臨港路六段102巷18號",
        "type": "沿街",
        "collection_type": "garbage",
        "day_of_week": 1
      }
    },
    {
      "type": "Feature",
      "geometry": {
        "type": "Point",
        "coordinates": [
          120.544281,
          24.290928
        ]
      },
      "properties": {
        "routeId": "taichung-ked-3329-a722fc-d1",
        "city": "taichung",
        "route_name": "KED-3329",
        "car_seq": "KED-3329",
        "arrival_time": "0649",
        "departure_time": "0654",
        "district": "清水區",
        "village": "海濱里",
        "location": "臨港路六段102巷18號",
        "type": "沿街",
        "collection_type": "recycling",
        "day_of_week": 1
      }
    },
    {
      "type": "Feature",
      "geometry": {
        "type": "Point",
        "coordinates": [
          120.546227,
          24.285744
        ]
      },
      "properties": {
        "routeId": "taichung-ked-3329-a722fc-d1",
        "city": "taichung",
        "route_name": "KED-3329",
        "car_seq": "KED-3329",
        "arrival_time": "0655",
        "departure_time": "0658",
        "district": "清水區",
        "village": "海濱里",
        "location": "漁港路242巷2弄3號",
        "type": "沿街",
        "collection_type": "garbage",
        "day_of_week": 1
      }
    },
    {
      "type": "Feature",
      "geometry": {
        "type": "Point",
        "coordinates": [
          120.546227,
          24.285744
        ]
      },
      "properties": {
        "routeId": "taichung-ked-3329-a722fc-d1",
        "city": "taichung",
        "route_name": "KED-3329",
        "car_seq": "KED-3329",
        "arrival_time": "0655",
        "departure_time": "0658",
        "district": "清水區",
        "village": "海濱里",
        "location": "漁港路242巷2弄3號",
        "type": "沿街",
        "collection_type": "recycling",
        "day_of_week": 1
      }
    },
    {
      "type": "Feature",
      "geometry": {
        "type": "Point",
        "coordinates": [
          120.540454,
          24.270976
        ]
      },
      "properties": {
        "routeId": "taichung-ked-3329-a722fc-d1",
        "city": "taichung",
        "route_name": "KED-3329",
        "car_seq": "KED-3329",
        "arrival_time": "0701",
        "departure_time": "0706",
        "district": "清水區",
        "village": "槺榔里",
        "location": "港口路200巷36號",
        "type": "沿街",
        "collection_type": "garbage",
        "day_of_week": 1
      }
    },
    {
      "type": "Feature",
      "geometry": {
        "type": "Point",
        "coordinates": [
          120.540454,
          24.270976
        ]
      },
      "properties": {
        "routeId": "taichung-ked-3329-a722fc-d1",
        "city": "taichung",
        "route_name": "KED-3329",
        "car_seq": "KED-3329",
        "arrival_time": "0701",
        "departure_time": "0706",
        "district": "清水區",
        "village": "槺榔里",
        "location": "港口路200巷36號",
        "type": "沿街",
        "collection_type": "recycling",
        "day_of_week": 1
      }
    },
    {
      "type": "Feature",
      "geometry": {
        "type": "Point",
        "coordinates": [
          120.544742,
          24.272058
        ]
      },
      "properties": {
        "routeId": "taichung-ked-3329-a722fc-d1",
        "city": "taichung",
        "route_name": "KED-3329",
        "car_seq": "KED-3329",
        "arrival_time": "0710",
        "departure_time": "0713",
        "district": "清水區",
        "village": "槺榔里",
        "location": "港口路200巷11之5號",
        "type": "沿街",
        "collection_type": "garbage",
        "day_of_week": 1
      }
    },
    {
      "type": "Feature",
      "geometry": {
        "type": "Point",
        "coordinates": [
          120.544742,
          24.272058
        ]
      },
      "properties": {
        "routeId": "taichung-ked-3329-a722fc-d1",
        "city": "taichung",
        "route_name": "KED-3329",
        "car_seq": "KED-3329",
        "arrival_time": "0710",
        "departure_time": "0713",
        "district": "清水區",
        "village": "槺榔里",
        "location": "港口路200巷11之5號",
        "type": "沿街",
        "collection_type": "recycling",
        "day_of_week": 1
      }
    },
    {
      "type": "Feature",
      "geometry": {
        "type": "Point",
        "coordinates": [
          120.54979,
          24.275147
        ]
      },
      "properties": {
        "routeId": "taichung-ked-3329-a722fc-d1",
        "city": "taichung",
        "route_name": "KED-3329",
        "car_seq": "KED-3329",
        "arrival_time": "0717",
        "departure_time": "0720",
        "district": "清水區",
        "village": "武鹿里",
        "location": "中央路54之27號",
        "type": "沿街",
        "collection_type": "garbage",
        "day_of_week": 1
      }
    },
    {
      "type": "Feature",
      "geometry": {
        "type": "Point",
        "coordinates": [
          120.54979,
          24.275147
        ]
      },
      "properties": {
        "routeId": "taichung-ked-3329-a722fc-d1",
        "city": "taichung",
        "route_name": "KED-3329",
        "car_seq": "KED-3329",
        "arrival_time": "0717",
        "departure_time": "0720",
        "district": "清水區",
        "village": "武鹿里",
        "location": "中央路54之27號",
        "type": "沿街",
        "collection_type": "recycling",
        "day_of_week": 1
      }
    },
    {
      "type": "Feature",
      "geometry": {
        "type": "Point",
        "coordinates": [
          120.549834,
          24.277802
        ]
      },
      "properties": {
        "routeId": "taichung-ked-3329-a722fc-d1",
        "city": "taichung",
        "route_name": "KED-3329",
        "car_seq": "KED-3329",
        "arrival_time": "0721",
        "departure_time": "0724",
        "district": "清水區",
        "village": "武鹿里",
        "location": "中清路9段876巷36弄3號",
        "type": "沿街",
        "collection_type": "garbage",
        "day_of_week": 1
      }
    },
    {
      "type": "Feature",
      "geometry": {
        "type": "Point",
        "coordinates": [
          120.549834,
          24.277802
        ]
      },
      "properties": {
        "routeId": "taichung-ked-3329-a722fc-d1",
        "city": "taichung",
        "route_name": "KED-3329",
        "car_seq": "KED-3329",
        "arrival_time": "0721",
        "departure_time": "0724",
        "district": "清水區",
        "village": "武鹿里",
        "location": "中清路9段876巷36弄3號",
        "type": "沿街",
        "collection_type": "recycling",
        "day_of_week": 1
      }
    },
    {
      "type": "Feature",
      "geometry": {
        "type": "Point",
        "coordinates": [
          120.551636,
          24.280325
        ]
      },
      "properties": {
        "routeId": "taichung-ked-3329-a722fc-d1",
        "city": "taichung",
        "route_name": "KED-3329",
        "car_seq": "KED-3329",
        "arrival_time": "0726",
        "departure_time": "0729",
        "district": "清水區",
        "village": "武鹿里",
        "location": "五權路501巷8號",
        "type": "沿街",
        "collection_type": "garbage",
        "day_of_week": 1
      }
    },
    {
      "type": "Feature",
      "geometry": {
        "type": "Point",
        "coordinates": [
          120.551636,
          24.280325
        ]
      },
      "properties": {
        "routeId": "taichung-ked-3329-a722fc-d1",
        "city": "taichung",
        "route_name": "KED-3329",
        "car_seq": "KED-3329",
        "arrival_time": "0726",
        "departure_time": "0729",
        "district": "清水區",
        "village": "武鹿里",
        "location": "五權路501巷8號",
        "type": "沿街",
        "collection_type": "recycling",
        "day_of_week": 1
      }
    },
    {
      "type": "Feature",
      "geometry": {
        "type": "Point",
        "coordinates": [
          120.572646,
          24.27693
        ]
      },
      "properties": {
        "routeId": "taichung-ked-3329-a722fc-d1",
        "city": "taichung",
        "route_name": "KED-3329",
        "car_seq": "KED-3329",
        "arrival_time": "0739",
        "departure_time": "0742",
        "district": "清水區",
        "village": "橋頭里",
        "location": "中華路581巷1號",
        "type": "沿街",
        "collection_type": "garbage",
        "day_of_week": 1
      }
    },
    {
      "type": "Feature",
      "geometry": {
        "type": "Point",
        "coordinates": [
          120.572646,
          24.27693
        ]
      },
      "properties": {
        "routeId": "taichung-ked-3329-a722fc-d1",
        "city": "taichung",
        "route_name": "KED-3329",
        "car_seq": "KED-3329",
        "arrival_time": "0739",
        "departure_time": "0742",
        "district": "清水區",
        "village": "橋頭里",
        "location": "中華路581巷1號",
        "type": "沿街",
        "collection_type": "recycling",
        "day_of_week": 1
      }
    },
    {
      "type": "Feature",
      "geometry": {
        "type": "Point",
        "coordinates": [
          120.572335,
          24.272151
        ]
      },
      "properties": {
        "routeId": "taichung-ked-3329-a722fc-d1",
        "city": "taichung",
        "route_name": "KED-3329",
        "car_seq": "KED-3329",
        "arrival_time": "0742",
        "departure_time": "0745",
        "district": "清水區",
        "village": "西社里",
        "location": "海濱路32之8號",
        "type": "沿街",
        "collection_type": "garbage",
        "day_of_week": 1
      }
    },
    {
      "type": "Feature",
      "geometry": {
        "type": "Point",
        "coordinates": [
          120.572335,
          24.272151
        ]
      },
      "properties": {
        "routeId": "taichung-ked-3329-a722fc-d1",
        "city": "taichung",
        "route_name": "KED-3329",
        "car_seq": "KED-3329",
        "arrival_time": "0742",
        "departure_time": "0745",
        "district": "清水區",
        "village": "西社里",
        "location": "海濱路32之8號",
        "type": "沿街",
        "collection_type": "recycling",
        "day_of_week": 1
      }
    },
    {
      "type": "Feature",
      "geometry": {
        "type": "Point",
        "coordinates": [
          120.574104,
          24.273897
        ]
      },
      "properties": {
        "routeId": "taichung-ked-3329-a722fc-d1",
        "city": "taichung",
        "route_name": "KED-3329",
        "car_seq": "KED-3329",
        "arrival_time": "0747",
        "departure_time": "0750",
        "district": "清水區",
        "village": "橋頭里",
        "location": "鎮新路66巷1弄77號",
        "type": "沿街",
        "collection_type": "garbage",
        "day_of_week": 1
      }
    },
    {
      "type": "Feature",
      "geometry": {
        "type": "Point",
        "coordinates": [
          120.574104,
          24.273897
        ]
      },
      "properties": {
        "routeId": "taichung-ked-3329-a722fc-d1",
        "city": "taichung",
        "route_name": "KED-3329",
        "car_seq": "KED-3329",
        "arrival_time": "0747",
        "departure_time": "0750",
        "district": "清水區",
        "village": "橋頭里",
        "location": "鎮新路66巷1弄77號",
        "type": "沿街",
        "collection_type": "recycling",
        "day_of_week": 1
      }
    },
    {
      "type": "Feature",
      "geometry": {
        "type": "Point",
        "coordinates": [
          120.575976,
          24.275548
        ]
      },
      "properties": {
        "routeId": "taichung-ked-3329-a722fc-d1",
        "city": "taichung",
        "route_name": "KED-3329",
        "car_seq": "KED-3329",
        "arrival_time": "0750",
        "departure_time": "0753",
        "district": "清水區",
        "village": "西寧里",
        "location": "五權東路27之9號",
        "type": "沿街",
        "collection_type": "garbage",
        "day_of_week": 1
      }
    },
    {
      "type": "Feature",
      "geometry": {
        "type": "Point",
        "coordinates": [
          120.575976,
          24.275548
        ]
      },
      "properties": {
        "routeId": "taichung-ked-3329-a722fc-d1",
        "city": "taichung",
        "route_name": "KED-3329",
        "car_seq": "KED-3329",
        "arrival_time": "0750",
        "departure_time": "0753",
        "district": "清水區",
        "village": "西寧里",
        "location": "五權東路27之9號",
        "type": "沿街",
        "collection_type": "recycling",
        "day_of_week": 1
      }
    },
    {
      "type": "Feature",
      "geometry": {
        "type": "Point",
        "coordinates": [
          120.577485,
          24.267381
        ]
      },
      "properties": {
        "routeId": "taichung-ked-3329-a722fc-d1",
        "city": "taichung",
        "route_name": "KED-3329",
        "car_seq": "KED-3329",
        "arrival_time": "0802",
        "departure_time": "0805",
        "district": "清水區",
        "village": "鰲峰里",
        "location": "大街路觀音巷55號",
        "type": "沿街",
        "collection_type": "garbage",
        "day_of_week": 1
      }
    },
    {
      "type": "Feature",
      "geometry": {
        "type": "Point",
        "coordinates": [
          120.577485,
          24.267381
        ]
      },
      "properties": {
        "routeId": "taichung-ked-3329-a722fc-d1",
        "city": "taichung",
        "route_name": "KED-3329",
        "car_seq": "KED-3329",
        "arrival_time": "0802",
        "departure_time": "0805",
        "district": "清水區",
        "village": "鰲峰里",
        "location": "大街路觀音巷55號",
        "type": "沿街",
        "collection_type": "recycling",
        "day_of_week": 1
      }
    },
    {
      "type": "Feature",
      "geometry": {
        "type": "Point",
        "coordinates": [
          120.579948,
          24.268039
        ]
      },
      "properties": {
        "routeId": "taichung-ked-3329-a722fc-d1",
        "city": "taichung",
        "route_name": "KED-3329",
        "car_seq": "KED-3329",
        "arrival_time": "0807",
        "departure_time": "0810",
        "district": "清水區",
        "village": "鰲峰里",
        "location": "鰲海路55巷8號",
        "type": "沿街",
        "collection_type": "garbage",
        "day_of_week": 1
      }
    },
    {
      "type": "Feature",
      "geometry": {
        "type": "Point",
        "coordinates": [
          120.579948,
          24.268039
        ]
      },
      "properties": {
        "routeId": "taichung-ked-3329-a722fc-d1",
        "city": "taichung",
        "route_name": "KED-3329",
        "car_seq": "KED-3329",
        "arrival_time": "0807",
        "departure_time": "0810",
        "district": "清水區",
        "village": "鰲峰里",
        "location": "鰲海路55巷8號",
        "type": "沿街",
        "collection_type": "recycling",
        "day_of_week": 1
      }
    },
    {
      "type": "Feature",
      "geometry": {
        "type": "Point",
        "coordinates": [
          120.5797,
          24.272169
        ]
      },
      "properties": {
        "routeId": "taichung-ked-3329-a722fc-d1",
        "city": "taichung",
        "route_name": "KED-3329",
        "car_seq": "KED-3329",
        "arrival_time": "0812",
        "departure_time": "0815",
        "district": "清水區",
        "village": "鰲峰里",
        "location": "光明路36巷10號",
        "type": "沿街",
        "collection_type": "garbage",
        "day_of_week": 1
      }
    },
    {
      "type": "Feature",
      "geometry": {
        "type": "Point",
        "coordinates": [
          120.5797,
          24.272169
        ]
      },
      "properties": {
        "routeId": "taichung-ked-3329-a722fc-d1",
        "city": "taichung",
        "route_name": "KED-3329",
        "car_seq": "KED-3329",
        "arrival_time": "0812",
        "departure_time": "0815",
        "district": "清水區",
        "village": "鰲峰里",
        "location": "光明路36巷10號",
        "type": "沿街",
        "collection_type": "recycling",
        "day_of_week": 1
      }
    },
    {
      "type": "Feature",
      "geometry": {
        "type": "Point",
        "coordinates": [
          120.578806,
          24.273795
        ]
      },
      "properties": {
        "routeId": "taichung-ked-3329-a722fc-d1",
        "city": "taichung",
        "route_name": "KED-3329",
        "car_seq": "KED-3329",
        "arrival_time": "0815",
        "departure_time": "0818",
        "district": "清水區",
        "village": "北寧里",
        "location": "中山路306巷28號",
        "type": "沿街",
        "collection_type": "garbage",
        "day_of_week": 1
      }
    },
    {
      "type": "Feature",
      "geometry": {
        "type": "Point",
        "coordinates": [
          120.578806,
          24.273795
        ]
      },
      "properties": {
        "routeId": "taichung-ked-3329-a722fc-d1",
        "city": "taichung",
        "route_name": "KED-3329",
        "car_seq": "KED-3329",
        "arrival_time": "0815",
        "departure_time": "0818",
        "district": "清水區",
        "village": "北寧里",
        "location": "中山路306巷28號",
        "type": "沿街",
        "collection_type": "recycling",
        "day_of_week": 1
      }
    },
    {
      "type": "Feature",
      "geometry": {
        "type": "Point",
        "coordinates": [
          120.577714,
          24.27553
        ]
      },
      "properties": {
        "routeId": "taichung-ked-3329-a722fc-d1",
        "city": "taichung",
        "route_name": "KED-3329",
        "car_seq": "KED-3329",
        "arrival_time": "0823",
        "departure_time": "0826",
        "district": "清水區",
        "village": "下湳里",
        "location": "中山路332之1號",
        "type": "沿街",
        "collection_type": "garbage",
        "day_of_week": 1
      }
    },
    {
      "type": "Feature",
      "geometry": {
        "type": "Point",
        "coordinates": [
          120.577714,
          24.27553
        ]
      },
      "properties": {
        "routeId": "taichung-ked-3329-a722fc-d1",
        "city": "taichung",
        "route_name": "KED-3329",
        "car_seq": "KED-3329",
        "arrival_time": "0823",
        "departure_time": "0826",
        "district": "清水區",
        "village": "下湳里",
        "location": "中山路332之1號",
        "type": "沿街",
        "collection_type": "recycling",
        "day_of_week": 1
      }
    },
    {
      "type": "Feature",
      "geometry": {
        "type": "Point",
        "coordinates": [
          120.580205,
          24.275041
        ]
      },
      "properties": {
        "routeId": "taichung-ked-3329-a722fc-d1",
        "city": "taichung",
        "route_name": "KED-3329",
        "car_seq": "KED-3329",
        "arrival_time": "0827",
        "departure_time": "0830",
        "district": "清水區",
        "village": "下湳里",
        "location": "福圳街一段51巷25號",
        "type": "沿街",
        "collection_type": "garbage",
        "day_of_week": 1
      }
    },
    {
      "type": "Feature",
      "geometry": {
        "type": "Point",
        "coordinates": [
          120.580205,
          24.275041
        ]
      },
      "properties": {
        "routeId": "taichung-ked-3329-a722fc-d1",
        "city": "taichung",
        "route_name": "KED-3329",
        "car_seq": "KED-3329",
        "arrival_time": "0827",
        "departure_time": "0830",
        "district": "清水區",
        "village": "下湳里",
        "location": "福圳街一段51巷25號",
        "type": "沿街",
        "collection_type": "recycling",
        "day_of_week": 1
      }
    },
    {
      "type": "Feature",
      "geometry": {
        "type": "Point",
        "coordinates": [
          120.581954,
          24.274972
        ]
      },
      "properties": {
        "routeId": "taichung-ked-3329-a722fc-d1",
        "city": "taichung",
        "route_name": "KED-3329",
        "car_seq": "KED-3329",
        "arrival_time": "0833",
        "departure_time": "0836",
        "district": "清水區",
        "village": "下湳里",
        "location": "福圳街一段99號",
        "type": "沿街",
        "collection_type": "garbage",
        "day_of_week": 1
      }
    },
    {
      "type": "Feature",
      "geometry": {
        "type": "Point",
        "coordinates": [
          120.581954,
          24.274972
        ]
      },
      "properties": {
        "routeId": "taichung-ked-3329-a722fc-d1",
        "city": "taichung",
        "route_name": "KED-3329",
        "car_seq": "KED-3329",
        "arrival_time": "0833",
        "departure_time": "0836",
        "district": "清水區",
        "village": "下湳里",
        "location": "福圳街一段99號",
        "type": "沿街",
        "collection_type": "recycling",
        "day_of_week": 1
      }
    },
    {
      "type": "Feature",
      "geometry": {
        "type": "Point",
        "coordinates": [
          120.581539,
          24.279098
        ]
      },
      "properties": {
        "routeId": "taichung-ked-3329-a722fc-d1",
        "city": "taichung",
        "route_name": "KED-3329",
        "car_seq": "KED-3329",
        "arrival_time": "0838",
        "departure_time": "0841",
        "district": "清水區",
        "village": "下湳里",
        "location": "中山路432之1號路口",
        "type": "定點",
        "collection_type": "garbage",
        "day_of_week": 1
      }
    },
    {
      "type": "Feature",
      "geometry": {
        "type": "Point",
        "coordinates": [
          120.581539,
          24.279098
        ]
      },
      "properties": {
        "routeId": "taichung-ked-3329-a722fc-d1",
        "city": "taichung",
        "route_name": "KED-3329",
        "car_seq": "KED-3329",
        "arrival_time": "0838",
        "departure_time": "0841",
        "district": "清水區",
        "village": "下湳里",
        "location": "中山路432之1號路口",
        "type": "定點",
        "collection_type": "recycling",
        "day_of_week": 1
      }
    },
    {
      "type": "Feature",
      "geometry": {
        "type": "Point",
        "coordinates": [
          120.589472,
          24.284178
        ]
      },
      "properties": {
        "routeId": "taichung-ked-3329-a722fc-d1",
        "city": "taichung",
        "route_name": "KED-3329",
        "car_seq": "KED-3329",
        "arrival_time": "0847",
        "departure_time": "0850",
        "district": "清水區",
        "village": "下湳里",
        "location": "福圳街二段2號",
        "type": "沿街",
        "collection_type": "garbage",
        "day_of_week": 1
      }
    },
    {
      "type": "Feature",
      "geometry": {
        "type": "Point",
        "coordinates": [
          120.589472,
          24.284178
        ]
      },
      "properties": {
        "routeId": "taichung-ked-3329-a722fc-d1",
        "city": "taichung",
        "route_name": "KED-3329",
        "car_seq": "KED-3329",
        "arrival_time": "0847",
        "departure_time": "0850",
        "district": "清水區",
        "village": "下湳里",
        "location": "福圳街二段2號",
        "type": "沿街",
        "collection_type": "recycling",
        "day_of_week": 1
      }
    },
    {
      "type": "Feature",
      "geometry": {
        "type": "Point",
        "coordinates": [
          120.596525,
          24.293617
        ]
      },
      "properties": {
        "routeId": "taichung-ked-3329-a722fc-d1",
        "city": "taichung",
        "route_name": "KED-3329",
        "car_seq": "KED-3329",
        "arrival_time": "0852",
        "departure_time": "0855",
        "district": "清水區",
        "village": "頂湳里",
        "location": "福圳街二段407號",
        "type": "沿街",
        "collection_type": "garbage",
        "day_of_week": 1
      }
    },
    {
      "type": "Feature",
      "geometry": {
        "type": "Point",
        "coordinates": [
          120.596525,
          24.293617
        ]
      },
      "properties": {
        "routeId": "taichung-ked-3329-a722fc-d1",
        "city": "taichung",
        "route_name": "KED-3329",
        "car_seq": "KED-3329",
        "arrival_time": "0852",
        "departure_time": "0855",
        "district": "清水區",
        "village": "頂湳里",
        "location": "福圳街二段407號",
        "type": "沿街",
        "collection_type": "recycling",
        "day_of_week": 1
      }
    },
    {
      "type": "Feature",
      "geometry": {
        "type": "Point",
        "coordinates": [
          120.588882,
          24.284528
        ]
      },
      "properties": {
        "routeId": "taichung-ked-3329-a722fc-d1",
        "city": "taichung",
        "route_name": "KED-3329",
        "car_seq": "KED-3329",
        "arrival_time": "0900",
        "departure_time": "0903",
        "district": "清水區",
        "village": "下湳里",
        "location": "福圳街二段1巷8號",
        "type": "沿街",
        "collection_type": "garbage",
        "day_of_week": 1
      }
    },
    {
      "type": "Feature",
      "geometry": {
        "type": "Point",
        "coordinates": [
          120.588882,
          24.284528
        ]
      },
      "properties": {
        "routeId": "taichung-ked-3329-a722fc-d1",
        "city": "taichung",
        "route_name": "KED-3329",
        "car_seq": "KED-3329",
        "arrival_time": "0900",
        "departure_time": "0903",
        "district": "清水區",
        "village": "下湳里",
        "location": "福圳街二段1巷8號",
        "type": "沿街",
        "collection_type": "recycling",
        "day_of_week": 1
      }
    },
    {
      "type": "Feature",
      "geometry": {
        "type": "Point",
        "coordinates": [
          120.591834,
          24.289058
        ]
      },
      "properties": {
        "routeId": "taichung-ked-3329-a722fc-d1",
        "city": "taichung",
        "route_name": "KED-3329",
        "car_seq": "KED-3329",
        "arrival_time": "0905",
        "departure_time": "0908",
        "district": "清水區",
        "village": "下湳里",
        "location": "荷園街376巷66號",
        "type": "沿街",
        "collection_type": "garbage",
        "day_of_week": 1
      }
    },
    {
      "type": "Feature",
      "geometry": {
        "type": "Point",
        "coordinates": [
          120.591834,
          24.289058
        ]
      },
      "properties": {
        "routeId": "taichung-ked-3329-a722fc-d1",
        "city": "taichung",
        "route_name": "KED-3329",
        "car_seq": "KED-3329",
        "arrival_time": "0905",
        "departure_time": "0908",
        "district": "清水區",
        "village": "下湳里",
        "location": "荷園街376巷66號",
        "type": "沿街",
        "collection_type": "recycling",
        "day_of_week": 1
      }
    },
    {
      "type": "Feature",
      "geometry": {
        "type": "Point",
        "coordinates": [
          120.600746,
          24.299343
        ]
      },
      "properties": {
        "routeId": "taichung-ked-3329-a722fc-d1",
        "city": "taichung",
        "route_name": "KED-3329",
        "car_seq": "KED-3329",
        "arrival_time": "0910",
        "departure_time": "0913",
        "district": "清水區",
        "village": "下湳里",
        "location": "福圳街二段571號",
        "type": "沿街",
        "collection_type": "garbage",
        "day_of_week": 1
      }
    },
    {
      "type": "Feature",
      "geometry": {
        "type": "Point",
        "coordinates": [
          120.600746,
          24.299343
        ]
      },
      "properties": {
        "routeId": "taichung-ked-3329-a722fc-d1",
        "city": "taichung",
        "route_name": "KED-3329",
        "car_seq": "KED-3329",
        "arrival_time": "0910",
        "departure_time": "0913",
        "district": "清水區",
        "village": "下湳里",
        "location": "福圳街二段571號",
        "type": "沿街",
        "collection_type": "recycling",
        "day_of_week": 1
      }
    },
    {
      "type": "Feature",
      "geometry": {
        "type": "Point",
        "coordinates": [
          120.602766,
          24.300986
        ]
      },
      "properties": {
        "routeId": "taichung-ked-3329-a722fc-d1",
        "city": "taichung",
        "route_name": "KED-3329",
        "car_seq": "KED-3329",
        "arrival_time": "0920",
        "departure_time": "0923",
        "district": "清水區",
        "village": "頂湳里",
        "location": "頂湳路73號",
        "type": "沿街",
        "collection_type": "garbage",
        "day_of_week": 1
      }
    },
    {
      "type": "Feature",
      "geometry": {
        "type": "Point",
        "coordinates": [
          120.602766,
          24.300986
        ]
      },
      "properties": {
        "routeId": "taichung-ked-3329-a722fc-d1",
        "city": "taichung",
        "route_name": "KED-3329",
        "car_seq": "KED-3329",
        "arrival_time": "0920",
        "departure_time": "0923",
        "district": "清水區",
        "village": "頂湳里",
        "location": "頂湳路73號",
        "type": "沿街",
        "collection_type": "recycling",
        "day_of_week": 1
      }
    },
    {
      "type": "Feature",
      "geometry": {
        "type": "Point",
        "coordinates": [
          120.606382,
          24.305212
        ]
      },
      "properties": {
        "routeId": "taichung-ked-3329-a722fc-d1",
        "city": "taichung",
        "route_name": "KED-3329",
        "car_seq": "KED-3329",
        "arrival_time": "0927",
        "departure_time": "0930",
        "district": "清水區",
        "village": "頂湳里",
        "location": "客庄路85巷39號",
        "type": "沿街",
        "collection_type": "garbage",
        "day_of_week": 1
      }
    },
    {
      "type": "Feature",
      "geometry": {
        "type": "Point",
        "coordinates": [
          120.606382,
          24.305212
        ]
      },
      "properties": {
        "routeId": "taichung-ked-3329-a722fc-d1",
        "city": "taichung",
        "route_name": "KED-3329",
        "car_seq": "KED-3329",
        "arrival_time": "0927",
        "departure_time": "0930",
        "district": "清水區",
        "village": "頂湳里",
        "location": "客庄路85巷39號",
        "type": "沿街",
        "collection_type": "recycling",
        "day_of_week": 1
      }
    },
    {
      "type": "Feature",
      "geometry": {
        "type": "Point",
        "coordinates": [
          120.607052,
          24.303847
        ]
      },
      "properties": {
        "routeId": "taichung-ked-3329-a722fc-d1",
        "city": "taichung",
        "route_name": "KED-3329",
        "car_seq": "KED-3329",
        "arrival_time": "0932",
        "departure_time": "0935",
        "district": "清水區",
        "village": "頂湳里",
        "location": "客庄路62巷6號",
        "type": "沿街",
        "collection_type": "garbage",
        "day_of_week": 1
      }
    },
    {
      "type": "Feature",
      "geometry": {
        "type": "Point",
        "coordinates": [
          120.607052,
          24.303847
        ]
      },
      "properties": {
        "routeId": "taichung-ked-3329-a722fc-d1",
        "city": "taichung",
        "route_name": "KED-3329",
        "car_seq": "KED-3329",
        "arrival_time": "0932",
        "departure_time": "0935",
        "district": "清水區",
        "village": "頂湳里",
        "location": "客庄路62巷6號",
        "type": "沿街",
        "collection_type": "recycling",
        "day_of_week": 1
      }
    },
    {
      "type": "Feature",
      "geometry": {
        "type": "Point",
        "coordinates": [
          120.590155,
          24.31124
        ]
      },
      "properties": {
        "routeId": "taichung-ked-3329-a722fc-d1",
        "city": "taichung",
        "route_name": "KED-3329",
        "car_seq": "KED-3329",
        "arrival_time": "0948",
        "departure_time": "0951",
        "district": "清水區",
        "village": "高東里",
        "location": "溪頭路10之2號",
        "type": "沿街",
        "collection_type": "garbage",
        "day_of_week": 1
      }
    },
    {
      "type": "Feature",
      "geometry": {
        "type": "Point",
        "coordinates": [
          120.590155,
          24.31124
        ]
      },
      "properties": {
        "routeId": "taichung-ked-3329-a722fc-d1",
        "city": "taichung",
        "route_name": "KED-3329",
        "car_seq": "KED-3329",
        "arrival_time": "0948",
        "departure_time": "0951",
        "district": "清水區",
        "village": "高東里",
        "location": "溪頭路10之2號",
        "type": "沿街",
        "collection_type": "recycling",
        "day_of_week": 1
      }
    },
    {
      "type": "Feature",
      "geometry": {
        "type": "Point",
        "coordinates": [
          120.588223,
          24.303235
        ]
      },
      "properties": {
        "routeId": "taichung-ked-3329-a722fc-d1",
        "city": "taichung",
        "route_name": "KED-3329",
        "car_seq": "KED-3329",
        "arrival_time": "0954",
        "departure_time": "0957",
        "district": "清水區",
        "village": "菁埔里",
        "location": "臨海路29之1號",
        "type": "沿街",
        "collection_type": "garbage",
        "day_of_week": 1
      }
    },
    {
      "type": "Feature",
      "geometry": {
        "type": "Point",
        "coordinates": [
          120.588223,
          24.303235
        ]
      },
      "properties": {
        "routeId": "taichung-ked-3329-a722fc-d1",
        "city": "taichung",
        "route_name": "KED-3329",
        "car_seq": "KED-3329",
        "arrival_time": "0954",
        "departure_time": "0957",
        "district": "清水區",
        "village": "菁埔里",
        "location": "臨海路29之1號",
        "type": "沿街",
        "collection_type": "recycling",
        "day_of_week": 1
      }
    },
    {
      "type": "Feature",
      "geometry": {
        "type": "Point",
        "coordinates": [
          120.590492,
          24.299372
        ]
      },
      "properties": {
        "routeId": "taichung-ked-3329-a722fc-d1",
        "city": "taichung",
        "route_name": "KED-3329",
        "car_seq": "KED-3329",
        "arrival_time": "0958",
        "departure_time": "1001",
        "district": "清水區",
        "village": "菁埔里",
        "location": "菁埔路165號",
        "type": "沿街",
        "collection_type": "garbage",
        "day_of_week": 1
      }
    },
    {
      "type": "Feature",
      "geometry": {
        "type": "Point",
        "coordinates": [
          120.590492,
          24.299372
        ]
      },
      "properties": {
        "routeId": "taichung-ked-3329-a722fc-d1",
        "city": "taichung",
        "route_name": "KED-3329",
        "car_seq": "KED-3329",
        "arrival_time": "0958",
        "departure_time": "1001",
        "district": "清水區",
        "village": "菁埔里",
        "location": "菁埔路165號",
        "type": "沿街",
        "collection_type": "recycling",
        "day_of_week": 1
      }
    },
    {
      "type": "Feature",
      "geometry": {
        "type": "Point",
        "coordinates": [
          120.589653,
          24.298176
        ]
      },
      "properties": {
        "routeId": "taichung-ked-3329-a722fc-d1",
        "city": "taichung",
        "route_name": "KED-3329",
        "car_seq": "KED-3329",
        "arrival_time": "1004",
        "departure_time": "1007",
        "district": "清水區",
        "village": "菁埔里",
        "location": "菁埔路171之11號",
        "type": "沿街",
        "collection_type": "garbage",
        "day_of_week": 1
      }
    },
    {
      "type": "Feature",
      "geometry": {
        "type": "Point",
        "coordinates": [
          120.589653,
          24.298176
        ]
      },
      "properties": {
        "routeId": "taichung-ked-3329-a722fc-d1",
        "city": "taichung",
        "route_name": "KED-3329",
        "car_seq": "KED-3329",
        "arrival_time": "1004",
        "departure_time": "1007",
        "district": "清水區",
        "village": "菁埔里",
        "location": "菁埔路171之11號",
        "type": "沿街",
        "collection_type": "recycling",
        "day_of_week": 1
      }
    },
    {
      "type": "Feature",
      "geometry": {
        "type": "Point",
        "coordinates": [
          120.586318,
          24.29866
        ]
      },
      "properties": {
        "routeId": "taichung-ked-3329-a722fc-d1",
        "city": "taichung",
        "route_name": "KED-3329",
        "car_seq": "KED-3329",
        "arrival_time": "1008",
        "departure_time": "1011",
        "district": "清水區",
        "village": "菁埔里",
        "location": "菁埔路157巷100號",
        "type": "沿街",
        "collection_type": "garbage",
        "day_of_week": 1
      }
    },
    {
      "type": "Feature",
      "geometry": {
        "type": "Point",
        "coordinates": [
          120.586318,
          24.29866
        ]
      },
      "properties": {
        "routeId": "taichung-ked-3329-a722fc-d1",
        "city": "taichung",
        "route_name": "KED-3329",
        "car_seq": "KED-3329",
        "arrival_time": "1008",
        "departure_time": "1011",
        "district": "清水區",
        "village": "菁埔里",
        "location": "菁埔路157巷100號",
        "type": "沿街",
        "collection_type": "recycling",
        "day_of_week": 1
      }
    },
    {
      "type": "Feature",
      "geometry": {
        "type": "Point",
        "coordinates": [
          120.586932,
          24.295083
        ]
      },
      "properties": {
        "routeId": "taichung-ked-3329-a722fc-d1",
        "city": "taichung",
        "route_name": "KED-3329",
        "car_seq": "KED-3329",
        "arrival_time": "1012",
        "departure_time": "1015",
        "district": "清水區",
        "village": "菁埔里",
        "location": "菁埔路133號",
        "type": "沿街",
        "collection_type": "garbage",
        "day_of_week": 1
      }
    },
    {
      "type": "Feature",
      "geometry": {
        "type": "Point",
        "coordinates": [
          120.586932,
          24.295083
        ]
      },
      "properties": {
        "routeId": "taichung-ked-3329-a722fc-d1",
        "city": "taichung",
        "route_name": "KED-3329",
        "car_seq": "KED-3329",
        "arrival_time": "1012",
        "departure_time": "1015",
        "district": "清水區",
        "village": "菁埔里",
        "location": "菁埔路133號",
        "type": "沿街",
        "collection_type": "recycling",
        "day_of_week": 1
      }
    },
    {
      "type": "Feature",
      "geometry": {
        "type": "Point",
        "coordinates": [
          120.582685,
          24.293581
        ]
      },
      "properties": {
        "routeId": "taichung-ked-3329-a722fc-d1",
        "city": "taichung",
        "route_name": "KED-3329",
        "car_seq": "KED-3329",
        "arrival_time": "1018",
        "departure_time": "1021",
        "district": "清水區",
        "village": "田寮里",
        "location": "中央北路7之32號",
        "type": "沿街",
        "collection_type": "garbage",
        "day_of_week": 1
      }
    },
    {
      "type": "Feature",
      "geometry": {
        "type": "Point",
        "coordinates": [
          120.582685,
          24.293581
        ]
      },
      "properties": {
        "routeId": "taichung-ked-3329-a722fc-d1",
        "city": "taichung",
        "route_name": "KED-3329",
        "car_seq": "KED-3329",
        "arrival_time": "1018",
        "departure_time": "1021",
        "district": "清水區",
        "village": "田寮里",
        "location": "中央北路7之32號",
        "type": "沿街",
        "collection_type": "recycling",
        "day_of_week": 1
      }
    },
    {
      "type": "Feature",
      "geometry": {
        "type": "Point",
        "coordinates": [
          120.578751,
          24.290998
        ]
      },
      "properties": {
        "routeId": "taichung-ked-3329-a722fc-d1",
        "city": "taichung",
        "route_name": "KED-3329",
        "car_seq": "KED-3329",
        "arrival_time": "1025",
        "departure_time": "1028",
        "district": "清水區",
        "village": "國姓里",
        "location": "三田路17之2號",
        "type": "沿街",
        "collection_type": "garbage",
        "day_of_week": 1
      }
    },
    {
      "type": "Feature",
      "geometry": {
        "type": "Point",
        "coordinates": [
          120.578751,
          24.290998
        ]
      },
      "properties": {
        "routeId": "taichung-ked-3329-a722fc-d1",
        "city": "taichung",
        "route_name": "KED-3329",
        "car_seq": "KED-3329",
        "arrival_time": "1025",
        "departure_time": "1028",
        "district": "清水區",
        "village": "國姓里",
        "location": "三田路17之2號",
        "type": "沿街",
        "collection_type": "recycling",
        "day_of_week": 1
      }
    },
    {
      "type": "Feature",
      "geometry": {
        "type": "Point",
        "coordinates": [
          120.571206,
          24.293555
        ]
      },
      "properties": {
        "routeId": "taichung-ked-3329-a722fc-d1",
        "city": "taichung",
        "route_name": "KED-3329",
        "car_seq": "KED-3329",
        "arrival_time": "1040",
        "departure_time": "1043",
        "district": "清水區",
        "village": "國姓里",
        "location": "高美路316號",
        "type": "沿街",
        "collection_type": "garbage",
        "day_of_week": 1
      }
    },
    {
      "type": "Feature",
      "geometry": {
        "type": "Point",
        "coordinates": [
          120.571206,
          24.293555
        ]
      },
      "properties": {
        "routeId": "taichung-ked-3329-a722fc-d1",
        "city": "taichung",
        "route_name": "KED-3329",
        "car_seq": "KED-3329",
        "arrival_time": "1040",
        "departure_time": "1043",
        "district": "清水區",
        "village": "國姓里",
        "location": "高美路316號",
        "type": "沿街",
        "collection_type": "recycling",
        "day_of_week": 1
      }
    },
    {
      "type": "Feature",
      "geometry": {
        "type": "Point",
        "coordinates": [
          120.568592,
          24.291675
        ]
      },
      "properties": {
        "routeId": "taichung-ked-3329-a722fc-d1",
        "city": "taichung",
        "route_name": "KED-3329",
        "car_seq": "KED-3329",
        "arrival_time": "1043",
        "departure_time": "1046",
        "district": "清水區",
        "village": "裕嘉里",
        "location": "高美路350-1號",
        "type": "沿街",
        "collection_type": "garbage",
        "day_of_week": 1
      }
    },
    {
      "type": "Feature",
      "geometry": {
        "type": "Point",
        "coordinates": [
          120.568592,
          24.291675
        ]
      },
      "properties": {
        "routeId": "taichung-ked-3329-a722fc-d1",
        "city": "taichung",
        "route_name": "KED-3329",
        "car_seq": "KED-3329",
        "arrival_time": "1043",
        "departure_time": "1046",
        "district": "清水區",
        "village": "裕嘉里",
        "location": "高美路350-1號",
        "type": "沿街",
        "collection_type": "recycling",
        "day_of_week": 1
      }
    },
    {
      "type": "Feature",
      "geometry": {
        "type": "Point",
        "coordinates": [
          120.568192,
          24.291678
        ]
      },
      "properties": {
        "routeId": "taichung-ked-3329-a722fc-d1",
        "city": "taichung",
        "route_name": "KED-3329",
        "car_seq": "KED-3329",
        "arrival_time": "1045",
        "departure_time": "1048",
        "district": "清水區",
        "village": "裕嘉里",
        "location": "高美路358-7號",
        "type": "沿街",
        "collection_type": "garbage",
        "day_of_week": 1
      }
    },
    {
      "type": "Feature",
      "geometry": {
        "type": "Point",
        "coordinates": [
          120.568192,
          24.291678
        ]
      },
      "properties": {
        "routeId": "taichung-ked-3329-a722fc-d1",
        "city": "taichung",
        "route_name": "KED-3329",
        "car_seq": "KED-3329",
        "arrival_time": "1045",
        "departure_time": "1048",
        "district": "清水區",
        "village": "裕嘉里",
        "location": "高美路358-7號",
        "type": "沿街",
        "collection_type": "recycling",
        "day_of_week": 1
      }
    },
    {
      "type": "Feature",
      "geometry": {
        "type": "Point",
        "coordinates": [
          120.567556,
          24.292244
        ]
      },
      "properties": {
        "routeId": "taichung-ked-3329-a722fc-d1",
        "city": "taichung",
        "route_name": "KED-3329",
        "car_seq": "KED-3329",
        "arrival_time": "1047",
        "departure_time": "1050",
        "district": "清水區",
        "village": "裕嘉里",
        "location": "高美路376巷5號",
        "type": "沿街",
        "collection_type": "garbage",
        "day_of_week": 1
      }
    },
    {
      "type": "Feature",
      "geometry": {
        "type": "Point",
        "coordinates": [
          120.567556,
          24.292244
        ]
      },
      "properties": {
        "routeId": "taichung-ked-3329-a722fc-d1",
        "city": "taichung",
        "route_name": "KED-3329",
        "car_seq": "KED-3329",
        "arrival_time": "1047",
        "departure_time": "1050",
        "district": "清水區",
        "village": "裕嘉里",
        "location": "高美路376巷5號",
        "type": "沿街",
        "collection_type": "recycling",
        "day_of_week": 1
      }
    },
    {
      "type": "Feature",
      "geometry": {
        "type": "Point",
        "coordinates": [
          120.568106,
          24.295007
        ]
      },
      "properties": {
        "routeId": "taichung-ked-3329-a722fc-d1",
        "city": "taichung",
        "route_name": "KED-3329",
        "car_seq": "KED-3329",
        "arrival_time": "1051",
        "departure_time": "1054",
        "district": "清水區",
        "village": "臨江里",
        "location": "高美路392巷39號",
        "type": "沿街",
        "collection_type": "garbage",
        "day_of_week": 1
      }
    },
    {
      "type": "Feature",
      "geometry": {
        "type": "Point",
        "coordinates": [
          120.568106,
          24.295007
        ]
      },
      "properties": {
        "routeId": "taichung-ked-3329-a722fc-d1",
        "city": "taichung",
        "route_name": "KED-3329",
        "car_seq": "KED-3329",
        "arrival_time": "1051",
        "departure_time": "1054",
        "district": "清水區",
        "village": "臨江里",
        "location": "高美路392巷39號",
        "type": "沿街",
        "collection_type": "recycling",
        "day_of_week": 1
      }
    },
    {
      "type": "Feature",
      "geometry": {
        "type": "Point",
        "coordinates": [
          120.563644,
          24.318031
        ]
      },
      "properties": {
        "routeId": "taichung-ked-3329-a722fc-d1",
        "city": "taichung",
        "route_name": "KED-3329",
        "car_seq": "KED-3329",
        "arrival_time": "1150",
        "departure_time": "1153",
        "district": "清水區",
        "village": "高北里",
        "location": "海口北路22號",
        "type": "沿街",
        "collection_type": "garbage",
        "day_of_week": 1
      }
    },
    {
      "type": "Feature",
      "geometry": {
        "type": "Point",
        "coordinates": [
          120.563644,
          24.318031
        ]
      },
      "properties": {
        "routeId": "taichung-ked-3329-a722fc-d1",
        "city": "taichung",
        "route_name": "KED-3329",
        "car_seq": "KED-3329",
        "arrival_time": "1150",
        "departure_time": "1153",
        "district": "清水區",
        "village": "高北里",
        "location": "海口北路22號",
        "type": "沿街",
        "collection_type": "recycling",
        "day_of_week": 1
      }
    },
    {
      "type": "Feature",
      "geometry": {
        "type": "Point",
        "coordinates": [
          120.560372,
          24.318873
        ]
      },
      "properties": {
        "routeId": "taichung-ked-3329-a722fc-d1",
        "city": "taichung",
        "route_name": "KED-3329",
        "car_seq": "KED-3329",
        "arrival_time": "1154",
        "departure_time": "1157",
        "district": "清水區",
        "village": "高北里",
        "location": "海口北路52巷12號",
        "type": "沿街",
        "collection_type": "garbage",
        "day_of_week": 1
      }
    },
    {
      "type": "Feature",
      "geometry": {
        "type": "Point",
        "coordinates": [
          120.560372,
          24.318873
        ]
      },
      "properties": {
        "routeId": "taichung-ked-3329-a722fc-d1",
        "city": "taichung",
        "route_name": "KED-3329",
        "car_seq": "KED-3329",
        "arrival_time": "1154",
        "departure_time": "1157",
        "district": "清水區",
        "village": "高北里",
        "location": "海口北路52巷12號",
        "type": "沿街",
        "collection_type": "recycling",
        "day_of_week": 1
      }
    },
    {
      "type": "Feature",
      "geometry": {
        "type": "Point",
        "coordinates": [
          120.556835,
          24.31883
        ]
      },
      "properties": {
        "routeId": "taichung-ked-3329-a722fc-d1",
        "city": "taichung",
        "route_name": "KED-3329",
        "car_seq": "KED-3329",
        "arrival_time": "1158",
        "departure_time": "1201",
        "district": "清水區",
        "village": "高北里",
        "location": "海口北路110號",
        "type": "沿街",
        "collection_type": "garbage",
        "day_of_week": 1
      }
    },
    {
      "type": "Feature",
      "geometry": {
        "type": "Point",
        "coordinates": [
          120.556835,
          24.31883
        ]
      },
      "properties": {
        "routeId": "taichung-ked-3329-a722fc-d1",
        "city": "taichung",
        "route_name": "KED-3329",
        "car_seq": "KED-3329",
        "arrival_time": "1158",
        "departure_time": "1201",
        "district": "清水區",
        "village": "高北里",
        "location": "海口北路110號",
        "type": "沿街",
        "collection_type": "recycling",
        "day_of_week": 1
      }
    },
    {
      "type": "Feature",
      "geometry": {
        "type": "Point",
        "coordinates": [
          120.554928,
          24.318247
        ]
      },
      "properties": {
        "routeId": "taichung-ked-3329-a722fc-d1",
        "city": "taichung",
        "route_name": "KED-3329",
        "car_seq": "KED-3329",
        "arrival_time": "1202",
        "departure_time": "1205",
        "district": "清水區",
        "village": "高北里",
        "location": "海口北路150巷29號",
        "type": "沿街",
        "collection_type": "garbage",
        "day_of_week": 1
      }
    },
    {
      "type": "Feature",
      "geometry": {
        "type": "Point",
        "coordinates": [
          120.554928,
          24.318247
        ]
      },
      "properties": {
        "routeId": "taichung-ked-3329-a722fc-d1",
        "city": "taichung",
        "route_name": "KED-3329",
        "car_seq": "KED-3329",
        "arrival_time": "1202",
        "departure_time": "1205",
        "district": "清水區",
        "village": "高北里",
        "location": "海口北路150巷29號",
        "type": "沿街",
        "collection_type": "recycling",
        "day_of_week": 1
      }
    },
    {
      "type": "Feature",
      "geometry": {
        "type": "Point",
        "coordinates": [
          120.55698,
          24.312208
        ]
      },
      "properties": {
        "routeId": "taichung-ked-3329-a722fc-d1",
        "city": "taichung",
        "route_name": "KED-3329",
        "car_seq": "KED-3329",
        "arrival_time": "1210",
        "departure_time": "1213",
        "district": "清水區",
        "village": "高西里",
        "location": "海口北路201號",
        "type": "沿街",
        "collection_type": "garbage",
        "day_of_week": 1
      }
    },
    {
      "type": "Feature",
      "geometry": {
        "type": "Point",
        "coordinates": [
          120.55698,
          24.312208
        ]
      },
      "properties": {
        "routeId": "taichung-ked-3329-a722fc-d1",
        "city": "taichung",
        "route_name": "KED-3329",
        "car_seq": "KED-3329",
        "arrival_time": "1210",
        "departure_time": "1213",
        "district": "清水區",
        "village": "高西里",
        "location": "海口北路201號",
        "type": "沿街",
        "collection_type": "recycling",
        "day_of_week": 1
      }
    },
    {
      "type": "Feature",
      "geometry": {
        "type": "Point",
        "coordinates": [
          120.55395,
          24.307732
        ]
      },
      "properties": {
        "routeId": "taichung-ked-3329-a722fc-d1",
        "city": "taichung",
        "route_name": "KED-3329",
        "car_seq": "KED-3329",
        "arrival_time": "1223",
        "departure_time": "1226",
        "district": "清水區",
        "village": "高西里",
        "location": "高美路721巷5號",
        "type": "沿街",
        "collection_type": "garbage",
        "day_of_week": 1
      }
    },
    {
      "type": "Feature",
      "geometry": {
        "type": "Point",
        "coordinates": [
          120.55395,
          24.307732
        ]
      },
      "properties": {
        "routeId": "taichung-ked-3329-a722fc-d1",
        "city": "taichung",
        "route_name": "KED-3329",
        "car_seq": "KED-3329",
        "arrival_time": "1223",
        "departure_time": "1226",
        "district": "清水區",
        "village": "高西里",
        "location": "高美路721巷5號",
        "type": "沿街",
        "collection_type": "recycling",
        "day_of_week": 1
      }
    },
    {
      "type": "Feature",
      "geometry": {
        "type": "Point",
        "coordinates": [
          120.557646,
          24.291148
        ]
      },
      "properties": {
        "routeId": "taichung-ked-3329-a722fc-d1",
        "city": "taichung",
        "route_name": "KED-3329",
        "car_seq": "KED-3329",
        "arrival_time": "1228",
        "departure_time": "1231",
        "district": "清水區",
        "village": "臨江里",
        "location": "鎮平路17之15號",
        "type": "沿街",
        "collection_type": "garbage",
        "day_of_week": 1
      }
    },
    {
      "type": "Feature",
      "geometry": {
        "type": "Point",
        "coordinates": [
          120.557646,
          24.291148
        ]
      },
      "properties": {
        "routeId": "taichung-ked-3329-a722fc-d1",
        "city": "taichung",
        "route_name": "KED-3329",
        "car_seq": "KED-3329",
        "arrival_time": "1228",
        "departure_time": "1231",
        "district": "清水區",
        "village": "臨江里",
        "location": "鎮平路17之15號",
        "type": "沿街",
        "collection_type": "recycling",
        "day_of_week": 1
      }
    },
    {
      "type": "Feature",
      "geometry": {
        "type": "Point",
        "coordinates": [
          120.563805,
          24.288889
        ]
      },
      "properties": {
        "routeId": "taichung-ked-3329-a722fc-d1",
        "city": "taichung",
        "route_name": "KED-3329",
        "car_seq": "KED-3329",
        "arrival_time": "1232",
        "departure_time": "1235",
        "district": "清水區",
        "village": "裕嘉里",
        "location": "中央路107之79號",
        "type": "沿街",
        "collection_type": "garbage",
        "day_of_week": 1
      }
    },
    {
      "type": "Feature",
      "geometry": {
        "type": "Point",
        "coordinates": [
          120.563805,
          24.288889
        ]
      },
      "properties": {
        "routeId": "taichung-ked-3329-a722fc-d1",
        "city": "taichung",
        "route_name": "KED-3329",
        "car_seq": "KED-3329",
        "arrival_time": "1232",
        "departure_time": "1235",
        "district": "清水區",
        "village": "裕嘉里",
        "location": "中央路107之79號",
        "type": "沿街",
        "collection_type": "recycling",
        "day_of_week": 1
      }
    },
    {
      "type": "Feature",
      "geometry": {
        "type": "Point",
        "coordinates": [
          120.567038,
          24.285996
        ]
      },
      "properties": {
        "routeId": "taichung-ked-3329-a722fc-d1",
        "city": "taichung",
        "route_name": "KED-3329",
        "car_seq": "KED-3329",
        "arrival_time": "1236",
        "departure_time": "1239",
        "district": "清水區",
        "village": "裕嘉里",
        "location": "中央路99之46號",
        "type": "沿街",
        "collection_type": "garbage",
        "day_of_week": 1
      }
    },
    {
      "type": "Feature",
      "geometry": {
        "type": "Point",
        "coordinates": [
          120.567038,
          24.285996
        ]
      },
      "properties": {
        "routeId": "taichung-ked-3329-a722fc-d1",
        "city": "taichung",
        "route_name": "KED-3329",
        "car_seq": "KED-3329",
        "arrival_time": "1236",
        "departure_time": "1239",
        "district": "清水區",
        "village": "裕嘉里",
        "location": "中央路99之46號",
        "type": "沿街",
        "collection_type": "recycling",
        "day_of_week": 1
      }
    },
    {
      "type": "Feature",
      "geometry": {
        "type": "Point",
        "coordinates": [
          120.557582,
          24.284734
        ]
      },
      "properties": {
        "routeId": "taichung-ked-3329-a722fc-d1",
        "city": "taichung",
        "route_name": "KED-3329",
        "car_seq": "KED-3329",
        "arrival_time": "1240",
        "departure_time": "1243",
        "district": "清水區",
        "village": "武鹿里",
        "location": "中央路75號",
        "type": "沿街",
        "collection_type": "garbage",
        "day_of_week": 1
      }
    },
    {
      "type": "Feature",
      "geometry": {
        "type": "Point",
        "coordinates": [
          120.557582,
          24.284734
        ]
      },
      "properties": {
        "routeId": "taichung-ked-3329-a722fc-d1",
        "city": "taichung",
        "route_name": "KED-3329",
        "car_seq": "KED-3329",
        "arrival_time": "1240",
        "departure_time": "1243",
        "district": "清水區",
        "village": "武鹿里",
        "location": "中央路75號",
        "type": "沿街",
        "collection_type": "recycling",
        "day_of_week": 1
      }
    },
    {
      "type": "Feature",
      "geometry": {
        "type": "Point",
        "coordinates": [
          120.554751,
          24.284666
        ]
      },
      "properties": {
        "routeId": "taichung-ked-3329-a722fc-d1",
        "city": "taichung",
        "route_name": "KED-3329",
        "car_seq": "KED-3329",
        "arrival_time": "1243",
        "departure_time": "1246",
        "district": "清水區",
        "village": "武鹿里",
        "location": "中央路78號",
        "type": "沿街",
        "collection_type": "garbage",
        "day_of_week": 1
      }
    },
    {
      "type": "Feature",
      "geometry": {
        "type": "Point",
        "coordinates": [
          120.554751,
          24.284666
        ]
      },
      "properties": {
        "routeId": "taichung-ked-3329-a722fc-d1",
        "city": "taichung",
        "route_name": "KED-3329",
        "car_seq": "KED-3329",
        "arrival_time": "1243",
        "departure_time": "1246",
        "district": "清水區",
        "village": "武鹿里",
        "location": "中央路78號",
        "type": "沿街",
        "collection_type": "recycling",
        "day_of_week": 1
      }
    }
  ]
}