{
  "type": "FeatureCollection",
  "features": [
    {
      "type": "Feature",
      "geometry": {
        "type": "Point",
        "coordinates": [
          120.598219,
          24.116078
        ]
      },
      "properties": {
        "routeId": "taichung-keb-0271-bd63e6-d4",
        "city": "taichung",
        "route_name": "KEB-0271",
        "car_seq": "KEB-0271",
        "arrival_time": "0610",
        "departure_time": "0615",
        "district": "烏日區",
        "village": "榮泉里",
        "location": "成功西路132號",
        "type": "沿街",
        "collection_type": "garbage",
        "day_of_week": 4
      }
    },
    {
      "type": "Feature",
      "geometry": {
        "type": "Point",
        "coordinates": [
          120.598219,
          24.116078
        ]
      },
      "properties": {
        "routeId": "taichung-keb-0271-bd63e6-d4",
        "city": "taichung",
        "route_name": "KEB-0271",
        "car_seq": "KEB-0271",
        "arrival_time": "0610",
        "departure_time": "0615",
        "district": "烏日區",
        "village": "榮泉里",
        "location": "成功西路132號",
        "type": "沿街",
        "collection_type": "recycling",
        "day_of_week": 4
      }
    },
    {
      "type": "Feature",
      "geometry": {
        "type": "Point",
        "coordinates": [
          120.598887,
          24.114986
        ]
      },
      "properties": {
        "routeId": "taichung-keb-0271-bd63e6-d4",
        "city": "taichung",
        "route_name": "KEB-0271",
        "car_seq": "KEB-0271",
        "arrival_time": "0615",
        "departure_time": "0620",
        "district": "烏日區",
        "village": "榮泉里",
        "location": "成功西路65號",
        "type": "沿街",
        "collection_type": "garbage",
        "day_of_week": 4
      }
    },
    {
      "type": "Feature",
      "geometry": {
        "type": "Point",
        "coordinates": [
          120.598887,
          24.114986
        ]
      },
      "properties": {
        "routeId": "taichung-keb-0271-bd63e6-d4",
        "city": "taichung",
        "route_name": "KEB-0271",
        "car_seq": "KEB-0271",
        "arrival_time": "0615",
        "departure_time": "0620",
        "district": "烏日區",
        "village": "榮泉里",
        "location": "成功西路65號",
        "type": "沿街",
        "collection_type": "recycling",
        "day_of_week": 4
      }
    },
    {
      "type": "Feature",
      "geometry": {
        "type": "Point",
        "coordinates": [
          120.603584,
          24.114502
        ]
      },
      "properties": {
        "routeId": "taichung-keb-0271-bd63e6-d4",
        "city": "taichung",
        "route_name": "KEB-0271",
        "car_seq": "KEB-0271",
        "arrival_time": "0620",
        "departure_time": "0625",
        "district": "烏日區",
        "village": "三和里",
        "location": "學田路便行巷267號",
        "type": "沿街",
        "collection_type": "garbage",
        "day_of_week": 4
      }
    },
    {
      "type": "Feature",
      "geometry": {
        "type": "Point",
        "coordinates": [
          120.603584,
          24.114502
        ]
      },
      "properties": {
        "routeId": "taichung-keb-0271-bd63e6-d4",
        "city": "taichung",
        "route_name": "KEB-0271",
        "car_seq": "KEB-0271",
        "arrival_time": "0620",
        "departure_time": "0625",
        "district": "烏日區",
        "village": "三和里",
        "location": "學田路便行巷267號",
        "type": "沿街",
        "collection_type": "recycling",
        "day_of_week": 4
      }
    },
    {
      "type": "Feature",
      "geometry": {
        "type": "Point",
        "coordinates": [
          120.604438,
          24.11552
        ]
      },
      "properties": {
        "routeId": "taichung-keb-0271-bd63e6-d4",
        "city": "taichung",
        "route_name": "KEB-0271",
        "car_seq": "KEB-0271",
        "arrival_time": "0625",
        "departure_time": "0630",
        "district": "烏日區",
        "village": "三和里",
        "location": "學田路便行巷175號",
        "type": "沿街",
        "collection_type": "garbage",
        "day_of_week": 4
      }
    },
    {
      "type": "Feature",
      "geometry": {
        "type": "Point",
        "coordinates": [
          120.604438,
          24.11552
        ]
      },
      "properties": {
        "routeId": "taichung-keb-0271-bd63e6-d4",
        "city": "taichung",
        "route_name": "KEB-0271",
        "car_seq": "KEB-0271",
        "arrival_time": "0625",
        "departure_time": "0630",
        "district": "烏日區",
        "village": "三和里",
        "location": "學田路便行巷175號",
        "type": "沿街",
        "collection_type": "recycling",
        "day_of_week": 4
      }
    },
    {
      "type": "Feature",
      "geometry": {
        "type": "Point",
        "coordinates": [
          120.60575,
          24.117395
        ]
      },
      "properties": {
        "routeId": "taichung-keb-0271-bd63e6-d4",
        "city": "taichung",
        "route_name": "KEB-0271",
        "car_seq": "KEB-0271",
        "arrival_time": "0630",
        "departure_time": "0635",
        "district": "烏日區",
        "village": "學田里",
        "location": "學田路便行巷123號",
        "type": "沿街",
        "collection_type": "garbage",
        "day_of_week": 4
      }
    },
    {
      "type": "Feature",
      "geometry": {
        "type": "Point",
        "coordinates": [
          120.60575,
          24.117395
        ]
      },
      "properties": {
        "routeId": "taichung-keb-0271-bd63e6-d4",
        "city": "taichung",
        "route_name": "KEB-0271",
        "car_seq": "KEB-0271",
        "arrival_time": "0630",
        "departure_time": "0635",
        "district": "烏日區",
        "village": "學田里",
        "location": "學田路便行巷123號",
        "type": "沿街",
        "collection_type": "recycling",
        "day_of_week": 4
      }
    },
    {
      "type": "Feature",
      "geometry": {
        "type": "Point",
        "coordinates": [
          120.606459,
          24.119662
        ]
      },
      "properties": {
        "routeId": "taichung-keb-0271-bd63e6-d4",
        "city": "taichung",
        "route_name": "KEB-0271",
        "car_seq": "KEB-0271",
        "arrival_time": "0635",
        "departure_time": "0640",
        "district": "烏日區",
        "village": "學田里",
        "location": "學田路便行巷72號",
        "type": "沿街",
        "collection_type": "garbage",
        "day_of_week": 4
      }
    },
    {
      "type": "Feature",
      "geometry": {
        "type": "Point",
        "coordinates": [
          120.606459,
          24.119662
        ]
      },
      "properties": {
        "routeId": "taichung-keb-0271-bd63e6-d4",
        "city": "taichung",
        "route_name": "KEB-0271",
        "car_seq": "KEB-0271",
        "arrival_time": "0635",
        "departure_time": "0640",
        "district": "烏日區",
        "village": "學田里",
        "location": "學田路便行巷72號",
        "type": "沿街",
        "collection_type": "recycling",
        "day_of_week": 4
      }
    },
    {
      "type": "Feature",
      "geometry": {
        "type": "Point",
        "coordinates": [
          120.607358,
          24.120733
        ]
      },
      "properties": {
        "routeId": "taichung-keb-0271-bd63e6-d4",
        "city": "taichung",
        "route_name": "KEB-0271",
        "car_seq": "KEB-0271",
        "arrival_time": "0640",
        "departure_time": "0645",
        "district": "烏日區",
        "village": "學田里",
        "location": "學田路便行巷16號",
        "type": "沿街",
        "collection_type": "garbage",
        "day_of_week": 4
      }
    },
    {
      "type": "Feature",
      "geometry": {
        "type": "Point",
        "coordinates": [
          120.607358,
          24.120733
        ]
      },
      "properties": {
        "routeId": "taichung-keb-0271-bd63e6-d4",
        "city": "taichung",
        "route_name": "KEB-0271",
        "car_seq": "KEB-0271",
        "arrival_time": "0640",
        "departure_time": "0645",
        "district": "烏日區",
        "village": "學田里",
        "location": "學田路便行巷16號",
        "type": "沿街",
        "collection_type": "recycling",
        "day_of_week": 4
      }
    },
    {
      "type": "Feature",
      "geometry": {
        "type": "Point",
        "coordinates": [
          120.606352,
          24.118448
        ]
      },
      "properties": {
        "routeId": "taichung-keb-0271-bd63e6-d4",
        "city": "taichung",
        "route_name": "KEB-0271",
        "car_seq": "KEB-0271",
        "arrival_time": "0645",
        "departure_time": "0650",
        "district": "烏日區",
        "village": "學田里",
        "location": "學田路341巷68號",
        "type": "沿街",
        "collection_type": "garbage",
        "day_of_week": 4
      }
    },
    {
      "type": "Feature",
      "geometry": {
        "type": "Point",
        "coordinates": [
          120.606352,
          24.118448
        ]
      },
      "properties": {
        "routeId": "taichung-keb-0271-bd63e6-d4",
        "city": "taichung",
        "route_name": "KEB-0271",
        "car_seq": "KEB-0271",
        "arrival_time": "0645",
        "departure_time": "0650",
        "district": "烏日區",
        "village": "學田里",
        "location": "學田路341巷68號",
        "type": "沿街",
        "collection_type": "recycling",
        "day_of_week": 4
      }
    },
    {
      "type": "Feature",
      "geometry": {
        "type": "Point",
        "coordinates": [
          120.605645,
          24.116347
        ]
      },
      "properties": {
        "routeId": "taichung-keb-0271-bd63e6-d4",
        "city": "taichung",
        "route_name": "KEB-0271",
        "car_seq": "KEB-0271",
        "arrival_time": "0650",
        "departure_time": "0655",
        "district": "烏日區",
        "village": "學田里",
        "location": "學田路便行巷121弄22號",
        "type": "沿街",
        "collection_type": "garbage",
        "day_of_week": 4
      }
    },
    {
      "type": "Feature",
      "geometry": {
        "type": "Point",
        "coordinates": [
          120.605645,
          24.116347
        ]
      },
      "properties": {
        "routeId": "taichung-keb-0271-bd63e6-d4",
        "city": "taichung",
        "route_name": "KEB-0271",
        "car_seq": "KEB-0271",
        "arrival_time": "0650",
        "departure_time": "0655",
        "district": "烏日區",
        "village": "學田里",
        "location": "學田路便行巷121弄22號",
        "type": "沿街",
        "collection_type": "recycling",
        "day_of_week": 4
      }
    },
    {
      "type": "Feature",
      "geometry": {
        "type": "Point",
        "coordinates": [
          120.60474,
          24.114369
        ]
      },
      "properties": {
        "routeId": "taichung-keb-0271-bd63e6-d4",
        "city": "taichung",
        "route_name": "KEB-0271",
        "car_seq": "KEB-0271",
        "arrival_time": "0655",
        "departure_time": "0700",
        "district": "烏日區",
        "village": "學田里",
        "location": "學田路便行巷121弄74號",
        "type": "沿街",
        "collection_type": "garbage",
        "day_of_week": 4
      }
    },
    {
      "type": "Feature",
      "geometry": {
        "type": "Point",
        "coordinates": [
          120.60474,
          24.114369
        ]
      },
      "properties": {
        "routeId": "taichung-keb-0271-bd63e6-d4",
        "city": "taichung",
        "route_name": "KEB-0271",
        "car_seq": "KEB-0271",
        "arrival_time": "0655",
        "departure_time": "0700",
        "district": "烏日區",
        "village": "學田里",
        "location": "學田路便行巷121弄74號",
        "type": "沿街",
        "collection_type": "recycling",
        "day_of_week": 4
      }
    },
    {
      "type": "Feature",
      "geometry": {
        "type": "Point",
        "coordinates": [
          120.604177,
          24.114519
        ]
      },
      "properties": {
        "routeId": "taichung-keb-0271-bd63e6-d4",
        "city": "taichung",
        "route_name": "KEB-0271",
        "car_seq": "KEB-0271",
        "arrival_time": "0700",
        "departure_time": "0705",
        "district": "烏日區",
        "village": "學田里",
        "location": "學田路便行巷251-6號",
        "type": "沿街",
        "collection_type": "garbage",
        "day_of_week": 4
      }
    },
    {
      "type": "Feature",
      "geometry": {
        "type": "Point",
        "coordinates": [
          120.604177,
          24.114519
        ]
      },
      "properties": {
        "routeId": "taichung-keb-0271-bd63e6-d4",
        "city": "taichung",
        "route_name": "KEB-0271",
        "car_seq": "KEB-0271",
        "arrival_time": "0700",
        "departure_time": "0705",
        "district": "烏日區",
        "village": "學田里",
        "location": "學田路便行巷251-6號",
        "type": "沿街",
        "collection_type": "recycling",
        "day_of_week": 4
      }
    },
    {
      "type": "Feature",
      "geometry": {
        "type": "Point",
        "coordinates": [
          120.603117,
          24.116461
        ]
      },
      "properties": {
        "routeId": "taichung-keb-0271-bd63e6-d4",
        "city": "taichung",
        "route_name": "KEB-0271",
        "car_seq": "KEB-0271",
        "arrival_time": "0705",
        "departure_time": "0710",
        "district": "烏日區",
        "village": "三和里",
        "location": "成功東路238-1號",
        "type": "沿街",
        "collection_type": "garbage",
        "day_of_week": 4
      }
    },
    {
      "type": "Feature",
      "geometry": {
        "type": "Point",
        "coordinates": [
          120.603117,
          24.116461
        ]
      },
      "properties": {
        "routeId": "taichung-keb-0271-bd63e6-d4",
        "city": "taichung",
        "route_name": "KEB-0271",
        "car_seq": "KEB-0271",
        "arrival_time": "0705",
        "departure_time": "0710",
        "district": "烏日區",
        "village": "三和里",
        "location": "成功東路238-1號",
        "type": "沿街",
        "collection_type": "recycling",
        "day_of_week": 4
      }
    },
    {
      "type": "Feature",
      "geometry": {
        "type": "Point",
        "coordinates": [
          120.603176,
          24.114318
        ]
      },
      "properties": {
        "routeId": "taichung-keb-0271-bd63e6-d4",
        "city": "taichung",
        "route_name": "KEB-0271",
        "car_seq": "KEB-0271",
        "arrival_time": "0710",
        "departure_time": "0715",
        "district": "烏日區",
        "village": "三和里",
        "location": "成功東路1號",
        "type": "沿街",
        "collection_type": "garbage",
        "day_of_week": 4
      }
    },
    {
      "type": "Feature",
      "geometry": {
        "type": "Point",
        "coordinates": [
          120.603176,
          24.114318
        ]
      },
      "properties": {
        "routeId": "taichung-keb-0271-bd63e6-d4",
        "city": "taichung",
        "route_name": "KEB-0271",
        "car_seq": "KEB-0271",
        "arrival_time": "0710",
        "departure_time": "0715",
        "district": "烏日區",
        "village": "三和里",
        "location": "成功東路1號",
        "type": "沿街",
        "collection_type": "recycling",
        "day_of_week": 4
      }
    },
    {
      "type": "Feature",
      "geometry": {
        "type": "Point",
        "coordinates": [
          120.594665,
          24.11313
        ]
      },
      "properties": {
        "routeId": "taichung-keb-0271-bd63e6-d4",
        "city": "taichung",
        "route_name": "KEB-0271",
        "car_seq": "KEB-0271",
        "arrival_time": "0715",
        "departure_time": "0720",
        "district": "烏日區",
        "village": "榮泉里",
        "location": "中山路三段登寺巷30號",
        "type": "沿街",
        "collection_type": "garbage",
        "day_of_week": 4
      }
    },
    {
      "type": "Feature",
      "geometry": {
        "type": "Point",
        "coordinates": [
          120.594665,
          24.11313
        ]
      },
      "properties": {
        "routeId": "taichung-keb-0271-bd63e6-d4",
        "city": "taichung",
        "route_name": "KEB-0271",
        "car_seq": "KEB-0271",
        "arrival_time": "0715",
        "departure_time": "0720",
        "district": "烏日區",
        "village": "榮泉里",
        "location": "中山路三段登寺巷30號",
        "type": "沿街",
        "collection_type": "recycling",
        "day_of_week": 4
      }
    },
    {
      "type": "Feature",
      "geometry": {
        "type": "Point",
        "coordinates": [
          120.595476,
          24.112856
        ]
      },
      "properties": {
        "routeId": "taichung-keb-0271-bd63e6-d4",
        "city": "taichung",
        "route_name": "KEB-0271",
        "car_seq": "KEB-0271",
        "arrival_time": "0720",
        "departure_time": "0725",
        "district": "烏日區",
        "village": "榮泉里",
        "location": "中山路三段登寺巷54號",
        "type": "沿街",
        "collection_type": "garbage",
        "day_of_week": 4
      }
    },
    {
      "type": "Feature",
      "geometry": {
        "type": "Point",
        "coordinates": [
          120.595476,
          24.112856
        ]
      },
      "properties": {
        "routeId": "taichung-keb-0271-bd63e6-d4",
        "city": "taichung",
        "route_name": "KEB-0271",
        "car_seq": "KEB-0271",
        "arrival_time": "0720",
        "departure_time": "0725",
        "district": "烏日區",
        "village": "榮泉里",
        "location": "中山路三段登寺巷54號",
        "type": "沿街",
        "collection_type": "recycling",
        "day_of_week": 4
      }
    },
    {
      "type": "Feature",
      "geometry": {
        "type": "Point",
        "coordinates": [
          120.594433,
          24.114068
        ]
      },
      "properties": {
        "routeId": "taichung-keb-0271-bd63e6-d4",
        "city": "taichung",
        "route_name": "KEB-0271",
        "car_seq": "KEB-0271",
        "arrival_time": "0725",
        "departure_time": "0730",
        "district": "烏日區",
        "village": "榮泉里",
        "location": "中山路三段登寺巷35號",
        "type": "沿街",
        "collection_type": "garbage",
        "day_of_week": 4
      }
    },
    {
      "type": "Feature",
      "geometry": {
        "type": "Point",
        "coordinates": [
          120.594433,
          24.114068
        ]
      },
      "properties": {
        "routeId": "taichung-keb-0271-bd63e6-d4",
        "city": "taichung",
        "route_name": "KEB-0271",
        "car_seq": "KEB-0271",
        "arrival_time": "0725",
        "departure_time": "0730",
        "district": "烏日區",
        "village": "榮泉里",
        "location": "中山路三段登寺巷35號",
        "type": "沿街",
        "collection_type": "recycling",
        "day_of_week": 4
      }
    },
    {
      "type": "Feature",
      "geometry": {
        "type": "Point",
        "coordinates": [
          120.594382,
          24.115918
        ]
      },
      "properties": {
        "routeId": "taichung-keb-0271-bd63e6-d4",
        "city": "taichung",
        "route_name": "KEB-0271",
        "car_seq": "KEB-0271",
        "arrival_time": "0730",
        "departure_time": "0735",
        "district": "烏日區",
        "village": "榮泉里",
        "location": "中山路三段登寺巷168號",
        "type": "沿街",
        "collection_type": "garbage",
        "day_of_week": 4
      }
    },
    {
      "type": "Feature",
      "geometry": {
        "type": "Point",
        "coordinates": [
          120.594382,
          24.115918
        ]
      },
      "properties": {
        "routeId": "taichung-keb-0271-bd63e6-d4",
        "city": "taichung",
        "route_name": "KEB-0271",
        "car_seq": "KEB-0271",
        "arrival_time": "0730",
        "departure_time": "0735",
        "district": "烏日區",
        "village": "榮泉里",
        "location": "中山路三段登寺巷168號",
        "type": "沿街",
        "collection_type": "recycling",
        "day_of_week": 4
      }
    },
    {
      "type": "Feature",
      "geometry": {
        "type": "Point",
        "coordinates": [
          120.587774,
          24.113589
        ]
      },
      "properties": {
        "routeId": "taichung-keb-0271-bd63e6-d4",
        "city": "taichung",
        "route_name": "KEB-0271",
        "car_seq": "KEB-0271",
        "arrival_time": "0740",
        "departure_time": "0745",
        "district": "烏日區",
        "village": "榮泉里",
        "location": "振興街2號",
        "type": "沿街",
        "collection_type": "garbage",
        "day_of_week": 4
      }
    },
    {
      "type": "Feature",
      "geometry": {
        "type": "Point",
        "coordinates": [
          120.587774,
          24.113589
        ]
      },
      "properties": {
        "routeId": "taichung-keb-0271-bd63e6-d4",
        "city": "taichung",
        "route_name": "KEB-0271",
        "car_seq": "KEB-0271",
        "arrival_time": "0740",
        "departure_time": "0745",
        "district": "烏日區",
        "village": "榮泉里",
        "location": "振興街2號",
        "type": "沿街",
        "collection_type": "recycling",
        "day_of_week": 4
      }
    },
    {
      "type": "Feature",
      "geometry": {
        "type": "Point",
        "coordinates": [
          120.588183,
          24.114564
        ]
      },
      "properties": {
        "routeId": "taichung-keb-0271-bd63e6-d4",
        "city": "taichung",
        "route_name": "KEB-0271",
        "car_seq": "KEB-0271",
        "arrival_time": "0743",
        "departure_time": "0748",
        "district": "烏日區",
        "village": "榮泉里",
        "location": "振興街34號",
        "type": "沿街",
        "collection_type": "garbage",
        "day_of_week": 4
      }
    },
    {
      "type": "Feature",
      "geometry": {
        "type": "Point",
        "coordinates": [
          120.588183,
          24.114564
        ]
      },
      "properties": {
        "routeId": "taichung-keb-0271-bd63e6-d4",
        "city": "taichung",
        "route_name": "KEB-0271",
        "car_seq": "KEB-0271",
        "arrival_time": "0743",
        "departure_time": "0748",
        "district": "烏日區",
        "village": "榮泉里",
        "location": "振興街34號",
        "type": "沿街",
        "collection_type": "recycling",
        "day_of_week": 4
      }
    },
    {
      "type": "Feature",
      "geometry": {
        "type": "Point",
        "coordinates": [
          120.589492,
          24.113727
        ]
      },
      "properties": {
        "routeId": "taichung-keb-0271-bd63e6-d4",
        "city": "taichung",
        "route_name": "KEB-0271",
        "car_seq": "KEB-0271",
        "arrival_time": "0748",
        "departure_time": "0753",
        "district": "烏日區",
        "village": "榮泉里",
        "location": "中山路三段598號",
        "type": "沿街",
        "collection_type": "garbage",
        "day_of_week": 4
      }
    },
    {
      "type": "Feature",
      "geometry": {
        "type": "Point",
        "coordinates": [
          120.589492,
          24.113727
        ]
      },
      "properties": {
        "routeId": "taichung-keb-0271-bd63e6-d4",
        "city": "taichung",
        "route_name": "KEB-0271",
        "car_seq": "KEB-0271",
        "arrival_time": "0748",
        "departure_time": "0753",
        "district": "烏日區",
        "village": "榮泉里",
        "location": "中山路三段598號",
        "type": "沿街",
        "collection_type": "recycling",
        "day_of_week": 4
      }
    },
    {
      "type": "Feature",
      "geometry": {
        "type": "Point",
        "coordinates": [
          120.586877,
          24.113477
        ]
      },
      "properties": {
        "routeId": "taichung-keb-0271-bd63e6-d4",
        "city": "taichung",
        "route_name": "KEB-0271",
        "car_seq": "KEB-0271",
        "arrival_time": "0752",
        "departure_time": "0757",
        "district": "烏日區",
        "village": "榮泉里",
        "location": "中山路三段712號",
        "type": "沿街",
        "collection_type": "garbage",
        "day_of_week": 4
      }
    },
    {
      "type": "Feature",
      "geometry": {
        "type": "Point",
        "coordinates": [
          120.586877,
          24.113477
        ]
      },
      "properties": {
        "routeId": "taichung-keb-0271-bd63e6-d4",
        "city": "taichung",
        "route_name": "KEB-0271",
        "car_seq": "KEB-0271",
        "arrival_time": "0752",
        "departure_time": "0757",
        "district": "烏日區",
        "village": "榮泉里",
        "location": "中山路三段712號",
        "type": "沿街",
        "collection_type": "recycling",
        "day_of_week": 4
      }
    },
    {
      "type": "Feature",
      "geometry": {
        "type": "Point",
        "coordinates": [
          120.583954,
          24.110863
        ]
      },
      "properties": {
        "routeId": "taichung-keb-0271-bd63e6-d4",
        "city": "taichung",
        "route_name": "KEB-0271",
        "car_seq": "KEB-0271",
        "arrival_time": "0755",
        "departure_time": "0800",
        "district": "烏日區",
        "village": "榮泉里",
        "location": "中山路三段1319號",
        "type": "沿街",
        "collection_type": "garbage",
        "day_of_week": 4
      }
    },
    {
      "type": "Feature",
      "geometry": {
        "type": "Point",
        "coordinates": [
          120.583954,
          24.110863
        ]
      },
      "properties": {
        "routeId": "taichung-keb-0271-bd63e6-d4",
        "city": "taichung",
        "route_name": "KEB-0271",
        "car_seq": "KEB-0271",
        "arrival_time": "0755",
        "departure_time": "0800",
        "district": "烏日區",
        "village": "榮泉里",
        "location": "中山路三段1319號",
        "type": "沿街",
        "collection_type": "recycling",
        "day_of_week": 4
      }
    },
    {
      "type": "Feature",
      "geometry": {
        "type": "Point",
        "coordinates": [
          120.592643,
          24.113047
        ]
      },
      "properties": {
        "routeId": "taichung-keb-0271-bd63e6-d4",
        "city": "taichung",
        "route_name": "KEB-0271",
        "car_seq": "KEB-0271",
        "arrival_time": "0758",
        "departure_time": "0803",
        "district": "烏日區",
        "village": "榮泉里",
        "location": "中山路三段1019號",
        "type": "沿街",
        "collection_type": "garbage",
        "day_of_week": 4
      }
    },
    {
      "type": "Feature",
      "geometry": {
        "type": "Point",
        "coordinates": [
          120.592643,
          24.113047
        ]
      },
      "properties": {
        "routeId": "taichung-keb-0271-bd63e6-d4",
        "city": "taichung",
        "route_name": "KEB-0271",
        "car_seq": "KEB-0271",
        "arrival_time": "0758",
        "departure_time": "0803",
        "district": "烏日區",
        "village": "榮泉里",
        "location": "中山路三段1019號",
        "type": "沿街",
        "collection_type": "recycling",
        "day_of_week": 4
      }
    },
    {
      "type": "Feature",
      "geometry": {
        "type": "Point",
        "coordinates": [
          120.593922,
          24.111929
        ]
      },
      "properties": {
        "routeId": "taichung-keb-0271-bd63e6-d4",
        "city": "taichung",
        "route_name": "KEB-0271",
        "car_seq": "KEB-0271",
        "arrival_time": "0800",
        "departure_time": "0805",
        "district": "烏日區",
        "village": "榮泉里",
        "location": "榮泉路185號",
        "type": "沿街",
        "collection_type": "garbage",
        "day_of_week": 4
      }
    },
    {
      "type": "Feature",
      "geometry": {
        "type": "Point",
        "coordinates": [
          120.593922,
          24.111929
        ]
      },
      "properties": {
        "routeId": "taichung-keb-0271-bd63e6-d4",
        "city": "taichung",
        "route_name": "KEB-0271",
        "car_seq": "KEB-0271",
        "arrival_time": "0800",
        "departure_time": "0805",
        "district": "烏日區",
        "village": "榮泉里",
        "location": "榮泉路185號",
        "type": "沿街",
        "collection_type": "recycling",
        "day_of_week": 4
      }
    },
    {
      "type": "Feature",
      "geometry": {
        "type": "Point",
        "coordinates": [
          120.600285,
          24.11015
        ]
      },
      "properties": {
        "routeId": "taichung-keb-0271-bd63e6-d4",
        "city": "taichung",
        "route_name": "KEB-0271",
        "car_seq": "KEB-0271",
        "arrival_time": "0905",
        "departure_time": "0910",
        "district": "烏日區",
        "village": "榮泉里",
        "location": "中山路三段589巷10號",
        "type": "沿街",
        "collection_type": "garbage",
        "day_of_week": 4
      }
    },
    {
      "type": "Feature",
      "geometry": {
        "type": "Point",
        "coordinates": [
          120.600285,
          24.11015
        ]
      },
      "properties": {
        "routeId": "taichung-keb-0271-bd63e6-d4",
        "city": "taichung",
        "route_name": "KEB-0271",
        "car_seq": "KEB-0271",
        "arrival_time": "0905",
        "departure_time": "0910",
        "district": "烏日區",
        "village": "榮泉里",
        "location": "中山路三段589巷10號",
        "type": "沿街",
        "collection_type": "recycling",
        "day_of_week": 4
      }
    },
    {
      "type": "Feature",
      "geometry": {
        "type": "Point",
        "coordinates": [
          120.598509,
          24.110143
        ]
      },
      "properties": {
        "routeId": "taichung-keb-0271-bd63e6-d4",
        "city": "taichung",
        "route_name": "KEB-0271",
        "car_seq": "KEB-0271",
        "arrival_time": "0910",
        "departure_time": "0915",
        "district": "烏日區",
        "village": "榮泉里",
        "location": "健行路260號",
        "type": "沿街",
        "collection_type": "garbage",
        "day_of_week": 4
      }
    },
    {
      "type": "Feature",
      "geometry": {
        "type": "Point",
        "coordinates": [
          120.598509,
          24.110143
        ]
      },
      "properties": {
        "routeId": "taichung-keb-0271-bd63e6-d4",
        "city": "taichung",
        "route_name": "KEB-0271",
        "car_seq": "KEB-0271",
        "arrival_time": "0910",
        "departure_time": "0915",
        "district": "烏日區",
        "village": "榮泉里",
        "location": "健行路260號",
        "type": "沿街",
        "collection_type": "recycling",
        "day_of_week": 4
      }
    },
    {
      "type": "Feature",
      "geometry": {
        "type": "Point",
        "coordinates": [
          120.600718,
          24.110133
        ]
      },
      "properties": {
        "routeId": "taichung-keb-0271-bd63e6-d4",
        "city": "taichung",
        "route_name": "KEB-0271",
        "car_seq": "KEB-0271",
        "arrival_time": "0915",
        "departure_time": "0920",
        "district": "烏日區",
        "village": "榮泉里",
        "location": "健行路152巷11號",
        "type": "沿街",
        "collection_type": "garbage",
        "day_of_week": 4
      }
    },
    {
      "type": "Feature",
      "geometry": {
        "type": "Point",
        "coordinates": [
          120.600718,
          24.110133
        ]
      },
      "properties": {
        "routeId": "taichung-keb-0271-bd63e6-d4",
        "city": "taichung",
        "route_name": "KEB-0271",
        "car_seq": "KEB-0271",
        "arrival_time": "0915",
        "departure_time": "0920",
        "district": "烏日區",
        "village": "榮泉里",
        "location": "健行路152巷11號",
        "type": "沿街",
        "collection_type": "recycling",
        "day_of_week": 4
      }
    },
    {
      "type": "Feature",
      "geometry": {
        "type": "Point",
        "coordinates": [
          120.599795,
          24.108156
        ]
      },
      "properties": {
        "routeId": "taichung-keb-0271-bd63e6-d4",
        "city": "taichung",
        "route_name": "KEB-0271",
        "car_seq": "KEB-0271",
        "arrival_time": "0920",
        "departure_time": "0925",
        "district": "烏日區",
        "village": "榮泉里",
        "location": "三榮十路15號",
        "type": "沿街",
        "collection_type": "garbage",
        "day_of_week": 4
      }
    },
    {
      "type": "Feature",
      "geometry": {
        "type": "Point",
        "coordinates": [
          120.599795,
          24.108156
        ]
      },
      "properties": {
        "routeId": "taichung-keb-0271-bd63e6-d4",
        "city": "taichung",
        "route_name": "KEB-0271",
        "car_seq": "KEB-0271",
        "arrival_time": "0920",
        "departure_time": "0925",
        "district": "烏日區",
        "village": "榮泉里",
        "location": "三榮十路15號",
        "type": "沿街",
        "collection_type": "recycling",
        "day_of_week": 4
      }
    },
    {
      "type": "Feature",
      "geometry": {
        "type": "Point",
        "coordinates": [
          120.600016,
          24.108889
        ]
      },
      "properties": {
        "routeId": "taichung-keb-0271-bd63e6-d4",
        "city": "taichung",
        "route_name": "KEB-0271",
        "car_seq": "KEB-0271",
        "arrival_time": "0925",
        "departure_time": "0930",
        "district": "烏日區",
        "village": "榮泉里",
        "location": "三榮十路77巷1號",
        "type": "沿街",
        "collection_type": "garbage",
        "day_of_week": 4
      }
    },
    {
      "type": "Feature",
      "geometry": {
        "type": "Point",
        "coordinates": [
          120.600016,
          24.108889
        ]
      },
      "properties": {
        "routeId": "taichung-keb-0271-bd63e6-d4",
        "city": "taichung",
        "route_name": "KEB-0271",
        "car_seq": "KEB-0271",
        "arrival_time": "0925",
        "departure_time": "0930",
        "district": "烏日區",
        "village": "榮泉里",
        "location": "三榮十路77巷1號",
        "type": "沿街",
        "collection_type": "recycling",
        "day_of_week": 4
      }
    },
    {
      "type": "Feature",
      "geometry": {
        "type": "Point",
        "coordinates": [
          120.604781,
          24.108481
        ]
      },
      "properties": {
        "routeId": "taichung-keb-0271-bd63e6-d4",
        "city": "taichung",
        "route_name": "KEB-0271",
        "car_seq": "KEB-0271",
        "arrival_time": "0930",
        "departure_time": "0935",
        "district": "烏日區",
        "village": "三和里",
        "location": "中山路三段403巷6弄2號",
        "type": "沿街",
        "collection_type": "garbage",
        "day_of_week": 4
      }
    },
    {
      "type": "Feature",
      "geometry": {
        "type": "Point",
        "coordinates": [
          120.604781,
          24.108481
        ]
      },
      "properties": {
        "routeId": "taichung-keb-0271-bd63e6-d4",
        "city": "taichung",
        "route_name": "KEB-0271",
        "car_seq": "KEB-0271",
        "arrival_time": "0930",
        "departure_time": "0935",
        "district": "烏日區",
        "village": "三和里",
        "location": "中山路三段403巷6弄2號",
        "type": "沿街",
        "collection_type": "recycling",
        "day_of_week": 4
      }
    },
    {
      "type": "Feature",
      "geometry": {
        "type": "Point",
        "coordinates": [
          120.605253,
          24.108329
        ]
      },
      "properties": {
        "routeId": "taichung-keb-0271-bd63e6-d4",
        "city": "taichung",
        "route_name": "KEB-0271",
        "car_seq": "KEB-0271",
        "arrival_time": "0935",
        "departure_time": "0940",
        "district": "烏日區",
        "village": "三和里",
        "location": "三榮六路105號",
        "type": "沿街",
        "collection_type": "garbage",
        "day_of_week": 4
      }
    },
    {
      "type": "Feature",
      "geometry": {
        "type": "Point",
        "coordinates": [
          120.605253,
          24.108329
        ]
      },
      "properties": {
        "routeId": "taichung-keb-0271-bd63e6-d4",
        "city": "taichung",
        "route_name": "KEB-0271",
        "car_seq": "KEB-0271",
        "arrival_time": "0935",
        "departure_time": "0940",
        "district": "烏日區",
        "village": "三和里",
        "location": "三榮六路105號",
        "type": "沿街",
        "collection_type": "recycling",
        "day_of_week": 4
      }
    },
    {
      "type": "Feature",
      "geometry": {
        "type": "Point",
        "coordinates": [
          120.606639,
          24.107641
        ]
      },
      "properties": {
        "routeId": "taichung-keb-0271-bd63e6-d4",
        "city": "taichung",
        "route_name": "KEB-0271",
        "car_seq": "KEB-0271",
        "arrival_time": "0940",
        "departure_time": "0945",
        "district": "烏日區",
        "village": "三和里",
        "location": "中山路三段青仔巷156號",
        "type": "沿街",
        "collection_type": "garbage",
        "day_of_week": 4
      }
    },
    {
      "type": "Feature",
      "geometry": {
        "type": "Point",
        "coordinates": [
          120.606639,
          24.107641
        ]
      },
      "properties": {
        "routeId": "taichung-keb-0271-bd63e6-d4",
        "city": "taichung",
        "route_name": "KEB-0271",
        "car_seq": "KEB-0271",
        "arrival_time": "0940",
        "departure_time": "0945",
        "district": "烏日區",
        "village": "三和里",
        "location": "中山路三段青仔巷156號",
        "type": "沿街",
        "collection_type": "recycling",
        "day_of_week": 4
      }
    },
    {
      "type": "Feature",
      "geometry": {
        "type": "Point",
        "coordinates": [
          120.606733,
          24.108015
        ]
      },
      "properties": {
        "routeId": "taichung-keb-0271-bd63e6-d4",
        "city": "taichung",
        "route_name": "KEB-0271",
        "car_seq": "KEB-0271",
        "arrival_time": "0945",
        "departure_time": "0950",
        "district": "烏日區",
        "village": "三和里",
        "location": "中山路三段青仔巷133號",
        "type": "沿街",
        "collection_type": "garbage",
        "day_of_week": 4
      }
    },
    {
      "type": "Feature",
      "geometry": {
        "type": "Point",
        "coordinates": [
          120.606733,
          24.108015
        ]
      },
      "properties": {
        "routeId": "taichung-keb-0271-bd63e6-d4",
        "city": "taichung",
        "route_name": "KEB-0271",
        "car_seq": "KEB-0271",
        "arrival_time": "0945",
        "departure_time": "0950",
        "district": "烏日區",
        "village": "三和里",
        "location": "中山路三段青仔巷133號",
        "type": "沿街",
        "collection_type": "recycling",
        "day_of_week": 4
      }
    },
    {
      "type": "Feature",
      "geometry": {
        "type": "Point",
        "coordinates": [
          120.607879,
          24.107481
        ]
      },
      "properties": {
        "routeId": "taichung-keb-0271-bd63e6-d4",
        "city": "taichung",
        "route_name": "KEB-0271",
        "car_seq": "KEB-0271",
        "arrival_time": "0950",
        "departure_time": "0955",
        "district": "烏日區",
        "village": "三和里",
        "location": "中山路三段青仔巷13號",
        "type": "沿街",
        "collection_type": "garbage",
        "day_of_week": 4
      }
    },
    {
      "type": "Feature",
      "geometry": {
        "type": "Point",
        "coordinates": [
          120.607879,
          24.107481
        ]
      },
      "properties": {
        "routeId": "taichung-keb-0271-bd63e6-d4",
        "city": "taichung",
        "route_name": "KEB-0271",
        "car_seq": "KEB-0271",
        "arrival_time": "0950",
        "departure_time": "0955",
        "district": "烏日區",
        "village": "三和里",
        "location": "中山路三段青仔巷13號",
        "type": "沿街",
        "collection_type": "recycling",
        "day_of_week": 4
      }
    },
    {
      "type": "Feature",
      "geometry": {
        "type": "Point",
        "coordinates": [
          120.627274,
          24.104559
        ]
      },
      "properties": {
        "routeId": "taichung-keb-0271-bd63e6-d4",
        "city": "taichung",
        "route_name": "KEB-0271",
        "car_seq": "KEB-0271",
        "arrival_time": "1300",
        "departure_time": "1305",
        "district": "烏日區",
        "village": "烏日里",
        "location": "日新街12號",
        "type": "沿街",
        "collection_type": "garbage",
        "day_of_week": 4
      }
    },
    {
      "type": "Feature",
      "geometry": {
        "type": "Point",
        "coordinates": [
          120.627274,
          24.104559
        ]
      },
      "properties": {
        "routeId": "taichung-keb-0271-bd63e6-d4",
        "city": "taichung",
        "route_name": "KEB-0271",
        "car_seq": "KEB-0271",
        "arrival_time": "1300",
        "departure_time": "1305",
        "district": "烏日區",
        "village": "烏日里",
        "location": "日新街12號",
        "type": "沿街",
        "collection_type": "recycling",
        "day_of_week": 4
      }
    },
    {
      "type": "Feature",
      "geometry": {
        "type": "Point",
        "coordinates": [
          120.627055,
          24.105143
        ]
      },
      "properties": {
        "routeId": "taichung-keb-0271-bd63e6-d4",
        "city": "taichung",
        "route_name": "KEB-0271",
        "car_seq": "KEB-0271",
        "arrival_time": "1303",
        "departure_time": "1308",
        "district": "烏日區",
        "village": "烏日里",
        "location": "五光路1116巷15號",
        "type": "沿街",
        "collection_type": "garbage",
        "day_of_week": 4
      }
    },
    {
      "type": "Feature",
      "geometry": {
        "type": "Point",
        "coordinates": [
          120.627055,
          24.105143
        ]
      },
      "properties": {
        "routeId": "taichung-keb-0271-bd63e6-d4",
        "city": "taichung",
        "route_name": "KEB-0271",
        "car_seq": "KEB-0271",
        "arrival_time": "1303",
        "departure_time": "1308",
        "district": "烏日區",
        "village": "烏日里",
        "location": "五光路1116巷15號",
        "type": "沿街",
        "collection_type": "recycling",
        "day_of_week": 4
      }
    },
    {
      "type": "Feature",
      "geometry": {
        "type": "Point",
        "coordinates": [
          120.626309,
          24.10534
        ]
      },
      "properties": {
        "routeId": "taichung-keb-0271-bd63e6-d4",
        "city": "taichung",
        "route_name": "KEB-0271",
        "car_seq": "KEB-0271",
        "arrival_time": "1306",
        "departure_time": "1311",
        "district": "烏日區",
        "village": "烏日里",
        "location": "五光路1091號",
        "type": "沿街",
        "collection_type": "garbage",
        "day_of_week": 4
      }
    },
    {
      "type": "Feature",
      "geometry": {
        "type": "Point",
        "coordinates": [
          120.626309,
          24.10534
        ]
      },
      "properties": {
        "routeId": "taichung-keb-0271-bd63e6-d4",
        "city": "taichung",
        "route_name": "KEB-0271",
        "car_seq": "KEB-0271",
        "arrival_time": "1306",
        "departure_time": "1311",
        "district": "烏日區",
        "village": "烏日里",
        "location": "五光路1091號",
        "type": "沿街",
        "collection_type": "recycling",
        "day_of_week": 4
      }
    },
    {
      "type": "Feature",
      "geometry": {
        "type": "Point",
        "coordinates": [
          120.62501,
          24.105481
        ]
      },
      "properties": {
        "routeId": "taichung-keb-0271-bd63e6-d4",
        "city": "taichung",
        "route_name": "KEB-0271",
        "car_seq": "KEB-0271",
        "arrival_time": "1310",
        "departure_time": "1315",
        "district": "烏日區",
        "village": "烏日里",
        "location": "光日路156號",
        "type": "沿街",
        "collection_type": "garbage",
        "day_of_week": 4
      }
    },
    {
      "type": "Feature",
      "geometry": {
        "type": "Point",
        "coordinates": [
          120.62501,
          24.105481
        ]
      },
      "properties": {
        "routeId": "taichung-keb-0271-bd63e6-d4",
        "city": "taichung",
        "route_name": "KEB-0271",
        "car_seq": "KEB-0271",
        "arrival_time": "1310",
        "departure_time": "1315",
        "district": "烏日區",
        "village": "烏日里",
        "location": "光日路156號",
        "type": "沿街",
        "collection_type": "recycling",
        "day_of_week": 4
      }
    },
    {
      "type": "Feature",
      "geometry": {
        "type": "Point",
        "coordinates": [
          120.6262,
          24.110251
        ]
      },
      "properties": {
        "routeId": "taichung-keb-0271-bd63e6-d4",
        "city": "taichung",
        "route_name": "KEB-0271",
        "car_seq": "KEB-0271",
        "arrival_time": "1315",
        "departure_time": "1320",
        "district": "烏日區",
        "village": "烏日里",
        "location": "大同路20號",
        "type": "沿街",
        "collection_type": "garbage",
        "day_of_week": 4
      }
    },
    {
      "type": "Feature",
      "geometry": {
        "type": "Point",
        "coordinates": [
          120.6262,
          24.110251
        ]
      },
      "properties": {
        "routeId": "taichung-keb-0271-bd63e6-d4",
        "city": "taichung",
        "route_name": "KEB-0271",
        "car_seq": "KEB-0271",
        "arrival_time": "1315",
        "departure_time": "1320",
        "district": "烏日區",
        "village": "烏日里",
        "location": "大同路20號",
        "type": "沿街",
        "collection_type": "recycling",
        "day_of_week": 4
      }
    },
    {
      "type": "Feature",
      "geometry": {
        "type": "Point",
        "coordinates": [
          120.627475,
          24.110043
        ]
      },
      "properties": {
        "routeId": "taichung-keb-0271-bd63e6-d4",
        "city": "taichung",
        "route_name": "KEB-0271",
        "car_seq": "KEB-0271",
        "arrival_time": "1320",
        "departure_time": "1325",
        "district": "烏日區",
        "village": "烏日里",
        "location": "大同路90號",
        "type": "沿街",
        "collection_type": "garbage",
        "day_of_week": 4
      }
    },
    {
      "type": "Feature",
      "geometry": {
        "type": "Point",
        "coordinates": [
          120.627475,
          24.110043
        ]
      },
      "properties": {
        "routeId": "taichung-keb-0271-bd63e6-d4",
        "city": "taichung",
        "route_name": "KEB-0271",
        "car_seq": "KEB-0271",
        "arrival_time": "1320",
        "departure_time": "1325",
        "district": "烏日區",
        "village": "烏日里",
        "location": "大同路90號",
        "type": "沿街",
        "collection_type": "recycling",
        "day_of_week": 4
      }
    },
    {
      "type": "Feature",
      "geometry": {
        "type": "Point",
        "coordinates": [
          120.62609,
          24.109473
        ]
      },
      "properties": {
        "routeId": "taichung-keb-0271-bd63e6-d4",
        "city": "taichung",
        "route_name": "KEB-0271",
        "car_seq": "KEB-0271",
        "arrival_time": "1323",
        "departure_time": "1328",
        "district": "烏日區",
        "village": "烏日里",
        "location": "民族街21號",
        "type": "沿街",
        "collection_type": "garbage",
        "day_of_week": 4
      }
    },
    {
      "type": "Feature",
      "geometry": {
        "type": "Point",
        "coordinates": [
          120.62609,
          24.109473
        ]
      },
      "properties": {
        "routeId": "taichung-keb-0271-bd63e6-d4",
        "city": "taichung",
        "route_name": "KEB-0271",
        "car_seq": "KEB-0271",
        "arrival_time": "1323",
        "departure_time": "1328",
        "district": "烏日區",
        "village": "烏日里",
        "location": "民族街21號",
        "type": "沿街",
        "collection_type": "recycling",
        "day_of_week": 4
      }
    },
    {
      "type": "Feature",
      "geometry": {
        "type": "Point",
        "coordinates": [
          120.627947,
          24.108954
        ]
      },
      "properties": {
        "routeId": "taichung-keb-0271-bd63e6-d4",
        "city": "taichung",
        "route_name": "KEB-0271",
        "car_seq": "KEB-0271",
        "arrival_time": "1328",
        "departure_time": "1333",
        "district": "烏日區",
        "village": "烏日里",
        "location": "建國路393號",
        "type": "沿街",
        "collection_type": "garbage",
        "day_of_week": 4
      }
    },
    {
      "type": "Feature",
      "geometry": {
        "type": "Point",
        "coordinates": [
          120.627947,
          24.108954
        ]
      },
      "properties": {
        "routeId": "taichung-keb-0271-bd63e6-d4",
        "city": "taichung",
        "route_name": "KEB-0271",
        "car_seq": "KEB-0271",
        "arrival_time": "1328",
        "departure_time": "1333",
        "district": "烏日區",
        "village": "烏日里",
        "location": "建國路393號",
        "type": "沿街",
        "collection_type": "recycling",
        "day_of_week": 4
      }
    },
    {
      "type": "Feature",
      "geometry": {
        "type": "Point",
        "coordinates": [
          120.62568,
          24.108954
        ]
      },
      "properties": {
        "routeId": "taichung-keb-0271-bd63e6-d4",
        "city": "taichung",
        "route_name": "KEB-0271",
        "car_seq": "KEB-0271",
        "arrival_time": "1333",
        "departure_time": "1338",
        "district": "烏日區",
        "village": "烏日里",
        "location": "建國路309號",
        "type": "沿街",
        "collection_type": "garbage",
        "day_of_week": 4
      }
    },
    {
      "type": "Feature",
      "geometry": {
        "type": "Point",
        "coordinates": [
          120.62568,
          24.108954
        ]
      },
      "properties": {
        "routeId": "taichung-keb-0271-bd63e6-d4",
        "city": "taichung",
        "route_name": "KEB-0271",
        "car_seq": "KEB-0271",
        "arrival_time": "1333",
        "departure_time": "1338",
        "district": "烏日區",
        "village": "烏日里",
        "location": "建國路309號",
        "type": "沿街",
        "collection_type": "recycling",
        "day_of_week": 4
      }
    },
    {
      "type": "Feature",
      "geometry": {
        "type": "Point",
        "coordinates": [
          120.627836,
          24.110272
        ]
      },
      "properties": {
        "routeId": "taichung-keb-0271-bd63e6-d4",
        "city": "taichung",
        "route_name": "KEB-0271",
        "car_seq": "KEB-0271",
        "arrival_time": "1336",
        "departure_time": "1341",
        "district": "烏日區",
        "village": "烏日里",
        "location": "大同路71號",
        "type": "沿街",
        "collection_type": "garbage",
        "day_of_week": 4
      }
    },
    {
      "type": "Feature",
      "geometry": {
        "type": "Point",
        "coordinates": [
          120.627836,
          24.110272
        ]
      },
      "properties": {
        "routeId": "taichung-keb-0271-bd63e6-d4",
        "city": "taichung",
        "route_name": "KEB-0271",
        "car_seq": "KEB-0271",
        "arrival_time": "1336",
        "departure_time": "1341",
        "district": "烏日區",
        "village": "烏日里",
        "location": "大同路71號",
        "type": "沿街",
        "collection_type": "recycling",
        "day_of_week": 4
      }
    },
    {
      "type": "Feature",
      "geometry": {
        "type": "Point",
        "coordinates": [
          120.627982,
          24.111485
        ]
      },
      "properties": {
        "routeId": "taichung-keb-0271-bd63e6-d4",
        "city": "taichung",
        "route_name": "KEB-0271",
        "car_seq": "KEB-0271",
        "arrival_time": "1340",
        "departure_time": "1345",
        "district": "烏日區",
        "village": "烏日里",
        "location": "民權街160號",
        "type": "沿街",
        "collection_type": "garbage",
        "day_of_week": 4
      }
    },
    {
      "type": "Feature",
      "geometry": {
        "type": "Point",
        "coordinates": [
          120.627982,
          24.111485
        ]
      },
      "properties": {
        "routeId": "taichung-keb-0271-bd63e6-d4",
        "city": "taichung",
        "route_name": "KEB-0271",
        "car_seq": "KEB-0271",
        "arrival_time": "1340",
        "departure_time": "1345",
        "district": "烏日區",
        "village": "烏日里",
        "location": "民權街160號",
        "type": "沿街",
        "collection_type": "recycling",
        "day_of_week": 4
      }
    },
    {
      "type": "Feature",
      "geometry": {
        "type": "Point",
        "coordinates": [
          120.62829,
          24.112988
        ]
      },
      "properties": {
        "routeId": "taichung-keb-0271-bd63e6-d4",
        "city": "taichung",
        "route_name": "KEB-0271",
        "car_seq": "KEB-0271",
        "arrival_time": "1343",
        "departure_time": "1348",
        "district": "烏日區",
        "village": "烏日里",
        "location": "大同十街11號",
        "type": "沿街",
        "collection_type": "garbage",
        "day_of_week": 4
      }
    },
    {
      "type": "Feature",
      "geometry": {
        "type": "Point",
        "coordinates": [
          120.62829,
          24.112988
        ]
      },
      "properties": {
        "routeId": "taichung-keb-0271-bd63e6-d4",
        "city": "taichung",
        "route_name": "KEB-0271",
        "car_seq": "KEB-0271",
        "arrival_time": "1343",
        "departure_time": "1348",
        "district": "烏日區",
        "village": "烏日里",
        "location": "大同十街11號",
        "type": "沿街",
        "collection_type": "recycling",
        "day_of_week": 4
      }
    },
    {
      "type": "Feature",
      "geometry": {
        "type": "Point",
        "coordinates": [
          120.627815,
          24.111985
        ]
      },
      "properties": {
        "routeId": "taichung-keb-0271-bd63e6-d4",
        "city": "taichung",
        "route_name": "KEB-0271",
        "car_seq": "KEB-0271",
        "arrival_time": "1346",
        "departure_time": "1351",
        "district": "烏日區",
        "village": "烏日里",
        "location": "民權街101號",
        "type": "沿街",
        "collection_type": "garbage",
        "day_of_week": 4
      }
    },
    {
      "type": "Feature",
      "geometry": {
        "type": "Point",
        "coordinates": [
          120.627815,
          24.111985
        ]
      },
      "properties": {
        "routeId": "taichung-keb-0271-bd63e6-d4",
        "city": "taichung",
        "route_name": "KEB-0271",
        "car_seq": "KEB-0271",
        "arrival_time": "1346",
        "departure_time": "1351",
        "district": "烏日區",
        "village": "烏日里",
        "location": "民權街101號",
        "type": "沿街",
        "collection_type": "recycling",
        "day_of_week": 4
      }
    },
    {
      "type": "Feature",
      "geometry": {
        "type": "Point",
        "coordinates": [
          120.62661,
          24.111542
        ]
      },
      "properties": {
        "routeId": "taichung-keb-0271-bd63e6-d4",
        "city": "taichung",
        "route_name": "KEB-0271",
        "car_seq": "KEB-0271",
        "arrival_time": "1350",
        "departure_time": "1355",
        "district": "烏日區",
        "village": "烏日里",
        "location": "民族街90號",
        "type": "沿街",
        "collection_type": "garbage",
        "day_of_week": 4
      }
    },
    {
      "type": "Feature",
      "geometry": {
        "type": "Point",
        "coordinates": [
          120.62661,
          24.111542
        ]
      },
      "properties": {
        "routeId": "taichung-keb-0271-bd63e6-d4",
        "city": "taichung",
        "route_name": "KEB-0271",
        "car_seq": "KEB-0271",
        "arrival_time": "1350",
        "departure_time": "1355",
        "district": "烏日區",
        "village": "烏日里",
        "location": "民族街90號",
        "type": "沿街",
        "collection_type": "recycling",
        "day_of_week": 4
      }
    },
    {
      "type": "Feature",
      "geometry": {
        "type": "Point",
        "coordinates": [
          120.627202,
          24.110648
        ]
      },
      "properties": {
        "routeId": "taichung-keb-0271-bd63e6-d4",
        "city": "taichung",
        "route_name": "KEB-0271",
        "car_seq": "KEB-0271",
        "arrival_time": "1355",
        "departure_time": "1400",
        "district": "烏日區",
        "village": "烏日里",
        "location": "大同五街40號",
        "type": "沿街",
        "collection_type": "garbage",
        "day_of_week": 4
      }
    },
    {
      "type": "Feature",
      "geometry": {
        "type": "Point",
        "coordinates": [
          120.627202,
          24.110648
        ]
      },
      "properties": {
        "routeId": "taichung-keb-0271-bd63e6-d4",
        "city": "taichung",
        "route_name": "KEB-0271",
        "car_seq": "KEB-0271",
        "arrival_time": "1355",
        "departure_time": "1400",
        "district": "烏日區",
        "village": "烏日里",
        "location": "大同五街40號",
        "type": "沿街",
        "collection_type": "recycling",
        "day_of_week": 4
      }
    },
    {
      "type": "Feature",
      "geometry": {
        "type": "Point",
        "coordinates": [
          120.626017,
          24.111193
        ]
      },
      "properties": {
        "routeId": "taichung-keb-0271-bd63e6-d4",
        "city": "taichung",
        "route_name": "KEB-0271",
        "car_seq": "KEB-0271",
        "arrival_time": "1400",
        "departure_time": "1405",
        "district": "烏日區",
        "village": "烏日里",
        "location": "光日路398號",
        "type": "沿街",
        "collection_type": "garbage",
        "day_of_week": 4
      }
    },
    {
      "type": "Feature",
      "geometry": {
        "type": "Point",
        "coordinates": [
          120.626017,
          24.111193
        ]
      },
      "properties": {
        "routeId": "taichung-keb-0271-bd63e6-d4",
        "city": "taichung",
        "route_name": "KEB-0271",
        "car_seq": "KEB-0271",
        "arrival_time": "1400",
        "departure_time": "1405",
        "district": "烏日區",
        "village": "烏日里",
        "location": "光日路398號",
        "type": "沿街",
        "collection_type": "recycling",
        "day_of_week": 4
      }
    },
    {
      "type": "Feature",
      "geometry": {
        "type": "Point",
        "coordinates": [
          120.62761,
          24.110887
        ]
      },
      "properties": {
        "routeId": "taichung-keb-0271-bd63e6-d4",
        "city": "taichung",
        "route_name": "KEB-0271",
        "car_seq": "KEB-0271",
        "arrival_time": "1405",
        "departure_time": "1410",
        "district": "烏日區",
        "village": "烏日里",
        "location": "民權街67號",
        "type": "沿街",
        "collection_type": "garbage",
        "day_of_week": 4
      }
    },
    {
      "type": "Feature",
      "geometry": {
        "type": "Point",
        "coordinates": [
          120.62761,
          24.110887
        ]
      },
      "properties": {
        "routeId": "taichung-keb-0271-bd63e6-d4",
        "city": "taichung",
        "route_name": "KEB-0271",
        "car_seq": "KEB-0271",
        "arrival_time": "1405",
        "departure_time": "1410",
        "district": "烏日區",
        "village": "烏日里",
        "location": "民權街67號",
        "type": "沿街",
        "collection_type": "recycling",
        "day_of_week": 4
      }
    }
  ]
}