{
  "type": "FeatureCollection",
  "features": [
    {
      "type": "Feature",
      "geometry": {
        "type": "Point",
        "coordinates": [
          120.696205,
          24.057514
        ]
      },
      "properties": {
        "routeId": "taichung-893-ue-ca3243-d1",
        "city": "taichung",
        "route_name": "893-UE",
        "car_seq": "893-UE",
        "arrival_time": "0645",
        "departure_time": "0655",
        "district": "霧峰區",
        "village": "本堂里",
        "location": "樹仁路228號",
        "type": "定點",
        "collection_type": "garbage",
        "day_of_week": 1
      }
    },
    {
      "type": "Feature",
      "geometry": {
        "type": "Point",
        "coordinates": [
          120.696205,
          24.057514
        ]
      },
      "properties": {
        "routeId": "taichung-893-ue-ca3243-d1",
        "city": "taichung",
        "route_name": "893-UE",
        "car_seq": "893-UE",
        "arrival_time": "0645",
        "departure_time": "0655",
        "district": "霧峰區",
        "village": "本堂里",
        "location": "樹仁路228號",
        "type": "定點",
        "collection_type": "recycling",
        "day_of_week": 1
      }
    },
    {
      "type": "Feature",
      "geometry": {
        "type": "Point",
        "coordinates": [
          120.696537,
          24.057392
        ]
      },
      "properties": {
        "routeId": "taichung-893-ue-ca3243-d1",
        "city": "taichung",
        "route_name": "893-UE",
        "car_seq": "893-UE",
        "arrival_time": "0701",
        "departure_time": "0706",
        "district": "霧峰區",
        "village": "本堂里",
        "location": "樹仁路217號",
        "type": "沿街",
        "collection_type": "garbage",
        "day_of_week": 1
      }
    },
    {
      "type": "Feature",
      "geometry": {
        "type": "Point",
        "coordinates": [
          120.696537,
          24.057392
        ]
      },
      "properties": {
        "routeId": "taichung-893-ue-ca3243-d1",
        "city": "taichung",
        "route_name": "893-UE",
        "car_seq": "893-UE",
        "arrival_time": "0701",
        "departure_time": "0706",
        "district": "霧峰區",
        "village": "本堂里",
        "location": "樹仁路217號",
        "type": "沿街",
        "collection_type": "recycling",
        "day_of_week": 1
      }
    },
    {
      "type": "Feature",
      "geometry": {
        "type": "Point",
        "coordinates": [
          120.696521,
          24.058422
        ]
      },
      "properties": {
        "routeId": "taichung-893-ue-ca3243-d1",
        "city": "taichung",
        "route_name": "893-UE",
        "car_seq": "893-UE",
        "arrival_time": "0701",
        "departure_time": "0706",
        "district": "霧峰區",
        "village": "本堂里",
        "location": "樹仁路183號",
        "type": "沿街",
        "collection_type": "garbage",
        "day_of_week": 1
      }
    },
    {
      "type": "Feature",
      "geometry": {
        "type": "Point",
        "coordinates": [
          120.696521,
          24.058422
        ]
      },
      "properties": {
        "routeId": "taichung-893-ue-ca3243-d1",
        "city": "taichung",
        "route_name": "893-UE",
        "car_seq": "893-UE",
        "arrival_time": "0701",
        "departure_time": "0706",
        "district": "霧峰區",
        "village": "本堂里",
        "location": "樹仁路183號",
        "type": "沿街",
        "collection_type": "recycling",
        "day_of_week": 1
      }
    },
    {
      "type": "Feature",
      "geometry": {
        "type": "Point",
        "coordinates": [
          120.69658,
          24.060223
        ]
      },
      "properties": {
        "routeId": "taichung-893-ue-ca3243-d1",
        "city": "taichung",
        "route_name": "893-UE",
        "car_seq": "893-UE",
        "arrival_time": "0701",
        "departure_time": "0706",
        "district": "霧峰區",
        "village": "本堂里",
        "location": "樹仁路153號",
        "type": "沿街",
        "collection_type": "garbage",
        "day_of_week": 1
      }
    },
    {
      "type": "Feature",
      "geometry": {
        "type": "Point",
        "coordinates": [
          120.69658,
          24.060223
        ]
      },
      "properties": {
        "routeId": "taichung-893-ue-ca3243-d1",
        "city": "taichung",
        "route_name": "893-UE",
        "car_seq": "893-UE",
        "arrival_time": "0701",
        "departure_time": "0706",
        "district": "霧峰區",
        "village": "本堂里",
        "location": "樹仁路153號",
        "type": "沿街",
        "collection_type": "recycling",
        "day_of_week": 1
      }
    },
    {
      "type": "Feature",
      "geometry": {
        "type": "Point",
        "coordinates": [
          120.696674,
          24.060348
        ]
      },
      "properties": {
        "routeId": "taichung-893-ue-ca3243-d1",
        "city": "taichung",
        "route_name": "893-UE",
        "car_seq": "893-UE",
        "arrival_time": "0703",
        "departure_time": "0708",
        "district": "霧峰區",
        "village": "本堂里",
        "location": "樹仁路149之2號",
        "type": "沿街",
        "collection_type": "garbage",
        "day_of_week": 1
      }
    },
    {
      "type": "Feature",
      "geometry": {
        "type": "Point",
        "coordinates": [
          120.696674,
          24.060348
        ]
      },
      "properties": {
        "routeId": "taichung-893-ue-ca3243-d1",
        "city": "taichung",
        "route_name": "893-UE",
        "car_seq": "893-UE",
        "arrival_time": "0703",
        "departure_time": "0708",
        "district": "霧峰區",
        "village": "本堂里",
        "location": "樹仁路149之2號",
        "type": "沿街",
        "collection_type": "recycling",
        "day_of_week": 1
      }
    },
    {
      "type": "Feature",
      "geometry": {
        "type": "Point",
        "coordinates": [
          120.696853,
          24.061592
        ]
      },
      "properties": {
        "routeId": "taichung-893-ue-ca3243-d1",
        "city": "taichung",
        "route_name": "893-UE",
        "car_seq": "893-UE",
        "arrival_time": "0705",
        "departure_time": "0710",
        "district": "霧峰區",
        "village": "本堂里",
        "location": "樹仁路113號",
        "type": "沿街",
        "collection_type": "garbage",
        "day_of_week": 1
      }
    },
    {
      "type": "Feature",
      "geometry": {
        "type": "Point",
        "coordinates": [
          120.696853,
          24.061592
        ]
      },
      "properties": {
        "routeId": "taichung-893-ue-ca3243-d1",
        "city": "taichung",
        "route_name": "893-UE",
        "car_seq": "893-UE",
        "arrival_time": "0705",
        "departure_time": "0710",
        "district": "霧峰區",
        "village": "本堂里",
        "location": "樹仁路113號",
        "type": "沿街",
        "collection_type": "recycling",
        "day_of_week": 1
      }
    },
    {
      "type": "Feature",
      "geometry": {
        "type": "Point",
        "coordinates": [
          120.697171,
          24.062079
        ]
      },
      "properties": {
        "routeId": "taichung-893-ue-ca3243-d1",
        "city": "taichung",
        "route_name": "893-UE",
        "car_seq": "893-UE",
        "arrival_time": "0705",
        "departure_time": "0710",
        "district": "霧峰區",
        "village": "本堂里",
        "location": "育智街35號",
        "type": "定點",
        "collection_type": "garbage",
        "day_of_week": 1
      }
    },
    {
      "type": "Feature",
      "geometry": {
        "type": "Point",
        "coordinates": [
          120.697171,
          24.062079
        ]
      },
      "properties": {
        "routeId": "taichung-893-ue-ca3243-d1",
        "city": "taichung",
        "route_name": "893-UE",
        "car_seq": "893-UE",
        "arrival_time": "0705",
        "departure_time": "0710",
        "district": "霧峰區",
        "village": "本堂里",
        "location": "育智街35號",
        "type": "定點",
        "collection_type": "recycling",
        "day_of_week": 1
      }
    },
    {
      "type": "Feature",
      "geometry": {
        "type": "Point",
        "coordinates": [
          120.700811,
          24.061323
        ]
      },
      "properties": {
        "routeId": "taichung-893-ue-ca3243-d1",
        "city": "taichung",
        "route_name": "893-UE",
        "car_seq": "893-UE",
        "arrival_time": "0730",
        "departure_time": "0735",
        "district": "霧峰區",
        "village": "本堂里",
        "location": "大同路28號",
        "type": "沿街",
        "collection_type": "garbage",
        "day_of_week": 1
      }
    },
    {
      "type": "Feature",
      "geometry": {
        "type": "Point",
        "coordinates": [
          120.700811,
          24.061323
        ]
      },
      "properties": {
        "routeId": "taichung-893-ue-ca3243-d1",
        "city": "taichung",
        "route_name": "893-UE",
        "car_seq": "893-UE",
        "arrival_time": "0730",
        "departure_time": "0735",
        "district": "霧峰區",
        "village": "本堂里",
        "location": "大同路28號",
        "type": "沿街",
        "collection_type": "recycling",
        "day_of_week": 1
      }
    },
    {
      "type": "Feature",
      "geometry": {
        "type": "Point",
        "coordinates": [
          120.702794,
          24.061955
        ]
      },
      "properties": {
        "routeId": "taichung-893-ue-ca3243-d1",
        "city": "taichung",
        "route_name": "893-UE",
        "car_seq": "893-UE",
        "arrival_time": "0735",
        "departure_time": "0740",
        "district": "霧峰區",
        "village": "萊園里",
        "location": "萊園路72號",
        "type": "沿街",
        "collection_type": "garbage",
        "day_of_week": 1
      }
    },
    {
      "type": "Feature",
      "geometry": {
        "type": "Point",
        "coordinates": [
          120.702794,
          24.061955
        ]
      },
      "properties": {
        "routeId": "taichung-893-ue-ca3243-d1",
        "city": "taichung",
        "route_name": "893-UE",
        "car_seq": "893-UE",
        "arrival_time": "0735",
        "departure_time": "0740",
        "district": "霧峰區",
        "village": "萊園里",
        "location": "萊園路72號",
        "type": "沿街",
        "collection_type": "recycling",
        "day_of_week": 1
      }
    },
    {
      "type": "Feature",
      "geometry": {
        "type": "Point",
        "coordinates": [
          120.704556,
          24.061126
        ]
      },
      "properties": {
        "routeId": "taichung-893-ue-ca3243-d1",
        "city": "taichung",
        "route_name": "893-UE",
        "car_seq": "893-UE",
        "arrival_time": "0740",
        "departure_time": "0745",
        "district": "霧峰區",
        "village": "萊園里",
        "location": "萊園路133號",
        "type": "沿街",
        "collection_type": "garbage",
        "day_of_week": 1
      }
    },
    {
      "type": "Feature",
      "geometry": {
        "type": "Point",
        "coordinates": [
          120.704556,
          24.061126
        ]
      },
      "properties": {
        "routeId": "taichung-893-ue-ca3243-d1",
        "city": "taichung",
        "route_name": "893-UE",
        "car_seq": "893-UE",
        "arrival_time": "0740",
        "departure_time": "0745",
        "district": "霧峰區",
        "village": "萊園里",
        "location": "萊園路133號",
        "type": "沿街",
        "collection_type": "recycling",
        "day_of_week": 1
      }
    },
    {
      "type": "Feature",
      "geometry": {
        "type": "Point",
        "coordinates": [
          120.679633,
          24.064838
        ]
      },
      "properties": {
        "routeId": "taichung-893-ue-ca3243-d1",
        "city": "taichung",
        "route_name": "893-UE",
        "car_seq": "893-UE",
        "arrival_time": "0745",
        "departure_time": "0750",
        "district": "霧峰區",
        "village": "萊園里",
        "location": "彰公北56巷1號",
        "type": "沿街",
        "collection_type": "garbage",
        "day_of_week": 1
      }
    },
    {
      "type": "Feature",
      "geometry": {
        "type": "Point",
        "coordinates": [
          120.679633,
          24.064838
        ]
      },
      "properties": {
        "routeId": "taichung-893-ue-ca3243-d1",
        "city": "taichung",
        "route_name": "893-UE",
        "car_seq": "893-UE",
        "arrival_time": "0745",
        "departure_time": "0750",
        "district": "霧峰區",
        "village": "萊園里",
        "location": "彰公北56巷1號",
        "type": "沿街",
        "collection_type": "recycling",
        "day_of_week": 1
      }
    },
    {
      "type": "Feature",
      "geometry": {
        "type": "Point",
        "coordinates": [
          120.69913,
          24.064454
        ]
      },
      "properties": {
        "routeId": "taichung-893-ue-ca3243-d1",
        "city": "taichung",
        "route_name": "893-UE",
        "car_seq": "893-UE",
        "arrival_time": "0751",
        "departure_time": "0756",
        "district": "霧峰區",
        "village": "萊園里",
        "location": "萊園路9號",
        "type": "沿街",
        "collection_type": "garbage",
        "day_of_week": 1
      }
    },
    {
      "type": "Feature",
      "geometry": {
        "type": "Point",
        "coordinates": [
          120.69913,
          24.064454
        ]
      },
      "properties": {
        "routeId": "taichung-893-ue-ca3243-d1",
        "city": "taichung",
        "route_name": "893-UE",
        "car_seq": "893-UE",
        "arrival_time": "0751",
        "departure_time": "0756",
        "district": "霧峰區",
        "village": "萊園里",
        "location": "萊園路9號",
        "type": "沿街",
        "collection_type": "recycling",
        "day_of_week": 1
      }
    },
    {
      "type": "Feature",
      "geometry": {
        "type": "Point",
        "coordinates": [
          120.703093,
          24.058513
        ]
      },
      "properties": {
        "routeId": "taichung-893-ue-ca3243-d1",
        "city": "taichung",
        "route_name": "893-UE",
        "car_seq": "893-UE",
        "arrival_time": "0753",
        "departure_time": "0758",
        "district": "霧峰區",
        "village": "萊園里",
        "location": "萊園路141巷88號",
        "type": "沿街",
        "collection_type": "garbage",
        "day_of_week": 1
      }
    },
    {
      "type": "Feature",
      "geometry": {
        "type": "Point",
        "coordinates": [
          120.703093,
          24.058513
        ]
      },
      "properties": {
        "routeId": "taichung-893-ue-ca3243-d1",
        "city": "taichung",
        "route_name": "893-UE",
        "car_seq": "893-UE",
        "arrival_time": "0753",
        "departure_time": "0758",
        "district": "霧峰區",
        "village": "萊園里",
        "location": "萊園路141巷88號",
        "type": "沿街",
        "collection_type": "recycling",
        "day_of_week": 1
      }
    },
    {
      "type": "Feature",
      "geometry": {
        "type": "Point",
        "coordinates": [
          120.702434,
          24.062396
        ]
      },
      "properties": {
        "routeId": "taichung-893-ue-ca3243-d1",
        "city": "taichung",
        "route_name": "893-UE",
        "car_seq": "893-UE",
        "arrival_time": "0801",
        "departure_time": "0806",
        "district": "霧峰區",
        "village": "萊園里",
        "location": "萊園路85號",
        "type": "沿街",
        "collection_type": "garbage",
        "day_of_week": 1
      }
    },
    {
      "type": "Feature",
      "geometry": {
        "type": "Point",
        "coordinates": [
          120.702434,
          24.062396
        ]
      },
      "properties": {
        "routeId": "taichung-893-ue-ca3243-d1",
        "city": "taichung",
        "route_name": "893-UE",
        "car_seq": "893-UE",
        "arrival_time": "0801",
        "departure_time": "0806",
        "district": "霧峰區",
        "village": "萊園里",
        "location": "萊園路85號",
        "type": "沿街",
        "collection_type": "recycling",
        "day_of_week": 1
      }
    },
    {
      "type": "Feature",
      "geometry": {
        "type": "Point",
        "coordinates": [
          120.701956,
          24.062317
        ]
      },
      "properties": {
        "routeId": "taichung-893-ue-ca3243-d1",
        "city": "taichung",
        "route_name": "893-UE",
        "car_seq": "893-UE",
        "arrival_time": "0802",
        "departure_time": "0807",
        "district": "霧峰區",
        "village": "萊園里",
        "location": "萊園路82之2號",
        "type": "沿街",
        "collection_type": "garbage",
        "day_of_week": 1
      }
    },
    {
      "type": "Feature",
      "geometry": {
        "type": "Point",
        "coordinates": [
          120.701956,
          24.062317
        ]
      },
      "properties": {
        "routeId": "taichung-893-ue-ca3243-d1",
        "city": "taichung",
        "route_name": "893-UE",
        "car_seq": "893-UE",
        "arrival_time": "0802",
        "departure_time": "0807",
        "district": "霧峰區",
        "village": "萊園里",
        "location": "萊園路82之2號",
        "type": "沿街",
        "collection_type": "recycling",
        "day_of_week": 1
      }
    },
    {
      "type": "Feature",
      "geometry": {
        "type": "Point",
        "coordinates": [
          120.688849,
          24.064969
        ]
      },
      "properties": {
        "routeId": "taichung-893-ue-ca3243-d1",
        "city": "taichung",
        "route_name": "893-UE",
        "car_seq": "893-UE",
        "arrival_time": "0810",
        "departure_time": "0815",
        "district": "霧峰區",
        "village": "北柳里",
        "location": "四德路275巷42號",
        "type": "沿街",
        "collection_type": "garbage",
        "day_of_week": 1
      }
    },
    {
      "type": "Feature",
      "geometry": {
        "type": "Point",
        "coordinates": [
          120.688849,
          24.064969
        ]
      },
      "properties": {
        "routeId": "taichung-893-ue-ca3243-d1",
        "city": "taichung",
        "route_name": "893-UE",
        "car_seq": "893-UE",
        "arrival_time": "0810",
        "departure_time": "0815",
        "district": "霧峰區",
        "village": "北柳里",
        "location": "四德路275巷42號",
        "type": "沿街",
        "collection_type": "recycling",
        "day_of_week": 1
      }
    },
    {
      "type": "Feature",
      "geometry": {
        "type": "Point",
        "coordinates": [
          120.697641,
          24.064617
        ]
      },
      "properties": {
        "routeId": "taichung-893-ue-ca3243-d1",
        "city": "taichung",
        "route_name": "893-UE",
        "car_seq": "893-UE",
        "arrival_time": "0816",
        "departure_time": "0821",
        "district": "霧峰區",
        "village": "北柳里",
        "location": "四德路47號",
        "type": "沿街",
        "collection_type": "garbage",
        "day_of_week": 1
      }
    },
    {
      "type": "Feature",
      "geometry": {
        "type": "Point",
        "coordinates": [
          120.697641,
          24.064617
        ]
      },
      "properties": {
        "routeId": "taichung-893-ue-ca3243-d1",
        "city": "taichung",
        "route_name": "893-UE",
        "car_seq": "893-UE",
        "arrival_time": "0816",
        "departure_time": "0821",
        "district": "霧峰區",
        "village": "北柳里",
        "location": "四德路47號",
        "type": "沿街",
        "collection_type": "recycling",
        "day_of_week": 1
      }
    },
    {
      "type": "Feature",
      "geometry": {
        "type": "Point",
        "coordinates": [
          120.697318,
          24.064734
        ]
      },
      "properties": {
        "routeId": "taichung-893-ue-ca3243-d1",
        "city": "taichung",
        "route_name": "893-UE",
        "car_seq": "893-UE",
        "arrival_time": "0817",
        "departure_time": "0822",
        "district": "霧峰區",
        "village": "北柳里",
        "location": "四德路61號",
        "type": "沿街",
        "collection_type": "garbage",
        "day_of_week": 1
      }
    },
    {
      "type": "Feature",
      "geometry": {
        "type": "Point",
        "coordinates": [
          120.697318,
          24.064734
        ]
      },
      "properties": {
        "routeId": "taichung-893-ue-ca3243-d1",
        "city": "taichung",
        "route_name": "893-UE",
        "car_seq": "893-UE",
        "arrival_time": "0817",
        "departure_time": "0822",
        "district": "霧峰區",
        "village": "北柳里",
        "location": "四德路61號",
        "type": "沿街",
        "collection_type": "recycling",
        "day_of_week": 1
      }
    },
    {
      "type": "Feature",
      "geometry": {
        "type": "Point",
        "coordinates": [
          120.696723,
          24.065346
        ]
      },
      "properties": {
        "routeId": "taichung-893-ue-ca3243-d1",
        "city": "taichung",
        "route_name": "893-UE",
        "car_seq": "893-UE",
        "arrival_time": "0817",
        "departure_time": "0822",
        "district": "霧峰區",
        "village": "北柳里",
        "location": "四德路64號",
        "type": "沿街",
        "collection_type": "garbage",
        "day_of_week": 1
      }
    },
    {
      "type": "Feature",
      "geometry": {
        "type": "Point",
        "coordinates": [
          120.696723,
          24.065346
        ]
      },
      "properties": {
        "routeId": "taichung-893-ue-ca3243-d1",
        "city": "taichung",
        "route_name": "893-UE",
        "car_seq": "893-UE",
        "arrival_time": "0817",
        "departure_time": "0822",
        "district": "霧峰區",
        "village": "北柳里",
        "location": "四德路64號",
        "type": "沿街",
        "collection_type": "recycling",
        "day_of_week": 1
      }
    },
    {
      "type": "Feature",
      "geometry": {
        "type": "Point",
        "coordinates": [
          120.682121,
          24.063997
        ]
      },
      "properties": {
        "routeId": "taichung-893-ue-ca3243-d1",
        "city": "taichung",
        "route_name": "893-UE",
        "car_seq": "893-UE",
        "arrival_time": "0818",
        "departure_time": "0823",
        "district": "霧峰區",
        "village": "北柳里",
        "location": "新厝路39號",
        "type": "沿街",
        "collection_type": "garbage",
        "day_of_week": 1
      }
    },
    {
      "type": "Feature",
      "geometry": {
        "type": "Point",
        "coordinates": [
          120.682121,
          24.063997
        ]
      },
      "properties": {
        "routeId": "taichung-893-ue-ca3243-d1",
        "city": "taichung",
        "route_name": "893-UE",
        "car_seq": "893-UE",
        "arrival_time": "0818",
        "departure_time": "0823",
        "district": "霧峰區",
        "village": "北柳里",
        "location": "新厝路39號",
        "type": "沿街",
        "collection_type": "recycling",
        "day_of_week": 1
      }
    },
    {
      "type": "Feature",
      "geometry": {
        "type": "Point",
        "coordinates": [
          120.681921,
          24.062837
        ]
      },
      "properties": {
        "routeId": "taichung-893-ue-ca3243-d1",
        "city": "taichung",
        "route_name": "893-UE",
        "car_seq": "893-UE",
        "arrival_time": "0821",
        "departure_time": "0826",
        "district": "霧峰區",
        "village": "北柳里",
        "location": "新厝路131號",
        "type": "沿街",
        "collection_type": "garbage",
        "day_of_week": 1
      }
    },
    {
      "type": "Feature",
      "geometry": {
        "type": "Point",
        "coordinates": [
          120.681921,
          24.062837
        ]
      },
      "properties": {
        "routeId": "taichung-893-ue-ca3243-d1",
        "city": "taichung",
        "route_name": "893-UE",
        "car_seq": "893-UE",
        "arrival_time": "0821",
        "departure_time": "0826",
        "district": "霧峰區",
        "village": "北柳里",
        "location": "新厝路131號",
        "type": "沿街",
        "collection_type": "recycling",
        "day_of_week": 1
      }
    },
    {
      "type": "Feature",
      "geometry": {
        "type": "Point",
        "coordinates": [
          120.681845,
          24.062453
        ]
      },
      "properties": {
        "routeId": "taichung-893-ue-ca3243-d1",
        "city": "taichung",
        "route_name": "893-UE",
        "car_seq": "893-UE",
        "arrival_time": "0822",
        "departure_time": "0827",
        "district": "霧峰區",
        "village": "北柳里",
        "location": "新厝路157號",
        "type": "沿街",
        "collection_type": "garbage",
        "day_of_week": 1
      }
    },
    {
      "type": "Feature",
      "geometry": {
        "type": "Point",
        "coordinates": [
          120.681845,
          24.062453
        ]
      },
      "properties": {
        "routeId": "taichung-893-ue-ca3243-d1",
        "city": "taichung",
        "route_name": "893-UE",
        "car_seq": "893-UE",
        "arrival_time": "0822",
        "departure_time": "0827",
        "district": "霧峰區",
        "village": "北柳里",
        "location": "新厝路157號",
        "type": "沿街",
        "collection_type": "recycling",
        "day_of_week": 1
      }
    },
    {
      "type": "Feature",
      "geometry": {
        "type": "Point",
        "coordinates": [
          120.681299,
          24.062439
        ]
      },
      "properties": {
        "routeId": "taichung-893-ue-ca3243-d1",
        "city": "taichung",
        "route_name": "893-UE",
        "car_seq": "893-UE",
        "arrival_time": "0828",
        "departure_time": "0833",
        "district": "霧峰區",
        "village": "北柳里",
        "location": "柳豐東路99號",
        "type": "沿街",
        "collection_type": "garbage",
        "day_of_week": 1
      }
    },
    {
      "type": "Feature",
      "geometry": {
        "type": "Point",
        "coordinates": [
          120.681299,
          24.062439
        ]
      },
      "properties": {
        "routeId": "taichung-893-ue-ca3243-d1",
        "city": "taichung",
        "route_name": "893-UE",
        "car_seq": "893-UE",
        "arrival_time": "0828",
        "departure_time": "0833",
        "district": "霧峰區",
        "village": "北柳里",
        "location": "柳豐東路99號",
        "type": "沿街",
        "collection_type": "recycling",
        "day_of_week": 1
      }
    },
    {
      "type": "Feature",
      "geometry": {
        "type": "Point",
        "coordinates": [
          120.68096,
          24.062823
        ]
      },
      "properties": {
        "routeId": "taichung-893-ue-ca3243-d1",
        "city": "taichung",
        "route_name": "893-UE",
        "car_seq": "893-UE",
        "arrival_time": "0828",
        "departure_time": "0833",
        "district": "霧峰區",
        "village": "北柳里",
        "location": "柳豐東路81號",
        "type": "沿街",
        "collection_type": "garbage",
        "day_of_week": 1
      }
    },
    {
      "type": "Feature",
      "geometry": {
        "type": "Point",
        "coordinates": [
          120.68096,
          24.062823
        ]
      },
      "properties": {
        "routeId": "taichung-893-ue-ca3243-d1",
        "city": "taichung",
        "route_name": "893-UE",
        "car_seq": "893-UE",
        "arrival_time": "0828",
        "departure_time": "0833",
        "district": "霧峰區",
        "village": "北柳里",
        "location": "柳豐東路81號",
        "type": "沿街",
        "collection_type": "recycling",
        "day_of_week": 1
      }
    },
    {
      "type": "Feature",
      "geometry": {
        "type": "Point",
        "coordinates": [
          120.679818,
          24.063942
        ]
      },
      "properties": {
        "routeId": "taichung-893-ue-ca3243-d1",
        "city": "taichung",
        "route_name": "893-UE",
        "car_seq": "893-UE",
        "arrival_time": "0831",
        "departure_time": "0836",
        "district": "霧峰區",
        "village": "北柳里",
        "location": "柳豐東路3號",
        "type": "沿街",
        "collection_type": "garbage",
        "day_of_week": 1
      }
    },
    {
      "type": "Feature",
      "geometry": {
        "type": "Point",
        "coordinates": [
          120.679818,
          24.063942
        ]
      },
      "properties": {
        "routeId": "taichung-893-ue-ca3243-d1",
        "city": "taichung",
        "route_name": "893-UE",
        "car_seq": "893-UE",
        "arrival_time": "0831",
        "departure_time": "0836",
        "district": "霧峰區",
        "village": "北柳里",
        "location": "柳豐東路3號",
        "type": "沿街",
        "collection_type": "recycling",
        "day_of_week": 1
      }
    },
    {
      "type": "Feature",
      "geometry": {
        "type": "Point",
        "coordinates": [
          120.679461,
          24.063929
        ]
      },
      "properties": {
        "routeId": "taichung-893-ue-ca3243-d1",
        "city": "taichung",
        "route_name": "893-UE",
        "car_seq": "893-UE",
        "arrival_time": "0834",
        "departure_time": "0839",
        "district": "霧峰區",
        "village": "北柳里",
        "location": "柳豐路44號",
        "type": "沿街",
        "collection_type": "garbage",
        "day_of_week": 1
      }
    },
    {
      "type": "Feature",
      "geometry": {
        "type": "Point",
        "coordinates": [
          120.679461,
          24.063929
        ]
      },
      "properties": {
        "routeId": "taichung-893-ue-ca3243-d1",
        "city": "taichung",
        "route_name": "893-UE",
        "car_seq": "893-UE",
        "arrival_time": "0834",
        "departure_time": "0839",
        "district": "霧峰區",
        "village": "北柳里",
        "location": "柳豐路44號",
        "type": "沿街",
        "collection_type": "recycling",
        "day_of_week": 1
      }
    },
    {
      "type": "Feature",
      "geometry": {
        "type": "Point",
        "coordinates": [
          120.679503,
          24.064337
        ]
      },
      "properties": {
        "routeId": "taichung-893-ue-ca3243-d1",
        "city": "taichung",
        "route_name": "893-UE",
        "car_seq": "893-UE",
        "arrival_time": "0835",
        "departure_time": "0840",
        "district": "霧峰區",
        "village": "北柳里",
        "location": "柳豐路24號",
        "type": "沿街",
        "collection_type": "garbage",
        "day_of_week": 1
      }
    },
    {
      "type": "Feature",
      "geometry": {
        "type": "Point",
        "coordinates": [
          120.679503,
          24.064337
        ]
      },
      "properties": {
        "routeId": "taichung-893-ue-ca3243-d1",
        "city": "taichung",
        "route_name": "893-UE",
        "car_seq": "893-UE",
        "arrival_time": "0835",
        "departure_time": "0840",
        "district": "霧峰區",
        "village": "北柳里",
        "location": "柳豐路24號",
        "type": "沿街",
        "collection_type": "recycling",
        "day_of_week": 1
      }
    },
    {
      "type": "Feature",
      "geometry": {
        "type": "Point",
        "coordinates": [
          120.679507,
          24.064723
        ]
      },
      "properties": {
        "routeId": "taichung-893-ue-ca3243-d1",
        "city": "taichung",
        "route_name": "893-UE",
        "car_seq": "893-UE",
        "arrival_time": "0835",
        "departure_time": "0840",
        "district": "霧峰區",
        "village": "北柳里",
        "location": "柳豐路4號",
        "type": "沿街",
        "collection_type": "garbage",
        "day_of_week": 1
      }
    },
    {
      "type": "Feature",
      "geometry": {
        "type": "Point",
        "coordinates": [
          120.679507,
          24.064723
        ]
      },
      "properties": {
        "routeId": "taichung-893-ue-ca3243-d1",
        "city": "taichung",
        "route_name": "893-UE",
        "car_seq": "893-UE",
        "arrival_time": "0835",
        "departure_time": "0840",
        "district": "霧峰區",
        "village": "北柳里",
        "location": "柳豐路4號",
        "type": "沿街",
        "collection_type": "recycling",
        "day_of_week": 1
      }
    },
    {
      "type": "Feature",
      "geometry": {
        "type": "Point",
        "coordinates": [
          120.67915,
          24.064366
        ]
      },
      "properties": {
        "routeId": "taichung-893-ue-ca3243-d1",
        "city": "taichung",
        "route_name": "893-UE",
        "car_seq": "893-UE",
        "arrival_time": "0837",
        "departure_time": "0842",
        "district": "霧峰區",
        "village": "北柳里",
        "location": "四德路435巷49號",
        "type": "沿街",
        "collection_type": "garbage",
        "day_of_week": 1
      }
    },
    {
      "type": "Feature",
      "geometry": {
        "type": "Point",
        "coordinates": [
          120.67915,
          24.064366
        ]
      },
      "properties": {
        "routeId": "taichung-893-ue-ca3243-d1",
        "city": "taichung",
        "route_name": "893-UE",
        "car_seq": "893-UE",
        "arrival_time": "0837",
        "departure_time": "0842",
        "district": "霧峰區",
        "village": "北柳里",
        "location": "四德路435巷49號",
        "type": "沿街",
        "collection_type": "recycling",
        "day_of_week": 1
      }
    },
    {
      "type": "Feature",
      "geometry": {
        "type": "Point",
        "coordinates": [
          120.679266,
          24.063464
        ]
      },
      "properties": {
        "routeId": "taichung-893-ue-ca3243-d1",
        "city": "taichung",
        "route_name": "893-UE",
        "car_seq": "893-UE",
        "arrival_time": "0838",
        "departure_time": "0843",
        "district": "霧峰區",
        "village": "北柳里",
        "location": "四德路435巷67號",
        "type": "沿街",
        "collection_type": "garbage",
        "day_of_week": 1
      }
    },
    {
      "type": "Feature",
      "geometry": {
        "type": "Point",
        "coordinates": [
          120.679266,
          24.063464
        ]
      },
      "properties": {
        "routeId": "taichung-893-ue-ca3243-d1",
        "city": "taichung",
        "route_name": "893-UE",
        "car_seq": "893-UE",
        "arrival_time": "0838",
        "departure_time": "0843",
        "district": "霧峰區",
        "village": "北柳里",
        "location": "四德路435巷67號",
        "type": "沿街",
        "collection_type": "recycling",
        "day_of_week": 1
      }
    },
    {
      "type": "Feature",
      "geometry": {
        "type": "Point",
        "coordinates": [
          120.679501,
          24.064602
        ]
      },
      "properties": {
        "routeId": "taichung-893-ue-ca3243-d1",
        "city": "taichung",
        "route_name": "893-UE",
        "car_seq": "893-UE",
        "arrival_time": "0840",
        "departure_time": "0845",
        "district": "霧峰區",
        "village": "南柳里",
        "location": "柳豐路12號",
        "type": "沿街",
        "collection_type": "garbage",
        "day_of_week": 1
      }
    },
    {
      "type": "Feature",
      "geometry": {
        "type": "Point",
        "coordinates": [
          120.679501,
          24.064602
        ]
      },
      "properties": {
        "routeId": "taichung-893-ue-ca3243-d1",
        "city": "taichung",
        "route_name": "893-UE",
        "car_seq": "893-UE",
        "arrival_time": "0840",
        "departure_time": "0845",
        "district": "霧峰區",
        "village": "南柳里",
        "location": "柳豐路12號",
        "type": "沿街",
        "collection_type": "recycling",
        "day_of_week": 1
      }
    },
    {
      "type": "Feature",
      "geometry": {
        "type": "Point",
        "coordinates": [
          120.692092,
          24.041278
        ]
      },
      "properties": {
        "routeId": "taichung-893-ue-ca3243-d1",
        "city": "taichung",
        "route_name": "893-UE",
        "car_seq": "893-UE",
        "arrival_time": "0845",
        "departure_time": "0850",
        "district": "霧峰區",
        "village": "峰谷里",
        "location": "中正路442號",
        "type": "沿街",
        "collection_type": "garbage",
        "day_of_week": 1
      }
    },
    {
      "type": "Feature",
      "geometry": {
        "type": "Point",
        "coordinates": [
          120.692092,
          24.041278
        ]
      },
      "properties": {
        "routeId": "taichung-893-ue-ca3243-d1",
        "city": "taichung",
        "route_name": "893-UE",
        "car_seq": "893-UE",
        "arrival_time": "0845",
        "departure_time": "0850",
        "district": "霧峰區",
        "village": "峰谷里",
        "location": "中正路442號",
        "type": "沿街",
        "collection_type": "recycling",
        "day_of_week": 1
      }
    },
    {
      "type": "Feature",
      "geometry": {
        "type": "Point",
        "coordinates": [
          120.691987,
          24.042141
        ]
      },
      "properties": {
        "routeId": "taichung-893-ue-ca3243-d1",
        "city": "taichung",
        "route_name": "893-UE",
        "car_seq": "893-UE",
        "arrival_time": "0849",
        "departure_time": "0854",
        "district": "霧峰區",
        "village": "六股里",
        "location": "中正路492號",
        "type": "沿街",
        "collection_type": "garbage",
        "day_of_week": 1
      }
    },
    {
      "type": "Feature",
      "geometry": {
        "type": "Point",
        "coordinates": [
          120.691987,
          24.042141
        ]
      },
      "properties": {
        "routeId": "taichung-893-ue-ca3243-d1",
        "city": "taichung",
        "route_name": "893-UE",
        "car_seq": "893-UE",
        "arrival_time": "0849",
        "departure_time": "0854",
        "district": "霧峰區",
        "village": "六股里",
        "location": "中正路492號",
        "type": "沿街",
        "collection_type": "recycling",
        "day_of_week": 1
      }
    },
    {
      "type": "Feature",
      "geometry": {
        "type": "Point",
        "coordinates": [
          120.69295,
          24.046386
        ]
      },
      "properties": {
        "routeId": "taichung-893-ue-ca3243-d1",
        "city": "taichung",
        "route_name": "893-UE",
        "car_seq": "893-UE",
        "arrival_time": "0853",
        "departure_time": "0858",
        "district": "霧峰區",
        "village": "坑口里",
        "location": "中正路616巷1號",
        "type": "沿街",
        "collection_type": "garbage",
        "day_of_week": 1
      }
    },
    {
      "type": "Feature",
      "geometry": {
        "type": "Point",
        "coordinates": [
          120.69295,
          24.046386
        ]
      },
      "properties": {
        "routeId": "taichung-893-ue-ca3243-d1",
        "city": "taichung",
        "route_name": "893-UE",
        "car_seq": "893-UE",
        "arrival_time": "0853",
        "departure_time": "0858",
        "district": "霧峰區",
        "village": "坑口里",
        "location": "中正路616巷1號",
        "type": "沿街",
        "collection_type": "recycling",
        "day_of_week": 1
      }
    },
    {
      "type": "Feature",
      "geometry": {
        "type": "Point",
        "coordinates": [
          120.694181,
          24.049468
        ]
      },
      "properties": {
        "routeId": "taichung-893-ue-ca3243-d1",
        "city": "taichung",
        "route_name": "893-UE",
        "car_seq": "893-UE",
        "arrival_time": "0859",
        "departure_time": "0904",
        "district": "霧峰區",
        "village": "坑口里",
        "location": "中正路666號",
        "type": "沿街",
        "collection_type": "garbage",
        "day_of_week": 1
      }
    },
    {
      "type": "Feature",
      "geometry": {
        "type": "Point",
        "coordinates": [
          120.694181,
          24.049468
        ]
      },
      "properties": {
        "routeId": "taichung-893-ue-ca3243-d1",
        "city": "taichung",
        "route_name": "893-UE",
        "car_seq": "893-UE",
        "arrival_time": "0859",
        "departure_time": "0904",
        "district": "霧峰區",
        "village": "坑口里",
        "location": "中正路666號",
        "type": "沿街",
        "collection_type": "recycling",
        "day_of_week": 1
      }
    },
    {
      "type": "Feature",
      "geometry": {
        "type": "Point",
        "coordinates": [
          120.694547,
          24.050412
        ]
      },
      "properties": {
        "routeId": "taichung-893-ue-ca3243-d1",
        "city": "taichung",
        "route_name": "893-UE",
        "car_seq": "893-UE",
        "arrival_time": "0905",
        "departure_time": "0910",
        "district": "霧峰區",
        "village": "坑口里",
        "location": "中正路706號",
        "type": "沿街",
        "collection_type": "garbage",
        "day_of_week": 1
      }
    },
    {
      "type": "Feature",
      "geometry": {
        "type": "Point",
        "coordinates": [
          120.694547,
          24.050412
        ]
      },
      "properties": {
        "routeId": "taichung-893-ue-ca3243-d1",
        "city": "taichung",
        "route_name": "893-UE",
        "car_seq": "893-UE",
        "arrival_time": "0905",
        "departure_time": "0910",
        "district": "霧峰區",
        "village": "坑口里",
        "location": "中正路706號",
        "type": "沿街",
        "collection_type": "recycling",
        "day_of_week": 1
      }
    },
    {
      "type": "Feature",
      "geometry": {
        "type": "Point",
        "coordinates": [
          120.696409,
          24.053941
        ]
      },
      "properties": {
        "routeId": "taichung-893-ue-ca3243-d1",
        "city": "taichung",
        "route_name": "893-UE",
        "car_seq": "893-UE",
        "arrival_time": "0910",
        "departure_time": "0915",
        "district": "霧峰區",
        "village": "坑口里",
        "location": "中正路724號",
        "type": "沿街",
        "collection_type": "garbage",
        "day_of_week": 1
      }
    },
    {
      "type": "Feature",
      "geometry": {
        "type": "Point",
        "coordinates": [
          120.696409,
          24.053941
        ]
      },
      "properties": {
        "routeId": "taichung-893-ue-ca3243-d1",
        "city": "taichung",
        "route_name": "893-UE",
        "car_seq": "893-UE",
        "arrival_time": "0910",
        "departure_time": "0915",
        "district": "霧峰區",
        "village": "坑口里",
        "location": "中正路724號",
        "type": "沿街",
        "collection_type": "recycling",
        "day_of_week": 1
      }
    },
    {
      "type": "Feature",
      "geometry": {
        "type": "Point",
        "coordinates": [
          120.696354,
          24.065277
        ]
      },
      "properties": {
        "routeId": "taichung-893-ue-ca3243-d1",
        "city": "taichung",
        "route_name": "893-UE",
        "car_seq": "893-UE",
        "arrival_time": "1300",
        "departure_time": "1305",
        "district": "霧峰區",
        "village": "本堂里",
        "location": "四德路101號",
        "type": "沿街",
        "collection_type": "garbage",
        "day_of_week": 1
      }
    },
    {
      "type": "Feature",
      "geometry": {
        "type": "Point",
        "coordinates": [
          120.696354,
          24.065277
        ]
      },
      "properties": {
        "routeId": "taichung-893-ue-ca3243-d1",
        "city": "taichung",
        "route_name": "893-UE",
        "car_seq": "893-UE",
        "arrival_time": "1300",
        "departure_time": "1305",
        "district": "霧峰區",
        "village": "本堂里",
        "location": "四德路101號",
        "type": "沿街",
        "collection_type": "recycling",
        "day_of_week": 1
      }
    },
    {
      "type": "Feature",
      "geometry": {
        "type": "Point",
        "coordinates": [
          120.697974,
          24.064442
        ]
      },
      "properties": {
        "routeId": "taichung-893-ue-ca3243-d1",
        "city": "taichung",
        "route_name": "893-UE",
        "car_seq": "893-UE",
        "arrival_time": "1305",
        "departure_time": "1310",
        "district": "霧峰區",
        "village": "本堂里",
        "location": "四德路25號",
        "type": "沿街",
        "collection_type": "garbage",
        "day_of_week": 1
      }
    },
    {
      "type": "Feature",
      "geometry": {
        "type": "Point",
        "coordinates": [
          120.697974,
          24.064442
        ]
      },
      "properties": {
        "routeId": "taichung-893-ue-ca3243-d1",
        "city": "taichung",
        "route_name": "893-UE",
        "car_seq": "893-UE",
        "arrival_time": "1305",
        "departure_time": "1310",
        "district": "霧峰區",
        "village": "本堂里",
        "location": "四德路25號",
        "type": "沿街",
        "collection_type": "recycling",
        "day_of_week": 1
      }
    },
    {
      "type": "Feature",
      "geometry": {
        "type": "Point",
        "coordinates": [
          120.695853,
          24.062176
        ]
      },
      "properties": {
        "routeId": "taichung-893-ue-ca3243-d1",
        "city": "taichung",
        "route_name": "893-UE",
        "car_seq": "893-UE",
        "arrival_time": "1310",
        "departure_time": "1315",
        "district": "霧峰區",
        "village": "本堂里",
        "location": "育智街803號",
        "type": "沿街",
        "collection_type": "garbage",
        "day_of_week": 1
      }
    },
    {
      "type": "Feature",
      "geometry": {
        "type": "Point",
        "coordinates": [
          120.695853,
          24.062176
        ]
      },
      "properties": {
        "routeId": "taichung-893-ue-ca3243-d1",
        "city": "taichung",
        "route_name": "893-UE",
        "car_seq": "893-UE",
        "arrival_time": "1310",
        "departure_time": "1315",
        "district": "霧峰區",
        "village": "本堂里",
        "location": "育智街803號",
        "type": "沿街",
        "collection_type": "recycling",
        "day_of_week": 1
      }
    },
    {
      "type": "Feature",
      "geometry": {
        "type": "Point",
        "coordinates": [
          120.698141,
          24.059491
        ]
      },
      "properties": {
        "routeId": "taichung-893-ue-ca3243-d1",
        "city": "taichung",
        "route_name": "893-UE",
        "car_seq": "893-UE",
        "arrival_time": "1315",
        "departure_time": "1320",
        "district": "霧峰區",
        "village": "本堂里",
        "location": "中正路742號",
        "type": "沿街",
        "collection_type": "garbage",
        "day_of_week": 1
      }
    },
    {
      "type": "Feature",
      "geometry": {
        "type": "Point",
        "coordinates": [
          120.698141,
          24.059491
        ]
      },
      "properties": {
        "routeId": "taichung-893-ue-ca3243-d1",
        "city": "taichung",
        "route_name": "893-UE",
        "car_seq": "893-UE",
        "arrival_time": "1315",
        "departure_time": "1320",
        "district": "霧峰區",
        "village": "本堂里",
        "location": "中正路742號",
        "type": "沿街",
        "collection_type": "recycling",
        "day_of_week": 1
      }
    },
    {
      "type": "Feature",
      "geometry": {
        "type": "Point",
        "coordinates": [
          120.69812,
          24.061297
        ]
      },
      "properties": {
        "routeId": "taichung-893-ue-ca3243-d1",
        "city": "taichung",
        "route_name": "893-UE",
        "car_seq": "893-UE",
        "arrival_time": "1320",
        "departure_time": "1325",
        "district": "霧峰區",
        "village": "本堂里",
        "location": "中正路767-11號",
        "type": "沿街",
        "collection_type": "garbage",
        "day_of_week": 1
      }
    },
    {
      "type": "Feature",
      "geometry": {
        "type": "Point",
        "coordinates": [
          120.69812,
          24.061297
        ]
      },
      "properties": {
        "routeId": "taichung-893-ue-ca3243-d1",
        "city": "taichung",
        "route_name": "893-UE",
        "car_seq": "893-UE",
        "arrival_time": "1320",
        "departure_time": "1325",
        "district": "霧峰區",
        "village": "本堂里",
        "location": "中正路767-11號",
        "type": "沿街",
        "collection_type": "recycling",
        "day_of_week": 1
      }
    },
    {
      "type": "Feature",
      "geometry": {
        "type": "Point",
        "coordinates": [
          120.697749,
          24.058221
        ]
      },
      "properties": {
        "routeId": "taichung-893-ue-ca3243-d1",
        "city": "taichung",
        "route_name": "893-UE",
        "car_seq": "893-UE",
        "arrival_time": "1325",
        "departure_time": "1330",
        "district": "霧峰區",
        "village": "本堂里",
        "location": "中正路673號",
        "type": "沿街",
        "collection_type": "garbage",
        "day_of_week": 1
      }
    },
    {
      "type": "Feature",
      "geometry": {
        "type": "Point",
        "coordinates": [
          120.697749,
          24.058221
        ]
      },
      "properties": {
        "routeId": "taichung-893-ue-ca3243-d1",
        "city": "taichung",
        "route_name": "893-UE",
        "car_seq": "893-UE",
        "arrival_time": "1325",
        "departure_time": "1330",
        "district": "霧峰區",
        "village": "本堂里",
        "location": "中正路673號",
        "type": "沿街",
        "collection_type": "recycling",
        "day_of_week": 1
      }
    },
    {
      "type": "Feature",
      "geometry": {
        "type": "Point",
        "coordinates": [
          120.69723,
          24.057313
        ]
      },
      "properties": {
        "routeId": "taichung-893-ue-ca3243-d1",
        "city": "taichung",
        "route_name": "893-UE",
        "car_seq": "893-UE",
        "arrival_time": "1330",
        "departure_time": "1335",
        "district": "霧峰區",
        "village": "本堂里",
        "location": "樹仁路257號",
        "type": "沿街",
        "collection_type": "garbage",
        "day_of_week": 1
      }
    },
    {
      "type": "Feature",
      "geometry": {
        "type": "Point",
        "coordinates": [
          120.69723,
          24.057313
        ]
      },
      "properties": {
        "routeId": "taichung-893-ue-ca3243-d1",
        "city": "taichung",
        "route_name": "893-UE",
        "car_seq": "893-UE",
        "arrival_time": "1330",
        "departure_time": "1335",
        "district": "霧峰區",
        "village": "本堂里",
        "location": "樹仁路257號",
        "type": "沿街",
        "collection_type": "recycling",
        "day_of_week": 1
      }
    },
    {
      "type": "Feature",
      "geometry": {
        "type": "Point",
        "coordinates": [
          120.697351,
          24.059819
        ]
      },
      "properties": {
        "routeId": "taichung-893-ue-ca3243-d1",
        "city": "taichung",
        "route_name": "893-UE",
        "car_seq": "893-UE",
        "arrival_time": "1335",
        "departure_time": "1340",
        "district": "霧峰區",
        "village": "本堂里",
        "location": "育群路193號",
        "type": "沿街",
        "collection_type": "garbage",
        "day_of_week": 1
      }
    },
    {
      "type": "Feature",
      "geometry": {
        "type": "Point",
        "coordinates": [
          120.697351,
          24.059819
        ]
      },
      "properties": {
        "routeId": "taichung-893-ue-ca3243-d1",
        "city": "taichung",
        "route_name": "893-UE",
        "car_seq": "893-UE",
        "arrival_time": "1335",
        "departure_time": "1340",
        "district": "霧峰區",
        "village": "本堂里",
        "location": "育群路193號",
        "type": "沿街",
        "collection_type": "recycling",
        "day_of_week": 1
      }
    },
    {
      "type": "Feature",
      "geometry": {
        "type": "Point",
        "coordinates": [
          120.697506,
          24.061799
        ]
      },
      "properties": {
        "routeId": "taichung-893-ue-ca3243-d1",
        "city": "taichung",
        "route_name": "893-UE",
        "car_seq": "893-UE",
        "arrival_time": "1340",
        "departure_time": "1345",
        "district": "霧峰區",
        "village": "本堂里",
        "location": "育群路109號",
        "type": "沿街",
        "collection_type": "garbage",
        "day_of_week": 1
      }
    },
    {
      "type": "Feature",
      "geometry": {
        "type": "Point",
        "coordinates": [
          120.697506,
          24.061799
        ]
      },
      "properties": {
        "routeId": "taichung-893-ue-ca3243-d1",
        "city": "taichung",
        "route_name": "893-UE",
        "car_seq": "893-UE",
        "arrival_time": "1340",
        "departure_time": "1345",
        "district": "霧峰區",
        "village": "本堂里",
        "location": "育群路109號",
        "type": "沿街",
        "collection_type": "recycling",
        "day_of_week": 1
      }
    },
    {
      "type": "Feature",
      "geometry": {
        "type": "Point",
        "coordinates": [
          120.697731,
          24.064471
        ]
      },
      "properties": {
        "routeId": "taichung-893-ue-ca3243-d1",
        "city": "taichung",
        "route_name": "893-UE",
        "car_seq": "893-UE",
        "arrival_time": "1345",
        "departure_time": "1350",
        "district": "霧峰區",
        "village": "本堂里",
        "location": "育群路6號",
        "type": "沿街",
        "collection_type": "garbage",
        "day_of_week": 1
      }
    },
    {
      "type": "Feature",
      "geometry": {
        "type": "Point",
        "coordinates": [
          120.697731,
          24.064471
        ]
      },
      "properties": {
        "routeId": "taichung-893-ue-ca3243-d1",
        "city": "taichung",
        "route_name": "893-UE",
        "car_seq": "893-UE",
        "arrival_time": "1345",
        "departure_time": "1350",
        "district": "霧峰區",
        "village": "本堂里",
        "location": "育群路6號",
        "type": "沿街",
        "collection_type": "recycling",
        "day_of_week": 1
      }
    },
    {
      "type": "Feature",
      "geometry": {
        "type": "Point",
        "coordinates": [
          120.697453,
          24.063523
        ]
      },
      "properties": {
        "routeId": "taichung-893-ue-ca3243-d1",
        "city": "taichung",
        "route_name": "893-UE",
        "car_seq": "893-UE",
        "arrival_time": "1350",
        "departure_time": "1355",
        "district": "霧峰區",
        "village": "本堂里",
        "location": "育仁街26號",
        "type": "沿街",
        "collection_type": "garbage",
        "day_of_week": 1
      }
    },
    {
      "type": "Feature",
      "geometry": {
        "type": "Point",
        "coordinates": [
          120.697453,
          24.063523
        ]
      },
      "properties": {
        "routeId": "taichung-893-ue-ca3243-d1",
        "city": "taichung",
        "route_name": "893-UE",
        "car_seq": "893-UE",
        "arrival_time": "1350",
        "departure_time": "1355",
        "district": "霧峰區",
        "village": "本堂里",
        "location": "育仁街26號",
        "type": "沿街",
        "collection_type": "recycling",
        "day_of_week": 1
      }
    },
    {
      "type": "Feature",
      "geometry": {
        "type": "Point",
        "coordinates": [
          120.69707,
          24.063233
        ]
      },
      "properties": {
        "routeId": "taichung-893-ue-ca3243-d1",
        "city": "taichung",
        "route_name": "893-UE",
        "car_seq": "893-UE",
        "arrival_time": "1355",
        "departure_time": "1400",
        "district": "霧峰區",
        "village": "本堂里",
        "location": "樹仁路51號",
        "type": "沿街",
        "collection_type": "garbage",
        "day_of_week": 1
      }
    },
    {
      "type": "Feature",
      "geometry": {
        "type": "Point",
        "coordinates": [
          120.69707,
          24.063233
        ]
      },
      "properties": {
        "routeId": "taichung-893-ue-ca3243-d1",
        "city": "taichung",
        "route_name": "893-UE",
        "car_seq": "893-UE",
        "arrival_time": "1355",
        "departure_time": "1400",
        "district": "霧峰區",
        "village": "本堂里",
        "location": "樹仁路51號",
        "type": "沿街",
        "collection_type": "recycling",
        "day_of_week": 1
      }
    },
    {
      "type": "Feature",
      "geometry": {
        "type": "Point",
        "coordinates": [
          120.6967,
          24.06293
        ]
      },
      "properties": {
        "routeId": "taichung-893-ue-ca3243-d1",
        "city": "taichung",
        "route_name": "893-UE",
        "car_seq": "893-UE",
        "arrival_time": "1400",
        "departure_time": "1405",
        "district": "霧峰區",
        "village": "本堂里",
        "location": "樹仁路66號",
        "type": "沿街",
        "collection_type": "garbage",
        "day_of_week": 1
      }
    },
    {
      "type": "Feature",
      "geometry": {
        "type": "Point",
        "coordinates": [
          120.6967,
          24.06293
        ]
      },
      "properties": {
        "routeId": "taichung-893-ue-ca3243-d1",
        "city": "taichung",
        "route_name": "893-UE",
        "car_seq": "893-UE",
        "arrival_time": "1400",
        "departure_time": "1405",
        "district": "霧峰區",
        "village": "本堂里",
        "location": "樹仁路66號",
        "type": "沿街",
        "collection_type": "recycling",
        "day_of_week": 1
      }
    },
    {
      "type": "Feature",
      "geometry": {
        "type": "Point",
        "coordinates": [
          120.6965,
          24.0617
        ]
      },
      "properties": {
        "routeId": "taichung-893-ue-ca3243-d1",
        "city": "taichung",
        "route_name": "893-UE",
        "car_seq": "893-UE",
        "arrival_time": "1405",
        "departure_time": "1410",
        "district": "霧峰區",
        "village": "本堂里",
        "location": "樹仁六街1號",
        "type": "沿街",
        "collection_type": "garbage",
        "day_of_week": 1
      }
    },
    {
      "type": "Feature",
      "geometry": {
        "type": "Point",
        "coordinates": [
          120.6965,
          24.0617
        ]
      },
      "properties": {
        "routeId": "taichung-893-ue-ca3243-d1",
        "city": "taichung",
        "route_name": "893-UE",
        "car_seq": "893-UE",
        "arrival_time": "1405",
        "departure_time": "1410",
        "district": "霧峰區",
        "village": "本堂里",
        "location": "樹仁六街1號",
        "type": "沿街",
        "collection_type": "recycling",
        "day_of_week": 1
      }
    },
    {
      "type": "Feature",
      "geometry": {
        "type": "Point",
        "coordinates": [
          120.695477,
          24.059882
        ]
      },
      "properties": {
        "routeId": "taichung-893-ue-ca3243-d1",
        "city": "taichung",
        "route_name": "893-UE",
        "car_seq": "893-UE",
        "arrival_time": "1410",
        "departure_time": "1415",
        "district": "霧峰區",
        "village": "本堂里",
        "location": "樹仁六街95號",
        "type": "沿街",
        "collection_type": "garbage",
        "day_of_week": 1
      }
    },
    {
      "type": "Feature",
      "geometry": {
        "type": "Point",
        "coordinates": [
          120.695477,
          24.059882
        ]
      },
      "properties": {
        "routeId": "taichung-893-ue-ca3243-d1",
        "city": "taichung",
        "route_name": "893-UE",
        "car_seq": "893-UE",
        "arrival_time": "1410",
        "departure_time": "1415",
        "district": "霧峰區",
        "village": "本堂里",
        "location": "樹仁六街95號",
        "type": "沿街",
        "collection_type": "recycling",
        "day_of_week": 1
      }
    },
    {
      "type": "Feature",
      "geometry": {
        "type": "Point",
        "coordinates": [
          120.696437,
          24.060811
        ]
      },
      "properties": {
        "routeId": "taichung-893-ue-ca3243-d1",
        "city": "taichung",
        "route_name": "893-UE",
        "car_seq": "893-UE",
        "arrival_time": "1415",
        "departure_time": "1420",
        "district": "霧峰區",
        "village": "本堂里",
        "location": "樹仁路128號",
        "type": "沿街",
        "collection_type": "garbage",
        "day_of_week": 1
      }
    },
    {
      "type": "Feature",
      "geometry": {
        "type": "Point",
        "coordinates": [
          120.696437,
          24.060811
        ]
      },
      "properties": {
        "routeId": "taichung-893-ue-ca3243-d1",
        "city": "taichung",
        "route_name": "893-UE",
        "car_seq": "893-UE",
        "arrival_time": "1415",
        "departure_time": "1420",
        "district": "霧峰區",
        "village": "本堂里",
        "location": "樹仁路128號",
        "type": "沿街",
        "collection_type": "recycling",
        "day_of_week": 1
      }
    },
    {
      "type": "Feature",
      "geometry": {
        "type": "Point",
        "coordinates": [
          120.696194,
          24.05932
        ]
      },
      "properties": {
        "routeId": "taichung-893-ue-ca3243-d1",
        "city": "taichung",
        "route_name": "893-UE",
        "car_seq": "893-UE",
        "arrival_time": "1420",
        "departure_time": "1425",
        "district": "霧峰區",
        "village": "本堂里",
        "location": "樹仁路158號",
        "type": "沿街",
        "collection_type": "garbage",
        "day_of_week": 1
      }
    },
    {
      "type": "Feature",
      "geometry": {
        "type": "Point",
        "coordinates": [
          120.696194,
          24.05932
        ]
      },
      "properties": {
        "routeId": "taichung-893-ue-ca3243-d1",
        "city": "taichung",
        "route_name": "893-UE",
        "car_seq": "893-UE",
        "arrival_time": "1420",
        "departure_time": "1425",
        "district": "霧峰區",
        "village": "本堂里",
        "location": "樹仁路158號",
        "type": "沿街",
        "collection_type": "recycling",
        "day_of_week": 1
      }
    },
    {
      "type": "Feature",
      "geometry": {
        "type": "Point",
        "coordinates": [
          120.697177,
          24.05647
        ]
      },
      "properties": {
        "routeId": "taichung-893-ue-ca3243-d1",
        "city": "taichung",
        "route_name": "893-UE",
        "car_seq": "893-UE",
        "arrival_time": "1425",
        "departure_time": "1430",
        "district": "霧峰區",
        "village": "本堂里",
        "location": "蘭生街71號",
        "type": "沿街",
        "collection_type": "garbage",
        "day_of_week": 1
      }
    },
    {
      "type": "Feature",
      "geometry": {
        "type": "Point",
        "coordinates": [
          120.697177,
          24.05647
        ]
      },
      "properties": {
        "routeId": "taichung-893-ue-ca3243-d1",
        "city": "taichung",
        "route_name": "893-UE",
        "car_seq": "893-UE",
        "arrival_time": "1425",
        "departure_time": "1430",
        "district": "霧峰區",
        "village": "本堂里",
        "location": "蘭生街71號",
        "type": "沿街",
        "collection_type": "recycling",
        "day_of_week": 1
      }
    },
    {
      "type": "Feature",
      "geometry": {
        "type": "Point",
        "coordinates": [
          120.695896,
          24.054791
        ]
      },
      "properties": {
        "routeId": "taichung-893-ue-ca3243-d1",
        "city": "taichung",
        "route_name": "893-UE",
        "car_seq": "893-UE",
        "arrival_time": "1430",
        "departure_time": "1435",
        "district": "霧峰區",
        "village": "本堂里",
        "location": "中正路589號",
        "type": "沿街",
        "collection_type": "garbage",
        "day_of_week": 1
      }
    },
    {
      "type": "Feature",
      "geometry": {
        "type": "Point",
        "coordinates": [
          120.695896,
          24.054791
        ]
      },
      "properties": {
        "routeId": "taichung-893-ue-ca3243-d1",
        "city": "taichung",
        "route_name": "893-UE",
        "car_seq": "893-UE",
        "arrival_time": "1430",
        "departure_time": "1435",
        "district": "霧峰區",
        "village": "本堂里",
        "location": "中正路589號",
        "type": "沿街",
        "collection_type": "recycling",
        "day_of_week": 1
      }
    },
    {
      "type": "Feature",
      "geometry": {
        "type": "Point",
        "coordinates": [
          120.695842,
          24.042826
        ]
      },
      "properties": {
        "routeId": "taichung-893-ue-ca3243-d1",
        "city": "taichung",
        "route_name": "893-UE",
        "car_seq": "893-UE",
        "arrival_time": "1440",
        "departure_time": "1445",
        "district": "霧峰區",
        "village": "坑口里",
        "location": "信義路32號",
        "type": "沿街",
        "collection_type": "garbage",
        "day_of_week": 1
      }
    },
    {
      "type": "Feature",
      "geometry": {
        "type": "Point",
        "coordinates": [
          120.695842,
          24.042826
        ]
      },
      "properties": {
        "routeId": "taichung-893-ue-ca3243-d1",
        "city": "taichung",
        "route_name": "893-UE",
        "car_seq": "893-UE",
        "arrival_time": "1440",
        "departure_time": "1445",
        "district": "霧峰區",
        "village": "坑口里",
        "location": "信義路32號",
        "type": "沿街",
        "collection_type": "recycling",
        "day_of_week": 1
      }
    },
    {
      "type": "Feature",
      "geometry": {
        "type": "Point",
        "coordinates": [
          120.694085,
          24.044924
        ]
      },
      "properties": {
        "routeId": "taichung-893-ue-ca3243-d1",
        "city": "taichung",
        "route_name": "893-UE",
        "car_seq": "893-UE",
        "arrival_time": "1445",
        "departure_time": "1450",
        "district": "霧峰區",
        "village": "坑口里",
        "location": "新生路59巷3號",
        "type": "沿街",
        "collection_type": "garbage",
        "day_of_week": 1
      }
    },
    {
      "type": "Feature",
      "geometry": {
        "type": "Point",
        "coordinates": [
          120.694085,
          24.044924
        ]
      },
      "properties": {
        "routeId": "taichung-893-ue-ca3243-d1",
        "city": "taichung",
        "route_name": "893-UE",
        "car_seq": "893-UE",
        "arrival_time": "1445",
        "departure_time": "1450",
        "district": "霧峰區",
        "village": "坑口里",
        "location": "新生路59巷3號",
        "type": "沿街",
        "collection_type": "recycling",
        "day_of_week": 1
      }
    },
    {
      "type": "Feature",
      "geometry": {
        "type": "Point",
        "coordinates": [
          120.692781,
          24.044799
        ]
      },
      "properties": {
        "routeId": "taichung-893-ue-ca3243-d1",
        "city": "taichung",
        "route_name": "893-UE",
        "car_seq": "893-UE",
        "arrival_time": "1450",
        "departure_time": "1455",
        "district": "霧峰區",
        "village": "坑口里",
        "location": "新生路9號",
        "type": "沿街",
        "collection_type": "garbage",
        "day_of_week": 1
      }
    },
    {
      "type": "Feature",
      "geometry": {
        "type": "Point",
        "coordinates": [
          120.692781,
          24.044799
        ]
      },
      "properties": {
        "routeId": "taichung-893-ue-ca3243-d1",
        "city": "taichung",
        "route_name": "893-UE",
        "car_seq": "893-UE",
        "arrival_time": "1450",
        "departure_time": "1455",
        "district": "霧峰區",
        "village": "坑口里",
        "location": "新生路9號",
        "type": "沿街",
        "collection_type": "recycling",
        "day_of_week": 1
      }
    },
    {
      "type": "Feature",
      "geometry": {
        "type": "Point",
        "coordinates": [
          120.692662,
          24.046279
        ]
      },
      "properties": {
        "routeId": "taichung-893-ue-ca3243-d1",
        "city": "taichung",
        "route_name": "893-UE",
        "car_seq": "893-UE",
        "arrival_time": "1455",
        "departure_time": "1457",
        "district": "霧峰區",
        "village": "六股里",
        "location": "中正路612號",
        "type": "沿街",
        "collection_type": "garbage",
        "day_of_week": 1
      }
    },
    {
      "type": "Feature",
      "geometry": {
        "type": "Point",
        "coordinates": [
          120.692662,
          24.046279
        ]
      },
      "properties": {
        "routeId": "taichung-893-ue-ca3243-d1",
        "city": "taichung",
        "route_name": "893-UE",
        "car_seq": "893-UE",
        "arrival_time": "1455",
        "departure_time": "1457",
        "district": "霧峰區",
        "village": "六股里",
        "location": "中正路612號",
        "type": "沿街",
        "collection_type": "recycling",
        "day_of_week": 1
      }
    }
  ]
}