{
  "type": "FeatureCollection",
  "features": [
    {
      "type": "Feature",
      "geometry": {
        "type": "Point",
        "coordinates": [
          120.70942431979888,
          24.30549429872664
        ]
      },
      "properties": {
        "routeId": "taichung-ker-3365-cf7f7d-d1",
        "city": "taichung",
        "route_name": "KER-3365",
        "car_seq": "KER-3365",
        "arrival_time": "0645",
        "departure_time": "0650",
        "district": "后里區",
        "village": "墩西里",
        "location": "公安路100號",
        "type": "沿街",
        "collection_type": "garbage",
        "day_of_week": 1
      }
    },
    {
      "type": "Feature",
      "geometry": {
        "type": "Point",
        "coordinates": [
          120.70942431979888,
          24.30549429872664
        ]
      },
      "properties": {
        "routeId": "taichung-ker-3365-cf7f7d-d1",
        "city": "taichung",
        "route_name": "KER-3365",
        "car_seq": "KER-3365",
        "arrival_time": "0645",
        "departure_time": "0650",
        "district": "后里區",
        "village": "墩西里",
        "location": "公安路100號",
        "type": "沿街",
        "collection_type": "recycling",
        "day_of_week": 1
      }
    },
    {
      "type": "Feature",
      "geometry": {
        "type": "Point",
        "coordinates": [
          120.70858985551808,
          24.305191686588756
        ]
      },
      "properties": {
        "routeId": "taichung-ker-3365-cf7f7d-d1",
        "city": "taichung",
        "route_name": "KER-3365",
        "car_seq": "KER-3365",
        "arrival_time": "0650",
        "departure_time": "0655",
        "district": "后里區",
        "village": "中和里",
        "location": "主和路39號",
        "type": "沿街",
        "collection_type": "garbage",
        "day_of_week": 1
      }
    },
    {
      "type": "Feature",
      "geometry": {
        "type": "Point",
        "coordinates": [
          120.70858985551808,
          24.305191686588756
        ]
      },
      "properties": {
        "routeId": "taichung-ker-3365-cf7f7d-d1",
        "city": "taichung",
        "route_name": "KER-3365",
        "car_seq": "KER-3365",
        "arrival_time": "0650",
        "departure_time": "0655",
        "district": "后里區",
        "village": "中和里",
        "location": "主和路39號",
        "type": "沿街",
        "collection_type": "recycling",
        "day_of_week": 1
      }
    },
    {
      "type": "Feature",
      "geometry": {
        "type": "Point",
        "coordinates": [
          120.70814944371989,
          24.30317303577147
        ]
      },
      "properties": {
        "routeId": "taichung-ker-3365-cf7f7d-d1",
        "city": "taichung",
        "route_name": "KER-3365",
        "car_seq": "KER-3365",
        "arrival_time": "0655",
        "departure_time": "0700",
        "district": "后里區",
        "village": "中和里",
        "location": "中和路71號",
        "type": "沿街",
        "collection_type": "garbage",
        "day_of_week": 1
      }
    },
    {
      "type": "Feature",
      "geometry": {
        "type": "Point",
        "coordinates": [
          120.70814944371989,
          24.30317303577147
        ]
      },
      "properties": {
        "routeId": "taichung-ker-3365-cf7f7d-d1",
        "city": "taichung",
        "route_name": "KER-3365",
        "car_seq": "KER-3365",
        "arrival_time": "0655",
        "departure_time": "0700",
        "district": "后里區",
        "village": "中和里",
        "location": "中和路71號",
        "type": "沿街",
        "collection_type": "recycling",
        "day_of_week": 1
      }
    },
    {
      "type": "Feature",
      "geometry": {
        "type": "Point",
        "coordinates": [
          120.70768377880893,
          24.304902674432537
        ]
      },
      "properties": {
        "routeId": "taichung-ker-3365-cf7f7d-d1",
        "city": "taichung",
        "route_name": "KER-3365",
        "car_seq": "KER-3365",
        "arrival_time": "0700",
        "departure_time": "0705",
        "district": "后里區",
        "village": "墩西里",
        "location": "中正路136之2號",
        "type": "沿街",
        "collection_type": "garbage",
        "day_of_week": 1
      }
    },
    {
      "type": "Feature",
      "geometry": {
        "type": "Point",
        "coordinates": [
          120.70768377880893,
          24.304902674432537
        ]
      },
      "properties": {
        "routeId": "taichung-ker-3365-cf7f7d-d1",
        "city": "taichung",
        "route_name": "KER-3365",
        "car_seq": "KER-3365",
        "arrival_time": "0700",
        "departure_time": "0705",
        "district": "后里區",
        "village": "墩西里",
        "location": "中正路136之2號",
        "type": "沿街",
        "collection_type": "recycling",
        "day_of_week": 1
      }
    },
    {
      "type": "Feature",
      "geometry": {
        "type": "Point",
        "coordinates": [
          120.70732964525023,
          24.305564153408522
        ]
      },
      "properties": {
        "routeId": "taichung-ker-3365-cf7f7d-d1",
        "city": "taichung",
        "route_name": "KER-3365",
        "car_seq": "KER-3365",
        "arrival_time": "0705",
        "departure_time": "0710",
        "district": "后里區",
        "village": "中和里",
        "location": "民間路67號",
        "type": "沿街",
        "collection_type": "garbage",
        "day_of_week": 1
      }
    },
    {
      "type": "Feature",
      "geometry": {
        "type": "Point",
        "coordinates": [
          120.70732964525023,
          24.305564153408522
        ]
      },
      "properties": {
        "routeId": "taichung-ker-3365-cf7f7d-d1",
        "city": "taichung",
        "route_name": "KER-3365",
        "car_seq": "KER-3365",
        "arrival_time": "0705",
        "departure_time": "0710",
        "district": "后里區",
        "village": "中和里",
        "location": "民間路67號",
        "type": "沿街",
        "collection_type": "recycling",
        "day_of_week": 1
      }
    },
    {
      "type": "Feature",
      "geometry": {
        "type": "Point",
        "coordinates": [
          120.70216480995559,
          24.30526894639482
        ]
      },
      "properties": {
        "routeId": "taichung-ker-3365-cf7f7d-d1",
        "city": "taichung",
        "route_name": "KER-3365",
        "car_seq": "KER-3365",
        "arrival_time": "0715",
        "departure_time": "0720",
        "district": "后里區",
        "village": "中和里",
        "location": "犁份路8之15號",
        "type": "沿街",
        "collection_type": "garbage",
        "day_of_week": 1
      }
    },
    {
      "type": "Feature",
      "geometry": {
        "type": "Point",
        "coordinates": [
          120.70216480995559,
          24.30526894639482
        ]
      },
      "properties": {
        "routeId": "taichung-ker-3365-cf7f7d-d1",
        "city": "taichung",
        "route_name": "KER-3365",
        "car_seq": "KER-3365",
        "arrival_time": "0715",
        "departure_time": "0720",
        "district": "后里區",
        "village": "中和里",
        "location": "犁份路8之15號",
        "type": "沿街",
        "collection_type": "recycling",
        "day_of_week": 1
      }
    },
    {
      "type": "Feature",
      "geometry": {
        "type": "Point",
        "coordinates": [
          120.70273457587403,
          24.30334147492925
        ]
      },
      "properties": {
        "routeId": "taichung-ker-3365-cf7f7d-d1",
        "city": "taichung",
        "route_name": "KER-3365",
        "car_seq": "KER-3365",
        "arrival_time": "0720",
        "departure_time": "0725",
        "district": "后里區",
        "village": "中和里",
        "location": "犁份路9之12號",
        "type": "沿街",
        "collection_type": "garbage",
        "day_of_week": 1
      }
    },
    {
      "type": "Feature",
      "geometry": {
        "type": "Point",
        "coordinates": [
          120.70273457587403,
          24.30334147492925
        ]
      },
      "properties": {
        "routeId": "taichung-ker-3365-cf7f7d-d1",
        "city": "taichung",
        "route_name": "KER-3365",
        "car_seq": "KER-3365",
        "arrival_time": "0720",
        "departure_time": "0725",
        "district": "后里區",
        "village": "中和里",
        "location": "犁份路9之12號",
        "type": "沿街",
        "collection_type": "recycling",
        "day_of_week": 1
      }
    },
    {
      "type": "Feature",
      "geometry": {
        "type": "Point",
        "coordinates": [
          120.7063508412569,
          24.303952206243892
        ]
      },
      "properties": {
        "routeId": "taichung-ker-3365-cf7f7d-d1",
        "city": "taichung",
        "route_name": "KER-3365",
        "car_seq": "KER-3365",
        "arrival_time": "0725",
        "departure_time": "0730",
        "district": "后里區",
        "village": "中和里",
        "location": "中和路139號",
        "type": "沿街",
        "collection_type": "garbage",
        "day_of_week": 1
      }
    },
    {
      "type": "Feature",
      "geometry": {
        "type": "Point",
        "coordinates": [
          120.7063508412569,
          24.303952206243892
        ]
      },
      "properties": {
        "routeId": "taichung-ker-3365-cf7f7d-d1",
        "city": "taichung",
        "route_name": "KER-3365",
        "car_seq": "KER-3365",
        "arrival_time": "0725",
        "departure_time": "0730",
        "district": "后里區",
        "village": "中和里",
        "location": "中和路139號",
        "type": "沿街",
        "collection_type": "recycling",
        "day_of_week": 1
      }
    },
    {
      "type": "Feature",
      "geometry": {
        "type": "Point",
        "coordinates": [
          120.70846481794571,
          24.305922220010356
        ]
      },
      "properties": {
        "routeId": "taichung-ker-3365-cf7f7d-d1",
        "city": "taichung",
        "route_name": "KER-3365",
        "car_seq": "KER-3365",
        "arrival_time": "0730",
        "departure_time": "0735",
        "district": "后里區",
        "village": "敦西里",
        "location": "公安路130之1號",
        "type": "沿街",
        "collection_type": "garbage",
        "day_of_week": 1
      }
    },
    {
      "type": "Feature",
      "geometry": {
        "type": "Point",
        "coordinates": [
          120.70846481794571,
          24.305922220010356
        ]
      },
      "properties": {
        "routeId": "taichung-ker-3365-cf7f7d-d1",
        "city": "taichung",
        "route_name": "KER-3365",
        "car_seq": "KER-3365",
        "arrival_time": "0730",
        "departure_time": "0735",
        "district": "后里區",
        "village": "敦西里",
        "location": "公安路130之1號",
        "type": "沿街",
        "collection_type": "recycling",
        "day_of_week": 1
      }
    },
    {
      "type": "Feature",
      "geometry": {
        "type": "Point",
        "coordinates": [
          120.70677355920245,
          24.30736513410535
        ]
      },
      "properties": {
        "routeId": "taichung-ker-3365-cf7f7d-d1",
        "city": "taichung",
        "route_name": "KER-3365",
        "car_seq": "KER-3365",
        "arrival_time": "0735",
        "departure_time": "0740",
        "district": "后里區",
        "village": "墩西里",
        "location": "月湖路2巷32號",
        "type": "沿街",
        "collection_type": "garbage",
        "day_of_week": 1
      }
    },
    {
      "type": "Feature",
      "geometry": {
        "type": "Point",
        "coordinates": [
          120.70677355920245,
          24.30736513410535
        ]
      },
      "properties": {
        "routeId": "taichung-ker-3365-cf7f7d-d1",
        "city": "taichung",
        "route_name": "KER-3365",
        "car_seq": "KER-3365",
        "arrival_time": "0735",
        "departure_time": "0740",
        "district": "后里區",
        "village": "墩西里",
        "location": "月湖路2巷32號",
        "type": "沿街",
        "collection_type": "recycling",
        "day_of_week": 1
      }
    },
    {
      "type": "Feature",
      "geometry": {
        "type": "Point",
        "coordinates": [
          120.70196307893328,
          24.30979743747272
        ]
      },
      "properties": {
        "routeId": "taichung-ker-3365-cf7f7d-d1",
        "city": "taichung",
        "route_name": "KER-3365",
        "car_seq": "KER-3365",
        "arrival_time": "0743",
        "departure_time": "0748",
        "district": "后里區",
        "village": "中和里",
        "location": "公安路200之3號",
        "type": "沿街",
        "collection_type": "garbage",
        "day_of_week": 1
      }
    },
    {
      "type": "Feature",
      "geometry": {
        "type": "Point",
        "coordinates": [
          120.70196307893328,
          24.30979743747272
        ]
      },
      "properties": {
        "routeId": "taichung-ker-3365-cf7f7d-d1",
        "city": "taichung",
        "route_name": "KER-3365",
        "car_seq": "KER-3365",
        "arrival_time": "0743",
        "departure_time": "0748",
        "district": "后里區",
        "village": "中和里",
        "location": "公安路200之3號",
        "type": "沿街",
        "collection_type": "recycling",
        "day_of_week": 1
      }
    },
    {
      "type": "Feature",
      "geometry": {
        "type": "Point",
        "coordinates": [
          120.69679160842252,
          24.310867842625303
        ]
      },
      "properties": {
        "routeId": "taichung-ker-3365-cf7f7d-d1",
        "city": "taichung",
        "route_name": "KER-3365",
        "car_seq": "KER-3365",
        "arrival_time": "0750",
        "departure_time": "0755",
        "district": "后里區",
        "village": "眉山里",
        "location": "公安路292號",
        "type": "沿街",
        "collection_type": "garbage",
        "day_of_week": 1
      }
    },
    {
      "type": "Feature",
      "geometry": {
        "type": "Point",
        "coordinates": [
          120.69679160842252,
          24.310867842625303
        ]
      },
      "properties": {
        "routeId": "taichung-ker-3365-cf7f7d-d1",
        "city": "taichung",
        "route_name": "KER-3365",
        "car_seq": "KER-3365",
        "arrival_time": "0750",
        "departure_time": "0755",
        "district": "后里區",
        "village": "眉山里",
        "location": "公安路292號",
        "type": "沿街",
        "collection_type": "recycling",
        "day_of_week": 1
      }
    },
    {
      "type": "Feature",
      "geometry": {
        "type": "Point",
        "coordinates": [
          120.69256603741653,
          24.31368133610924
        ]
      },
      "properties": {
        "routeId": "taichung-ker-3365-cf7f7d-d1",
        "city": "taichung",
        "route_name": "KER-3365",
        "car_seq": "KER-3365",
        "arrival_time": "0755",
        "departure_time": "0800",
        "district": "后里區",
        "village": "眉山里",
        "location": "公安路336號",
        "type": "沿街",
        "collection_type": "garbage",
        "day_of_week": 1
      }
    },
    {
      "type": "Feature",
      "geometry": {
        "type": "Point",
        "coordinates": [
          120.69256603741653,
          24.31368133610924
        ]
      },
      "properties": {
        "routeId": "taichung-ker-3365-cf7f7d-d1",
        "city": "taichung",
        "route_name": "KER-3365",
        "car_seq": "KER-3365",
        "arrival_time": "0755",
        "departure_time": "0800",
        "district": "后里區",
        "village": "眉山里",
        "location": "公安路336號",
        "type": "沿街",
        "collection_type": "recycling",
        "day_of_week": 1
      }
    },
    {
      "type": "Feature",
      "geometry": {
        "type": "Point",
        "coordinates": [
          120.6953707751103,
          24.312694471338194
        ]
      },
      "properties": {
        "routeId": "taichung-ker-3365-cf7f7d-d1",
        "city": "taichung",
        "route_name": "KER-3365",
        "car_seq": "KER-3365",
        "arrival_time": "0800",
        "departure_time": "0805",
        "district": "后里區",
        "village": "眉山里",
        "location": "甲后路二段305號",
        "type": "沿街",
        "collection_type": "garbage",
        "day_of_week": 1
      }
    },
    {
      "type": "Feature",
      "geometry": {
        "type": "Point",
        "coordinates": [
          120.6953707751103,
          24.312694471338194
        ]
      },
      "properties": {
        "routeId": "taichung-ker-3365-cf7f7d-d1",
        "city": "taichung",
        "route_name": "KER-3365",
        "car_seq": "KER-3365",
        "arrival_time": "0800",
        "departure_time": "0805",
        "district": "后里區",
        "village": "眉山里",
        "location": "甲后路二段305號",
        "type": "沿街",
        "collection_type": "recycling",
        "day_of_week": 1
      }
    },
    {
      "type": "Feature",
      "geometry": {
        "type": "Point",
        "coordinates": [
          120.69158807252883,
          24.314109112005593
        ]
      },
      "properties": {
        "routeId": "taichung-ker-3365-cf7f7d-d1",
        "city": "taichung",
        "route_name": "KER-3365",
        "car_seq": "KER-3365",
        "arrival_time": "0805",
        "departure_time": "0810",
        "district": "后里區",
        "village": "眉山里",
        "location": "甲后路二段580號",
        "type": "沿街",
        "collection_type": "garbage",
        "day_of_week": 1
      }
    },
    {
      "type": "Feature",
      "geometry": {
        "type": "Point",
        "coordinates": [
          120.69158807252883,
          24.314109112005593
        ]
      },
      "properties": {
        "routeId": "taichung-ker-3365-cf7f7d-d1",
        "city": "taichung",
        "route_name": "KER-3365",
        "car_seq": "KER-3365",
        "arrival_time": "0805",
        "departure_time": "0810",
        "district": "后里區",
        "village": "眉山里",
        "location": "甲后路二段580號",
        "type": "沿街",
        "collection_type": "recycling",
        "day_of_week": 1
      }
    },
    {
      "type": "Feature",
      "geometry": {
        "type": "Point",
        "coordinates": [
          120.68663712024053,
          24.31563092769095
        ]
      },
      "properties": {
        "routeId": "taichung-ker-3365-cf7f7d-d1",
        "city": "taichung",
        "route_name": "KER-3365",
        "car_seq": "KER-3365",
        "arrival_time": "0810",
        "departure_time": "0815",
        "district": "后里區",
        "village": "眉山里",
        "location": "安眉路144之1號",
        "type": "沿街",
        "collection_type": "garbage",
        "day_of_week": 1
      }
    },
    {
      "type": "Feature",
      "geometry": {
        "type": "Point",
        "coordinates": [
          120.68663712024053,
          24.31563092769095
        ]
      },
      "properties": {
        "routeId": "taichung-ker-3365-cf7f7d-d1",
        "city": "taichung",
        "route_name": "KER-3365",
        "car_seq": "KER-3365",
        "arrival_time": "0810",
        "departure_time": "0815",
        "district": "后里區",
        "village": "眉山里",
        "location": "安眉路144之1號",
        "type": "沿街",
        "collection_type": "recycling",
        "day_of_week": 1
      }
    },
    {
      "type": "Feature",
      "geometry": {
        "type": "Point",
        "coordinates": [
          120.68217855354506,
          24.316801205949602
        ]
      },
      "properties": {
        "routeId": "taichung-ker-3365-cf7f7d-d1",
        "city": "taichung",
        "route_name": "KER-3365",
        "car_seq": "KER-3365",
        "arrival_time": "0820",
        "departure_time": "0825",
        "district": "后里區",
        "village": "眉山里",
        "location": "甲后路三段36巷23號",
        "type": "沿街",
        "collection_type": "garbage",
        "day_of_week": 1
      }
    },
    {
      "type": "Feature",
      "geometry": {
        "type": "Point",
        "coordinates": [
          120.68217855354506,
          24.316801205949602
        ]
      },
      "properties": {
        "routeId": "taichung-ker-3365-cf7f7d-d1",
        "city": "taichung",
        "route_name": "KER-3365",
        "car_seq": "KER-3365",
        "arrival_time": "0820",
        "departure_time": "0825",
        "district": "后里區",
        "village": "眉山里",
        "location": "甲后路三段36巷23號",
        "type": "沿街",
        "collection_type": "recycling",
        "day_of_week": 1
      }
    },
    {
      "type": "Feature",
      "geometry": {
        "type": "Point",
        "coordinates": [
          120.67759973896806,
          24.317819137266685
        ]
      },
      "properties": {
        "routeId": "taichung-ker-3365-cf7f7d-d1",
        "city": "taichung",
        "route_name": "KER-3365",
        "car_seq": "KER-3365",
        "arrival_time": "0825",
        "departure_time": "0830",
        "district": "后里區",
        "village": "眉山里",
        "location": "甲后路三段200巷38弄5號",
        "type": "沿街",
        "collection_type": "garbage",
        "day_of_week": 1
      }
    },
    {
      "type": "Feature",
      "geometry": {
        "type": "Point",
        "coordinates": [
          120.67759973896806,
          24.317819137266685
        ]
      },
      "properties": {
        "routeId": "taichung-ker-3365-cf7f7d-d1",
        "city": "taichung",
        "route_name": "KER-3365",
        "car_seq": "KER-3365",
        "arrival_time": "0825",
        "departure_time": "0830",
        "district": "后里區",
        "village": "眉山里",
        "location": "甲后路三段200巷38弄5號",
        "type": "沿街",
        "collection_type": "recycling",
        "day_of_week": 1
      }
    },
    {
      "type": "Feature",
      "geometry": {
        "type": "Point",
        "coordinates": [
          120.67344484265371,
          24.316882977773297
        ]
      },
      "properties": {
        "routeId": "taichung-ker-3365-cf7f7d-d1",
        "city": "taichung",
        "route_name": "KER-3365",
        "car_seq": "KER-3365",
        "arrival_time": "0830",
        "departure_time": "0835",
        "district": "后里區",
        "village": "眉山里",
        "location": "甲后路三段295巷1弄1號",
        "type": "沿街",
        "collection_type": "garbage",
        "day_of_week": 1
      }
    },
    {
      "type": "Feature",
      "geometry": {
        "type": "Point",
        "coordinates": [
          120.67344484265371,
          24.316882977773297
        ]
      },
      "properties": {
        "routeId": "taichung-ker-3365-cf7f7d-d1",
        "city": "taichung",
        "route_name": "KER-3365",
        "car_seq": "KER-3365",
        "arrival_time": "0830",
        "departure_time": "0835",
        "district": "后里區",
        "village": "眉山里",
        "location": "甲后路三段295巷1弄1號",
        "type": "沿街",
        "collection_type": "recycling",
        "day_of_week": 1
      }
    },
    {
      "type": "Feature",
      "geometry": {
        "type": "Point",
        "coordinates": [
          120.68489527510108,
          24.31506463758874
        ]
      },
      "properties": {
        "routeId": "taichung-ker-3365-cf7f7d-d1",
        "city": "taichung",
        "route_name": "KER-3365",
        "car_seq": "KER-3365",
        "arrival_time": "0910",
        "departure_time": "0915",
        "district": "后里區",
        "village": "眉山里",
        "location": "甲后路二段739號",
        "type": "沿街",
        "collection_type": "garbage",
        "day_of_week": 1
      }
    },
    {
      "type": "Feature",
      "geometry": {
        "type": "Point",
        "coordinates": [
          120.68489527510108,
          24.31506463758874
        ]
      },
      "properties": {
        "routeId": "taichung-ker-3365-cf7f7d-d1",
        "city": "taichung",
        "route_name": "KER-3365",
        "car_seq": "KER-3365",
        "arrival_time": "0910",
        "departure_time": "0915",
        "district": "后里區",
        "village": "眉山里",
        "location": "甲后路二段739號",
        "type": "沿街",
        "collection_type": "recycling",
        "day_of_week": 1
      }
    },
    {
      "type": "Feature",
      "geometry": {
        "type": "Point",
        "coordinates": [
          120.69301046120144,
          24.31419889957067
        ]
      },
      "properties": {
        "routeId": "taichung-ker-3365-cf7f7d-d1",
        "city": "taichung",
        "route_name": "KER-3365",
        "car_seq": "KER-3365",
        "arrival_time": "0915",
        "departure_time": "0920",
        "district": "后里區",
        "village": "眉山里",
        "location": "雲頭路58號",
        "type": "沿街",
        "collection_type": "garbage",
        "day_of_week": 1
      }
    },
    {
      "type": "Feature",
      "geometry": {
        "type": "Point",
        "coordinates": [
          120.69301046120144,
          24.31419889957067
        ]
      },
      "properties": {
        "routeId": "taichung-ker-3365-cf7f7d-d1",
        "city": "taichung",
        "route_name": "KER-3365",
        "car_seq": "KER-3365",
        "arrival_time": "0915",
        "departure_time": "0920",
        "district": "后里區",
        "village": "眉山里",
        "location": "雲頭路58號",
        "type": "沿街",
        "collection_type": "recycling",
        "day_of_week": 1
      }
    },
    {
      "type": "Feature",
      "geometry": {
        "type": "Point",
        "coordinates": [
          120.69628426429557,
          24.316981115784166
        ]
      },
      "properties": {
        "routeId": "taichung-ker-3365-cf7f7d-d1",
        "city": "taichung",
        "route_name": "KER-3365",
        "car_seq": "KER-3365",
        "arrival_time": "0920",
        "departure_time": "0925",
        "district": "后里區",
        "village": "眉山里",
        "location": "雲頭路48之9號",
        "type": "沿街",
        "collection_type": "garbage",
        "day_of_week": 1
      }
    },
    {
      "type": "Feature",
      "geometry": {
        "type": "Point",
        "coordinates": [
          120.69628426429557,
          24.316981115784166
        ]
      },
      "properties": {
        "routeId": "taichung-ker-3365-cf7f7d-d1",
        "city": "taichung",
        "route_name": "KER-3365",
        "car_seq": "KER-3365",
        "arrival_time": "0920",
        "departure_time": "0925",
        "district": "后里區",
        "village": "眉山里",
        "location": "雲頭路48之9號",
        "type": "沿街",
        "collection_type": "recycling",
        "day_of_week": 1
      }
    },
    {
      "type": "Feature",
      "geometry": {
        "type": "Point",
        "coordinates": [
          120.6991721962661,
          24.321268147695008
        ]
      },
      "properties": {
        "routeId": "taichung-ker-3365-cf7f7d-d1",
        "city": "taichung",
        "route_name": "KER-3365",
        "car_seq": "KER-3365",
        "arrival_time": "0930",
        "departure_time": "0935",
        "district": "后里區",
        "village": "月眉里",
        "location": "安眉路134巷2弄29號",
        "type": "沿街",
        "collection_type": "garbage",
        "day_of_week": 1
      }
    },
    {
      "type": "Feature",
      "geometry": {
        "type": "Point",
        "coordinates": [
          120.6991721962661,
          24.321268147695008
        ]
      },
      "properties": {
        "routeId": "taichung-ker-3365-cf7f7d-d1",
        "city": "taichung",
        "route_name": "KER-3365",
        "car_seq": "KER-3365",
        "arrival_time": "0930",
        "departure_time": "0935",
        "district": "后里區",
        "village": "月眉里",
        "location": "安眉路134巷2弄29號",
        "type": "沿街",
        "collection_type": "recycling",
        "day_of_week": 1
      }
    },
    {
      "type": "Feature",
      "geometry": {
        "type": "Point",
        "coordinates": [
          120.70075030435717,
          24.32225203620139
        ]
      },
      "properties": {
        "routeId": "taichung-ker-3365-cf7f7d-d1",
        "city": "taichung",
        "route_name": "KER-3365",
        "car_seq": "KER-3365",
        "arrival_time": "0935",
        "departure_time": "0940",
        "district": "后里區",
        "village": "月眉里",
        "location": "安眉路134巷18號",
        "type": "沿街",
        "collection_type": "garbage",
        "day_of_week": 1
      }
    },
    {
      "type": "Feature",
      "geometry": {
        "type": "Point",
        "coordinates": [
          120.70075030435717,
          24.32225203620139
        ]
      },
      "properties": {
        "routeId": "taichung-ker-3365-cf7f7d-d1",
        "city": "taichung",
        "route_name": "KER-3365",
        "car_seq": "KER-3365",
        "arrival_time": "0935",
        "departure_time": "0940",
        "district": "后里區",
        "village": "月眉里",
        "location": "安眉路134巷18號",
        "type": "沿街",
        "collection_type": "recycling",
        "day_of_week": 1
      }
    },
    {
      "type": "Feature",
      "geometry": {
        "type": "Point",
        "coordinates": [
          120.70200366879307,
          24.322846748427956
        ]
      },
      "properties": {
        "routeId": "taichung-ker-3365-cf7f7d-d1",
        "city": "taichung",
        "route_name": "KER-3365",
        "car_seq": "KER-3365",
        "arrival_time": "0940",
        "departure_time": "0945",
        "district": "后里區",
        "village": "月眉里",
        "location": "安眉路121-3號",
        "type": "沿街",
        "collection_type": "garbage",
        "day_of_week": 1
      }
    },
    {
      "type": "Feature",
      "geometry": {
        "type": "Point",
        "coordinates": [
          120.70200366879307,
          24.322846748427956
        ]
      },
      "properties": {
        "routeId": "taichung-ker-3365-cf7f7d-d1",
        "city": "taichung",
        "route_name": "KER-3365",
        "car_seq": "KER-3365",
        "arrival_time": "0940",
        "departure_time": "0945",
        "district": "后里區",
        "village": "月眉里",
        "location": "安眉路121-3號",
        "type": "沿街",
        "collection_type": "recycling",
        "day_of_week": 1
      }
    },
    {
      "type": "Feature",
      "geometry": {
        "type": "Point",
        "coordinates": [
          120.70046328192485,
          24.32140165883994
        ]
      },
      "properties": {
        "routeId": "taichung-ker-3365-cf7f7d-d1",
        "city": "taichung",
        "route_name": "KER-3365",
        "car_seq": "KER-3365",
        "arrival_time": "0945",
        "departure_time": "0950",
        "district": "后里區",
        "village": "月眉里",
        "location": "安眉路136號",
        "type": "沿街",
        "collection_type": "garbage",
        "day_of_week": 1
      }
    },
    {
      "type": "Feature",
      "geometry": {
        "type": "Point",
        "coordinates": [
          120.70046328192485,
          24.32140165883994
        ]
      },
      "properties": {
        "routeId": "taichung-ker-3365-cf7f7d-d1",
        "city": "taichung",
        "route_name": "KER-3365",
        "car_seq": "KER-3365",
        "arrival_time": "0945",
        "departure_time": "0950",
        "district": "后里區",
        "village": "月眉里",
        "location": "安眉路136號",
        "type": "沿街",
        "collection_type": "recycling",
        "day_of_week": 1
      }
    },
    {
      "type": "Feature",
      "geometry": {
        "type": "Point",
        "coordinates": [
          120.69878986248015,
          24.316486327179398
        ]
      },
      "properties": {
        "routeId": "taichung-ker-3365-cf7f7d-d1",
        "city": "taichung",
        "route_name": "KER-3365",
        "car_seq": "KER-3365",
        "arrival_time": "0955",
        "departure_time": "1000",
        "district": "后里區",
        "village": "月眉里",
        "location": "眉山路680號",
        "type": "沿街",
        "collection_type": "garbage",
        "day_of_week": 1
      }
    },
    {
      "type": "Feature",
      "geometry": {
        "type": "Point",
        "coordinates": [
          120.69878986248015,
          24.316486327179398
        ]
      },
      "properties": {
        "routeId": "taichung-ker-3365-cf7f7d-d1",
        "city": "taichung",
        "route_name": "KER-3365",
        "car_seq": "KER-3365",
        "arrival_time": "0955",
        "departure_time": "1000",
        "district": "后里區",
        "village": "月眉里",
        "location": "眉山路680號",
        "type": "沿街",
        "collection_type": "recycling",
        "day_of_week": 1
      }
    },
    {
      "type": "Feature",
      "geometry": {
        "type": "Point",
        "coordinates": [
          120.70086534437844,
          24.316074115501664
        ]
      },
      "properties": {
        "routeId": "taichung-ker-3365-cf7f7d-d1",
        "city": "taichung",
        "route_name": "KER-3365",
        "car_seq": "KER-3365",
        "arrival_time": "1000",
        "departure_time": "1005",
        "district": "后里區",
        "village": "月眉里",
        "location": "雲頭路44號",
        "type": "沿街",
        "collection_type": "garbage",
        "day_of_week": 1
      }
    },
    {
      "type": "Feature",
      "geometry": {
        "type": "Point",
        "coordinates": [
          120.70086534437844,
          24.316074115501664
        ]
      },
      "properties": {
        "routeId": "taichung-ker-3365-cf7f7d-d1",
        "city": "taichung",
        "route_name": "KER-3365",
        "car_seq": "KER-3365",
        "arrival_time": "1000",
        "departure_time": "1005",
        "district": "后里區",
        "village": "月眉里",
        "location": "雲頭路44號",
        "type": "沿街",
        "collection_type": "recycling",
        "day_of_week": 1
      }
    },
    {
      "type": "Feature",
      "geometry": {
        "type": "Point",
        "coordinates": [
          120.70298507980412,
          24.32138971100286
        ]
      },
      "properties": {
        "routeId": "taichung-ker-3365-cf7f7d-d1",
        "city": "taichung",
        "route_name": "KER-3365",
        "car_seq": "KER-3365",
        "arrival_time": "1005",
        "departure_time": "1010",
        "district": "后里區",
        "village": "月眉里",
        "location": "雲頭路26-4號",
        "type": "沿街",
        "collection_type": "garbage",
        "day_of_week": 1
      }
    },
    {
      "type": "Feature",
      "geometry": {
        "type": "Point",
        "coordinates": [
          120.70298507980412,
          24.32138971100286
        ]
      },
      "properties": {
        "routeId": "taichung-ker-3365-cf7f7d-d1",
        "city": "taichung",
        "route_name": "KER-3365",
        "car_seq": "KER-3365",
        "arrival_time": "1005",
        "departure_time": "1010",
        "district": "后里區",
        "village": "月眉里",
        "location": "雲頭路26-4號",
        "type": "沿街",
        "collection_type": "recycling",
        "day_of_week": 1
      }
    },
    {
      "type": "Feature",
      "geometry": {
        "type": "Point",
        "coordinates": [
          120.71385925738227,
          24.330589922139914
        ]
      },
      "properties": {
        "routeId": "taichung-ker-3365-cf7f7d-d1",
        "city": "taichung",
        "route_name": "KER-3365",
        "car_seq": "KER-3365",
        "arrival_time": "1015",
        "departure_time": "1020",
        "district": "后里區",
        "village": "月眉里",
        "location": "安眉路芝柏巷64號",
        "type": "沿街",
        "collection_type": "garbage",
        "day_of_week": 1
      }
    },
    {
      "type": "Feature",
      "geometry": {
        "type": "Point",
        "coordinates": [
          120.71385925738227,
          24.330589922139914
        ]
      },
      "properties": {
        "routeId": "taichung-ker-3365-cf7f7d-d1",
        "city": "taichung",
        "route_name": "KER-3365",
        "car_seq": "KER-3365",
        "arrival_time": "1015",
        "departure_time": "1020",
        "district": "后里區",
        "village": "月眉里",
        "location": "安眉路芝柏巷64號",
        "type": "沿街",
        "collection_type": "recycling",
        "day_of_week": 1
      }
    },
    {
      "type": "Feature",
      "geometry": {
        "type": "Point",
        "coordinates": [
          120.71500110686821,
          24.332859452039592
        ]
      },
      "properties": {
        "routeId": "taichung-ker-3365-cf7f7d-d1",
        "city": "taichung",
        "route_name": "KER-3365",
        "car_seq": "KER-3365",
        "arrival_time": "1020",
        "departure_time": "1025",
        "district": "后里區",
        "village": "公館里",
        "location": "安眉路86之7號",
        "type": "沿街",
        "collection_type": "garbage",
        "day_of_week": 1
      }
    },
    {
      "type": "Feature",
      "geometry": {
        "type": "Point",
        "coordinates": [
          120.71500110686821,
          24.332859452039592
        ]
      },
      "properties": {
        "routeId": "taichung-ker-3365-cf7f7d-d1",
        "city": "taichung",
        "route_name": "KER-3365",
        "car_seq": "KER-3365",
        "arrival_time": "1020",
        "departure_time": "1025",
        "district": "后里區",
        "village": "公館里",
        "location": "安眉路86之7號",
        "type": "沿街",
        "collection_type": "recycling",
        "day_of_week": 1
      }
    },
    {
      "type": "Feature",
      "geometry": {
        "type": "Point",
        "coordinates": [
          120.72335678617372,
          24.333866653274594
        ]
      },
      "properties": {
        "routeId": "taichung-ker-3365-cf7f7d-d1",
        "city": "taichung",
        "route_name": "KER-3365",
        "car_seq": "KER-3365",
        "arrival_time": "1025",
        "departure_time": "1030",
        "district": "后里區",
        "village": "公館里",
        "location": "尾社庄353號",
        "type": "沿街",
        "collection_type": "garbage",
        "day_of_week": 1
      }
    },
    {
      "type": "Feature",
      "geometry": {
        "type": "Point",
        "coordinates": [
          120.72335678617372,
          24.333866653274594
        ]
      },
      "properties": {
        "routeId": "taichung-ker-3365-cf7f7d-d1",
        "city": "taichung",
        "route_name": "KER-3365",
        "car_seq": "KER-3365",
        "arrival_time": "1025",
        "departure_time": "1030",
        "district": "后里區",
        "village": "公館里",
        "location": "尾社庄353號",
        "type": "沿街",
        "collection_type": "recycling",
        "day_of_week": 1
      }
    },
    {
      "type": "Feature",
      "geometry": {
        "type": "Point",
        "coordinates": [
          120.72599623793762,
          24.34233850733219
        ]
      },
      "properties": {
        "routeId": "taichung-ker-3365-cf7f7d-d1",
        "city": "taichung",
        "route_name": "KER-3365",
        "car_seq": "KER-3365",
        "arrival_time": "1030",
        "departure_time": "1035",
        "district": "后里區",
        "village": "公館里",
        "location": "新店莊33之1號",
        "type": "沿街",
        "collection_type": "garbage",
        "day_of_week": 1
      }
    },
    {
      "type": "Feature",
      "geometry": {
        "type": "Point",
        "coordinates": [
          120.72599623793762,
          24.34233850733219
        ]
      },
      "properties": {
        "routeId": "taichung-ker-3365-cf7f7d-d1",
        "city": "taichung",
        "route_name": "KER-3365",
        "car_seq": "KER-3365",
        "arrival_time": "1030",
        "departure_time": "1035",
        "district": "后里區",
        "village": "公館里",
        "location": "新店莊33之1號",
        "type": "沿街",
        "collection_type": "recycling",
        "day_of_week": 1
      }
    },
    {
      "type": "Feature",
      "geometry": {
        "type": "Point",
        "coordinates": [
          120.73033144995726,
          24.34233353477162
        ]
      },
      "properties": {
        "routeId": "taichung-ker-3365-cf7f7d-d1",
        "city": "taichung",
        "route_name": "KER-3365",
        "car_seq": "KER-3365",
        "arrival_time": "1035",
        "departure_time": "1040",
        "district": "后里區",
        "village": "公館里",
        "location": "新店莊4號",
        "type": "沿街",
        "collection_type": "garbage",
        "day_of_week": 1
      }
    },
    {
      "type": "Feature",
      "geometry": {
        "type": "Point",
        "coordinates": [
          120.73033144995726,
          24.34233353477162
        ]
      },
      "properties": {
        "routeId": "taichung-ker-3365-cf7f7d-d1",
        "city": "taichung",
        "route_name": "KER-3365",
        "car_seq": "KER-3365",
        "arrival_time": "1035",
        "departure_time": "1040",
        "district": "后里區",
        "village": "公館里",
        "location": "新店莊4號",
        "type": "沿街",
        "collection_type": "recycling",
        "day_of_week": 1
      }
    },
    {
      "type": "Feature",
      "geometry": {
        "type": "Point",
        "coordinates": [
          120.72897785105357,
          24.326285210847356
        ]
      },
      "properties": {
        "routeId": "taichung-ker-3365-cf7f7d-d1",
        "city": "taichung",
        "route_name": "KER-3365",
        "car_seq": "KER-3365",
        "arrival_time": "1300",
        "departure_time": "1305",
        "district": "后里區",
        "village": "公館里",
        "location": "三豐路五段2號",
        "type": "沿街",
        "collection_type": "garbage",
        "day_of_week": 1
      }
    },
    {
      "type": "Feature",
      "geometry": {
        "type": "Point",
        "coordinates": [
          120.72897785105357,
          24.326285210847356
        ]
      },
      "properties": {
        "routeId": "taichung-ker-3365-cf7f7d-d1",
        "city": "taichung",
        "route_name": "KER-3365",
        "car_seq": "KER-3365",
        "arrival_time": "1300",
        "departure_time": "1305",
        "district": "后里區",
        "village": "公館里",
        "location": "三豐路五段2號",
        "type": "沿街",
        "collection_type": "recycling",
        "day_of_week": 1
      }
    },
    {
      "type": "Feature",
      "geometry": {
        "type": "Point",
        "coordinates": [
          120.73051066371411,
          24.334205061492234
        ]
      },
      "properties": {
        "routeId": "taichung-ker-3365-cf7f7d-d1",
        "city": "taichung",
        "route_name": "KER-3365",
        "car_seq": "KER-3365",
        "arrival_time": "1305",
        "departure_time": "1310",
        "district": "后里區",
        "village": "公館里",
        "location": "三豐路五段402號",
        "type": "沿街",
        "collection_type": "garbage",
        "day_of_week": 1
      }
    },
    {
      "type": "Feature",
      "geometry": {
        "type": "Point",
        "coordinates": [
          120.73051066371411,
          24.334205061492234
        ]
      },
      "properties": {
        "routeId": "taichung-ker-3365-cf7f7d-d1",
        "city": "taichung",
        "route_name": "KER-3365",
        "car_seq": "KER-3365",
        "arrival_time": "1305",
        "departure_time": "1310",
        "district": "后里區",
        "village": "公館里",
        "location": "三豐路五段402號",
        "type": "沿街",
        "collection_type": "recycling",
        "day_of_week": 1
      }
    },
    {
      "type": "Feature",
      "geometry": {
        "type": "Point",
        "coordinates": [
          120.73196023190019,
          24.340002631223683
        ]
      },
      "properties": {
        "routeId": "taichung-ker-3365-cf7f7d-d1",
        "city": "taichung",
        "route_name": "KER-3365",
        "car_seq": "KER-3365",
        "arrival_time": "1310",
        "departure_time": "1315",
        "district": "后里區",
        "village": "公館里",
        "location": "三豐東路1號",
        "type": "沿街",
        "collection_type": "garbage",
        "day_of_week": 1
      }
    },
    {
      "type": "Feature",
      "geometry": {
        "type": "Point",
        "coordinates": [
          120.73196023190019,
          24.340002631223683
        ]
      },
      "properties": {
        "routeId": "taichung-ker-3365-cf7f7d-d1",
        "city": "taichung",
        "route_name": "KER-3365",
        "car_seq": "KER-3365",
        "arrival_time": "1310",
        "departure_time": "1315",
        "district": "后里區",
        "village": "公館里",
        "location": "三豐東路1號",
        "type": "沿街",
        "collection_type": "recycling",
        "day_of_week": 1
      }
    },
    {
      "type": "Feature",
      "geometry": {
        "type": "Point",
        "coordinates": [
          120.73136528153844,
          24.339276270601545
        ]
      },
      "properties": {
        "routeId": "taichung-ker-3365-cf7f7d-d1",
        "city": "taichung",
        "route_name": "KER-3365",
        "car_seq": "KER-3365",
        "arrival_time": "1315",
        "departure_time": "1320",
        "district": "后里區",
        "village": "公館里",
        "location": "三豐路五段551號",
        "type": "沿街",
        "collection_type": "garbage",
        "day_of_week": 1
      }
    },
    {
      "type": "Feature",
      "geometry": {
        "type": "Point",
        "coordinates": [
          120.73136528153844,
          24.339276270601545
        ]
      },
      "properties": {
        "routeId": "taichung-ker-3365-cf7f7d-d1",
        "city": "taichung",
        "route_name": "KER-3365",
        "car_seq": "KER-3365",
        "arrival_time": "1315",
        "departure_time": "1320",
        "district": "后里區",
        "village": "公館里",
        "location": "三豐路五段551號",
        "type": "沿街",
        "collection_type": "recycling",
        "day_of_week": 1
      }
    },
    {
      "type": "Feature",
      "geometry": {
        "type": "Point",
        "coordinates": [
          120.73001391823882,
          24.333403720280494
        ]
      },
      "properties": {
        "routeId": "taichung-ker-3365-cf7f7d-d1",
        "city": "taichung",
        "route_name": "KER-3365",
        "car_seq": "KER-3365",
        "arrival_time": "1320",
        "departure_time": "1325",
        "district": "后里區",
        "village": "公館里",
        "location": "三豐路五段301號",
        "type": "沿街",
        "collection_type": "garbage",
        "day_of_week": 1
      }
    },
    {
      "type": "Feature",
      "geometry": {
        "type": "Point",
        "coordinates": [
          120.73001391823882,
          24.333403720280494
        ]
      },
      "properties": {
        "routeId": "taichung-ker-3365-cf7f7d-d1",
        "city": "taichung",
        "route_name": "KER-3365",
        "car_seq": "KER-3365",
        "arrival_time": "1320",
        "departure_time": "1325",
        "district": "后里區",
        "village": "公館里",
        "location": "三豐路五段301號",
        "type": "沿街",
        "collection_type": "recycling",
        "day_of_week": 1
      }
    },
    {
      "type": "Feature",
      "geometry": {
        "type": "Point",
        "coordinates": [
          120.72860435679472,
          24.32595556735164
        ]
      },
      "properties": {
        "routeId": "taichung-ker-3365-cf7f7d-d1",
        "city": "taichung",
        "route_name": "KER-3365",
        "car_seq": "KER-3365",
        "arrival_time": "1325",
        "departure_time": "1330",
        "district": "后里區",
        "village": "公館里",
        "location": "福美路17號",
        "type": "沿街",
        "collection_type": "garbage",
        "day_of_week": 1
      }
    },
    {
      "type": "Feature",
      "geometry": {
        "type": "Point",
        "coordinates": [
          120.72860435679472,
          24.32595556735164
        ]
      },
      "properties": {
        "routeId": "taichung-ker-3365-cf7f7d-d1",
        "city": "taichung",
        "route_name": "KER-3365",
        "car_seq": "KER-3365",
        "arrival_time": "1325",
        "departure_time": "1330",
        "district": "后里區",
        "village": "公館里",
        "location": "福美路17號",
        "type": "沿街",
        "collection_type": "recycling",
        "day_of_week": 1
      }
    },
    {
      "type": "Feature",
      "geometry": {
        "type": "Point",
        "coordinates": [
          120.73818451775392,
          24.325326395489462
        ]
      },
      "properties": {
        "routeId": "taichung-ker-3365-cf7f7d-d1",
        "city": "taichung",
        "route_name": "KER-3365",
        "car_seq": "KER-3365",
        "arrival_time": "1330",
        "departure_time": "1335",
        "district": "后里區",
        "village": "公館里",
        "location": "福美路2之2號",
        "type": "沿街",
        "collection_type": "garbage",
        "day_of_week": 1
      }
    },
    {
      "type": "Feature",
      "geometry": {
        "type": "Point",
        "coordinates": [
          120.73818451775392,
          24.325326395489462
        ]
      },
      "properties": {
        "routeId": "taichung-ker-3365-cf7f7d-d1",
        "city": "taichung",
        "route_name": "KER-3365",
        "car_seq": "KER-3365",
        "arrival_time": "1330",
        "departure_time": "1335",
        "district": "后里區",
        "village": "公館里",
        "location": "福美路2之2號",
        "type": "沿街",
        "collection_type": "recycling",
        "day_of_week": 1
      }
    },
    {
      "type": "Feature",
      "geometry": {
        "type": "Point",
        "coordinates": [
          120.73960029563574,
          24.322933717903677
        ]
      },
      "properties": {
        "routeId": "taichung-ker-3365-cf7f7d-d1",
        "city": "taichung",
        "route_name": "KER-3365",
        "car_seq": "KER-3365",
        "arrival_time": "1335",
        "departure_time": "1340",
        "district": "后里區",
        "village": "泰安里",
        "location": "福興路108之2號",
        "type": "沿街",
        "collection_type": "garbage",
        "day_of_week": 1
      }
    },
    {
      "type": "Feature",
      "geometry": {
        "type": "Point",
        "coordinates": [
          120.73960029563574,
          24.322933717903677
        ]
      },
      "properties": {
        "routeId": "taichung-ker-3365-cf7f7d-d1",
        "city": "taichung",
        "route_name": "KER-3365",
        "car_seq": "KER-3365",
        "arrival_time": "1335",
        "departure_time": "1340",
        "district": "后里區",
        "village": "泰安里",
        "location": "福興路108之2號",
        "type": "沿街",
        "collection_type": "recycling",
        "day_of_week": 1
      }
    },
    {
      "type": "Feature",
      "geometry": {
        "type": "Point",
        "coordinates": [
          120.74617022916928,
          24.322669357296277
        ]
      },
      "properties": {
        "routeId": "taichung-ker-3365-cf7f7d-d1",
        "city": "taichung",
        "route_name": "KER-3365",
        "car_seq": "KER-3365",
        "arrival_time": "1345",
        "departure_time": "1350",
        "district": "后里區",
        "village": "泰安里",
        "location": "福興路59之2號",
        "type": "沿街",
        "collection_type": "garbage",
        "day_of_week": 1
      }
    },
    {
      "type": "Feature",
      "geometry": {
        "type": "Point",
        "coordinates": [
          120.74617022916928,
          24.322669357296277
        ]
      },
      "properties": {
        "routeId": "taichung-ker-3365-cf7f7d-d1",
        "city": "taichung",
        "route_name": "KER-3365",
        "car_seq": "KER-3365",
        "arrival_time": "1345",
        "departure_time": "1350",
        "district": "后里區",
        "village": "泰安里",
        "location": "福興路59之2號",
        "type": "沿街",
        "collection_type": "recycling",
        "day_of_week": 1
      }
    },
    {
      "type": "Feature",
      "geometry": {
        "type": "Point",
        "coordinates": [
          120.7517670496834,
          24.324185692901978
        ]
      },
      "properties": {
        "routeId": "taichung-ker-3365-cf7f7d-d1",
        "city": "taichung",
        "route_name": "KER-3365",
        "car_seq": "KER-3365",
        "arrival_time": "1350",
        "departure_time": "1355",
        "district": "后里區",
        "village": "泰安里",
        "location": "安眉路1號",
        "type": "沿街",
        "collection_type": "garbage",
        "day_of_week": 1
      }
    },
    {
      "type": "Feature",
      "geometry": {
        "type": "Point",
        "coordinates": [
          120.7517670496834,
          24.324185692901978
        ]
      },
      "properties": {
        "routeId": "taichung-ker-3365-cf7f7d-d1",
        "city": "taichung",
        "route_name": "KER-3365",
        "car_seq": "KER-3365",
        "arrival_time": "1350",
        "departure_time": "1355",
        "district": "后里區",
        "village": "泰安里",
        "location": "安眉路1號",
        "type": "沿街",
        "collection_type": "recycling",
        "day_of_week": 1
      }
    },
    {
      "type": "Feature",
      "geometry": {
        "type": "Point",
        "coordinates": [
          120.74853349126509,
          24.326123991590073
        ]
      },
      "properties": {
        "routeId": "taichung-ker-3365-cf7f7d-d1",
        "city": "taichung",
        "route_name": "KER-3365",
        "car_seq": "KER-3365",
        "arrival_time": "1400",
        "departure_time": "1405",
        "district": "后里區",
        "village": "泰安里",
        "location": "安眉路15之3號",
        "type": "沿街",
        "collection_type": "garbage",
        "day_of_week": 1
      }
    },
    {
      "type": "Feature",
      "geometry": {
        "type": "Point",
        "coordinates": [
          120.74853349126509,
          24.326123991590073
        ]
      },
      "properties": {
        "routeId": "taichung-ker-3365-cf7f7d-d1",
        "city": "taichung",
        "route_name": "KER-3365",
        "car_seq": "KER-3365",
        "arrival_time": "1400",
        "departure_time": "1405",
        "district": "后里區",
        "village": "泰安里",
        "location": "安眉路15之3號",
        "type": "沿街",
        "collection_type": "recycling",
        "day_of_week": 1
      }
    },
    {
      "type": "Feature",
      "geometry": {
        "type": "Point",
        "coordinates": [
          120.73961060909849,
          24.33013108975746
        ]
      },
      "properties": {
        "routeId": "taichung-ker-3365-cf7f7d-d1",
        "city": "taichung",
        "route_name": "KER-3365",
        "car_seq": "KER-3365",
        "arrival_time": "1410",
        "departure_time": "1415",
        "district": "后里區",
        "village": "公館里",
        "location": "安眉路44號",
        "type": "沿街",
        "collection_type": "garbage",
        "day_of_week": 1
      }
    },
    {
      "type": "Feature",
      "geometry": {
        "type": "Point",
        "coordinates": [
          120.73961060909849,
          24.33013108975746
        ]
      },
      "properties": {
        "routeId": "taichung-ker-3365-cf7f7d-d1",
        "city": "taichung",
        "route_name": "KER-3365",
        "car_seq": "KER-3365",
        "arrival_time": "1410",
        "departure_time": "1415",
        "district": "后里區",
        "village": "公館里",
        "location": "安眉路44號",
        "type": "沿街",
        "collection_type": "recycling",
        "day_of_week": 1
      }
    },
    {
      "type": "Feature",
      "geometry": {
        "type": "Point",
        "coordinates": [
          120.73830316032942,
          24.32601538727631
        ]
      },
      "properties": {
        "routeId": "taichung-ker-3365-cf7f7d-d1",
        "city": "taichung",
        "route_name": "KER-3365",
        "car_seq": "KER-3365",
        "arrival_time": "1415",
        "departure_time": "1420",
        "district": "后里區",
        "village": "公館里",
        "location": "福美路2之10號",
        "type": "沿街",
        "collection_type": "garbage",
        "day_of_week": 1
      }
    },
    {
      "type": "Feature",
      "geometry": {
        "type": "Point",
        "coordinates": [
          120.73830316032942,
          24.32601538727631
        ]
      },
      "properties": {
        "routeId": "taichung-ker-3365-cf7f7d-d1",
        "city": "taichung",
        "route_name": "KER-3365",
        "car_seq": "KER-3365",
        "arrival_time": "1415",
        "departure_time": "1420",
        "district": "后里區",
        "village": "公館里",
        "location": "福美路2之10號",
        "type": "沿街",
        "collection_type": "recycling",
        "day_of_week": 1
      }
    },
    {
      "type": "Feature",
      "geometry": {
        "type": "Point",
        "coordinates": [
          120.72998861002353,
          24.33204705029936
        ]
      },
      "properties": {
        "routeId": "taichung-ker-3365-cf7f7d-d1",
        "city": "taichung",
        "route_name": "KER-3365",
        "car_seq": "KER-3365",
        "arrival_time": "1425",
        "departure_time": "1430",
        "district": "后里區",
        "village": "公館里",
        "location": "三豐路五段290號",
        "type": "沿街",
        "collection_type": "garbage",
        "day_of_week": 1
      }
    },
    {
      "type": "Feature",
      "geometry": {
        "type": "Point",
        "coordinates": [
          120.72998861002353,
          24.33204705029936
        ]
      },
      "properties": {
        "routeId": "taichung-ker-3365-cf7f7d-d1",
        "city": "taichung",
        "route_name": "KER-3365",
        "car_seq": "KER-3365",
        "arrival_time": "1425",
        "departure_time": "1430",
        "district": "后里區",
        "village": "公館里",
        "location": "三豐路五段290號",
        "type": "沿街",
        "collection_type": "recycling",
        "day_of_week": 1
      }
    }
  ]
}