{
  "type": "FeatureCollection",
  "features": [
    {
      "type": "Feature",
      "geometry": {
        "type": "Point",
        "coordinates": [
          120.67726223223222,
          24.157087256606314
        ]
      },
      "properties": {
        "routeId": "taichung-kel-2315-d4f630-d6",
        "city": "taichung",
        "route_name": "KEL-2315",
        "car_seq": "KEL-2315",
        "arrival_time": "1448",
        "departure_time": "1449",
        "district": "北區",
        "village": "邱厝里",
        "location": "育德路61號",
        "type": "沿街",
        "collection_type": "garbage",
        "day_of_week": 6
      }
    },
    {
      "type": "Feature",
      "geometry": {
        "type": "Point",
        "coordinates": [
          120.67726223223222,
          24.157087256606314
        ]
      },
      "properties": {
        "routeId": "taichung-kel-2315-d4f630-d6",
        "city": "taichung",
        "route_name": "KEL-2315",
        "car_seq": "KEL-2315",
        "arrival_time": "1448",
        "departure_time": "1449",
        "district": "北區",
        "village": "邱厝里",
        "location": "育德路61號",
        "type": "沿街",
        "collection_type": "recycling",
        "day_of_week": 6
      }
    },
    {
      "type": "Feature",
      "geometry": {
        "type": "Point",
        "coordinates": [
          120.67968753455234,
          24.157097956303712
        ]
      },
      "properties": {
        "routeId": "taichung-kel-2315-d4f630-d6",
        "city": "taichung",
        "route_name": "KEL-2315",
        "car_seq": "KEL-2315",
        "arrival_time": "1449",
        "departure_time": "1450",
        "district": "北區",
        "village": "邱厝里",
        "location": "育德路15號",
        "type": "沿街",
        "collection_type": "garbage",
        "day_of_week": 6
      }
    },
    {
      "type": "Feature",
      "geometry": {
        "type": "Point",
        "coordinates": [
          120.67968753455234,
          24.157097956303712
        ]
      },
      "properties": {
        "routeId": "taichung-kel-2315-d4f630-d6",
        "city": "taichung",
        "route_name": "KEL-2315",
        "car_seq": "KEL-2315",
        "arrival_time": "1449",
        "departure_time": "1450",
        "district": "北區",
        "village": "邱厝里",
        "location": "育德路15號",
        "type": "沿街",
        "collection_type": "recycling",
        "day_of_week": 6
      }
    },
    {
      "type": "Feature",
      "geometry": {
        "type": "Point",
        "coordinates": [
          120.67946662159093,
          24.157645769423258
        ]
      },
      "properties": {
        "routeId": "taichung-kel-2315-d4f630-d6",
        "city": "taichung",
        "route_name": "KEL-2315",
        "car_seq": "KEL-2315",
        "arrival_time": "1451",
        "departure_time": "1451",
        "district": "北區",
        "village": "育德里",
        "location": "育德路18號",
        "type": "沿街",
        "collection_type": "garbage",
        "day_of_week": 6
      }
    },
    {
      "type": "Feature",
      "geometry": {
        "type": "Point",
        "coordinates": [
          120.67946662159093,
          24.157645769423258
        ]
      },
      "properties": {
        "routeId": "taichung-kel-2315-d4f630-d6",
        "city": "taichung",
        "route_name": "KEL-2315",
        "car_seq": "KEL-2315",
        "arrival_time": "1451",
        "departure_time": "1451",
        "district": "北區",
        "village": "育德里",
        "location": "育德路18號",
        "type": "沿街",
        "collection_type": "recycling",
        "day_of_week": 6
      }
    },
    {
      "type": "Feature",
      "geometry": {
        "type": "Point",
        "coordinates": [
          120.67832606754895,
          24.157654475208776
        ]
      },
      "properties": {
        "routeId": "taichung-kel-2315-d4f630-d6",
        "city": "taichung",
        "route_name": "KEL-2315",
        "car_seq": "KEL-2315",
        "arrival_time": "1452",
        "departure_time": "1452",
        "district": "北區",
        "village": "育德里",
        "location": "育德路46號",
        "type": "沿街",
        "collection_type": "garbage",
        "day_of_week": 6
      }
    },
    {
      "type": "Feature",
      "geometry": {
        "type": "Point",
        "coordinates": [
          120.67832606754895,
          24.157654475208776
        ]
      },
      "properties": {
        "routeId": "taichung-kel-2315-d4f630-d6",
        "city": "taichung",
        "route_name": "KEL-2315",
        "car_seq": "KEL-2315",
        "arrival_time": "1452",
        "departure_time": "1452",
        "district": "北區",
        "village": "育德里",
        "location": "育德路46號",
        "type": "沿街",
        "collection_type": "recycling",
        "day_of_week": 6
      }
    },
    {
      "type": "Feature",
      "geometry": {
        "type": "Point",
        "coordinates": [
          120.67666398380725,
          24.158116602932182
        ]
      },
      "properties": {
        "routeId": "taichung-kel-2315-d4f630-d6",
        "city": "taichung",
        "route_name": "KEL-2315",
        "car_seq": "KEL-2315",
        "arrival_time": "1454",
        "departure_time": "1455",
        "district": "北區",
        "village": "育德里",
        "location": "美德街293號",
        "type": "沿街",
        "collection_type": "garbage",
        "day_of_week": 6
      }
    },
    {
      "type": "Feature",
      "geometry": {
        "type": "Point",
        "coordinates": [
          120.67666398380725,
          24.158116602932182
        ]
      },
      "properties": {
        "routeId": "taichung-kel-2315-d4f630-d6",
        "city": "taichung",
        "route_name": "KEL-2315",
        "car_seq": "KEL-2315",
        "arrival_time": "1454",
        "departure_time": "1455",
        "district": "北區",
        "village": "育德里",
        "location": "美德街293號",
        "type": "沿街",
        "collection_type": "recycling",
        "day_of_week": 6
      }
    },
    {
      "type": "Feature",
      "geometry": {
        "type": "Point",
        "coordinates": [
          120.67711498348434,
          24.1580826236437
        ]
      },
      "properties": {
        "routeId": "taichung-kel-2315-d4f630-d6",
        "city": "taichung",
        "route_name": "KEL-2315",
        "car_seq": "KEL-2315",
        "arrival_time": "1455",
        "departure_time": "1456",
        "district": "北區",
        "village": "育德里",
        "location": "美德街275號",
        "type": "沿街",
        "collection_type": "garbage",
        "day_of_week": 6
      }
    },
    {
      "type": "Feature",
      "geometry": {
        "type": "Point",
        "coordinates": [
          120.67711498348434,
          24.1580826236437
        ]
      },
      "properties": {
        "routeId": "taichung-kel-2315-d4f630-d6",
        "city": "taichung",
        "route_name": "KEL-2315",
        "car_seq": "KEL-2315",
        "arrival_time": "1455",
        "departure_time": "1456",
        "district": "北區",
        "village": "育德里",
        "location": "美德街275號",
        "type": "沿街",
        "collection_type": "recycling",
        "day_of_week": 6
      }
    },
    {
      "type": "Feature",
      "geometry": {
        "type": "Point",
        "coordinates": [
          120.67761074679731,
          24.1580846561476
        ]
      },
      "properties": {
        "routeId": "taichung-kel-2315-d4f630-d6",
        "city": "taichung",
        "route_name": "KEL-2315",
        "car_seq": "KEL-2315",
        "arrival_time": "1456",
        "departure_time": "1457",
        "district": "北區",
        "village": "育德里",
        "location": "美德街253號",
        "type": "沿街",
        "collection_type": "garbage",
        "day_of_week": 6
      }
    },
    {
      "type": "Feature",
      "geometry": {
        "type": "Point",
        "coordinates": [
          120.67761074679731,
          24.1580846561476
        ]
      },
      "properties": {
        "routeId": "taichung-kel-2315-d4f630-d6",
        "city": "taichung",
        "route_name": "KEL-2315",
        "car_seq": "KEL-2315",
        "arrival_time": "1456",
        "departure_time": "1457",
        "district": "北區",
        "village": "育德里",
        "location": "美德街253號",
        "type": "沿街",
        "collection_type": "recycling",
        "day_of_week": 6
      }
    },
    {
      "type": "Feature",
      "geometry": {
        "type": "Point",
        "coordinates": [
          120.6783453794351,
          24.158077177298246
        ]
      },
      "properties": {
        "routeId": "taichung-kel-2315-d4f630-d6",
        "city": "taichung",
        "route_name": "KEL-2315",
        "car_seq": "KEL-2315",
        "arrival_time": "1457",
        "departure_time": "1458",
        "district": "北區",
        "village": "育德里",
        "location": "美德街229號",
        "type": "沿街",
        "collection_type": "garbage",
        "day_of_week": 6
      }
    },
    {
      "type": "Feature",
      "geometry": {
        "type": "Point",
        "coordinates": [
          120.6783453794351,
          24.158077177298246
        ]
      },
      "properties": {
        "routeId": "taichung-kel-2315-d4f630-d6",
        "city": "taichung",
        "route_name": "KEL-2315",
        "car_seq": "KEL-2315",
        "arrival_time": "1457",
        "departure_time": "1458",
        "district": "北區",
        "village": "育德里",
        "location": "美德街229號",
        "type": "沿街",
        "collection_type": "recycling",
        "day_of_week": 6
      }
    },
    {
      "type": "Feature",
      "geometry": {
        "type": "Point",
        "coordinates": [
          120.67920082949955,
          24.158037262921404
        ]
      },
      "properties": {
        "routeId": "taichung-kel-2315-d4f630-d6",
        "city": "taichung",
        "route_name": "KEL-2315",
        "car_seq": "KEL-2315",
        "arrival_time": "1458",
        "departure_time": "1459",
        "district": "北區",
        "village": "育德里",
        "location": "美德街205號",
        "type": "沿街",
        "collection_type": "garbage",
        "day_of_week": 6
      }
    },
    {
      "type": "Feature",
      "geometry": {
        "type": "Point",
        "coordinates": [
          120.67920082949955,
          24.158037262921404
        ]
      },
      "properties": {
        "routeId": "taichung-kel-2315-d4f630-d6",
        "city": "taichung",
        "route_name": "KEL-2315",
        "car_seq": "KEL-2315",
        "arrival_time": "1458",
        "departure_time": "1459",
        "district": "北區",
        "village": "育德里",
        "location": "美德街205號",
        "type": "沿街",
        "collection_type": "recycling",
        "day_of_week": 6
      }
    },
    {
      "type": "Feature",
      "geometry": {
        "type": "Point",
        "coordinates": [
          120.67986939205551,
          24.158368904617397
        ]
      },
      "properties": {
        "routeId": "taichung-kel-2315-d4f630-d6",
        "city": "taichung",
        "route_name": "KEL-2315",
        "car_seq": "KEL-2315",
        "arrival_time": "1500",
        "departure_time": "1502",
        "district": "北區",
        "village": "育德里",
        "location": "五常街159號",
        "type": "沿街",
        "collection_type": "garbage",
        "day_of_week": 6
      }
    },
    {
      "type": "Feature",
      "geometry": {
        "type": "Point",
        "coordinates": [
          120.67986939205551,
          24.158368904617397
        ]
      },
      "properties": {
        "routeId": "taichung-kel-2315-d4f630-d6",
        "city": "taichung",
        "route_name": "KEL-2315",
        "car_seq": "KEL-2315",
        "arrival_time": "1500",
        "departure_time": "1502",
        "district": "北區",
        "village": "育德里",
        "location": "五常街159號",
        "type": "沿街",
        "collection_type": "recycling",
        "day_of_week": 6
      }
    },
    {
      "type": "Feature",
      "geometry": {
        "type": "Point",
        "coordinates": [
          120.68009432870734,
          24.159437497025543
        ]
      },
      "properties": {
        "routeId": "taichung-kel-2315-d4f630-d6",
        "city": "taichung",
        "route_name": "KEL-2315",
        "car_seq": "KEL-2315",
        "arrival_time": "1503",
        "departure_time": "1504",
        "district": "北區",
        "village": "賴村里",
        "location": "五常街182號",
        "type": "沿街",
        "collection_type": "garbage",
        "day_of_week": 6
      }
    },
    {
      "type": "Feature",
      "geometry": {
        "type": "Point",
        "coordinates": [
          120.68009432870734,
          24.159437497025543
        ]
      },
      "properties": {
        "routeId": "taichung-kel-2315-d4f630-d6",
        "city": "taichung",
        "route_name": "KEL-2315",
        "car_seq": "KEL-2315",
        "arrival_time": "1503",
        "departure_time": "1504",
        "district": "北區",
        "village": "賴村里",
        "location": "五常街182號",
        "type": "沿街",
        "collection_type": "recycling",
        "day_of_week": 6
      }
    },
    {
      "type": "Feature",
      "geometry": {
        "type": "Point",
        "coordinates": [
          120.67868185078417,
          24.158499897496107
        ]
      },
      "properties": {
        "routeId": "taichung-kel-2315-d4f630-d6",
        "city": "taichung",
        "route_name": "KEL-2315",
        "car_seq": "KEL-2315",
        "arrival_time": "1505",
        "departure_time": "1506",
        "district": "北區",
        "village": "育德里",
        "location": "大德街83號",
        "type": "沿街",
        "collection_type": "garbage",
        "day_of_week": 6
      }
    },
    {
      "type": "Feature",
      "geometry": {
        "type": "Point",
        "coordinates": [
          120.67868185078417,
          24.158499897496107
        ]
      },
      "properties": {
        "routeId": "taichung-kel-2315-d4f630-d6",
        "city": "taichung",
        "route_name": "KEL-2315",
        "car_seq": "KEL-2315",
        "arrival_time": "1505",
        "departure_time": "1506",
        "district": "北區",
        "village": "育德里",
        "location": "大德街83號",
        "type": "沿街",
        "collection_type": "recycling",
        "day_of_week": 6
      }
    },
    {
      "type": "Feature",
      "geometry": {
        "type": "Point",
        "coordinates": [
          120.67872957664842,
          24.157831830050856
        ]
      },
      "properties": {
        "routeId": "taichung-kel-2315-d4f630-d6",
        "city": "taichung",
        "route_name": "KEL-2315",
        "car_seq": "KEL-2315",
        "arrival_time": "1506",
        "departure_time": "1507",
        "district": "北區",
        "village": "育德里",
        "location": "大德街63號",
        "type": "沿街",
        "collection_type": "garbage",
        "day_of_week": 6
      }
    },
    {
      "type": "Feature",
      "geometry": {
        "type": "Point",
        "coordinates": [
          120.67872957664842,
          24.157831830050856
        ]
      },
      "properties": {
        "routeId": "taichung-kel-2315-d4f630-d6",
        "city": "taichung",
        "route_name": "KEL-2315",
        "car_seq": "KEL-2315",
        "arrival_time": "1506",
        "departure_time": "1507",
        "district": "北區",
        "village": "育德里",
        "location": "大德街63號",
        "type": "沿街",
        "collection_type": "recycling",
        "day_of_week": 6
      }
    },
    {
      "type": "Feature",
      "geometry": {
        "type": "Point",
        "coordinates": [
          120.678911391074,
          24.156222939040614
        ]
      },
      "properties": {
        "routeId": "taichung-kel-2315-d4f630-d6",
        "city": "taichung",
        "route_name": "KEL-2315",
        "car_seq": "KEL-2315",
        "arrival_time": "1511",
        "departure_time": "1512",
        "district": "北區",
        "village": "育德里",
        "location": "大德街15號",
        "type": "沿街",
        "collection_type": "garbage",
        "day_of_week": 6
      }
    },
    {
      "type": "Feature",
      "geometry": {
        "type": "Point",
        "coordinates": [
          120.678911391074,
          24.156222939040614
        ]
      },
      "properties": {
        "routeId": "taichung-kel-2315-d4f630-d6",
        "city": "taichung",
        "route_name": "KEL-2315",
        "car_seq": "KEL-2315",
        "arrival_time": "1511",
        "departure_time": "1512",
        "district": "北區",
        "village": "育德里",
        "location": "大德街15號",
        "type": "沿街",
        "collection_type": "recycling",
        "day_of_week": 6
      }
    },
    {
      "type": "Feature",
      "geometry": {
        "type": "Point",
        "coordinates": [
          120.67894300106163,
          24.15597018517796
        ]
      },
      "properties": {
        "routeId": "taichung-kel-2315-d4f630-d6",
        "city": "taichung",
        "route_name": "KEL-2315",
        "car_seq": "KEL-2315",
        "arrival_time": "1512",
        "departure_time": "1513",
        "district": "北區",
        "village": "育德里",
        "location": "大德街3號",
        "type": "沿街",
        "collection_type": "garbage",
        "day_of_week": 6
      }
    },
    {
      "type": "Feature",
      "geometry": {
        "type": "Point",
        "coordinates": [
          120.67894300106163,
          24.15597018517796
        ]
      },
      "properties": {
        "routeId": "taichung-kel-2315-d4f630-d6",
        "city": "taichung",
        "route_name": "KEL-2315",
        "car_seq": "KEL-2315",
        "arrival_time": "1512",
        "departure_time": "1513",
        "district": "北區",
        "village": "育德里",
        "location": "大德街3號",
        "type": "沿街",
        "collection_type": "recycling",
        "day_of_week": 6
      }
    },
    {
      "type": "Feature",
      "geometry": {
        "type": "Point",
        "coordinates": [
          120.69141756758899,
          24.158793372499698
        ]
      },
      "properties": {
        "routeId": "taichung-kel-2315-d4f630-d6",
        "city": "taichung",
        "route_name": "KEL-2315",
        "car_seq": "KEL-2315",
        "arrival_time": "1530",
        "departure_time": "1531",
        "district": "北區",
        "village": "錦祥里",
        "location": "雙十路二段88號",
        "type": "沿街",
        "collection_type": "garbage",
        "day_of_week": 6
      }
    },
    {
      "type": "Feature",
      "geometry": {
        "type": "Point",
        "coordinates": [
          120.69141756758899,
          24.158793372499698
        ]
      },
      "properties": {
        "routeId": "taichung-kel-2315-d4f630-d6",
        "city": "taichung",
        "route_name": "KEL-2315",
        "car_seq": "KEL-2315",
        "arrival_time": "1530",
        "departure_time": "1531",
        "district": "北區",
        "village": "錦祥里",
        "location": "雙十路二段88號",
        "type": "沿街",
        "collection_type": "recycling",
        "day_of_week": 6
      }
    },
    {
      "type": "Feature",
      "geometry": {
        "type": "Point",
        "coordinates": [
          120.69241663719963,
          24.15850647917784
        ]
      },
      "properties": {
        "routeId": "taichung-kel-2315-d4f630-d6",
        "city": "taichung",
        "route_name": "KEL-2315",
        "car_seq": "KEL-2315",
        "arrival_time": "1531",
        "departure_time": "1532",
        "district": "北區",
        "village": "錦祥里",
        "location": "育強街68號",
        "type": "沿街",
        "collection_type": "garbage",
        "day_of_week": 6
      }
    },
    {
      "type": "Feature",
      "geometry": {
        "type": "Point",
        "coordinates": [
          120.69241663719963,
          24.15850647917784
        ]
      },
      "properties": {
        "routeId": "taichung-kel-2315-d4f630-d6",
        "city": "taichung",
        "route_name": "KEL-2315",
        "car_seq": "KEL-2315",
        "arrival_time": "1531",
        "departure_time": "1532",
        "district": "北區",
        "village": "錦祥里",
        "location": "育強街68號",
        "type": "沿街",
        "collection_type": "recycling",
        "day_of_week": 6
      }
    },
    {
      "type": "Feature",
      "geometry": {
        "type": "Point",
        "coordinates": [
          120.69364393229884,
          24.156704324196998
        ]
      },
      "properties": {
        "routeId": "taichung-kel-2315-d4f630-d6",
        "city": "taichung",
        "route_name": "KEL-2315",
        "car_seq": "KEL-2315",
        "arrival_time": "1534",
        "departure_time": "1535",
        "district": "北區",
        "village": "錦祥里",
        "location": "育興街35號",
        "type": "沿街",
        "collection_type": "garbage",
        "day_of_week": 6
      }
    },
    {
      "type": "Feature",
      "geometry": {
        "type": "Point",
        "coordinates": [
          120.69364393229884,
          24.156704324196998
        ]
      },
      "properties": {
        "routeId": "taichung-kel-2315-d4f630-d6",
        "city": "taichung",
        "route_name": "KEL-2315",
        "car_seq": "KEL-2315",
        "arrival_time": "1534",
        "departure_time": "1535",
        "district": "北區",
        "village": "錦祥里",
        "location": "育興街35號",
        "type": "沿街",
        "collection_type": "recycling",
        "day_of_week": 6
      }
    },
    {
      "type": "Feature",
      "geometry": {
        "type": "Point",
        "coordinates": [
          120.69306045484308,
          24.156137573881384
        ]
      },
      "properties": {
        "routeId": "taichung-kel-2315-d4f630-d6",
        "city": "taichung",
        "route_name": "KEL-2315",
        "car_seq": "KEL-2315",
        "arrival_time": "1535",
        "departure_time": "1536",
        "district": "北區",
        "village": "錦祥里",
        "location": "雙十路二段48巷21號",
        "type": "沿街",
        "collection_type": "garbage",
        "day_of_week": 6
      }
    },
    {
      "type": "Feature",
      "geometry": {
        "type": "Point",
        "coordinates": [
          120.69306045484308,
          24.156137573881384
        ]
      },
      "properties": {
        "routeId": "taichung-kel-2315-d4f630-d6",
        "city": "taichung",
        "route_name": "KEL-2315",
        "car_seq": "KEL-2315",
        "arrival_time": "1535",
        "departure_time": "1536",
        "district": "北區",
        "village": "錦祥里",
        "location": "雙十路二段48巷21號",
        "type": "沿街",
        "collection_type": "recycling",
        "day_of_week": 6
      }
    },
    {
      "type": "Feature",
      "geometry": {
        "type": "Point",
        "coordinates": [
          120.69246733063719,
          24.156281263896023
        ]
      },
      "properties": {
        "routeId": "taichung-kel-2315-d4f630-d6",
        "city": "taichung",
        "route_name": "KEL-2315",
        "car_seq": "KEL-2315",
        "arrival_time": "1537",
        "departure_time": "1538",
        "district": "北區",
        "village": "錦祥里",
        "location": "育祥街11號斜對面",
        "type": "沿街",
        "collection_type": "garbage",
        "day_of_week": 6
      }
    },
    {
      "type": "Feature",
      "geometry": {
        "type": "Point",
        "coordinates": [
          120.69246733063719,
          24.156281263896023
        ]
      },
      "properties": {
        "routeId": "taichung-kel-2315-d4f630-d6",
        "city": "taichung",
        "route_name": "KEL-2315",
        "car_seq": "KEL-2315",
        "arrival_time": "1537",
        "departure_time": "1538",
        "district": "北區",
        "village": "錦祥里",
        "location": "育祥街11號斜對面",
        "type": "沿街",
        "collection_type": "recycling",
        "day_of_week": 6
      }
    },
    {
      "type": "Feature",
      "geometry": {
        "type": "Point",
        "coordinates": [
          120.6924129287559,
          24.155032960841996
        ]
      },
      "properties": {
        "routeId": "taichung-kel-2315-d4f630-d6",
        "city": "taichung",
        "route_name": "KEL-2315",
        "car_seq": "KEL-2315",
        "arrival_time": "1539",
        "departure_time": "1540",
        "district": "北區",
        "village": "金華里",
        "location": "雙十路二段40巷36號",
        "type": "沿街",
        "collection_type": "garbage",
        "day_of_week": 6
      }
    },
    {
      "type": "Feature",
      "geometry": {
        "type": "Point",
        "coordinates": [
          120.6924129287559,
          24.155032960841996
        ]
      },
      "properties": {
        "routeId": "taichung-kel-2315-d4f630-d6",
        "city": "taichung",
        "route_name": "KEL-2315",
        "car_seq": "KEL-2315",
        "arrival_time": "1539",
        "departure_time": "1540",
        "district": "北區",
        "village": "金華里",
        "location": "雙十路二段40巷36號",
        "type": "沿街",
        "collection_type": "recycling",
        "day_of_week": 6
      }
    },
    {
      "type": "Feature",
      "geometry": {
        "type": "Point",
        "coordinates": [
          120.69189816327484,
          24.155191497312803
        ]
      },
      "properties": {
        "routeId": "taichung-kel-2315-d4f630-d6",
        "city": "taichung",
        "route_name": "KEL-2315",
        "car_seq": "KEL-2315",
        "arrival_time": "1540",
        "departure_time": "1541",
        "district": "北區",
        "village": "金華里",
        "location": "雙十路二段40巷16號",
        "type": "沿街",
        "collection_type": "garbage",
        "day_of_week": 6
      }
    },
    {
      "type": "Feature",
      "geometry": {
        "type": "Point",
        "coordinates": [
          120.69189816327484,
          24.155191497312803
        ]
      },
      "properties": {
        "routeId": "taichung-kel-2315-d4f630-d6",
        "city": "taichung",
        "route_name": "KEL-2315",
        "car_seq": "KEL-2315",
        "arrival_time": "1540",
        "departure_time": "1541",
        "district": "北區",
        "village": "金華里",
        "location": "雙十路二段40巷16號",
        "type": "沿街",
        "collection_type": "recycling",
        "day_of_week": 6
      }
    },
    {
      "type": "Feature",
      "geometry": {
        "type": "Point",
        "coordinates": [
          120.69026120174715,
          24.155560353313028
        ]
      },
      "properties": {
        "routeId": "taichung-kel-2315-d4f630-d6",
        "city": "taichung",
        "route_name": "KEL-2315",
        "car_seq": "KEL-2315",
        "arrival_time": "1542",
        "departure_time": "1545",
        "district": "北區",
        "village": "金華里",
        "location": "雙十路二段38巷2號",
        "type": "沿街",
        "collection_type": "garbage",
        "day_of_week": 6
      }
    },
    {
      "type": "Feature",
      "geometry": {
        "type": "Point",
        "coordinates": [
          120.69062454548904,
          24.15513961140016
        ]
      },
      "properties": {
        "routeId": "taichung-kel-2315-d4f630-d6",
        "city": "taichung",
        "route_name": "KEL-2315",
        "car_seq": "KEL-2315",
        "arrival_time": "1546",
        "departure_time": "1547",
        "district": "北區",
        "village": "金華里",
        "location": "雙十路二段38巷53號",
        "type": "沿街",
        "collection_type": "garbage",
        "day_of_week": 6
      }
    },
    {
      "type": "Feature",
      "geometry": {
        "type": "Point",
        "coordinates": [
          120.69363645638636,
          24.154033186922064
        ]
      },
      "properties": {
        "routeId": "taichung-kel-2315-d4f630-d6",
        "city": "taichung",
        "route_name": "KEL-2315",
        "car_seq": "KEL-2315",
        "arrival_time": "1549",
        "departure_time": "1551",
        "district": "北區",
        "village": "金華里",
        "location": "進化路351巷16號",
        "type": "沿街",
        "collection_type": "garbage",
        "day_of_week": 6
      }
    },
    {
      "type": "Feature",
      "geometry": {
        "type": "Point",
        "coordinates": [
          120.69363645638636,
          24.154033186922064
        ]
      },
      "properties": {
        "routeId": "taichung-kel-2315-d4f630-d6",
        "city": "taichung",
        "route_name": "KEL-2315",
        "car_seq": "KEL-2315",
        "arrival_time": "1549",
        "departure_time": "1551",
        "district": "北區",
        "village": "金華里",
        "location": "進化路351巷16號",
        "type": "沿街",
        "collection_type": "recycling",
        "day_of_week": 6
      }
    },
    {
      "type": "Feature",
      "geometry": {
        "type": "Point",
        "coordinates": [
          120.69414612680782,
          24.153300397214267
        ]
      },
      "properties": {
        "routeId": "taichung-kel-2315-d4f630-d6",
        "city": "taichung",
        "route_name": "KEL-2315",
        "car_seq": "KEL-2315",
        "arrival_time": "1552",
        "departure_time": "1553",
        "district": "北區",
        "village": "金華里",
        "location": "進化路325號",
        "type": "沿街",
        "collection_type": "garbage",
        "day_of_week": 6
      }
    },
    {
      "type": "Feature",
      "geometry": {
        "type": "Point",
        "coordinates": [
          120.69414612680782,
          24.153300397214267
        ]
      },
      "properties": {
        "routeId": "taichung-kel-2315-d4f630-d6",
        "city": "taichung",
        "route_name": "KEL-2315",
        "car_seq": "KEL-2315",
        "arrival_time": "1552",
        "departure_time": "1553",
        "district": "北區",
        "village": "金華里",
        "location": "進化路325號",
        "type": "沿街",
        "collection_type": "recycling",
        "day_of_week": 6
      }
    },
    {
      "type": "Feature",
      "geometry": {
        "type": "Point",
        "coordinates": [
          120.69416827142845,
          24.153133489629834
        ]
      },
      "properties": {
        "routeId": "taichung-kel-2315-d4f630-d6",
        "city": "taichung",
        "route_name": "KEL-2315",
        "car_seq": "KEL-2315",
        "arrival_time": "1553",
        "departure_time": "1554",
        "district": "北區",
        "village": "金華里",
        "location": "進化路317號",
        "type": "沿街",
        "collection_type": "garbage",
        "day_of_week": 6
      }
    },
    {
      "type": "Feature",
      "geometry": {
        "type": "Point",
        "coordinates": [
          120.69416827142845,
          24.153133489629834
        ]
      },
      "properties": {
        "routeId": "taichung-kel-2315-d4f630-d6",
        "city": "taichung",
        "route_name": "KEL-2315",
        "car_seq": "KEL-2315",
        "arrival_time": "1553",
        "departure_time": "1554",
        "district": "北區",
        "village": "金華里",
        "location": "進化路317號",
        "type": "沿街",
        "collection_type": "recycling",
        "day_of_week": 6
      }
    },
    {
      "type": "Feature",
      "geometry": {
        "type": "Point",
        "coordinates": [
          120.69378096909654,
          24.15288314278535
        ]
      },
      "properties": {
        "routeId": "taichung-kel-2315-d4f630-d6",
        "city": "taichung",
        "route_name": "KEL-2315",
        "car_seq": "KEL-2315",
        "arrival_time": "1554",
        "departure_time": "1555",
        "district": "北區",
        "village": "金華里",
        "location": "進化路303巷14號",
        "type": "沿街",
        "collection_type": "garbage",
        "day_of_week": 6
      }
    },
    {
      "type": "Feature",
      "geometry": {
        "type": "Point",
        "coordinates": [
          120.69378096909654,
          24.15288314278535
        ]
      },
      "properties": {
        "routeId": "taichung-kel-2315-d4f630-d6",
        "city": "taichung",
        "route_name": "KEL-2315",
        "car_seq": "KEL-2315",
        "arrival_time": "1554",
        "departure_time": "1555",
        "district": "北區",
        "village": "金華里",
        "location": "進化路303巷14號",
        "type": "沿街",
        "collection_type": "recycling",
        "day_of_week": 6
      }
    },
    {
      "type": "Feature",
      "geometry": {
        "type": "Point",
        "coordinates": [
          120.69291480861763,
          24.15341828509384
        ]
      },
      "properties": {
        "routeId": "taichung-kel-2315-d4f630-d6",
        "city": "taichung",
        "route_name": "KEL-2315",
        "car_seq": "KEL-2315",
        "arrival_time": "1556",
        "departure_time": "1557",
        "district": "北區",
        "village": "錦村里",
        "location": "進德北路122號",
        "type": "沿街",
        "collection_type": "garbage",
        "day_of_week": 6
      }
    },
    {
      "type": "Feature",
      "geometry": {
        "type": "Point",
        "coordinates": [
          120.69291480861763,
          24.15341828509384
        ]
      },
      "properties": {
        "routeId": "taichung-kel-2315-d4f630-d6",
        "city": "taichung",
        "route_name": "KEL-2315",
        "car_seq": "KEL-2315",
        "arrival_time": "1556",
        "departure_time": "1557",
        "district": "北區",
        "village": "錦村里",
        "location": "進德北路122號",
        "type": "沿街",
        "collection_type": "recycling",
        "day_of_week": 6
      }
    },
    {
      "type": "Feature",
      "geometry": {
        "type": "Point",
        "coordinates": [
          120.69298944037983,
          24.153977530138167
        ]
      },
      "properties": {
        "routeId": "taichung-kel-2315-d4f630-d6",
        "city": "taichung",
        "route_name": "KEL-2315",
        "car_seq": "KEL-2315",
        "arrival_time": "1557",
        "departure_time": "1558",
        "district": "北區",
        "village": "錦村里",
        "location": "進德北路138號",
        "type": "沿街",
        "collection_type": "garbage",
        "day_of_week": 6
      }
    },
    {
      "type": "Feature",
      "geometry": {
        "type": "Point",
        "coordinates": [
          120.69298944037983,
          24.153977530138167
        ]
      },
      "properties": {
        "routeId": "taichung-kel-2315-d4f630-d6",
        "city": "taichung",
        "route_name": "KEL-2315",
        "car_seq": "KEL-2315",
        "arrival_time": "1557",
        "departure_time": "1558",
        "district": "北區",
        "village": "錦村里",
        "location": "進德北路138號",
        "type": "沿街",
        "collection_type": "recycling",
        "day_of_week": 6
      }
    },
    {
      "type": "Feature",
      "geometry": {
        "type": "Point",
        "coordinates": [
          120.69349695236981,
          24.154171587956533
        ]
      },
      "properties": {
        "routeId": "taichung-kel-2315-d4f630-d6",
        "city": "taichung",
        "route_name": "KEL-2315",
        "car_seq": "KEL-2315",
        "arrival_time": "1559",
        "departure_time": "1600",
        "district": "北區",
        "village": "金華里",
        "location": "進化路363巷19號",
        "type": "沿街",
        "collection_type": "garbage",
        "day_of_week": 6
      }
    },
    {
      "type": "Feature",
      "geometry": {
        "type": "Point",
        "coordinates": [
          120.69349695236981,
          24.154171587956533
        ]
      },
      "properties": {
        "routeId": "taichung-kel-2315-d4f630-d6",
        "city": "taichung",
        "route_name": "KEL-2315",
        "car_seq": "KEL-2315",
        "arrival_time": "1559",
        "departure_time": "1600",
        "district": "北區",
        "village": "金華里",
        "location": "進化路363巷19號",
        "type": "沿街",
        "collection_type": "recycling",
        "day_of_week": 6
      }
    },
    {
      "type": "Feature",
      "geometry": {
        "type": "Point",
        "coordinates": [
          120.69386236584285,
          24.1541150846744
        ]
      },
      "properties": {
        "routeId": "taichung-kel-2315-d4f630-d6",
        "city": "taichung",
        "route_name": "KEL-2315",
        "car_seq": "KEL-2315",
        "arrival_time": "1600",
        "departure_time": "1601",
        "district": "北區",
        "village": "金華里",
        "location": "進化路363巷11號",
        "type": "沿街",
        "collection_type": "garbage",
        "day_of_week": 6
      }
    },
    {
      "type": "Feature",
      "geometry": {
        "type": "Point",
        "coordinates": [
          120.69386236584285,
          24.1541150846744
        ]
      },
      "properties": {
        "routeId": "taichung-kel-2315-d4f630-d6",
        "city": "taichung",
        "route_name": "KEL-2315",
        "car_seq": "KEL-2315",
        "arrival_time": "1600",
        "departure_time": "1601",
        "district": "北區",
        "village": "金華里",
        "location": "進化路363巷11號",
        "type": "沿街",
        "collection_type": "recycling",
        "day_of_week": 6
      }
    },
    {
      "type": "Feature",
      "geometry": {
        "type": "Point",
        "coordinates": [
          120.69360422289257,
          24.15329705281724
        ]
      },
      "properties": {
        "routeId": "taichung-kel-2315-d4f630-d6",
        "city": "taichung",
        "route_name": "KEL-2315",
        "car_seq": "KEL-2315",
        "arrival_time": "1601",
        "departure_time": "1602",
        "district": "北區",
        "village": "錦村里",
        "location": "進化路319巷20號",
        "type": "沿街",
        "collection_type": "garbage",
        "day_of_week": 6
      }
    },
    {
      "type": "Feature",
      "geometry": {
        "type": "Point",
        "coordinates": [
          120.69360422289257,
          24.15329705281724
        ]
      },
      "properties": {
        "routeId": "taichung-kel-2315-d4f630-d6",
        "city": "taichung",
        "route_name": "KEL-2315",
        "car_seq": "KEL-2315",
        "arrival_time": "1601",
        "departure_time": "1602",
        "district": "北區",
        "village": "錦村里",
        "location": "進化路319巷20號",
        "type": "沿街",
        "collection_type": "recycling",
        "day_of_week": 6
      }
    },
    {
      "type": "Feature",
      "geometry": {
        "type": "Point",
        "coordinates": [
          120.69321250728545,
          24.153246785207646
        ]
      },
      "properties": {
        "routeId": "taichung-kel-2315-d4f630-d6",
        "city": "taichung",
        "route_name": "KEL-2315",
        "car_seq": "KEL-2315",
        "arrival_time": "1602",
        "departure_time": "1603",
        "district": "北區",
        "village": "錦村里",
        "location": "進化路337巷15弄15號",
        "type": "沿街",
        "collection_type": "garbage",
        "day_of_week": 6
      }
    },
    {
      "type": "Feature",
      "geometry": {
        "type": "Point",
        "coordinates": [
          120.69321250728545,
          24.153246785207646
        ]
      },
      "properties": {
        "routeId": "taichung-kel-2315-d4f630-d6",
        "city": "taichung",
        "route_name": "KEL-2315",
        "car_seq": "KEL-2315",
        "arrival_time": "1602",
        "departure_time": "1603",
        "district": "北區",
        "village": "錦村里",
        "location": "進化路337巷15弄15號",
        "type": "沿街",
        "collection_type": "recycling",
        "day_of_week": 6
      }
    },
    {
      "type": "Feature",
      "geometry": {
        "type": "Point",
        "coordinates": [
          120.69307490490046,
          24.153672691966534
        ]
      },
      "properties": {
        "routeId": "taichung-kel-2315-d4f630-d6",
        "city": "taichung",
        "route_name": "KEL-2315",
        "car_seq": "KEL-2315",
        "arrival_time": "1603",
        "departure_time": "1604",
        "district": "北區",
        "village": "錦村里",
        "location": "進化路337巷15弄2號",
        "type": "沿街",
        "collection_type": "garbage",
        "day_of_week": 6
      }
    },
    {
      "type": "Feature",
      "geometry": {
        "type": "Point",
        "coordinates": [
          120.69307490490046,
          24.153672691966534
        ]
      },
      "properties": {
        "routeId": "taichung-kel-2315-d4f630-d6",
        "city": "taichung",
        "route_name": "KEL-2315",
        "car_seq": "KEL-2315",
        "arrival_time": "1603",
        "departure_time": "1604",
        "district": "北區",
        "village": "錦村里",
        "location": "進化路337巷15弄2號",
        "type": "沿街",
        "collection_type": "recycling",
        "day_of_week": 6
      }
    },
    {
      "type": "Feature",
      "geometry": {
        "type": "Point",
        "coordinates": [
          120.69337617304298,
          24.15360964999684
        ]
      },
      "properties": {
        "routeId": "taichung-kel-2315-d4f630-d6",
        "city": "taichung",
        "route_name": "KEL-2315",
        "car_seq": "KEL-2315",
        "arrival_time": "1605",
        "departure_time": "1606",
        "district": "北區",
        "village": "錦村里",
        "location": "進化路337巷13弄2號",
        "type": "沿街",
        "collection_type": "garbage",
        "day_of_week": 6
      }
    },
    {
      "type": "Feature",
      "geometry": {
        "type": "Point",
        "coordinates": [
          120.69337617304298,
          24.15360964999684
        ]
      },
      "properties": {
        "routeId": "taichung-kel-2315-d4f630-d6",
        "city": "taichung",
        "route_name": "KEL-2315",
        "car_seq": "KEL-2315",
        "arrival_time": "1605",
        "departure_time": "1606",
        "district": "北區",
        "village": "錦村里",
        "location": "進化路337巷13弄2號",
        "type": "沿街",
        "collection_type": "recycling",
        "day_of_week": 6
      }
    },
    {
      "type": "Feature",
      "geometry": {
        "type": "Point",
        "coordinates": [
          120.69395186261731,
          24.15347578133484
        ]
      },
      "properties": {
        "routeId": "taichung-kel-2315-d4f630-d6",
        "city": "taichung",
        "route_name": "KEL-2315",
        "car_seq": "KEL-2315",
        "arrival_time": "1606",
        "departure_time": "1607",
        "district": "北區",
        "village": "錦村里",
        "location": "進化路337巷3號",
        "type": "沿街",
        "collection_type": "garbage",
        "day_of_week": 6
      }
    },
    {
      "type": "Feature",
      "geometry": {
        "type": "Point",
        "coordinates": [
          120.69395186261731,
          24.15347578133484
        ]
      },
      "properties": {
        "routeId": "taichung-kel-2315-d4f630-d6",
        "city": "taichung",
        "route_name": "KEL-2315",
        "car_seq": "KEL-2315",
        "arrival_time": "1606",
        "departure_time": "1607",
        "district": "北區",
        "village": "錦村里",
        "location": "進化路337巷3號",
        "type": "沿街",
        "collection_type": "recycling",
        "day_of_week": 6
      }
    },
    {
      "type": "Feature",
      "geometry": {
        "type": "Point",
        "coordinates": [
          120.69416526802466,
          24.157247408336584
        ]
      },
      "properties": {
        "routeId": "taichung-kel-2315-d4f630-d6",
        "city": "taichung",
        "route_name": "KEL-2315",
        "car_seq": "KEL-2315",
        "arrival_time": "1611",
        "departure_time": "1612",
        "district": "北區",
        "village": "錦祥里",
        "location": "進化路483號",
        "type": "沿街",
        "collection_type": "garbage",
        "day_of_week": 6
      }
    },
    {
      "type": "Feature",
      "geometry": {
        "type": "Point",
        "coordinates": [
          120.69416526802466,
          24.157247408336584
        ]
      },
      "properties": {
        "routeId": "taichung-kel-2315-d4f630-d6",
        "city": "taichung",
        "route_name": "KEL-2315",
        "car_seq": "KEL-2315",
        "arrival_time": "1611",
        "departure_time": "1612",
        "district": "北區",
        "village": "錦祥里",
        "location": "進化路483號",
        "type": "沿街",
        "collection_type": "recycling",
        "day_of_week": 6
      }
    },
    {
      "type": "Feature",
      "geometry": {
        "type": "Point",
        "coordinates": [
          120.69416702826945,
          24.15601201301365
        ]
      },
      "properties": {
        "routeId": "taichung-kel-2315-d4f630-d6",
        "city": "taichung",
        "route_name": "KEL-2315",
        "car_seq": "KEL-2315",
        "arrival_time": "1612",
        "departure_time": "1613",
        "district": "北區",
        "village": "錦祥里",
        "location": "進化路435號",
        "type": "沿街",
        "collection_type": "garbage",
        "day_of_week": 6
      }
    },
    {
      "type": "Feature",
      "geometry": {
        "type": "Point",
        "coordinates": [
          120.69416702826945,
          24.15601201301365
        ]
      },
      "properties": {
        "routeId": "taichung-kel-2315-d4f630-d6",
        "city": "taichung",
        "route_name": "KEL-2315",
        "car_seq": "KEL-2315",
        "arrival_time": "1612",
        "departure_time": "1613",
        "district": "北區",
        "village": "錦祥里",
        "location": "進化路435號",
        "type": "沿街",
        "collection_type": "recycling",
        "day_of_week": 6
      }
    },
    {
      "type": "Feature",
      "geometry": {
        "type": "Point",
        "coordinates": [
          120.69262753885005,
          24.156724410981973
        ]
      },
      "properties": {
        "routeId": "taichung-kel-2315-d4f630-d6",
        "city": "taichung",
        "route_name": "KEL-2315",
        "car_seq": "KEL-2315",
        "arrival_time": "1616",
        "departure_time": "1618",
        "district": "北區",
        "village": "錦祥里",
        "location": "錦祥街24號",
        "type": "沿街",
        "collection_type": "garbage",
        "day_of_week": 6
      }
    },
    {
      "type": "Feature",
      "geometry": {
        "type": "Point",
        "coordinates": [
          120.69262753885005,
          24.156724410981973
        ]
      },
      "properties": {
        "routeId": "taichung-kel-2315-d4f630-d6",
        "city": "taichung",
        "route_name": "KEL-2315",
        "car_seq": "KEL-2315",
        "arrival_time": "1616",
        "departure_time": "1618",
        "district": "北區",
        "village": "錦祥里",
        "location": "錦祥街24號",
        "type": "沿街",
        "collection_type": "recycling",
        "day_of_week": 6
      }
    },
    {
      "type": "Feature",
      "geometry": {
        "type": "Point",
        "coordinates": [
          120.69213842364316,
          24.156857419820522
        ]
      },
      "properties": {
        "routeId": "taichung-kel-2315-d4f630-d6",
        "city": "taichung",
        "route_name": "KEL-2315",
        "car_seq": "KEL-2315",
        "arrival_time": "1618",
        "departure_time": "1620",
        "district": "北區",
        "village": "錦祥里",
        "location": "錦祥街36號",
        "type": "沿街",
        "collection_type": "garbage",
        "day_of_week": 6
      }
    },
    {
      "type": "Feature",
      "geometry": {
        "type": "Point",
        "coordinates": [
          120.69213842364316,
          24.156857419820522
        ]
      },
      "properties": {
        "routeId": "taichung-kel-2315-d4f630-d6",
        "city": "taichung",
        "route_name": "KEL-2315",
        "car_seq": "KEL-2315",
        "arrival_time": "1618",
        "departure_time": "1620",
        "district": "北區",
        "village": "錦祥里",
        "location": "錦祥街36號",
        "type": "沿街",
        "collection_type": "recycling",
        "day_of_week": 6
      }
    },
    {
      "type": "Feature",
      "geometry": {
        "type": "Point",
        "coordinates": [
          120.69185085706276,
          24.157100260397364
        ]
      },
      "properties": {
        "routeId": "taichung-kel-2315-d4f630-d6",
        "city": "taichung",
        "route_name": "KEL-2315",
        "car_seq": "KEL-2315",
        "arrival_time": "1620",
        "departure_time": "1623",
        "district": "北區",
        "village": "錦祥里",
        "location": "育強街8號",
        "type": "沿街",
        "collection_type": "garbage",
        "day_of_week": 6
      }
    },
    {
      "type": "Feature",
      "geometry": {
        "type": "Point",
        "coordinates": [
          120.69185085706276,
          24.157100260397364
        ]
      },
      "properties": {
        "routeId": "taichung-kel-2315-d4f630-d6",
        "city": "taichung",
        "route_name": "KEL-2315",
        "car_seq": "KEL-2315",
        "arrival_time": "1620",
        "departure_time": "1623",
        "district": "北區",
        "village": "錦祥里",
        "location": "育強街8號",
        "type": "沿街",
        "collection_type": "recycling",
        "day_of_week": 6
      }
    },
    {
      "type": "Feature",
      "geometry": {
        "type": "Point",
        "coordinates": [
          120.69114954055327,
          24.157226607126486
        ]
      },
      "properties": {
        "routeId": "taichung-kel-2315-d4f630-d6",
        "city": "taichung",
        "route_name": "KEL-2315",
        "car_seq": "KEL-2315",
        "arrival_time": "1624",
        "departure_time": "1626",
        "district": "北區",
        "village": "錦祥里",
        "location": "錦祥街58號",
        "type": "沿街",
        "collection_type": "garbage",
        "day_of_week": 6
      }
    },
    {
      "type": "Feature",
      "geometry": {
        "type": "Point",
        "coordinates": [
          120.69114954055327,
          24.157226607126486
        ]
      },
      "properties": {
        "routeId": "taichung-kel-2315-d4f630-d6",
        "city": "taichung",
        "route_name": "KEL-2315",
        "car_seq": "KEL-2315",
        "arrival_time": "1624",
        "departure_time": "1626",
        "district": "北區",
        "village": "錦祥里",
        "location": "錦祥街58號",
        "type": "沿街",
        "collection_type": "recycling",
        "day_of_week": 6
      }
    },
    {
      "type": "Feature",
      "geometry": {
        "type": "Point",
        "coordinates": [
          120.69017636500715,
          24.157486664599638
        ]
      },
      "properties": {
        "routeId": "taichung-kel-2315-d4f630-d6",
        "city": "taichung",
        "route_name": "KEL-2315",
        "car_seq": "KEL-2315",
        "arrival_time": "1627",
        "departure_time": "1628",
        "district": "北區",
        "village": "錦祥里",
        "location": "錦祥街76號",
        "type": "沿街",
        "collection_type": "garbage",
        "day_of_week": 6
      }
    },
    {
      "type": "Feature",
      "geometry": {
        "type": "Point",
        "coordinates": [
          120.69017636500715,
          24.157486664599638
        ]
      },
      "properties": {
        "routeId": "taichung-kel-2315-d4f630-d6",
        "city": "taichung",
        "route_name": "KEL-2315",
        "car_seq": "KEL-2315",
        "arrival_time": "1627",
        "departure_time": "1628",
        "district": "北區",
        "village": "錦祥里",
        "location": "錦祥街76號",
        "type": "沿街",
        "collection_type": "recycling",
        "day_of_week": 6
      }
    },
    {
      "type": "Feature",
      "geometry": {
        "type": "Point",
        "coordinates": [
          120.68840257773725,
          24.155881831934707
        ]
      },
      "properties": {
        "routeId": "taichung-kel-2315-d4f630-d6",
        "city": "taichung",
        "route_name": "KEL-2315",
        "car_seq": "KEL-2315",
        "arrival_time": "1629",
        "departure_time": "1630",
        "district": "北區",
        "village": "錦祥里",
        "location": "錦華街53號",
        "type": "沿街",
        "collection_type": "garbage",
        "day_of_week": 6
      }
    },
    {
      "type": "Feature",
      "geometry": {
        "type": "Point",
        "coordinates": [
          120.68840257773725,
          24.155881831934707
        ]
      },
      "properties": {
        "routeId": "taichung-kel-2315-d4f630-d6",
        "city": "taichung",
        "route_name": "KEL-2315",
        "car_seq": "KEL-2315",
        "arrival_time": "1629",
        "departure_time": "1630",
        "district": "北區",
        "village": "錦祥里",
        "location": "錦華街53號",
        "type": "沿街",
        "collection_type": "recycling",
        "day_of_week": 6
      }
    },
    {
      "type": "Feature",
      "geometry": {
        "type": "Point",
        "coordinates": [
          120.68884257092643,
          24.15573164242165
        ]
      },
      "properties": {
        "routeId": "taichung-kel-2315-d4f630-d6",
        "city": "taichung",
        "route_name": "KEL-2315",
        "car_seq": "KEL-2315",
        "arrival_time": "1631",
        "departure_time": "1632",
        "district": "北區",
        "village": "錦祥里",
        "location": "錦華街35號",
        "type": "沿街",
        "collection_type": "garbage",
        "day_of_week": 6
      }
    },
    {
      "type": "Feature",
      "geometry": {
        "type": "Point",
        "coordinates": [
          120.68884257092643,
          24.15573164242165
        ]
      },
      "properties": {
        "routeId": "taichung-kel-2315-d4f630-d6",
        "city": "taichung",
        "route_name": "KEL-2315",
        "car_seq": "KEL-2315",
        "arrival_time": "1631",
        "departure_time": "1632",
        "district": "北區",
        "village": "錦祥里",
        "location": "錦華街35號",
        "type": "沿街",
        "collection_type": "recycling",
        "day_of_week": 6
      }
    },
    {
      "type": "Feature",
      "geometry": {
        "type": "Point",
        "coordinates": [
          120.68933487454002,
          24.155537161040467
        ]
      },
      "properties": {
        "routeId": "taichung-kel-2315-d4f630-d6",
        "city": "taichung",
        "route_name": "KEL-2315",
        "car_seq": "KEL-2315",
        "arrival_time": "1632",
        "departure_time": "1633",
        "district": "北區",
        "village": "錦祥里",
        "location": "錦華街15號",
        "type": "沿街",
        "collection_type": "garbage",
        "day_of_week": 6
      }
    },
    {
      "type": "Feature",
      "geometry": {
        "type": "Point",
        "coordinates": [
          120.68933487454002,
          24.155537161040467
        ]
      },
      "properties": {
        "routeId": "taichung-kel-2315-d4f630-d6",
        "city": "taichung",
        "route_name": "KEL-2315",
        "car_seq": "KEL-2315",
        "arrival_time": "1632",
        "departure_time": "1633",
        "district": "北區",
        "village": "錦祥里",
        "location": "錦華街15號",
        "type": "沿街",
        "collection_type": "recycling",
        "day_of_week": 6
      }
    },
    {
      "type": "Feature",
      "geometry": {
        "type": "Point",
        "coordinates": [
          120.68964366961075,
          24.155253086355064
        ]
      },
      "properties": {
        "routeId": "taichung-kel-2315-d4f630-d6",
        "city": "taichung",
        "route_name": "KEL-2315",
        "car_seq": "KEL-2315",
        "arrival_time": "1634",
        "departure_time": "1635",
        "district": "北區",
        "village": "錦祥里",
        "location": "雙十路二段83號",
        "type": "沿街",
        "collection_type": "garbage",
        "day_of_week": 6
      }
    },
    {
      "type": "Feature",
      "geometry": {
        "type": "Point",
        "coordinates": [
          120.68964366961075,
          24.155253086355064
        ]
      },
      "properties": {
        "routeId": "taichung-kel-2315-d4f630-d6",
        "city": "taichung",
        "route_name": "KEL-2315",
        "car_seq": "KEL-2315",
        "arrival_time": "1634",
        "departure_time": "1635",
        "district": "北區",
        "village": "錦祥里",
        "location": "雙十路二段83號",
        "type": "沿街",
        "collection_type": "recycling",
        "day_of_week": 6
      }
    },
    {
      "type": "Feature",
      "geometry": {
        "type": "Point",
        "coordinates": [
          120.68915861040375,
          24.155179060979187
        ]
      },
      "properties": {
        "routeId": "taichung-kel-2315-d4f630-d6",
        "city": "taichung",
        "route_name": "KEL-2315",
        "car_seq": "KEL-2315",
        "arrival_time": "1636",
        "departure_time": "1638",
        "district": "北區",
        "village": "樂英里",
        "location": "錦中街8號",
        "type": "沿街",
        "collection_type": "garbage",
        "day_of_week": 6
      }
    },
    {
      "type": "Feature",
      "geometry": {
        "type": "Point",
        "coordinates": [
          120.68915861040375,
          24.155179060979187
        ]
      },
      "properties": {
        "routeId": "taichung-kel-2315-d4f630-d6",
        "city": "taichung",
        "route_name": "KEL-2315",
        "car_seq": "KEL-2315",
        "arrival_time": "1636",
        "departure_time": "1638",
        "district": "北區",
        "village": "樂英里",
        "location": "錦中街8號",
        "type": "沿街",
        "collection_type": "recycling",
        "day_of_week": 6
      }
    },
    {
      "type": "Feature",
      "geometry": {
        "type": "Point",
        "coordinates": [
          120.68857878747318,
          24.155372866608637
        ]
      },
      "properties": {
        "routeId": "taichung-kel-2315-d4f630-d6",
        "city": "taichung",
        "route_name": "KEL-2315",
        "car_seq": "KEL-2315",
        "arrival_time": "1639",
        "departure_time": "1640",
        "district": "北區",
        "village": "樂英里",
        "location": "錦中街52號",
        "type": "沿街",
        "collection_type": "garbage",
        "day_of_week": 6
      }
    },
    {
      "type": "Feature",
      "geometry": {
        "type": "Point",
        "coordinates": [
          120.68857878747318,
          24.155372866608637
        ]
      },
      "properties": {
        "routeId": "taichung-kel-2315-d4f630-d6",
        "city": "taichung",
        "route_name": "KEL-2315",
        "car_seq": "KEL-2315",
        "arrival_time": "1639",
        "departure_time": "1640",
        "district": "北區",
        "village": "樂英里",
        "location": "錦中街52號",
        "type": "沿街",
        "collection_type": "recycling",
        "day_of_week": 6
      }
    },
    {
      "type": "Feature",
      "geometry": {
        "type": "Point",
        "coordinates": [
          120.68800423947938,
          24.155577958402986
        ]
      },
      "properties": {
        "routeId": "taichung-kel-2315-d4f630-d6",
        "city": "taichung",
        "route_name": "KEL-2315",
        "car_seq": "KEL-2315",
        "arrival_time": "1640",
        "departure_time": "1641",
        "district": "北區",
        "village": "樂英里",
        "location": "錦中街80號",
        "type": "沿街",
        "collection_type": "garbage",
        "day_of_week": 6
      }
    },
    {
      "type": "Feature",
      "geometry": {
        "type": "Point",
        "coordinates": [
          120.68800423947938,
          24.155577958402986
        ]
      },
      "properties": {
        "routeId": "taichung-kel-2315-d4f630-d6",
        "city": "taichung",
        "route_name": "KEL-2315",
        "car_seq": "KEL-2315",
        "arrival_time": "1640",
        "departure_time": "1641",
        "district": "北區",
        "village": "樂英里",
        "location": "錦中街80號",
        "type": "沿街",
        "collection_type": "recycling",
        "day_of_week": 6
      }
    },
    {
      "type": "Feature",
      "geometry": {
        "type": "Point",
        "coordinates": [
          120.68664330122613,
          24.15428063825414
        ]
      },
      "properties": {
        "routeId": "taichung-kel-2315-d4f630-d6",
        "city": "taichung",
        "route_name": "KEL-2315",
        "car_seq": "KEL-2315",
        "arrival_time": "1642",
        "departure_time": "1643",
        "district": "北區",
        "village": "樂英里",
        "location": "錦南街21號",
        "type": "沿街",
        "collection_type": "garbage",
        "day_of_week": 6
      }
    },
    {
      "type": "Feature",
      "geometry": {
        "type": "Point",
        "coordinates": [
          120.68664330122613,
          24.15428063825414
        ]
      },
      "properties": {
        "routeId": "taichung-kel-2315-d4f630-d6",
        "city": "taichung",
        "route_name": "KEL-2315",
        "car_seq": "KEL-2315",
        "arrival_time": "1642",
        "departure_time": "1643",
        "district": "北區",
        "village": "樂英里",
        "location": "錦南街21號",
        "type": "沿街",
        "collection_type": "recycling",
        "day_of_week": 6
      }
    },
    {
      "type": "Feature",
      "geometry": {
        "type": "Point",
        "coordinates": [
          120.69461408911607,
          24.152827936621954
        ]
      },
      "properties": {
        "routeId": "taichung-kel-2315-d4f630-d6",
        "city": "taichung",
        "route_name": "KEL-2315",
        "car_seq": "KEL-2315",
        "arrival_time": "1919",
        "departure_time": "1920",
        "district": "北區",
        "village": "錦村里",
        "location": "進化路296號",
        "type": "沿街",
        "collection_type": "garbage",
        "day_of_week": 6
      }
    },
    {
      "type": "Feature",
      "geometry": {
        "type": "Point",
        "coordinates": [
          120.69461408911607,
          24.152827936621954
        ]
      },
      "properties": {
        "routeId": "taichung-kel-2315-d4f630-d6",
        "city": "taichung",
        "route_name": "KEL-2315",
        "car_seq": "KEL-2315",
        "arrival_time": "1919",
        "departure_time": "1920",
        "district": "北區",
        "village": "錦村里",
        "location": "進化路296號",
        "type": "沿街",
        "collection_type": "recycling",
        "day_of_week": 6
      }
    },
    {
      "type": "Feature",
      "geometry": {
        "type": "Point",
        "coordinates": [
          120.69466811119733,
          24.15390523254037
        ]
      },
      "properties": {
        "routeId": "taichung-kel-2315-d4f630-d6",
        "city": "taichung",
        "route_name": "KEL-2315",
        "car_seq": "KEL-2315",
        "arrival_time": "1921",
        "departure_time": "1922",
        "district": "北區",
        "village": "錦村里",
        "location": "進化路338號",
        "type": "沿街",
        "collection_type": "garbage",
        "day_of_week": 6
      }
    },
    {
      "type": "Feature",
      "geometry": {
        "type": "Point",
        "coordinates": [
          120.69466811119733,
          24.15390523254037
        ]
      },
      "properties": {
        "routeId": "taichung-kel-2315-d4f630-d6",
        "city": "taichung",
        "route_name": "KEL-2315",
        "car_seq": "KEL-2315",
        "arrival_time": "1921",
        "departure_time": "1922",
        "district": "北區",
        "village": "錦村里",
        "location": "進化路338號",
        "type": "沿街",
        "collection_type": "recycling",
        "day_of_week": 6
      }
    },
    {
      "type": "Feature",
      "geometry": {
        "type": "Point",
        "coordinates": [
          120.69462061021613,
          24.154207899302857
        ]
      },
      "properties": {
        "routeId": "taichung-kel-2315-d4f630-d6",
        "city": "taichung",
        "route_name": "KEL-2315",
        "car_seq": "KEL-2315",
        "arrival_time": "1923",
        "departure_time": "1924",
        "district": "北區",
        "village": "錦村里",
        "location": "進化路350號",
        "type": "沿街",
        "collection_type": "garbage",
        "day_of_week": 6
      }
    },
    {
      "type": "Feature",
      "geometry": {
        "type": "Point",
        "coordinates": [
          120.69462061021613,
          24.154207899302857
        ]
      },
      "properties": {
        "routeId": "taichung-kel-2315-d4f630-d6",
        "city": "taichung",
        "route_name": "KEL-2315",
        "car_seq": "KEL-2315",
        "arrival_time": "1923",
        "departure_time": "1924",
        "district": "北區",
        "village": "錦村里",
        "location": "進化路350號",
        "type": "沿街",
        "collection_type": "recycling",
        "day_of_week": 6
      }
    },
    {
      "type": "Feature",
      "geometry": {
        "type": "Point",
        "coordinates": [
          120.69460276858823,
          24.154899580975687
        ]
      },
      "properties": {
        "routeId": "taichung-kel-2315-d4f630-d6",
        "city": "taichung",
        "route_name": "KEL-2315",
        "car_seq": "KEL-2315",
        "arrival_time": "1924",
        "departure_time": "1925",
        "district": "北區",
        "village": "錦村里",
        "location": "進化路378號",
        "type": "沿街",
        "collection_type": "garbage",
        "day_of_week": 6
      }
    },
    {
      "type": "Feature",
      "geometry": {
        "type": "Point",
        "coordinates": [
          120.69460276858823,
          24.154899580975687
        ]
      },
      "properties": {
        "routeId": "taichung-kel-2315-d4f630-d6",
        "city": "taichung",
        "route_name": "KEL-2315",
        "car_seq": "KEL-2315",
        "arrival_time": "1924",
        "departure_time": "1925",
        "district": "北區",
        "village": "錦村里",
        "location": "進化路378號",
        "type": "沿街",
        "collection_type": "recycling",
        "day_of_week": 6
      }
    },
    {
      "type": "Feature",
      "geometry": {
        "type": "Point",
        "coordinates": [
          120.6946133697937,
          24.155200549074102
        ]
      },
      "properties": {
        "routeId": "taichung-kel-2315-d4f630-d6",
        "city": "taichung",
        "route_name": "KEL-2315",
        "car_seq": "KEL-2315",
        "arrival_time": "1925",
        "departure_time": "1926",
        "district": "北區",
        "village": "金華里",
        "location": "興進路157號",
        "type": "沿街",
        "collection_type": "garbage",
        "day_of_week": 6
      }
    },
    {
      "type": "Feature",
      "geometry": {
        "type": "Point",
        "coordinates": [
          120.6946133697937,
          24.155200549074102
        ]
      },
      "properties": {
        "routeId": "taichung-kel-2315-d4f630-d6",
        "city": "taichung",
        "route_name": "KEL-2315",
        "car_seq": "KEL-2315",
        "arrival_time": "1925",
        "departure_time": "1926",
        "district": "北區",
        "village": "金華里",
        "location": "興進路157號",
        "type": "沿街",
        "collection_type": "recycling",
        "day_of_week": 6
      }
    },
    {
      "type": "Feature",
      "geometry": {
        "type": "Point",
        "coordinates": [
          120.69500353821782,
          24.155155018090753
        ]
      },
      "properties": {
        "routeId": "taichung-kel-2315-d4f630-d6",
        "city": "taichung",
        "route_name": "KEL-2315",
        "car_seq": "KEL-2315",
        "arrival_time": "1926",
        "departure_time": "1927",
        "district": "北區",
        "village": "金華里",
        "location": "興進路141號",
        "type": "沿街",
        "collection_type": "garbage",
        "day_of_week": 6
      }
    },
    {
      "type": "Feature",
      "geometry": {
        "type": "Point",
        "coordinates": [
          120.69500353821782,
          24.155155018090753
        ]
      },
      "properties": {
        "routeId": "taichung-kel-2315-d4f630-d6",
        "city": "taichung",
        "route_name": "KEL-2315",
        "car_seq": "KEL-2315",
        "arrival_time": "1926",
        "departure_time": "1927",
        "district": "北區",
        "village": "金華里",
        "location": "興進路141號",
        "type": "沿街",
        "collection_type": "recycling",
        "day_of_week": 6
      }
    },
    {
      "type": "Feature",
      "geometry": {
        "type": "Point",
        "coordinates": [
          120.6974056264845,
          24.155156269871878
        ]
      },
      "properties": {
        "routeId": "taichung-kel-2315-d4f630-d6",
        "city": "taichung",
        "route_name": "KEL-2315",
        "car_seq": "KEL-2315",
        "arrival_time": "1928",
        "departure_time": "1930",
        "district": "北區",
        "village": "錦村里",
        "location": "興進路33號",
        "type": "沿街",
        "collection_type": "garbage",
        "day_of_week": 6
      }
    },
    {
      "type": "Feature",
      "geometry": {
        "type": "Point",
        "coordinates": [
          120.6974056264845,
          24.155156269871878
        ]
      },
      "properties": {
        "routeId": "taichung-kel-2315-d4f630-d6",
        "city": "taichung",
        "route_name": "KEL-2315",
        "car_seq": "KEL-2315",
        "arrival_time": "1928",
        "departure_time": "1930",
        "district": "北區",
        "village": "錦村里",
        "location": "興進路33號",
        "type": "沿街",
        "collection_type": "recycling",
        "day_of_week": 6
      }
    },
    {
      "type": "Feature",
      "geometry": {
        "type": "Point",
        "coordinates": [
          120.69812440640149,
          24.155137196981176
        ]
      },
      "properties": {
        "routeId": "taichung-kel-2315-d4f630-d6",
        "city": "taichung",
        "route_name": "KEL-2315",
        "car_seq": "KEL-2315",
        "arrival_time": "1930",
        "departure_time": "1931",
        "district": "北區",
        "village": "錦村里",
        "location": "興進路5號",
        "type": "沿街",
        "collection_type": "garbage",
        "day_of_week": 6
      }
    },
    {
      "type": "Feature",
      "geometry": {
        "type": "Point",
        "coordinates": [
          120.69812440640149,
          24.155137196981176
        ]
      },
      "properties": {
        "routeId": "taichung-kel-2315-d4f630-d6",
        "city": "taichung",
        "route_name": "KEL-2315",
        "car_seq": "KEL-2315",
        "arrival_time": "1930",
        "departure_time": "1931",
        "district": "北區",
        "village": "錦村里",
        "location": "興進路5號",
        "type": "沿街",
        "collection_type": "recycling",
        "day_of_week": 6
      }
    },
    {
      "type": "Feature",
      "geometry": {
        "type": "Point",
        "coordinates": [
          120.69787224636326,
          24.155746257667964
        ]
      },
      "properties": {
        "routeId": "taichung-kel-2315-d4f630-d6",
        "city": "taichung",
        "route_name": "KEL-2315",
        "car_seq": "KEL-2315",
        "arrival_time": "1932",
        "departure_time": "1933",
        "district": "北區",
        "village": "建德里",
        "location": "興進路42號",
        "type": "沿街",
        "collection_type": "garbage",
        "day_of_week": 6
      }
    },
    {
      "type": "Feature",
      "geometry": {
        "type": "Point",
        "coordinates": [
          120.69787224636326,
          24.155746257667964
        ]
      },
      "properties": {
        "routeId": "taichung-kel-2315-d4f630-d6",
        "city": "taichung",
        "route_name": "KEL-2315",
        "car_seq": "KEL-2315",
        "arrival_time": "1932",
        "departure_time": "1933",
        "district": "北區",
        "village": "建德里",
        "location": "興進路42號",
        "type": "沿街",
        "collection_type": "recycling",
        "day_of_week": 6
      }
    },
    {
      "type": "Feature",
      "geometry": {
        "type": "Point",
        "coordinates": [
          120.69749555003447,
          24.155745330767246
        ]
      },
      "properties": {
        "routeId": "taichung-kel-2315-d4f630-d6",
        "city": "taichung",
        "route_name": "KEL-2315",
        "car_seq": "KEL-2315",
        "arrival_time": "1933",
        "departure_time": "1934",
        "district": "北區",
        "village": "建德里",
        "location": "興進路58號",
        "type": "沿街",
        "collection_type": "garbage",
        "day_of_week": 6
      }
    },
    {
      "type": "Feature",
      "geometry": {
        "type": "Point",
        "coordinates": [
          120.69749555003447,
          24.155745330767246
        ]
      },
      "properties": {
        "routeId": "taichung-kel-2315-d4f630-d6",
        "city": "taichung",
        "route_name": "KEL-2315",
        "car_seq": "KEL-2315",
        "arrival_time": "1933",
        "departure_time": "1934",
        "district": "北區",
        "village": "建德里",
        "location": "興進路58號",
        "type": "沿街",
        "collection_type": "recycling",
        "day_of_week": 6
      }
    },
    {
      "type": "Feature",
      "geometry": {
        "type": "Point",
        "coordinates": [
          120.69709139695865,
          24.155765892368418
        ]
      },
      "properties": {
        "routeId": "taichung-kel-2315-d4f630-d6",
        "city": "taichung",
        "route_name": "KEL-2315",
        "car_seq": "KEL-2315",
        "arrival_time": "1934",
        "departure_time": "1935",
        "district": "北區",
        "village": "建德里",
        "location": "興進路72號",
        "type": "沿街",
        "collection_type": "garbage",
        "day_of_week": 6
      }
    },
    {
      "type": "Feature",
      "geometry": {
        "type": "Point",
        "coordinates": [
          120.69709139695865,
          24.155765892368418
        ]
      },
      "properties": {
        "routeId": "taichung-kel-2315-d4f630-d6",
        "city": "taichung",
        "route_name": "KEL-2315",
        "car_seq": "KEL-2315",
        "arrival_time": "1934",
        "departure_time": "1935",
        "district": "北區",
        "village": "建德里",
        "location": "興進路72號",
        "type": "沿街",
        "collection_type": "recycling",
        "day_of_week": 6
      }
    },
    {
      "type": "Feature",
      "geometry": {
        "type": "Point",
        "coordinates": [
          120.69631406741607,
          24.155745114886876
        ]
      },
      "properties": {
        "routeId": "taichung-kel-2315-d4f630-d6",
        "city": "taichung",
        "route_name": "KEL-2315",
        "car_seq": "KEL-2315",
        "arrival_time": "1935",
        "departure_time": "1936",
        "district": "北區",
        "village": "建德里",
        "location": "興進路102號",
        "type": "沿街",
        "collection_type": "garbage",
        "day_of_week": 6
      }
    },
    {
      "type": "Feature",
      "geometry": {
        "type": "Point",
        "coordinates": [
          120.69631406741607,
          24.155745114886876
        ]
      },
      "properties": {
        "routeId": "taichung-kel-2315-d4f630-d6",
        "city": "taichung",
        "route_name": "KEL-2315",
        "car_seq": "KEL-2315",
        "arrival_time": "1935",
        "departure_time": "1936",
        "district": "北區",
        "village": "建德里",
        "location": "興進路102號",
        "type": "沿街",
        "collection_type": "recycling",
        "day_of_week": 6
      }
    },
    {
      "type": "Feature",
      "geometry": {
        "type": "Point",
        "coordinates": [
          120.69477817861518,
          24.155780831331697
        ]
      },
      "properties": {
        "routeId": "taichung-kel-2315-d4f630-d6",
        "city": "taichung",
        "route_name": "KEL-2315",
        "car_seq": "KEL-2315",
        "arrival_time": "1936",
        "departure_time": "1937",
        "district": "北區",
        "village": "錦洲里",
        "location": "興進路146號",
        "type": "沿街",
        "collection_type": "garbage",
        "day_of_week": 6
      }
    },
    {
      "type": "Feature",
      "geometry": {
        "type": "Point",
        "coordinates": [
          120.69477817861518,
          24.155780831331697
        ]
      },
      "properties": {
        "routeId": "taichung-kel-2315-d4f630-d6",
        "city": "taichung",
        "route_name": "KEL-2315",
        "car_seq": "KEL-2315",
        "arrival_time": "1936",
        "departure_time": "1937",
        "district": "北區",
        "village": "錦洲里",
        "location": "興進路146號",
        "type": "沿街",
        "collection_type": "recycling",
        "day_of_week": 6
      }
    },
    {
      "type": "Feature",
      "geometry": {
        "type": "Point",
        "coordinates": [
          120.69462626764407,
          24.155980165404582
        ]
      },
      "properties": {
        "routeId": "taichung-kel-2315-d4f630-d6",
        "city": "taichung",
        "route_name": "KEL-2315",
        "car_seq": "KEL-2315",
        "arrival_time": "1938",
        "departure_time": "1939",
        "district": "北區",
        "village": "錦洲里",
        "location": "進化路404號",
        "type": "沿街",
        "collection_type": "garbage",
        "day_of_week": 6
      }
    },
    {
      "type": "Feature",
      "geometry": {
        "type": "Point",
        "coordinates": [
          120.69462626764407,
          24.155980165404582
        ]
      },
      "properties": {
        "routeId": "taichung-kel-2315-d4f630-d6",
        "city": "taichung",
        "route_name": "KEL-2315",
        "car_seq": "KEL-2315",
        "arrival_time": "1938",
        "departure_time": "1939",
        "district": "北區",
        "village": "錦洲里",
        "location": "進化路404號",
        "type": "沿街",
        "collection_type": "recycling",
        "day_of_week": 6
      }
    },
    {
      "type": "Feature",
      "geometry": {
        "type": "Point",
        "coordinates": [
          120.69533740393038,
          24.156617701689665
        ]
      },
      "properties": {
        "routeId": "taichung-kel-2315-d4f630-d6",
        "city": "taichung",
        "route_name": "KEL-2315",
        "car_seq": "KEL-2315",
        "arrival_time": "1939",
        "departure_time": "1940",
        "district": "北區",
        "village": "錦洲里",
        "location": "梅豐街89號",
        "type": "沿街",
        "collection_type": "garbage",
        "day_of_week": 6
      }
    },
    {
      "type": "Feature",
      "geometry": {
        "type": "Point",
        "coordinates": [
          120.69533740393038,
          24.156617701689665
        ]
      },
      "properties": {
        "routeId": "taichung-kel-2315-d4f630-d6",
        "city": "taichung",
        "route_name": "KEL-2315",
        "car_seq": "KEL-2315",
        "arrival_time": "1939",
        "departure_time": "1940",
        "district": "北區",
        "village": "錦洲里",
        "location": "梅豐街89號",
        "type": "沿街",
        "collection_type": "recycling",
        "day_of_week": 6
      }
    },
    {
      "type": "Feature",
      "geometry": {
        "type": "Point",
        "coordinates": [
          120.69587286434951,
          24.156605316203493
        ]
      },
      "properties": {
        "routeId": "taichung-kel-2315-d4f630-d6",
        "city": "taichung",
        "route_name": "KEL-2315",
        "car_seq": "KEL-2315",
        "arrival_time": "1941",
        "departure_time": "1942",
        "district": "北區",
        "village": "錦洲里",
        "location": "梅豐街79號",
        "type": "沿街",
        "collection_type": "garbage",
        "day_of_week": 6
      }
    },
    {
      "type": "Feature",
      "geometry": {
        "type": "Point",
        "coordinates": [
          120.69587286434951,
          24.156605316203493
        ]
      },
      "properties": {
        "routeId": "taichung-kel-2315-d4f630-d6",
        "city": "taichung",
        "route_name": "KEL-2315",
        "car_seq": "KEL-2315",
        "arrival_time": "1941",
        "departure_time": "1942",
        "district": "北區",
        "village": "錦洲里",
        "location": "梅豐街79號",
        "type": "沿街",
        "collection_type": "recycling",
        "day_of_week": 6
      }
    },
    {
      "type": "Feature",
      "geometry": {
        "type": "Point",
        "coordinates": [
          120.69584815899454,
          24.15607136394494
        ]
      },
      "properties": {
        "routeId": "taichung-kel-2315-d4f630-d6",
        "city": "taichung",
        "route_name": "KEL-2315",
        "car_seq": "KEL-2315",
        "arrival_time": "1943",
        "departure_time": "1945",
        "district": "北區",
        "village": "錦洲里",
        "location": "國豐街11號",
        "type": "沿街",
        "collection_type": "garbage",
        "day_of_week": 6
      }
    },
    {
      "type": "Feature",
      "geometry": {
        "type": "Point",
        "coordinates": [
          120.69584815899454,
          24.15607136394494
        ]
      },
      "properties": {
        "routeId": "taichung-kel-2315-d4f630-d6",
        "city": "taichung",
        "route_name": "KEL-2315",
        "car_seq": "KEL-2315",
        "arrival_time": "1943",
        "departure_time": "1945",
        "district": "北區",
        "village": "錦洲里",
        "location": "國豐街11號",
        "type": "沿街",
        "collection_type": "recycling",
        "day_of_week": 6
      }
    },
    {
      "type": "Feature",
      "geometry": {
        "type": "Point",
        "coordinates": [
          120.69463131812728,
          24.157084550131046
        ]
      },
      "properties": {
        "routeId": "taichung-kel-2315-d4f630-d6",
        "city": "taichung",
        "route_name": "KEL-2315",
        "car_seq": "KEL-2315",
        "arrival_time": "1946",
        "departure_time": "1947",
        "district": "北區",
        "village": "錦洲里",
        "location": "進化路462號",
        "type": "沿街",
        "collection_type": "garbage",
        "day_of_week": 6
      }
    },
    {
      "type": "Feature",
      "geometry": {
        "type": "Point",
        "coordinates": [
          120.69463131812728,
          24.157084550131046
        ]
      },
      "properties": {
        "routeId": "taichung-kel-2315-d4f630-d6",
        "city": "taichung",
        "route_name": "KEL-2315",
        "car_seq": "KEL-2315",
        "arrival_time": "1946",
        "departure_time": "1947",
        "district": "北區",
        "village": "錦洲里",
        "location": "進化路462號",
        "type": "沿街",
        "collection_type": "recycling",
        "day_of_week": 6
      }
    },
    {
      "type": "Feature",
      "geometry": {
        "type": "Point",
        "coordinates": [
          120.69459548498845,
          24.157752267870737
        ]
      },
      "properties": {
        "routeId": "taichung-kel-2315-d4f630-d6",
        "city": "taichung",
        "route_name": "KEL-2315",
        "car_seq": "KEL-2315",
        "arrival_time": "1947",
        "departure_time": "1948",
        "district": "北區",
        "village": "錦洲里",
        "location": "進化路492號",
        "type": "沿街",
        "collection_type": "garbage",
        "day_of_week": 6
      }
    },
    {
      "type": "Feature",
      "geometry": {
        "type": "Point",
        "coordinates": [
          120.69459548498845,
          24.157752267870737
        ]
      },
      "properties": {
        "routeId": "taichung-kel-2315-d4f630-d6",
        "city": "taichung",
        "route_name": "KEL-2315",
        "car_seq": "KEL-2315",
        "arrival_time": "1947",
        "departure_time": "1948",
        "district": "北區",
        "village": "錦洲里",
        "location": "進化路492號",
        "type": "沿街",
        "collection_type": "recycling",
        "day_of_week": 6
      }
    },
    {
      "type": "Feature",
      "geometry": {
        "type": "Point",
        "coordinates": [
          120.69461320767616,
          24.158696245014053
        ]
      },
      "properties": {
        "routeId": "taichung-kel-2315-d4f630-d6",
        "city": "taichung",
        "route_name": "KEL-2315",
        "car_seq": "KEL-2315",
        "arrival_time": "1948",
        "departure_time": "1949",
        "district": "北區",
        "village": "錦洲里",
        "location": "進化路552號",
        "type": "沿街",
        "collection_type": "garbage",
        "day_of_week": 6
      }
    },
    {
      "type": "Feature",
      "geometry": {
        "type": "Point",
        "coordinates": [
          120.69461320767616,
          24.158696245014053
        ]
      },
      "properties": {
        "routeId": "taichung-kel-2315-d4f630-d6",
        "city": "taichung",
        "route_name": "KEL-2315",
        "car_seq": "KEL-2315",
        "arrival_time": "1948",
        "departure_time": "1949",
        "district": "北區",
        "village": "錦洲里",
        "location": "進化路552號",
        "type": "沿街",
        "collection_type": "recycling",
        "day_of_week": 6
      }
    },
    {
      "type": "Feature",
      "geometry": {
        "type": "Point",
        "coordinates": [
          120.69461469390673,
          24.160434551549052
        ]
      },
      "properties": {
        "routeId": "taichung-kel-2315-d4f630-d6",
        "city": "taichung",
        "route_name": "KEL-2315",
        "car_seq": "KEL-2315",
        "arrival_time": "1950",
        "departure_time": "1951",
        "district": "北區",
        "village": "錦洲里",
        "location": "進化路648號之1",
        "type": "沿街",
        "collection_type": "garbage",
        "day_of_week": 6
      }
    },
    {
      "type": "Feature",
      "geometry": {
        "type": "Point",
        "coordinates": [
          120.69461469390673,
          24.160434551549052
        ]
      },
      "properties": {
        "routeId": "taichung-kel-2315-d4f630-d6",
        "city": "taichung",
        "route_name": "KEL-2315",
        "car_seq": "KEL-2315",
        "arrival_time": "1950",
        "departure_time": "1951",
        "district": "北區",
        "village": "錦洲里",
        "location": "進化路648號之1",
        "type": "沿街",
        "collection_type": "recycling",
        "day_of_week": 6
      }
    },
    {
      "type": "Feature",
      "geometry": {
        "type": "Point",
        "coordinates": [
          120.69392675917244,
          24.161162198879264
        ]
      },
      "properties": {
        "routeId": "taichung-kel-2315-d4f630-d6",
        "city": "taichung",
        "route_name": "KEL-2315",
        "car_seq": "KEL-2315",
        "arrival_time": "1952",
        "departure_time": "1953",
        "district": "北區",
        "village": "錦祥里",
        "location": "進化路655號",
        "type": "沿街",
        "collection_type": "garbage",
        "day_of_week": 6
      }
    },
    {
      "type": "Feature",
      "geometry": {
        "type": "Point",
        "coordinates": [
          120.69392675917244,
          24.161162198879264
        ]
      },
      "properties": {
        "routeId": "taichung-kel-2315-d4f630-d6",
        "city": "taichung",
        "route_name": "KEL-2315",
        "car_seq": "KEL-2315",
        "arrival_time": "1952",
        "departure_time": "1953",
        "district": "北區",
        "village": "錦祥里",
        "location": "進化路655號",
        "type": "沿街",
        "collection_type": "recycling",
        "day_of_week": 6
      }
    },
    {
      "type": "Feature",
      "geometry": {
        "type": "Point",
        "coordinates": [
          120.69415810845511,
          24.158849192799387
        ]
      },
      "properties": {
        "routeId": "taichung-kel-2315-d4f630-d6",
        "city": "taichung",
        "route_name": "KEL-2315",
        "car_seq": "KEL-2315",
        "arrival_time": "1954",
        "departure_time": "1955",
        "district": "北區",
        "village": "錦祥里",
        "location": "進化路557號",
        "type": "沿街",
        "collection_type": "garbage",
        "day_of_week": 6
      }
    },
    {
      "type": "Feature",
      "geometry": {
        "type": "Point",
        "coordinates": [
          120.69415810845511,
          24.158849192799387
        ]
      },
      "properties": {
        "routeId": "taichung-kel-2315-d4f630-d6",
        "city": "taichung",
        "route_name": "KEL-2315",
        "car_seq": "KEL-2315",
        "arrival_time": "1954",
        "departure_time": "1955",
        "district": "北區",
        "village": "錦祥里",
        "location": "進化路557號",
        "type": "沿街",
        "collection_type": "recycling",
        "day_of_week": 6
      }
    },
    {
      "type": "Feature",
      "geometry": {
        "type": "Point",
        "coordinates": [
          120.69070697121953,
          24.157893933356625
        ]
      },
      "properties": {
        "routeId": "taichung-kel-2315-d4f630-d6",
        "city": "taichung",
        "route_name": "KEL-2315",
        "car_seq": "KEL-2315",
        "arrival_time": "2000",
        "departure_time": "2020",
        "district": "北區",
        "village": "錦祥里",
        "location": "雙十路二段193之1號對面",
        "type": "定點",
        "collection_type": "garbage",
        "day_of_week": 6
      }
    },
    {
      "type": "Feature",
      "geometry": {
        "type": "Point",
        "coordinates": [
          120.69070697121953,
          24.157893933356625
        ]
      },
      "properties": {
        "routeId": "taichung-kel-2315-d4f630-d6",
        "city": "taichung",
        "route_name": "KEL-2315",
        "car_seq": "KEL-2315",
        "arrival_time": "2000",
        "departure_time": "2020",
        "district": "北區",
        "village": "錦祥里",
        "location": "雙十路二段193之1號對面",
        "type": "定點",
        "collection_type": "recycling",
        "day_of_week": 6
      }
    }
  ]
}