{
  "type": "FeatureCollection",
  "features": [
    {
      "type": "Feature",
      "geometry": {
        "type": "Point",
        "coordinates": [
          120.356005,
          22.636821
        ]
      },
      "properties": {
        "routeId": "kaohsiung-keh-5925-9d6f10",
        "city": "kaohsiung",
        "route_name": "KEH-5925",
        "car_seq": "KEH-5925",
        "arrival_time": "1627",
        "departure_time": "1628",
        "district": "鳳山區",
        "village": "文英里",
        "location": "建國路三段28號",
        "type": "定點",
        "collection_type": "garbage"
      }
    },
    {
      "type": "Feature",
      "geometry": {
        "type": "Point",
        "coordinates": [
          120.355265,
          22.636904
        ]
      },
      "properties": {
        "routeId": "kaohsiung-keh-5925-9d6f10",
        "city": "kaohsiung",
        "route_name": "KEH-5925",
        "car_seq": "KEH-5925",
        "arrival_time": "1628",
        "departure_time": "1629",
        "district": "鳳山區",
        "village": "文英里",
        "location": "建國路三段66號",
        "type": "定點",
        "collection_type": "garbage"
      }
    },
    {
      "type": "Feature",
      "geometry": {
        "type": "Point",
        "coordinates": [
          120.354742,
          22.637003
        ]
      },
      "properties": {
        "routeId": "kaohsiung-keh-5925-9d6f10",
        "city": "kaohsiung",
        "route_name": "KEH-5925",
        "car_seq": "KEH-5925",
        "arrival_time": "1629",
        "departure_time": "1630",
        "district": "鳳山區",
        "village": "文英里",
        "location": "建國路三段96號",
        "type": "定點",
        "collection_type": "garbage"
      }
    },
    {
      "type": "Feature",
      "geometry": {
        "type": "Point",
        "coordinates": [
          120.354495,
          22.637042
        ]
      },
      "properties": {
        "routeId": "kaohsiung-keh-5925-9d6f10",
        "city": "kaohsiung",
        "route_name": "KEH-5925",
        "car_seq": "KEH-5925",
        "arrival_time": "1630",
        "departure_time": "1631",
        "district": "鳳山區",
        "village": "文英里",
        "location": "建國路三段112號",
        "type": "定點",
        "collection_type": "garbage"
      }
    },
    {
      "type": "Feature",
      "geometry": {
        "type": "Point",
        "coordinates": [
          120.353683,
          22.637183
        ]
      },
      "properties": {
        "routeId": "kaohsiung-keh-5925-9d6f10",
        "city": "kaohsiung",
        "route_name": "KEH-5925",
        "car_seq": "KEH-5925",
        "arrival_time": "1631",
        "departure_time": "1632",
        "district": "鳳山區",
        "village": "文英里",
        "location": "建國路三段142號",
        "type": "定點",
        "collection_type": "garbage"
      }
    },
    {
      "type": "Feature",
      "geometry": {
        "type": "Point",
        "coordinates": [
          120.353025,
          22.637274
        ]
      },
      "properties": {
        "routeId": "kaohsiung-keh-5925-9d6f10",
        "city": "kaohsiung",
        "route_name": "KEH-5925",
        "car_seq": "KEH-5925",
        "arrival_time": "1632",
        "departure_time": "1633",
        "district": "鳳山區",
        "village": "文英里",
        "location": "建國路三段178號",
        "type": "定點",
        "collection_type": "garbage"
      }
    },
    {
      "type": "Feature",
      "geometry": {
        "type": "Point",
        "coordinates": [
          120.351668,
          22.637547
        ]
      },
      "properties": {
        "routeId": "kaohsiung-keh-5925-9d6f10",
        "city": "kaohsiung",
        "route_name": "KEH-5925",
        "car_seq": "KEH-5925",
        "arrival_time": "1634",
        "departure_time": "1635",
        "district": "鳳山區",
        "village": "文衡里",
        "location": "建國路三段242號",
        "type": "定點",
        "collection_type": "garbage"
      }
    },
    {
      "type": "Feature",
      "geometry": {
        "type": "Point",
        "coordinates": [
          120.350682,
          22.637001
        ]
      },
      "properties": {
        "routeId": "kaohsiung-keh-5925-9d6f10",
        "city": "kaohsiung",
        "route_name": "KEH-5925",
        "car_seq": "KEH-5925",
        "arrival_time": "1636",
        "departure_time": "1637",
        "district": "鳳山區",
        "village": "文衡里",
        "location": "青年路二段198號",
        "type": "定點",
        "collection_type": "garbage"
      }
    },
    {
      "type": "Feature",
      "geometry": {
        "type": "Point",
        "coordinates": [
          120.35095,
          22.63868
        ]
      },
      "properties": {
        "routeId": "kaohsiung-keh-5925-9d6f10",
        "city": "kaohsiung",
        "route_name": "KEH-5925",
        "car_seq": "KEH-5925",
        "arrival_time": "1637",
        "departure_time": "1638",
        "district": "鳳山區",
        "village": "文衡里",
        "location": "青年路二段242號",
        "type": "定點",
        "collection_type": "garbage"
      }
    },
    {
      "type": "Feature",
      "geometry": {
        "type": "Point",
        "coordinates": [
          120.351009,
          22.639039
        ]
      },
      "properties": {
        "routeId": "kaohsiung-keh-5925-9d6f10",
        "city": "kaohsiung",
        "route_name": "KEH-5925",
        "car_seq": "KEH-5925",
        "arrival_time": "1638",
        "departure_time": "1639",
        "district": "鳳山區",
        "village": "文衡里",
        "location": "青年路二段262號",
        "type": "定點",
        "collection_type": "garbage"
      }
    },
    {
      "type": "Feature",
      "geometry": {
        "type": "Point",
        "coordinates": [
          120.351131,
          22.639814
        ]
      },
      "properties": {
        "routeId": "kaohsiung-keh-5925-9d6f10",
        "city": "kaohsiung",
        "route_name": "KEH-5925",
        "car_seq": "KEH-5925",
        "arrival_time": "1639",
        "departure_time": "1640",
        "district": "鳳山區",
        "village": "文衡里",
        "location": "青年路二段298號",
        "type": "定點",
        "collection_type": "garbage"
      }
    },
    {
      "type": "Feature",
      "geometry": {
        "type": "Point",
        "coordinates": [
          120.352999,
          22.640077
        ]
      },
      "properties": {
        "routeId": "kaohsiung-keh-5925-9d6f10",
        "city": "kaohsiung",
        "route_name": "KEH-5925",
        "car_seq": "KEH-5925",
        "arrival_time": "1642",
        "departure_time": "1643",
        "district": "鳳山區",
        "village": "文衡里",
        "location": "文德路89號",
        "type": "定點",
        "collection_type": "garbage"
      }
    },
    {
      "type": "Feature",
      "geometry": {
        "type": "Point",
        "coordinates": [
          120.353549,
          22.638614
        ]
      },
      "properties": {
        "routeId": "kaohsiung-keh-5925-9d6f10",
        "city": "kaohsiung",
        "route_name": "KEH-5925",
        "car_seq": "KEH-5925",
        "arrival_time": "1648",
        "departure_time": "1649",
        "district": "鳳山區",
        "village": "文衡里",
        "location": "文殿街31號",
        "type": "定點",
        "collection_type": "garbage"
      }
    },
    {
      "type": "Feature",
      "geometry": {
        "type": "Point",
        "coordinates": [
          120.354386,
          22.638999
        ]
      },
      "properties": {
        "routeId": "kaohsiung-keh-5925-9d6f10",
        "city": "kaohsiung",
        "route_name": "KEH-5925",
        "car_seq": "KEH-5925",
        "arrival_time": "1650",
        "departure_time": "1651",
        "district": "鳳山區",
        "village": "文衡里",
        "location": "文殿街2號",
        "type": "定點",
        "collection_type": "garbage"
      }
    },
    {
      "type": "Feature",
      "geometry": {
        "type": "Point",
        "coordinates": [
          120.353351,
          22.637834
        ]
      },
      "properties": {
        "routeId": "kaohsiung-keh-5925-9d6f10",
        "city": "kaohsiung",
        "route_name": "KEH-5925",
        "car_seq": "KEH-5925",
        "arrival_time": "1657",
        "departure_time": "1658",
        "district": "鳳山區",
        "village": "文衡里",
        "location": "文西街118號",
        "type": "定點",
        "collection_type": "garbage"
      }
    },
    {
      "type": "Feature",
      "geometry": {
        "type": "Point",
        "coordinates": [
          120.356005,
          22.638286
        ]
      },
      "properties": {
        "routeId": "kaohsiung-keh-5925-9d6f10",
        "city": "kaohsiung",
        "route_name": "KEH-5925",
        "car_seq": "KEH-5925",
        "arrival_time": "1658",
        "departure_time": "1659",
        "district": "鳳山區",
        "village": "文衡里",
        "location": "文衡路147號",
        "type": "定點",
        "collection_type": "garbage"
      }
    },
    {
      "type": "Feature",
      "geometry": {
        "type": "Point",
        "coordinates": [
          120.35551,
          22.637957
        ]
      },
      "properties": {
        "routeId": "kaohsiung-keh-5925-9d6f10",
        "city": "kaohsiung",
        "route_name": "KEH-5925",
        "car_seq": "KEH-5925",
        "arrival_time": "1703",
        "departure_time": "1705",
        "district": "鳳山區",
        "village": "文英里",
        "location": "文西街31號",
        "type": "定點",
        "collection_type": "garbage"
      }
    },
    {
      "type": "Feature",
      "geometry": {
        "type": "Point",
        "coordinates": [
          120.35455,
          22.638218
        ]
      },
      "properties": {
        "routeId": "kaohsiung-keh-5925-9d6f10",
        "city": "kaohsiung",
        "route_name": "KEH-5925",
        "car_seq": "KEH-5925",
        "arrival_time": "1706",
        "departure_time": "1707",
        "district": "鳳山區",
        "village": "文衡里",
        "location": "文西街16巷32號",
        "type": "定點",
        "collection_type": "garbage"
      }
    },
    {
      "type": "Feature",
      "geometry": {
        "type": "Point",
        "coordinates": [
          120.354221,
          22.638279
        ]
      },
      "properties": {
        "routeId": "kaohsiung-keh-5925-9d6f10",
        "city": "kaohsiung",
        "route_name": "KEH-5925",
        "car_seq": "KEH-5925",
        "arrival_time": "1707",
        "departure_time": "1708",
        "district": "鳳山區",
        "village": "文衡里",
        "location": "文西街16巷48號",
        "type": "定點",
        "collection_type": "garbage"
      }
    },
    {
      "type": "Feature",
      "geometry": {
        "type": "Point",
        "coordinates": [
          120.353785,
          22.637893
        ]
      },
      "properties": {
        "routeId": "kaohsiung-keh-5925-9d6f10",
        "city": "kaohsiung",
        "route_name": "KEH-5925",
        "car_seq": "KEH-5925",
        "arrival_time": "1708",
        "departure_time": "1709",
        "district": "鳳山區",
        "village": "文衡里",
        "location": "文殿街11巷36號",
        "type": "定點",
        "collection_type": "garbage"
      }
    },
    {
      "type": "Feature",
      "geometry": {
        "type": "Point",
        "coordinates": [
          120.351752,
          22.640742
        ]
      },
      "properties": {
        "routeId": "kaohsiung-keh-5925-9d6f10",
        "city": "kaohsiung",
        "route_name": "KEH-5925",
        "car_seq": "KEH-5925",
        "arrival_time": "1711",
        "departure_time": "1715",
        "district": "鳳山區",
        "village": "文德里",
        "location": "文衡路406號",
        "type": "定點",
        "collection_type": "garbage"
      }
    },
    {
      "type": "Feature",
      "geometry": {
        "type": "Point",
        "coordinates": [
          120.356689,
          22.638251
        ]
      },
      "properties": {
        "routeId": "kaohsiung-keh-5925-9d6f10",
        "city": "kaohsiung",
        "route_name": "KEH-5925",
        "car_seq": "KEH-5925",
        "arrival_time": "1838",
        "departure_time": "1839",
        "district": "鳳山區",
        "village": "文英里",
        "location": "八德路255號",
        "type": "定點",
        "collection_type": "garbage"
      }
    },
    {
      "type": "Feature",
      "geometry": {
        "type": "Point",
        "coordinates": [
          120.35808,
          22.638147
        ]
      },
      "properties": {
        "routeId": "kaohsiung-keh-5925-9d6f10",
        "city": "kaohsiung",
        "route_name": "KEH-5925",
        "car_seq": "KEH-5925",
        "arrival_time": "1839",
        "departure_time": "1840",
        "district": "鳳山區",
        "village": "文英里",
        "location": "八德路197號",
        "type": "定點",
        "collection_type": "garbage"
      }
    },
    {
      "type": "Feature",
      "geometry": {
        "type": "Point",
        "coordinates": [
          120.358442,
          22.638144
        ]
      },
      "properties": {
        "routeId": "kaohsiung-keh-5925-9d6f10",
        "city": "kaohsiung",
        "route_name": "KEH-5925",
        "car_seq": "KEH-5925",
        "arrival_time": "1841",
        "departure_time": "1843",
        "district": "鳳山區",
        "village": "文英里",
        "location": "八德路187號",
        "type": "定點",
        "collection_type": "garbage"
      }
    },
    {
      "type": "Feature",
      "geometry": {
        "type": "Point",
        "coordinates": [
          120.358397,
          22.638145
        ]
      },
      "properties": {
        "routeId": "kaohsiung-keh-5925-9d6f10",
        "city": "kaohsiung",
        "route_name": "KEH-5925",
        "car_seq": "KEH-5925",
        "arrival_time": "1843",
        "departure_time": "1847",
        "district": "鳳山區",
        "village": "文英里",
        "location": "八德路189號",
        "type": "定點",
        "collection_type": "garbage"
      }
    },
    {
      "type": "Feature",
      "geometry": {
        "type": "Point",
        "coordinates": [
          120.359786,
          22.638214
        ]
      },
      "properties": {
        "routeId": "kaohsiung-keh-5925-9d6f10",
        "city": "kaohsiung",
        "route_name": "KEH-5925",
        "car_seq": "KEH-5925",
        "arrival_time": "1847",
        "departure_time": "1848",
        "district": "鳳山區",
        "village": "文英里",
        "location": "八德路123號",
        "type": "定點",
        "collection_type": "garbage"
      }
    },
    {
      "type": "Feature",
      "geometry": {
        "type": "Point",
        "coordinates": [
          120.35997,
          22.637843
        ]
      },
      "properties": {
        "routeId": "kaohsiung-keh-5925-9d6f10",
        "city": "kaohsiung",
        "route_name": "KEH-5925",
        "car_seq": "KEH-5925",
        "arrival_time": "1848",
        "departure_time": "1849",
        "district": "鳳山區",
        "village": "文英里",
        "location": "文英路75號",
        "type": "定點",
        "collection_type": "garbage"
      }
    },
    {
      "type": "Feature",
      "geometry": {
        "type": "Point",
        "coordinates": [
          120.359656,
          22.637007
        ]
      },
      "properties": {
        "routeId": "kaohsiung-keh-5925-9d6f10",
        "city": "kaohsiung",
        "route_name": "KEH-5925",
        "car_seq": "KEH-5925",
        "arrival_time": "1849",
        "departure_time": "1850",
        "district": "鳳山區",
        "village": "文英里",
        "location": "文英路37號",
        "type": "定點",
        "collection_type": "garbage"
      }
    },
    {
      "type": "Feature",
      "geometry": {
        "type": "Point",
        "coordinates": [
          120.359157,
          22.63727
        ]
      },
      "properties": {
        "routeId": "kaohsiung-keh-5925-9d6f10",
        "city": "kaohsiung",
        "route_name": "KEH-5925",
        "car_seq": "KEH-5925",
        "arrival_time": "1850",
        "departure_time": "1851",
        "district": "鳳山區",
        "village": "文英里",
        "location": "文南街20號",
        "type": "定點",
        "collection_type": "garbage"
      }
    },
    {
      "type": "Feature",
      "geometry": {
        "type": "Point",
        "coordinates": [
          120.358542,
          22.637385
        ]
      },
      "properties": {
        "routeId": "kaohsiung-keh-5925-9d6f10",
        "city": "kaohsiung",
        "route_name": "KEH-5925",
        "car_seq": "KEH-5925",
        "arrival_time": "1851",
        "departure_time": "1852",
        "district": "鳳山區",
        "village": "文英里",
        "location": "文南街38號",
        "type": "定點",
        "collection_type": "garbage"
      }
    },
    {
      "type": "Feature",
      "geometry": {
        "type": "Point",
        "coordinates": [
          120.358397,
          22.637418
        ]
      },
      "properties": {
        "routeId": "kaohsiung-keh-5925-9d6f10",
        "city": "kaohsiung",
        "route_name": "KEH-5925",
        "car_seq": "KEH-5925",
        "arrival_time": "1852",
        "departure_time": "1854",
        "district": "鳳山區",
        "village": "文英里",
        "location": "文南街46號",
        "type": "定點",
        "collection_type": "garbage"
      }
    },
    {
      "type": "Feature",
      "geometry": {
        "type": "Point",
        "coordinates": [
          120.358165,
          22.637294
        ]
      },
      "properties": {
        "routeId": "kaohsiung-keh-5925-9d6f10",
        "city": "kaohsiung",
        "route_name": "KEH-5925",
        "car_seq": "KEH-5925",
        "arrival_time": "1854",
        "departure_time": "1856",
        "district": "鳳山區",
        "village": "文英里",
        "location": "文南街43號",
        "type": "定點",
        "collection_type": "garbage"
      }
    },
    {
      "type": "Feature",
      "geometry": {
        "type": "Point",
        "coordinates": [
          120.356086,
          22.639213
        ]
      },
      "properties": {
        "routeId": "kaohsiung-keh-5925-9d6f10",
        "city": "kaohsiung",
        "route_name": "KEH-5925",
        "car_seq": "KEH-5925",
        "arrival_time": "1858",
        "departure_time": "1859",
        "district": "鳳山區",
        "village": "文山里",
        "location": "八德路270巷14號",
        "type": "定點",
        "collection_type": "garbage"
      }
    },
    {
      "type": "Feature",
      "geometry": {
        "type": "Point",
        "coordinates": [
          120.356031,
          22.638649
        ]
      },
      "properties": {
        "routeId": "kaohsiung-keh-5925-9d6f10",
        "city": "kaohsiung",
        "route_name": "KEH-5925",
        "car_seq": "KEH-5925",
        "arrival_time": "1859",
        "departure_time": "1900",
        "district": "鳳山區",
        "village": "文山里",
        "location": "八德路268號",
        "type": "定點",
        "collection_type": "garbage"
      }
    },
    {
      "type": "Feature",
      "geometry": {
        "type": "Point",
        "coordinates": [
          120.355569,
          22.638739
        ]
      },
      "properties": {
        "routeId": "kaohsiung-keh-5925-9d6f10",
        "city": "kaohsiung",
        "route_name": "KEH-5925",
        "car_seq": "KEH-5925",
        "arrival_time": "1900",
        "departure_time": "1901",
        "district": "鳳山區",
        "village": "文山里",
        "location": "八德路282號",
        "type": "定點",
        "collection_type": "garbage"
      }
    },
    {
      "type": "Feature",
      "geometry": {
        "type": "Point",
        "coordinates": [
          120.354729,
          22.639375
        ]
      },
      "properties": {
        "routeId": "kaohsiung-keh-5925-9d6f10",
        "city": "kaohsiung",
        "route_name": "KEH-5925",
        "car_seq": "KEH-5925",
        "arrival_time": "1902",
        "departure_time": "1903",
        "district": "鳳山區",
        "village": "文山里",
        "location": "八德路338號",
        "type": "定點",
        "collection_type": "garbage"
      }
    },
    {
      "type": "Feature",
      "geometry": {
        "type": "Point",
        "coordinates": [
          120.354688,
          22.639686
        ]
      },
      "properties": {
        "routeId": "kaohsiung-keh-5925-9d6f10",
        "city": "kaohsiung",
        "route_name": "KEH-5925",
        "car_seq": "KEH-5925",
        "arrival_time": "1904",
        "departure_time": "1905",
        "district": "鳳山區",
        "village": "文山里",
        "location": "八德路352號",
        "type": "定點",
        "collection_type": "garbage"
      }
    },
    {
      "type": "Feature",
      "geometry": {
        "type": "Point",
        "coordinates": [
          120.352147,
          22.642904
        ]
      },
      "properties": {
        "routeId": "kaohsiung-keh-5925-9d6f10",
        "city": "kaohsiung",
        "route_name": "KEH-5925",
        "car_seq": "KEH-5925",
        "arrival_time": "1907",
        "departure_time": "1909",
        "district": "鳳山區",
        "village": "文德里",
        "location": "文龍東路791巷6號",
        "type": "定點",
        "collection_type": "garbage"
      }
    },
    {
      "type": "Feature",
      "geometry": {
        "type": "Point",
        "coordinates": [
          120.351969,
          22.642002
        ]
      },
      "properties": {
        "routeId": "kaohsiung-keh-5925-9d6f10",
        "city": "kaohsiung",
        "route_name": "KEH-5925",
        "car_seq": "KEH-5925",
        "arrival_time": "1911",
        "departure_time": "1914",
        "district": "鳳山區",
        "village": "文德里",
        "location": "文中街260巷1號",
        "type": "定點",
        "collection_type": "garbage"
      }
    },
    {
      "type": "Feature",
      "geometry": {
        "type": "Point",
        "coordinates": [
          120.35278,
          22.642035
        ]
      },
      "properties": {
        "routeId": "kaohsiung-keh-5925-9d6f10",
        "city": "kaohsiung",
        "route_name": "KEH-5925",
        "car_seq": "KEH-5925",
        "arrival_time": "1914",
        "departure_time": "1915",
        "district": "鳳山區",
        "village": "文德里",
        "location": "文中街232巷2號",
        "type": "定點",
        "collection_type": "garbage"
      }
    },
    {
      "type": "Feature",
      "geometry": {
        "type": "Point",
        "coordinates": [
          120.352596,
          22.642128
        ]
      },
      "properties": {
        "routeId": "kaohsiung-keh-5925-9d6f10",
        "city": "kaohsiung",
        "route_name": "KEH-5925",
        "car_seq": "KEH-5925",
        "arrival_time": "1915",
        "departure_time": "1919",
        "district": "鳳山區",
        "village": "文德里",
        "location": "文中街232巷1號",
        "type": "定點",
        "collection_type": "garbage"
      }
    },
    {
      "type": "Feature",
      "geometry": {
        "type": "Point",
        "coordinates": [
          120.348095,
          22.643142
        ]
      },
      "properties": {
        "routeId": "kaohsiung-keh-5925-9d6f10",
        "city": "kaohsiung",
        "route_name": "KEH-5925",
        "car_seq": "KEH-5925",
        "arrival_time": "1926",
        "departure_time": "1927",
        "district": "鳳山區",
        "village": "文德里",
        "location": "文安街42號",
        "type": "定點",
        "collection_type": "garbage"
      }
    },
    {
      "type": "Feature",
      "geometry": {
        "type": "Point",
        "coordinates": [
          120.349389,
          22.64487
        ]
      },
      "properties": {
        "routeId": "kaohsiung-keh-5925-9d6f10",
        "city": "kaohsiung",
        "route_name": "KEH-5925",
        "car_seq": "KEH-5925",
        "arrival_time": "1931",
        "departure_time": "1932",
        "district": "鳳山區",
        "village": "文德里",
        "location": "文樂街22號",
        "type": "定點",
        "collection_type": "garbage"
      }
    },
    {
      "type": "Feature",
      "geometry": {
        "type": "Point",
        "coordinates": [
          120.348209,
          22.645802
        ]
      },
      "properties": {
        "routeId": "kaohsiung-keh-5925-9d6f10",
        "city": "kaohsiung",
        "route_name": "KEH-5925",
        "car_seq": "KEH-5925",
        "arrival_time": "1932",
        "departure_time": "1933",
        "district": "鳳山區",
        "village": "文德里",
        "location": "文樂街78號",
        "type": "定點",
        "collection_type": "garbage"
      }
    },
    {
      "type": "Feature",
      "geometry": {
        "type": "Point",
        "coordinates": [
          120.348602,
          22.643585
        ]
      },
      "properties": {
        "routeId": "kaohsiung-keh-5925-9d6f10",
        "city": "kaohsiung",
        "route_name": "KEH-5925",
        "car_seq": "KEH-5925",
        "arrival_time": "1934",
        "departure_time": "1935",
        "district": "鳳山區",
        "village": "文德里",
        "location": "文龍路65號",
        "type": "定點",
        "collection_type": "garbage"
      }
    },
    {
      "type": "Feature",
      "geometry": {
        "type": "Point",
        "coordinates": [
          120.349215,
          22.64325
        ]
      },
      "properties": {
        "routeId": "kaohsiung-keh-5925-9d6f10",
        "city": "kaohsiung",
        "route_name": "KEH-5925",
        "car_seq": "KEH-5925",
        "arrival_time": "1936",
        "departure_time": "1938",
        "district": "鳳山區",
        "village": "文德里",
        "location": "文濱路123號",
        "type": "定點",
        "collection_type": "garbage"
      }
    },
    {
      "type": "Feature",
      "geometry": {
        "type": "Point",
        "coordinates": [
          120.344305,
          22.628812
        ]
      },
      "properties": {
        "routeId": "kaohsiung-keh-5925-9d6f10",
        "city": "kaohsiung",
        "route_name": "KEH-5925",
        "car_seq": "KEH-5925",
        "arrival_time": "2000",
        "departure_time": "2001",
        "district": "鳳山區",
        "village": "忠義里",
        "location": "澄清路93號前",
        "type": "定點",
        "collection_type": "garbage"
      }
    },
    {
      "type": "Feature",
      "geometry": {
        "type": "Point",
        "coordinates": [
          120.34395,
          22.628299
        ]
      },
      "properties": {
        "routeId": "kaohsiung-keh-5925-9d6f10",
        "city": "kaohsiung",
        "route_name": "KEH-5925",
        "car_seq": "KEH-5925",
        "arrival_time": "2002",
        "departure_time": "2003",
        "district": "鳳山區",
        "village": "忠義里",
        "location": "中山西路306號",
        "type": "定點",
        "collection_type": "garbage"
      }
    },
    {
      "type": "Feature",
      "geometry": {
        "type": "Point",
        "coordinates": [
          120.343495,
          22.628322
        ]
      },
      "properties": {
        "routeId": "kaohsiung-keh-5925-9d6f10",
        "city": "kaohsiung",
        "route_name": "KEH-5925",
        "car_seq": "KEH-5925",
        "arrival_time": "2003",
        "departure_time": "2004",
        "district": "鳳山區",
        "village": "忠義里",
        "location": "中山西路308號",
        "type": "定點",
        "collection_type": "garbage"
      }
    },
    {
      "type": "Feature",
      "geometry": {
        "type": "Point",
        "coordinates": [
          120.342614,
          22.628475
        ]
      },
      "properties": {
        "routeId": "kaohsiung-keh-5925-9d6f10",
        "city": "kaohsiung",
        "route_name": "KEH-5925",
        "car_seq": "KEH-5925",
        "arrival_time": "2004",
        "departure_time": "2005",
        "district": "鳳山區",
        "village": "忠義里",
        "location": "中山西路332號",
        "type": "定點",
        "collection_type": "garbage"
      }
    },
    {
      "type": "Feature",
      "geometry": {
        "type": "Point",
        "coordinates": [
          120.341744,
          22.628798
        ]
      },
      "properties": {
        "routeId": "kaohsiung-keh-5925-9d6f10",
        "city": "kaohsiung",
        "route_name": "KEH-5925",
        "car_seq": "KEH-5925",
        "arrival_time": "2005",
        "departure_time": "2007",
        "district": "鳳山區",
        "village": "忠義里",
        "location": "中山西路366號",
        "type": "定點",
        "collection_type": "garbage"
      }
    },
    {
      "type": "Feature",
      "geometry": {
        "type": "Point",
        "coordinates": [
          120.340839,
          22.629057
        ]
      },
      "properties": {
        "routeId": "kaohsiung-keh-5925-9d6f10",
        "city": "kaohsiung",
        "route_name": "KEH-5925",
        "car_seq": "KEH-5925",
        "arrival_time": "2007",
        "departure_time": "2009",
        "district": "鳳山區",
        "village": "忠義里",
        "location": "中山西路382號",
        "type": "定點",
        "collection_type": "garbage"
      }
    },
    {
      "type": "Feature",
      "geometry": {
        "type": "Point",
        "coordinates": [
          120.340493,
          22.629398
        ]
      },
      "properties": {
        "routeId": "kaohsiung-keh-5925-9d6f10",
        "city": "kaohsiung",
        "route_name": "KEH-5925",
        "car_seq": "KEH-5925",
        "arrival_time": "2010",
        "departure_time": "2011",
        "district": "鳳山區",
        "village": "忠義里",
        "location": "光復路二段341號",
        "type": "定點",
        "collection_type": "garbage"
      }
    },
    {
      "type": "Feature",
      "geometry": {
        "type": "Point",
        "coordinates": [
          120.341273,
          22.62937
        ]
      },
      "properties": {
        "routeId": "kaohsiung-keh-5925-9d6f10",
        "city": "kaohsiung",
        "route_name": "KEH-5925",
        "car_seq": "KEH-5925",
        "arrival_time": "2011",
        "departure_time": "2012",
        "district": "鳳山區",
        "village": "忠義里",
        "location": "光復路二段339之1號",
        "type": "定點",
        "collection_type": "garbage"
      }
    },
    {
      "type": "Feature",
      "geometry": {
        "type": "Point",
        "coordinates": [
          120.341837,
          22.629353
        ]
      },
      "properties": {
        "routeId": "kaohsiung-keh-5925-9d6f10",
        "city": "kaohsiung",
        "route_name": "KEH-5925",
        "car_seq": "KEH-5925",
        "arrival_time": "2012",
        "departure_time": "2013",
        "district": "鳳山區",
        "village": "忠義里",
        "location": "光復路二段313號",
        "type": "定點",
        "collection_type": "garbage"
      }
    },
    {
      "type": "Feature",
      "geometry": {
        "type": "Point",
        "coordinates": [
          120.34197,
          22.630454
        ]
      },
      "properties": {
        "routeId": "kaohsiung-keh-5925-9d6f10",
        "city": "kaohsiung",
        "route_name": "KEH-5925",
        "car_seq": "KEH-5925",
        "arrival_time": "2014",
        "departure_time": "2016",
        "district": "鳳山區",
        "village": "忠孝里",
        "location": "光復路二段186號",
        "type": "定點",
        "collection_type": "garbage"
      }
    },
    {
      "type": "Feature",
      "geometry": {
        "type": "Point",
        "coordinates": [
          120.342733,
          22.629334
        ]
      },
      "properties": {
        "routeId": "kaohsiung-keh-5925-9d6f10",
        "city": "kaohsiung",
        "route_name": "KEH-5925",
        "car_seq": "KEH-5925",
        "arrival_time": "2017",
        "departure_time": "2018",
        "district": "鳳山區",
        "village": "忠義里",
        "location": "光復路二段265號",
        "type": "定點",
        "collection_type": "garbage"
      }
    },
    {
      "type": "Feature",
      "geometry": {
        "type": "Point",
        "coordinates": [
          120.343922,
          22.628685
        ]
      },
      "properties": {
        "routeId": "kaohsiung-keh-5925-9d6f10",
        "city": "kaohsiung",
        "route_name": "KEH-5925",
        "car_seq": "KEH-5925",
        "arrival_time": "2019",
        "departure_time": "2020",
        "district": "鳳山區",
        "village": "忠義里",
        "location": "府前路20號前",
        "type": "定點",
        "collection_type": "garbage"
      }
    },
    {
      "type": "Feature",
      "geometry": {
        "type": "Point",
        "coordinates": [
          120.344095,
          22.6293
        ]
      },
      "properties": {
        "routeId": "kaohsiung-keh-5925-9d6f10",
        "city": "kaohsiung",
        "route_name": "KEH-5925",
        "car_seq": "KEH-5925",
        "arrival_time": "2021",
        "departure_time": "2022",
        "district": "鳳山區",
        "village": "忠義里",
        "location": "光復路二段237號",
        "type": "定點",
        "collection_type": "garbage"
      }
    }
  ]
}