{
  "type": "FeatureCollection",
  "features": [
    {
      "type": "Feature",
      "geometry": {
        "type": "Point",
        "coordinates": [
          120.295816,
          22.65029
        ]
      },
      "properties": {
        "routeId": "kaohsiung-keh-6378-267a27",
        "city": "kaohsiung",
        "route_name": "KEH-6378",
        "car_seq": "KEH-6378",
        "arrival_time": "1603",
        "departure_time": "1605",
        "district": "三民區",
        "village": "安宜里",
        "location": "同盟二路215號",
        "type": "定點",
        "collection_type": "garbage"
      }
    },
    {
      "type": "Feature",
      "geometry": {
        "type": "Point",
        "coordinates": [
          120.298407,
          22.650808
        ]
      },
      "properties": {
        "routeId": "kaohsiung-keh-6378-267a27",
        "city": "kaohsiung",
        "route_name": "KEH-6378",
        "car_seq": "KEH-6378",
        "arrival_time": "1606",
        "departure_time": "1607",
        "district": "三民區",
        "village": "安宜里",
        "location": "同盟二路147號",
        "type": "定點",
        "collection_type": "garbage"
      }
    },
    {
      "type": "Feature",
      "geometry": {
        "type": "Point",
        "coordinates": [
          120.302888,
          22.651568
        ]
      },
      "properties": {
        "routeId": "kaohsiung-keh-6378-267a27",
        "city": "kaohsiung",
        "route_name": "KEH-6378",
        "car_seq": "KEH-6378",
        "arrival_time": "1616",
        "departure_time": "1618",
        "district": "三民區",
        "village": "安泰里",
        "location": "同盟二路11號",
        "type": "定點",
        "collection_type": "garbage"
      }
    },
    {
      "type": "Feature",
      "geometry": {
        "type": "Point",
        "coordinates": [
          120.303233,
          22.651226
        ]
      },
      "properties": {
        "routeId": "kaohsiung-keh-6378-267a27",
        "city": "kaohsiung",
        "route_name": "KEH-6378",
        "car_seq": "KEH-6378",
        "arrival_time": "1619",
        "departure_time": "1620",
        "district": "三民區",
        "village": "安泰里",
        "location": "博愛一路391號",
        "type": "定點",
        "collection_type": "garbage"
      }
    },
    {
      "type": "Feature",
      "geometry": {
        "type": "Point",
        "coordinates": [
          120.301674,
          22.645747
        ]
      },
      "properties": {
        "routeId": "kaohsiung-keh-6378-267a27",
        "city": "kaohsiung",
        "route_name": "KEH-6378",
        "car_seq": "KEH-6378",
        "arrival_time": "1645",
        "departure_time": "1647",
        "district": "三民區",
        "village": "安邦里",
        "location": "十全二路42號",
        "type": "定點",
        "collection_type": "garbage"
      }
    },
    {
      "type": "Feature",
      "geometry": {
        "type": "Point",
        "coordinates": [
          120.300389,
          22.645841
        ]
      },
      "properties": {
        "routeId": "kaohsiung-keh-6378-267a27",
        "city": "kaohsiung",
        "route_name": "KEH-6378",
        "car_seq": "KEH-6378",
        "arrival_time": "1647",
        "departure_time": "1650",
        "district": "三民區",
        "village": "安邦里",
        "location": "十全二路96號",
        "type": "定點",
        "collection_type": "garbage"
      }
    },
    {
      "type": "Feature",
      "geometry": {
        "type": "Point",
        "coordinates": [
          120.300629,
          22.647675
        ]
      },
      "properties": {
        "routeId": "kaohsiung-keh-6378-267a27",
        "city": "kaohsiung",
        "route_name": "KEH-6378",
        "car_seq": "KEH-6378",
        "arrival_time": "1651",
        "departure_time": "1654",
        "district": "三民區",
        "village": "安邦里",
        "location": "察哈爾二街71號",
        "type": "定點",
        "collection_type": "garbage"
      }
    },
    {
      "type": "Feature",
      "geometry": {
        "type": "Point",
        "coordinates": [
          120.301953,
          22.647862
        ]
      },
      "properties": {
        "routeId": "kaohsiung-keh-6378-267a27",
        "city": "kaohsiung",
        "route_name": "KEH-6378",
        "car_seq": "KEH-6378",
        "arrival_time": "1657",
        "departure_time": "1700",
        "district": "三民區",
        "village": "安泰里",
        "location": "察哈爾二街24號",
        "type": "定點",
        "collection_type": "garbage"
      }
    },
    {
      "type": "Feature",
      "geometry": {
        "type": "Point",
        "coordinates": [
          120.303192,
          22.650486
        ]
      },
      "properties": {
        "routeId": "kaohsiung-keh-6378-267a27",
        "city": "kaohsiung",
        "route_name": "KEH-6378",
        "car_seq": "KEH-6378",
        "arrival_time": "1805",
        "departure_time": "1807",
        "district": "三民區",
        "village": "安泰里",
        "location": "博愛一路355號",
        "type": "定點",
        "collection_type": "garbage"
      }
    },
    {
      "type": "Feature",
      "geometry": {
        "type": "Point",
        "coordinates": [
          120.300616,
          22.650525
        ]
      },
      "properties": {
        "routeId": "kaohsiung-keh-6378-267a27",
        "city": "kaohsiung",
        "route_name": "KEH-6378",
        "car_seq": "KEH-6378",
        "arrival_time": "1823",
        "departure_time": "1825",
        "district": "三民區",
        "village": "安泰里",
        "location": "北平二街92號",
        "type": "定點",
        "collection_type": "garbage"
      }
    },
    {
      "type": "Feature",
      "geometry": {
        "type": "Point",
        "coordinates": [
          120.299513,
          22.650604
        ]
      },
      "properties": {
        "routeId": "kaohsiung-keh-6378-267a27",
        "city": "kaohsiung",
        "route_name": "KEH-6378",
        "car_seq": "KEH-6378",
        "arrival_time": "1825",
        "departure_time": "1828",
        "district": "三民區",
        "village": "安宜里",
        "location": "北平二街122號",
        "type": "定點",
        "collection_type": "garbage"
      }
    },
    {
      "type": "Feature",
      "geometry": {
        "type": "Point",
        "coordinates": [
          120.298396,
          22.65041
        ]
      },
      "properties": {
        "routeId": "kaohsiung-keh-6378-267a27",
        "city": "kaohsiung",
        "route_name": "KEH-6378",
        "car_seq": "KEH-6378",
        "arrival_time": "1855",
        "departure_time": "1857",
        "district": "三民區",
        "village": "安宜里",
        "location": "北平二街155號",
        "type": "定點",
        "collection_type": "garbage"
      }
    },
    {
      "type": "Feature",
      "geometry": {
        "type": "Point",
        "coordinates": [
          120.299763,
          22.650849
        ]
      },
      "properties": {
        "routeId": "kaohsiung-keh-6378-267a27",
        "city": "kaohsiung",
        "route_name": "KEH-6378",
        "car_seq": "KEH-6378",
        "arrival_time": "1857",
        "departure_time": "1859",
        "district": "三民區",
        "village": "安宜里",
        "location": "同盟二路109號",
        "type": "定點",
        "collection_type": "garbage"
      }
    },
    {
      "type": "Feature",
      "geometry": {
        "type": "Point",
        "coordinates": [
          120.298025,
          22.648152
        ]
      },
      "properties": {
        "routeId": "kaohsiung-keh-6378-267a27",
        "city": "kaohsiung",
        "route_name": "KEH-6378",
        "car_seq": "KEH-6378",
        "arrival_time": "1910",
        "departure_time": "1911",
        "district": "三民區",
        "village": "安宜里",
        "location": "察哈爾二街196號",
        "type": "定點",
        "collection_type": "garbage"
      }
    },
    {
      "type": "Feature",
      "geometry": {
        "type": "Point",
        "coordinates": [
          120.296952,
          22.648806
        ]
      },
      "properties": {
        "routeId": "kaohsiung-keh-6378-267a27",
        "city": "kaohsiung",
        "route_name": "KEH-6378",
        "car_seq": "KEH-6378",
        "arrival_time": "1914",
        "departure_time": "1916",
        "district": "三民區",
        "village": "安宜里",
        "location": "自立一路484號",
        "type": "定點",
        "collection_type": "garbage"
      }
    },
    {
      "type": "Feature",
      "geometry": {
        "type": "Point",
        "coordinates": [
          120.297088,
          22.650188
        ]
      },
      "properties": {
        "routeId": "kaohsiung-keh-6378-267a27",
        "city": "kaohsiung",
        "route_name": "KEH-6378",
        "car_seq": "KEH-6378",
        "arrival_time": "1918",
        "departure_time": "1920",
        "district": "三民區",
        "village": "安宜里",
        "location": "自立一路542號",
        "type": "定點",
        "collection_type": "garbage"
      }
    },
    {
      "type": "Feature",
      "geometry": {
        "type": "Point",
        "coordinates": [
          120.297462,
          22.650487
        ]
      },
      "properties": {
        "routeId": "kaohsiung-keh-6378-267a27",
        "city": "kaohsiung",
        "route_name": "KEH-6378",
        "car_seq": "KEH-6378",
        "arrival_time": "1920",
        "departure_time": "1922",
        "district": "三民區",
        "village": "安宜里",
        "location": "北平二街195號",
        "type": "定點",
        "collection_type": "garbage"
      }
    },
    {
      "type": "Feature",
      "geometry": {
        "type": "Point",
        "coordinates": [
          120.298288,
          22.65004
        ]
      },
      "properties": {
        "routeId": "kaohsiung-keh-6378-267a27",
        "city": "kaohsiung",
        "route_name": "KEH-6378",
        "car_seq": "KEH-6378",
        "arrival_time": "1923",
        "departure_time": "1925",
        "district": "三民區",
        "village": "安宜里",
        "location": "唐山街62號",
        "type": "定點",
        "collection_type": "garbage"
      }
    },
    {
      "type": "Feature",
      "geometry": {
        "type": "Point",
        "coordinates": [
          120.299375,
          22.649964
        ]
      },
      "properties": {
        "routeId": "kaohsiung-keh-6378-267a27",
        "city": "kaohsiung",
        "route_name": "KEH-6378",
        "car_seq": "KEH-6378",
        "arrival_time": "1925",
        "departure_time": "1927",
        "district": "三民區",
        "village": "安宜里",
        "location": "唐山街36號",
        "type": "定點",
        "collection_type": "garbage"
      }
    },
    {
      "type": "Feature",
      "geometry": {
        "type": "Point",
        "coordinates": [
          120.299869,
          22.649677
        ]
      },
      "properties": {
        "routeId": "kaohsiung-keh-6378-267a27",
        "city": "kaohsiung",
        "route_name": "KEH-6378",
        "car_seq": "KEH-6378",
        "arrival_time": "1927",
        "departure_time": "1927",
        "district": "三民區",
        "village": "安宜里",
        "location": "唐山街1號",
        "type": "定點",
        "collection_type": "garbage"
      }
    },
    {
      "type": "Feature",
      "geometry": {
        "type": "Point",
        "coordinates": [
          120.302426,
          22.647313
        ]
      },
      "properties": {
        "routeId": "kaohsiung-keh-6378-267a27",
        "city": "kaohsiung",
        "route_name": "KEH-6378",
        "car_seq": "KEH-6378",
        "arrival_time": "2028",
        "departure_time": "2031",
        "district": "三民區",
        "village": "安邦里",
        "location": "重慶街206號",
        "type": "定點",
        "collection_type": "garbage"
      }
    },
    {
      "type": "Feature",
      "geometry": {
        "type": "Point",
        "coordinates": [
          120.301053,
          22.649754
        ]
      },
      "properties": {
        "routeId": "kaohsiung-keh-6378-267a27",
        "city": "kaohsiung",
        "route_name": "KEH-6378",
        "car_seq": "KEH-6378",
        "arrival_time": "2051",
        "departure_time": "2054",
        "district": "三民區",
        "village": "安泰里",
        "location": "開原街28號",
        "type": "定點",
        "collection_type": "garbage"
      }
    },
    {
      "type": "Feature",
      "geometry": {
        "type": "Point",
        "coordinates": [
          120.300442,
          22.649001
        ]
      },
      "properties": {
        "routeId": "kaohsiung-keh-6378-267a27",
        "city": "kaohsiung",
        "route_name": "KEH-6378",
        "car_seq": "KEH-6378",
        "arrival_time": "2102",
        "departure_time": "2104",
        "district": "三民區",
        "village": "安泰里",
        "location": "綏遠二街63號",
        "type": "定點",
        "collection_type": "garbage"
      }
    },
    {
      "type": "Feature",
      "geometry": {
        "type": "Point",
        "coordinates": [
          120.299137,
          22.649329
        ]
      },
      "properties": {
        "routeId": "kaohsiung-keh-6378-267a27",
        "city": "kaohsiung",
        "route_name": "KEH-6378",
        "car_seq": "KEH-6378",
        "arrival_time": "2105",
        "departure_time": "2106",
        "district": "三民區",
        "village": "安宜里",
        "location": "綏遠二街180號",
        "type": "定點",
        "collection_type": "garbage"
      }
    },
    {
      "type": "Feature",
      "geometry": {
        "type": "Point",
        "coordinates": [
          120.298447,
          22.649391
        ]
      },
      "properties": {
        "routeId": "kaohsiung-keh-6378-267a27",
        "city": "kaohsiung",
        "route_name": "KEH-6378",
        "car_seq": "KEH-6378",
        "arrival_time": "2106",
        "departure_time": "2108",
        "district": "三民區",
        "village": "安宜里",
        "location": "綏遠二街196號",
        "type": "定點",
        "collection_type": "garbage"
      }
    },
    {
      "type": "Feature",
      "geometry": {
        "type": "Point",
        "coordinates": [
          120.298265,
          22.648766
        ]
      },
      "properties": {
        "routeId": "kaohsiung-keh-6378-267a27",
        "city": "kaohsiung",
        "route_name": "KEH-6378",
        "car_seq": "KEH-6378",
        "arrival_time": "2109",
        "departure_time": "2111",
        "district": "三民區",
        "village": "安宜里",
        "location": "宣化街142號",
        "type": "定點",
        "collection_type": "garbage"
      }
    },
    {
      "type": "Feature",
      "geometry": {
        "type": "Point",
        "coordinates": [
          120.299244,
          22.648472
        ]
      },
      "properties": {
        "routeId": "kaohsiung-keh-6378-267a27",
        "city": "kaohsiung",
        "route_name": "KEH-6378",
        "car_seq": "KEH-6378",
        "arrival_time": "2111",
        "departure_time": "2112",
        "district": "三民區",
        "village": "安宜里",
        "location": "宣化街109號",
        "type": "定點",
        "collection_type": "garbage"
      }
    },
    {
      "type": "Feature",
      "geometry": {
        "type": "Point",
        "coordinates": [
          120.302597,
          22.64949
        ]
      },
      "properties": {
        "routeId": "kaohsiung-keh-6378-267a27",
        "city": "kaohsiung",
        "route_name": "KEH-6378",
        "car_seq": "KEH-6378",
        "arrival_time": "2119",
        "departure_time": "2121",
        "district": "三民區",
        "village": "安泰里",
        "location": "重慶街286號",
        "type": "定點",
        "collection_type": "garbage"
      }
    }
  ]
}