{
  "type": "FeatureCollection",
  "features": [
    {
      "type": "Feature",
      "geometry": {
        "type": "Point",
        "coordinates": [
          120.319615,
          22.61333
        ]
      },
      "properties": {
        "routeId": "kaohsiung-kef-5850-559128",
        "city": "kaohsiung",
        "route_name": "KEF-5850",
        "car_seq": "KEF-5850",
        "arrival_time": "1555",
        "departure_time": "1558",
        "district": "前鎮區",
        "village": "竹中里",
        "location": "廣州三街48號前",
        "type": "定點",
        "collection_type": "garbage"
      }
    },
    {
      "type": "Feature",
      "geometry": {
        "type": "Point",
        "coordinates": [
          120.322427,
          22.612922
        ]
      },
      "properties": {
        "routeId": "kaohsiung-kef-5850-559128",
        "city": "kaohsiung",
        "route_name": "KEF-5850",
        "car_seq": "KEF-5850",
        "arrival_time": "1609",
        "departure_time": "1610",
        "district": "前鎮區",
        "village": "竹中里",
        "location": "和平二路203號前",
        "type": "定點",
        "collection_type": "garbage"
      }
    },
    {
      "type": "Feature",
      "geometry": {
        "type": "Point",
        "coordinates": [
          120.318122,
          22.609667
        ]
      },
      "properties": {
        "routeId": "kaohsiung-kef-5850-559128",
        "city": "kaohsiung",
        "route_name": "KEF-5850",
        "car_seq": "KEF-5850",
        "arrival_time": "1648",
        "departure_time": "1651",
        "district": "前鎮區",
        "village": "竹西里",
        "location": "汕頭街81號",
        "type": "定點",
        "collection_type": "garbage"
      }
    },
    {
      "type": "Feature",
      "geometry": {
        "type": "Point",
        "coordinates": [
          120.320984,
          22.60821
        ]
      },
      "properties": {
        "routeId": "kaohsiung-kef-5850-559128",
        "city": "kaohsiung",
        "route_name": "KEF-5850",
        "car_seq": "KEF-5850",
        "arrival_time": "1830",
        "departure_time": "1832",
        "district": "前鎮區",
        "village": "竹西里",
        "location": "和平二路55號前",
        "type": "定點",
        "collection_type": "garbage"
      }
    },
    {
      "type": "Feature",
      "geometry": {
        "type": "Point",
        "coordinates": [
          120.320856,
          22.607814
        ]
      },
      "properties": {
        "routeId": "kaohsiung-kef-5850-559128",
        "city": "kaohsiung",
        "route_name": "KEF-5850",
        "car_seq": "KEF-5850",
        "arrival_time": "1832",
        "departure_time": "1834",
        "district": "前鎮區",
        "village": "竹西里",
        "location": "和平二路35號前",
        "type": "定點",
        "collection_type": "garbage"
      }
    },
    {
      "type": "Feature",
      "geometry": {
        "type": "Point",
        "coordinates": [
          120.319592,
          22.607707
        ]
      },
      "properties": {
        "routeId": "kaohsiung-kef-5850-559128",
        "city": "kaohsiung",
        "route_name": "KEF-5850",
        "car_seq": "KEF-5850",
        "arrival_time": "1838",
        "departure_time": "1840",
        "district": "前鎮區",
        "village": "竹西里",
        "location": "廣東三街2號前",
        "type": "定點",
        "collection_type": "garbage"
      }
    },
    {
      "type": "Feature",
      "geometry": {
        "type": "Point",
        "coordinates": [
          120.318368,
          22.614729
        ]
      },
      "properties": {
        "routeId": "kaohsiung-kef-5850-559128",
        "city": "kaohsiung",
        "route_name": "KEF-5850",
        "car_seq": "KEF-5850",
        "arrival_time": "1906",
        "departure_time": "1907",
        "district": "前鎮區",
        "village": "竹中里",
        "location": "光華二路290號前",
        "type": "定點",
        "collection_type": "garbage"
      }
    },
    {
      "type": "Feature",
      "geometry": {
        "type": "Point",
        "coordinates": [
          120.318042,
          22.609134
        ]
      },
      "properties": {
        "routeId": "kaohsiung-kef-5850-559128",
        "city": "kaohsiung",
        "route_name": "KEF-5850",
        "car_seq": "KEF-5850",
        "arrival_time": "1926",
        "departure_time": "1929",
        "district": "前鎮區",
        "village": "竹西里",
        "location": "廉江街47號前",
        "type": "定點",
        "collection_type": "garbage"
      }
    },
    {
      "type": "Feature",
      "geometry": {
        "type": "Point",
        "coordinates": [
          120.321764,
          22.603577
        ]
      },
      "properties": {
        "routeId": "kaohsiung-kef-5850-559128",
        "city": "kaohsiung",
        "route_name": "KEF-5850",
        "car_seq": "KEF-5850",
        "arrival_time": "2056",
        "departure_time": "2058",
        "district": "前鎮區",
        "village": "瑞竹里",
        "location": "凱得街172號與凱旋四路961巷口",
        "type": "定點",
        "collection_type": "garbage"
      }
    },
    {
      "type": "Feature",
      "geometry": {
        "type": "Point",
        "coordinates": [
          120.32155,
          22.602232
        ]
      },
      "properties": {
        "routeId": "kaohsiung-kef-5850-559128",
        "city": "kaohsiung",
        "route_name": "KEF-5850",
        "car_seq": "KEF-5850",
        "arrival_time": "2059",
        "departure_time": "2100",
        "district": "前鎮區",
        "village": "瑞竹里",
        "location": "凱得街與凱旋市場巷130號前",
        "type": "定點",
        "collection_type": "garbage"
      }
    },
    {
      "type": "Feature",
      "geometry": {
        "type": "Point",
        "coordinates": [
          120.31577,
          22.609864
        ]
      },
      "properties": {
        "routeId": "kaohsiung-kef-5850-559128",
        "city": "kaohsiung",
        "route_name": "KEF-5850",
        "car_seq": "KEF-5850",
        "arrival_time": "2111",
        "departure_time": "2113",
        "district": "前鎮區",
        "village": "興東里",
        "location": "長江街63號前",
        "type": "定點",
        "collection_type": "garbage"
      }
    },
    {
      "type": "Feature",
      "geometry": {
        "type": "Point",
        "coordinates": [
          120.31544,
          22.610721
        ]
      },
      "properties": {
        "routeId": "kaohsiung-kef-5850-559128",
        "city": "kaohsiung",
        "route_name": "KEF-5850",
        "car_seq": "KEF-5850",
        "arrival_time": "2114",
        "departure_time": "2116",
        "district": "前鎮區",
        "village": "興東里",
        "location": "嘉陵街40號前",
        "type": "定點",
        "collection_type": "garbage"
      }
    }
  ]
}