{
  "type": "FeatureCollection",
  "features": [
    {
      "type": "Feature",
      "geometry": {
        "type": "Point",
        "coordinates": [
          120.383863,
          22.655009
        ]
      },
      "properties": {
        "routeId": "kaohsiung-keh-6268-a995a3",
        "city": "kaohsiung",
        "route_name": "KEH-6268",
        "car_seq": "KEH-6268",
        "arrival_time": "1713",
        "departure_time": "1714",
        "district": "鳥松區",
        "village": "坔埔里",
        "location": "同富街132巷25弄2號",
        "type": "定點",
        "collection_type": "garbage"
      }
    },
    {
      "type": "Feature",
      "geometry": {
        "type": "Point",
        "coordinates": [
          120.383861,
          22.654709
        ]
      },
      "properties": {
        "routeId": "kaohsiung-keh-6268-a995a3",
        "city": "kaohsiung",
        "route_name": "KEH-6268",
        "car_seq": "KEH-6268",
        "arrival_time": "1714",
        "departure_time": "1715",
        "district": "鳥松區",
        "village": "坔埔里",
        "location": "同富街132巷25弄22號",
        "type": "定點",
        "collection_type": "garbage"
      }
    },
    {
      "type": "Feature",
      "geometry": {
        "type": "Point",
        "coordinates": [
          120.384576,
          22.654548
        ]
      },
      "properties": {
        "routeId": "kaohsiung-keh-6268-a995a3",
        "city": "kaohsiung",
        "route_name": "KEH-6268",
        "car_seq": "KEH-6268",
        "arrival_time": "1715",
        "departure_time": "1716",
        "district": "鳥松區",
        "village": "坔埔里",
        "location": "同富街132巷3弄21號",
        "type": "定點",
        "collection_type": "garbage"
      }
    },
    {
      "type": "Feature",
      "geometry": {
        "type": "Point",
        "coordinates": [
          120.385439,
          22.655732
        ]
      },
      "properties": {
        "routeId": "kaohsiung-keh-6268-a995a3",
        "city": "kaohsiung",
        "route_name": "KEH-6268",
        "car_seq": "KEH-6268",
        "arrival_time": "1723",
        "departure_time": "1724",
        "district": "鳥松區",
        "village": "坔埔里",
        "location": "同富街131巷1弄29號",
        "type": "定點",
        "collection_type": "garbage"
      }
    },
    {
      "type": "Feature",
      "geometry": {
        "type": "Point",
        "coordinates": [
          120.383048,
          22.657927
        ]
      },
      "properties": {
        "routeId": "kaohsiung-keh-6268-a995a3",
        "city": "kaohsiung",
        "route_name": "KEH-6268",
        "car_seq": "KEH-6268",
        "arrival_time": "1724",
        "departure_time": "1725",
        "district": "鳥松區",
        "village": "坔埔里",
        "location": "神農路525號",
        "type": "定點",
        "collection_type": "garbage"
      }
    },
    {
      "type": "Feature",
      "geometry": {
        "type": "Point",
        "coordinates": [
          120.382047,
          22.65846
        ]
      },
      "properties": {
        "routeId": "kaohsiung-keh-6268-a995a3",
        "city": "kaohsiung",
        "route_name": "KEH-6268",
        "car_seq": "KEH-6268",
        "arrival_time": "1725",
        "departure_time": "1726",
        "district": "鳥松區",
        "village": "坔埔里",
        "location": "神農路491號",
        "type": "定點",
        "collection_type": "garbage"
      }
    },
    {
      "type": "Feature",
      "geometry": {
        "type": "Point",
        "coordinates": [
          120.381337,
          22.663401
        ]
      },
      "properties": {
        "routeId": "kaohsiung-keh-6268-a995a3",
        "city": "kaohsiung",
        "route_name": "KEH-6268",
        "car_seq": "KEH-6268",
        "arrival_time": "1730",
        "departure_time": "1731",
        "district": "鳥松區",
        "village": "坔埔里",
        "location": "松埔路11巷13號前",
        "type": "定點",
        "collection_type": "garbage"
      }
    },
    {
      "type": "Feature",
      "geometry": {
        "type": "Point",
        "coordinates": [
          120.381118,
          22.660762
        ]
      },
      "properties": {
        "routeId": "kaohsiung-keh-6268-a995a3",
        "city": "kaohsiung",
        "route_name": "KEH-6268",
        "car_seq": "KEH-6268",
        "arrival_time": "1731",
        "departure_time": "1732",
        "district": "鳥松區",
        "village": "坔埔里",
        "location": "松埔路23之1號",
        "type": "定點",
        "collection_type": "garbage"
      }
    },
    {
      "type": "Feature",
      "geometry": {
        "type": "Point",
        "coordinates": [
          120.38177,
          22.663962
        ]
      },
      "properties": {
        "routeId": "kaohsiung-keh-6268-a995a3",
        "city": "kaohsiung",
        "route_name": "KEH-6268",
        "car_seq": "KEH-6268",
        "arrival_time": "1732",
        "departure_time": "1733",
        "district": "鳥松區",
        "village": "坔埔里",
        "location": "坔埔路15巷14號",
        "type": "定點",
        "collection_type": "garbage"
      }
    },
    {
      "type": "Feature",
      "geometry": {
        "type": "Point",
        "coordinates": [
          120.381609,
          22.664218
        ]
      },
      "properties": {
        "routeId": "kaohsiung-keh-6268-a995a3",
        "city": "kaohsiung",
        "route_name": "KEH-6268",
        "car_seq": "KEH-6268",
        "arrival_time": "1734",
        "departure_time": "1735",
        "district": "鳥松區",
        "village": "坔埔里",
        "location": "坔埔路21巷7號",
        "type": "定點",
        "collection_type": "garbage"
      }
    },
    {
      "type": "Feature",
      "geometry": {
        "type": "Point",
        "coordinates": [
          120.382422,
          22.664802
        ]
      },
      "properties": {
        "routeId": "kaohsiung-keh-6268-a995a3",
        "city": "kaohsiung",
        "route_name": "KEH-6268",
        "car_seq": "KEH-6268",
        "arrival_time": "1736",
        "departure_time": "1737",
        "district": "鳥松區",
        "village": "坔埔里",
        "location": "坔埔路27-2號",
        "type": "定點",
        "collection_type": "garbage"
      }
    },
    {
      "type": "Feature",
      "geometry": {
        "type": "Point",
        "coordinates": [
          120.382572,
          22.664756
        ]
      },
      "properties": {
        "routeId": "kaohsiung-keh-6268-a995a3",
        "city": "kaohsiung",
        "route_name": "KEH-6268",
        "car_seq": "KEH-6268",
        "arrival_time": "1736",
        "departure_time": "1738",
        "district": "鳥松區",
        "village": "坔埔里",
        "location": "坔埔路25巷1號",
        "type": "定點",
        "collection_type": "garbage"
      }
    },
    {
      "type": "Feature",
      "geometry": {
        "type": "Point",
        "coordinates": [
          120.382701,
          22.664363
        ]
      },
      "properties": {
        "routeId": "kaohsiung-keh-6268-a995a3",
        "city": "kaohsiung",
        "route_name": "KEH-6268",
        "car_seq": "KEH-6268",
        "arrival_time": "1736",
        "departure_time": "1738",
        "district": "鳥松區",
        "village": "坔埔里",
        "location": "坔埔路21巷2號",
        "type": "定點",
        "collection_type": "garbage"
      }
    },
    {
      "type": "Feature",
      "geometry": {
        "type": "Point",
        "coordinates": [
          120.382544,
          22.664038
        ]
      },
      "properties": {
        "routeId": "kaohsiung-keh-6268-a995a3",
        "city": "kaohsiung",
        "route_name": "KEH-6268",
        "car_seq": "KEH-6268",
        "arrival_time": "1738",
        "departure_time": "1739",
        "district": "鳥松區",
        "village": "坔埔里",
        "location": "坔埔路17巷2-1號",
        "type": "定點",
        "collection_type": "garbage"
      }
    },
    {
      "type": "Feature",
      "geometry": {
        "type": "Point",
        "coordinates": [
          120.382472,
          22.663853
        ]
      },
      "properties": {
        "routeId": "kaohsiung-keh-6268-a995a3",
        "city": "kaohsiung",
        "route_name": "KEH-6268",
        "car_seq": "KEH-6268",
        "arrival_time": "1739",
        "departure_time": "1740",
        "district": "鳥松區",
        "village": "坔埔里",
        "location": "坔埔路15巷2號",
        "type": "定點",
        "collection_type": "garbage"
      }
    },
    {
      "type": "Feature",
      "geometry": {
        "type": "Point",
        "coordinates": [
          120.382461,
          22.663422
        ]
      },
      "properties": {
        "routeId": "kaohsiung-keh-6268-a995a3",
        "city": "kaohsiung",
        "route_name": "KEH-6268",
        "car_seq": "KEH-6268",
        "arrival_time": "1740",
        "departure_time": "1741",
        "district": "鳥松區",
        "village": "坔埔里",
        "location": "坔埔路11巷1號",
        "type": "定點",
        "collection_type": "garbage"
      }
    },
    {
      "type": "Feature",
      "geometry": {
        "type": "Point",
        "coordinates": [
          120.383228,
          22.663402
        ]
      },
      "properties": {
        "routeId": "kaohsiung-keh-6268-a995a3",
        "city": "kaohsiung",
        "route_name": "KEH-6268",
        "car_seq": "KEH-6268",
        "arrival_time": "1741",
        "departure_time": "1742",
        "district": "鳥松區",
        "village": "坔埔里",
        "location": "坔埔路4巷10號",
        "type": "定點",
        "collection_type": "garbage"
      }
    },
    {
      "type": "Feature",
      "geometry": {
        "type": "Point",
        "coordinates": [
          120.383989,
          22.663039
        ]
      },
      "properties": {
        "routeId": "kaohsiung-keh-6268-a995a3",
        "city": "kaohsiung",
        "route_name": "KEH-6268",
        "car_seq": "KEH-6268",
        "arrival_time": "1742",
        "departure_time": "1743",
        "district": "鳥松區",
        "village": "坔埔里",
        "location": "埔智街4號",
        "type": "定點",
        "collection_type": "garbage"
      }
    },
    {
      "type": "Feature",
      "geometry": {
        "type": "Point",
        "coordinates": [
          120.383351,
          22.662728
        ]
      },
      "properties": {
        "routeId": "kaohsiung-keh-6268-a995a3",
        "city": "kaohsiung",
        "route_name": "KEH-6268",
        "car_seq": "KEH-6268",
        "arrival_time": "1743",
        "departure_time": "1744",
        "district": "鳥松區",
        "village": "坔埔里",
        "location": "埔仁街8號前",
        "type": "定點",
        "collection_type": "garbage"
      }
    },
    {
      "type": "Feature",
      "geometry": {
        "type": "Point",
        "coordinates": [
          120.383695,
          22.662315
        ]
      },
      "properties": {
        "routeId": "kaohsiung-keh-6268-a995a3",
        "city": "kaohsiung",
        "route_name": "KEH-6268",
        "car_seq": "KEH-6268",
        "arrival_time": "1744",
        "departure_time": "1745",
        "district": "鳥松區",
        "village": "坔埔里",
        "location": "埔仁街21號",
        "type": "定點",
        "collection_type": "garbage"
      }
    },
    {
      "type": "Feature",
      "geometry": {
        "type": "Point",
        "coordinates": [
          120.38321,
          22.662302
        ]
      },
      "properties": {
        "routeId": "kaohsiung-keh-6268-a995a3",
        "city": "kaohsiung",
        "route_name": "KEH-6268",
        "car_seq": "KEH-6268",
        "arrival_time": "1745",
        "departure_time": "1746",
        "district": "鳥松區",
        "village": "坔埔里",
        "location": "埔忠街34號",
        "type": "定點",
        "collection_type": "garbage"
      }
    },
    {
      "type": "Feature",
      "geometry": {
        "type": "Point",
        "coordinates": [
          120.38299,
          22.662503
        ]
      },
      "properties": {
        "routeId": "kaohsiung-keh-6268-a995a3",
        "city": "kaohsiung",
        "route_name": "KEH-6268",
        "car_seq": "KEH-6268",
        "arrival_time": "1746",
        "departure_time": "1747",
        "district": "鳥松區",
        "village": "坔埔里",
        "location": "埔孝街15號",
        "type": "定點",
        "collection_type": "garbage"
      }
    },
    {
      "type": "Feature",
      "geometry": {
        "type": "Point",
        "coordinates": [
          120.382219,
          22.661874
        ]
      },
      "properties": {
        "routeId": "kaohsiung-keh-6268-a995a3",
        "city": "kaohsiung",
        "route_name": "KEH-6268",
        "car_seq": "KEH-6268",
        "arrival_time": "1747",
        "departure_time": "1748",
        "district": "鳥松區",
        "village": "坔埔里",
        "location": "坔埔路2之12號",
        "type": "定點",
        "collection_type": "garbage"
      }
    },
    {
      "type": "Feature",
      "geometry": {
        "type": "Point",
        "coordinates": [
          120.382007,
          22.661553
        ]
      },
      "properties": {
        "routeId": "kaohsiung-keh-6268-a995a3",
        "city": "kaohsiung",
        "route_name": "KEH-6268",
        "car_seq": "KEH-6268",
        "arrival_time": "1749",
        "departure_time": "1750",
        "district": "鳥松區",
        "village": "坔埔里",
        "location": "坔埔路2-3號",
        "type": "定點",
        "collection_type": "garbage"
      }
    },
    {
      "type": "Feature",
      "geometry": {
        "type": "Point",
        "coordinates": [
          120.382658,
          22.664543
        ]
      },
      "properties": {
        "routeId": "kaohsiung-keh-6268-a995a3",
        "city": "kaohsiung",
        "route_name": "KEH-6268",
        "car_seq": "KEH-6268",
        "arrival_time": "1751",
        "departure_time": "1752",
        "district": "鳥松區",
        "village": "坔埔里",
        "location": "坔埔路25號",
        "type": "定點",
        "collection_type": "garbage"
      }
    },
    {
      "type": "Feature",
      "geometry": {
        "type": "Point",
        "coordinates": [
          120.380748,
          22.660843
        ]
      },
      "properties": {
        "routeId": "kaohsiung-keh-6268-a995a3",
        "city": "kaohsiung",
        "route_name": "KEH-6268",
        "car_seq": "KEH-6268",
        "arrival_time": "1752",
        "departure_time": "1753",
        "district": "鳥松區",
        "village": "坔埔里",
        "location": "松埔路17號",
        "type": "定點",
        "collection_type": "garbage"
      }
    },
    {
      "type": "Feature",
      "geometry": {
        "type": "Point",
        "coordinates": [
          120.380303,
          22.660551
        ]
      },
      "properties": {
        "routeId": "kaohsiung-keh-6268-a995a3",
        "city": "kaohsiung",
        "route_name": "KEH-6268",
        "car_seq": "KEH-6268",
        "arrival_time": "1755",
        "departure_time": "1756",
        "district": "鳥松區",
        "village": "坔埔里",
        "location": "松埔路20號",
        "type": "定點",
        "collection_type": "garbage"
      }
    },
    {
      "type": "Feature",
      "geometry": {
        "type": "Point",
        "coordinates": [
          120.380628,
          22.660336
        ]
      },
      "properties": {
        "routeId": "kaohsiung-keh-6268-a995a3",
        "city": "kaohsiung",
        "route_name": "KEH-6268",
        "car_seq": "KEH-6268",
        "arrival_time": "1755",
        "departure_time": "1757",
        "district": "鳥松區",
        "village": "坔埔里",
        "location": "松埔路26巷1號",
        "type": "定點",
        "collection_type": "garbage"
      }
    },
    {
      "type": "Feature",
      "geometry": {
        "type": "Point",
        "coordinates": [
          120.380868,
          22.660055
        ]
      },
      "properties": {
        "routeId": "kaohsiung-keh-6268-a995a3",
        "city": "kaohsiung",
        "route_name": "KEH-6268",
        "car_seq": "KEH-6268",
        "arrival_time": "1756",
        "departure_time": "1757",
        "district": "鳥松區",
        "village": "坔埔里",
        "location": "松埔路26巷32號",
        "type": "定點",
        "collection_type": "garbage"
      }
    },
    {
      "type": "Feature",
      "geometry": {
        "type": "Point",
        "coordinates": [
          120.381817,
          22.660398
        ]
      },
      "properties": {
        "routeId": "kaohsiung-keh-6268-a995a3",
        "city": "kaohsiung",
        "route_name": "KEH-6268",
        "car_seq": "KEH-6268",
        "arrival_time": "1757",
        "departure_time": "1758",
        "district": "鳥松區",
        "village": "坔埔里",
        "location": "松埔路52號",
        "type": "定點",
        "collection_type": "garbage"
      }
    },
    {
      "type": "Feature",
      "geometry": {
        "type": "Point",
        "coordinates": [
          120.383382,
          22.660571
        ]
      },
      "properties": {
        "routeId": "kaohsiung-keh-6268-a995a3",
        "city": "kaohsiung",
        "route_name": "KEH-6268",
        "car_seq": "KEH-6268",
        "arrival_time": "1802",
        "departure_time": "1803",
        "district": "鳥松區",
        "village": "坔埔里",
        "location": "松埔路37巷14弄5號",
        "type": "定點",
        "collection_type": "garbage"
      }
    },
    {
      "type": "Feature",
      "geometry": {
        "type": "Point",
        "coordinates": [
          120.382476,
          22.659776
        ]
      },
      "properties": {
        "routeId": "kaohsiung-keh-6268-a995a3",
        "city": "kaohsiung",
        "route_name": "KEH-6268",
        "car_seq": "KEH-6268",
        "arrival_time": "1803",
        "departure_time": "1804",
        "district": "鳥松區",
        "village": "坔埔里",
        "location": "松埔路58巷7號",
        "type": "定點",
        "collection_type": "garbage"
      }
    },
    {
      "type": "Feature",
      "geometry": {
        "type": "Point",
        "coordinates": [
          120.383309,
          22.659412
        ]
      },
      "properties": {
        "routeId": "kaohsiung-keh-6268-a995a3",
        "city": "kaohsiung",
        "route_name": "KEH-6268",
        "car_seq": "KEH-6268",
        "arrival_time": "1804",
        "departure_time": "1805",
        "district": "鳥松區",
        "village": "坔埔里",
        "location": "松埔路53號",
        "type": "定點",
        "collection_type": "garbage"
      }
    },
    {
      "type": "Feature",
      "geometry": {
        "type": "Point",
        "coordinates": [
          120.383584,
          22.658881
        ]
      },
      "properties": {
        "routeId": "kaohsiung-keh-6268-a995a3",
        "city": "kaohsiung",
        "route_name": "KEH-6268",
        "car_seq": "KEH-6268",
        "arrival_time": "1805",
        "departure_time": "1806",
        "district": "鳥松區",
        "village": "坔埔里",
        "location": "松埔路62巷2號",
        "type": "定點",
        "collection_type": "garbage"
      }
    },
    {
      "type": "Feature",
      "geometry": {
        "type": "Point",
        "coordinates": [
          120.384676,
          22.65829
        ]
      },
      "properties": {
        "routeId": "kaohsiung-keh-6268-a995a3",
        "city": "kaohsiung",
        "route_name": "KEH-6268",
        "car_seq": "KEH-6268",
        "arrival_time": "1806",
        "departure_time": "1807",
        "district": "鳥松區",
        "village": "坔埔里",
        "location": "大同路43號",
        "type": "定點",
        "collection_type": "garbage"
      }
    },
    {
      "type": "Feature",
      "geometry": {
        "type": "Point",
        "coordinates": [
          120.383968,
          22.658297
        ]
      },
      "properties": {
        "routeId": "kaohsiung-keh-6268-a995a3",
        "city": "kaohsiung",
        "route_name": "KEH-6268",
        "car_seq": "KEH-6268",
        "arrival_time": "1807",
        "departure_time": "1808",
        "district": "鳥松區",
        "village": "坔埔里",
        "location": "大同路37號",
        "type": "定點",
        "collection_type": "garbage"
      }
    },
    {
      "type": "Feature",
      "geometry": {
        "type": "Point",
        "coordinates": [
          120.382878,
          22.65875
        ]
      },
      "properties": {
        "routeId": "kaohsiung-keh-6268-a995a3",
        "city": "kaohsiung",
        "route_name": "KEH-6268",
        "car_seq": "KEH-6268",
        "arrival_time": "1808",
        "departure_time": "1809",
        "district": "鳥松區",
        "village": "坔埔里",
        "location": "大同路25-118號",
        "type": "定點",
        "collection_type": "garbage"
      }
    },
    {
      "type": "Feature",
      "geometry": {
        "type": "Point",
        "coordinates": [
          120.382165,
          22.658867
        ]
      },
      "properties": {
        "routeId": "kaohsiung-keh-6268-a995a3",
        "city": "kaohsiung",
        "route_name": "KEH-6268",
        "car_seq": "KEH-6268",
        "arrival_time": "1809",
        "departure_time": "1810",
        "district": "鳥松區",
        "village": "坔埔里",
        "location": "松美路1號",
        "type": "定點",
        "collection_type": "garbage"
      }
    },
    {
      "type": "Feature",
      "geometry": {
        "type": "Point",
        "coordinates": [
          120.382199,
          22.659433
        ]
      },
      "properties": {
        "routeId": "kaohsiung-keh-6268-a995a3",
        "city": "kaohsiung",
        "route_name": "KEH-6268",
        "car_seq": "KEH-6268",
        "arrival_time": "1810",
        "departure_time": "1811",
        "district": "鳥松區",
        "village": "坔埔里",
        "location": "福德路91號",
        "type": "定點",
        "collection_type": "garbage"
      }
    },
    {
      "type": "Feature",
      "geometry": {
        "type": "Point",
        "coordinates": [
          120.380915,
          22.65949
        ]
      },
      "properties": {
        "routeId": "kaohsiung-keh-6268-a995a3",
        "city": "kaohsiung",
        "route_name": "KEH-6268",
        "car_seq": "KEH-6268",
        "arrival_time": "1811",
        "departure_time": "1812",
        "district": "鳥松區",
        "village": "坔埔里",
        "location": "福德路42號",
        "type": "定點",
        "collection_type": "garbage"
      }
    },
    {
      "type": "Feature",
      "geometry": {
        "type": "Point",
        "coordinates": [
          120.376382,
          22.659711
        ]
      },
      "properties": {
        "routeId": "kaohsiung-keh-6268-a995a3",
        "city": "kaohsiung",
        "route_name": "KEH-6268",
        "car_seq": "KEH-6268",
        "arrival_time": "1817",
        "departure_time": "1818",
        "district": "鳥松區",
        "village": "坔埔里",
        "location": "神農路295號",
        "type": "定點",
        "collection_type": "garbage"
      }
    },
    {
      "type": "Feature",
      "geometry": {
        "type": "Point",
        "coordinates": [
          120.373461,
          22.659942
        ]
      },
      "properties": {
        "routeId": "kaohsiung-keh-6268-a995a3",
        "city": "kaohsiung",
        "route_name": "KEH-6268",
        "car_seq": "KEH-6268",
        "arrival_time": "1819",
        "departure_time": "1820",
        "district": "鳥松區",
        "village": "坔埔里",
        "location": "神農路273巷3號",
        "type": "定點",
        "collection_type": "garbage"
      }
    },
    {
      "type": "Feature",
      "geometry": {
        "type": "Point",
        "coordinates": [
          120.385406,
          22.65734
        ]
      },
      "properties": {
        "routeId": "kaohsiung-keh-6268-a995a3",
        "city": "kaohsiung",
        "route_name": "KEH-6268",
        "car_seq": "KEH-6268",
        "arrival_time": "1913",
        "departure_time": "1914",
        "district": "鳥松區",
        "village": "坔埔里",
        "location": "同富街37號-21號間",
        "type": "定點",
        "collection_type": "garbage"
      }
    },
    {
      "type": "Feature",
      "geometry": {
        "type": "Point",
        "coordinates": [
          120.386273,
          22.658549
        ]
      },
      "properties": {
        "routeId": "kaohsiung-keh-6268-a995a3",
        "city": "kaohsiung",
        "route_name": "KEH-6268",
        "car_seq": "KEH-6268",
        "arrival_time": "1915",
        "departure_time": "1916",
        "district": "鳥松區",
        "village": "坔埔里",
        "location": "大同路20號",
        "type": "定點",
        "collection_type": "garbage"
      }
    },
    {
      "type": "Feature",
      "geometry": {
        "type": "Point",
        "coordinates": [
          120.386705,
          22.658519
        ]
      },
      "properties": {
        "routeId": "kaohsiung-keh-6268-a995a3",
        "city": "kaohsiung",
        "route_name": "KEH-6268",
        "car_seq": "KEH-6268",
        "arrival_time": "1917",
        "departure_time": "1918",
        "district": "鳥松區",
        "village": "坔埔里",
        "location": "大同路34號至54號",
        "type": "定點",
        "collection_type": "garbage"
      }
    },
    {
      "type": "Feature",
      "geometry": {
        "type": "Point",
        "coordinates": [
          120.387176,
          22.658255
        ]
      },
      "properties": {
        "routeId": "kaohsiung-keh-6268-a995a3",
        "city": "kaohsiung",
        "route_name": "KEH-6268",
        "car_seq": "KEH-6268",
        "arrival_time": "1917",
        "departure_time": "1918",
        "district": "鳥松區",
        "village": "坔埔里",
        "location": "大同路56號",
        "type": "定點",
        "collection_type": "garbage"
      }
    },
    {
      "type": "Feature",
      "geometry": {
        "type": "Point",
        "coordinates": [
          120.388763,
          22.658027
        ]
      },
      "properties": {
        "routeId": "kaohsiung-keh-6268-a995a3",
        "city": "kaohsiung",
        "route_name": "KEH-6268",
        "car_seq": "KEH-6268",
        "arrival_time": "1918",
        "departure_time": "1919",
        "district": "鳥松區",
        "village": "坔埔里",
        "location": "學堂路207號",
        "type": "定點",
        "collection_type": "garbage"
      }
    },
    {
      "type": "Feature",
      "geometry": {
        "type": "Point",
        "coordinates": [
          120.389394,
          22.658078
        ]
      },
      "properties": {
        "routeId": "kaohsiung-keh-6268-a995a3",
        "city": "kaohsiung",
        "route_name": "KEH-6268",
        "car_seq": "KEH-6268",
        "arrival_time": "1919",
        "departure_time": "1920",
        "district": "鳥松區",
        "village": "仁美里",
        "location": "學堂路173號",
        "type": "定點",
        "collection_type": "garbage"
      }
    },
    {
      "type": "Feature",
      "geometry": {
        "type": "Point",
        "coordinates": [
          120.389317,
          22.657653
        ]
      },
      "properties": {
        "routeId": "kaohsiung-keh-6268-a995a3",
        "city": "kaohsiung",
        "route_name": "KEH-6268",
        "car_seq": "KEH-6268",
        "arrival_time": "1925",
        "departure_time": "1926",
        "district": "鳥松區",
        "village": "仁美里",
        "location": "高碼二路14號",
        "type": "定點",
        "collection_type": "garbage"
      }
    },
    {
      "type": "Feature",
      "geometry": {
        "type": "Point",
        "coordinates": [
          120.389352,
          22.657268
        ]
      },
      "properties": {
        "routeId": "kaohsiung-keh-6268-a995a3",
        "city": "kaohsiung",
        "route_name": "KEH-6268",
        "car_seq": "KEH-6268",
        "arrival_time": "1927",
        "departure_time": "1928",
        "district": "鳥松區",
        "village": "仁美里",
        "location": "高碼二路32號",
        "type": "定點",
        "collection_type": "garbage"
      }
    },
    {
      "type": "Feature",
      "geometry": {
        "type": "Point",
        "coordinates": [
          120.389394,
          22.656858
        ]
      },
      "properties": {
        "routeId": "kaohsiung-keh-6268-a995a3",
        "city": "kaohsiung",
        "route_name": "KEH-6268",
        "car_seq": "KEH-6268",
        "arrival_time": "1931",
        "departure_time": "1932",
        "district": "鳥松區",
        "village": "仁美里",
        "location": "高碼二路50號",
        "type": "定點",
        "collection_type": "garbage"
      }
    },
    {
      "type": "Feature",
      "geometry": {
        "type": "Point",
        "coordinates": [
          120.389409,
          22.656642
        ]
      },
      "properties": {
        "routeId": "kaohsiung-keh-6268-a995a3",
        "city": "kaohsiung",
        "route_name": "KEH-6268",
        "car_seq": "KEH-6268",
        "arrival_time": "1932",
        "departure_time": "1933",
        "district": "鳥松區",
        "village": "仁美里",
        "location": "高碼二路60號",
        "type": "定點",
        "collection_type": "garbage"
      }
    },
    {
      "type": "Feature",
      "geometry": {
        "type": "Point",
        "coordinates": [
          120.38887,
          22.655822
        ]
      },
      "properties": {
        "routeId": "kaohsiung-keh-6268-a995a3",
        "city": "kaohsiung",
        "route_name": "KEH-6268",
        "car_seq": "KEH-6268",
        "arrival_time": "1933",
        "departure_time": "1934",
        "district": "鳥松區",
        "village": "仁美里",
        "location": "高碼六巷111號",
        "type": "定點",
        "collection_type": "garbage"
      }
    },
    {
      "type": "Feature",
      "geometry": {
        "type": "Point",
        "coordinates": [
          120.38879,
          22.656586
        ]
      },
      "properties": {
        "routeId": "kaohsiung-keh-6268-a995a3",
        "city": "kaohsiung",
        "route_name": "KEH-6268",
        "car_seq": "KEH-6268",
        "arrival_time": "1933",
        "departure_time": "1934",
        "district": "鳥松區",
        "village": "仁美里",
        "location": "高碼四巷100號",
        "type": "定點",
        "collection_type": "garbage"
      }
    },
    {
      "type": "Feature",
      "geometry": {
        "type": "Point",
        "coordinates": [
          120.344314,
          22.64732
        ]
      },
      "properties": {
        "routeId": "kaohsiung-keh-6268-a995a3",
        "city": "kaohsiung",
        "route_name": "KEH-6268",
        "car_seq": "KEH-6268",
        "arrival_time": "1934",
        "departure_time": "1935",
        "district": "鳥松區",
        "village": "仁美里",
        "location": "高碼3巷74號",
        "type": "定點",
        "collection_type": "garbage"
      }
    },
    {
      "type": "Feature",
      "geometry": {
        "type": "Point",
        "coordinates": [
          120.34143,
          22.651676
        ]
      },
      "properties": {
        "routeId": "kaohsiung-keh-6268-a995a3",
        "city": "kaohsiung",
        "route_name": "KEH-6268",
        "car_seq": "KEH-6268",
        "arrival_time": "1937",
        "departure_time": "1938",
        "district": "鳥松區",
        "village": "仁美里",
        "location": "高碼2巷56號",
        "type": "定點",
        "collection_type": "garbage"
      }
    },
    {
      "type": "Feature",
      "geometry": {
        "type": "Point",
        "coordinates": [
          120.389746,
          22.658109
        ]
      },
      "properties": {
        "routeId": "kaohsiung-keh-6268-a995a3",
        "city": "kaohsiung",
        "route_name": "KEH-6268",
        "car_seq": "KEH-6268",
        "arrival_time": "1941",
        "departure_time": "1942",
        "district": "鳥松區",
        "village": "仁美里",
        "location": "學堂路155號",
        "type": "定點",
        "collection_type": "garbage"
      }
    },
    {
      "type": "Feature",
      "geometry": {
        "type": "Point",
        "coordinates": [
          120.389987,
          22.658128
        ]
      },
      "properties": {
        "routeId": "kaohsiung-keh-6268-a995a3",
        "city": "kaohsiung",
        "route_name": "KEH-6268",
        "car_seq": "KEH-6268",
        "arrival_time": "1943",
        "departure_time": "1943",
        "district": "鳥松區",
        "village": "仁美里",
        "location": "學堂路143號",
        "type": "定點",
        "collection_type": "garbage"
      }
    },
    {
      "type": "Feature",
      "geometry": {
        "type": "Point",
        "coordinates": [
          120.39002,
          22.657717
        ]
      },
      "properties": {
        "routeId": "kaohsiung-keh-6268-a995a3",
        "city": "kaohsiung",
        "route_name": "KEH-6268",
        "car_seq": "KEH-6268",
        "arrival_time": "1944",
        "departure_time": "1944",
        "district": "鳥松區",
        "village": "仁美里",
        "location": "高碼一路14號",
        "type": "定點",
        "collection_type": "garbage"
      }
    },
    {
      "type": "Feature",
      "geometry": {
        "type": "Point",
        "coordinates": [
          120.39005,
          22.65742
        ]
      },
      "properties": {
        "routeId": "kaohsiung-keh-6268-a995a3",
        "city": "kaohsiung",
        "route_name": "KEH-6268",
        "car_seq": "KEH-6268",
        "arrival_time": "1944",
        "departure_time": "1944",
        "district": "鳥松區",
        "village": "仁美里",
        "location": "高碼一路30號",
        "type": "定點",
        "collection_type": "garbage"
      }
    },
    {
      "type": "Feature",
      "geometry": {
        "type": "Point",
        "coordinates": [
          120.390082,
          22.657204
        ]
      },
      "properties": {
        "routeId": "kaohsiung-keh-6268-a995a3",
        "city": "kaohsiung",
        "route_name": "KEH-6268",
        "car_seq": "KEH-6268",
        "arrival_time": "1944",
        "departure_time": "1944",
        "district": "鳥松區",
        "village": "仁美里",
        "location": "高碼一路38號",
        "type": "定點",
        "collection_type": "garbage"
      }
    },
    {
      "type": "Feature",
      "geometry": {
        "type": "Point",
        "coordinates": [
          120.39012,
          22.656799
        ]
      },
      "properties": {
        "routeId": "kaohsiung-keh-6268-a995a3",
        "city": "kaohsiung",
        "route_name": "KEH-6268",
        "car_seq": "KEH-6268",
        "arrival_time": "1944",
        "departure_time": "1944",
        "district": "鳥松區",
        "village": "仁美里",
        "location": "高碼一路38-1號",
        "type": "定點",
        "collection_type": "garbage"
      }
    },
    {
      "type": "Feature",
      "geometry": {
        "type": "Point",
        "coordinates": [
          120.390165,
          22.656334
        ]
      },
      "properties": {
        "routeId": "kaohsiung-keh-6268-a995a3",
        "city": "kaohsiung",
        "route_name": "KEH-6268",
        "car_seq": "KEH-6268",
        "arrival_time": "1945",
        "departure_time": "1945",
        "district": "鳥松區",
        "village": "仁美里",
        "location": "高碼一路46號",
        "type": "定點",
        "collection_type": "garbage"
      }
    },
    {
      "type": "Feature",
      "geometry": {
        "type": "Point",
        "coordinates": [
          120.390351,
          22.65606
        ]
      },
      "properties": {
        "routeId": "kaohsiung-keh-6268-a995a3",
        "city": "kaohsiung",
        "route_name": "KEH-6268",
        "car_seq": "KEH-6268",
        "arrival_time": "1945",
        "departure_time": "1945",
        "district": "鳥松區",
        "village": "仁美里",
        "location": "高碼六巷42號",
        "type": "定點",
        "collection_type": "garbage"
      }
    },
    {
      "type": "Feature",
      "geometry": {
        "type": "Point",
        "coordinates": [
          120.394658,
          22.664133
        ]
      },
      "properties": {
        "routeId": "kaohsiung-keh-6268-a995a3",
        "city": "kaohsiung",
        "route_name": "KEH-6268",
        "car_seq": "KEH-6268",
        "arrival_time": "1945",
        "departure_time": "1945",
        "district": "鳥松區",
        "village": "仁美里",
        "location": "高碼6巷1-1號",
        "type": "定點",
        "collection_type": "garbage"
      }
    },
    {
      "type": "Feature",
      "geometry": {
        "type": "Point",
        "coordinates": [
          120.390745,
          22.658245
        ]
      },
      "properties": {
        "routeId": "kaohsiung-keh-6268-a995a3",
        "city": "kaohsiung",
        "route_name": "KEH-6268",
        "car_seq": "KEH-6268",
        "arrival_time": "1946",
        "departure_time": "1946",
        "district": "鳥松區",
        "village": "仁美里",
        "location": "學堂路123號",
        "type": "定點",
        "collection_type": "garbage"
      }
    },
    {
      "type": "Feature",
      "geometry": {
        "type": "Point",
        "coordinates": [
          120.391536,
          22.658353
        ]
      },
      "properties": {
        "routeId": "kaohsiung-keh-6268-a995a3",
        "city": "kaohsiung",
        "route_name": "KEH-6268",
        "car_seq": "KEH-6268",
        "arrival_time": "1947",
        "departure_time": "1947",
        "district": "鳥松區",
        "village": "仁美里",
        "location": "學堂路111號",
        "type": "定點",
        "collection_type": "garbage"
      }
    },
    {
      "type": "Feature",
      "geometry": {
        "type": "Point",
        "coordinates": [
          120.392138,
          22.65827
        ]
      },
      "properties": {
        "routeId": "kaohsiung-keh-6268-a995a3",
        "city": "kaohsiung",
        "route_name": "KEH-6268",
        "car_seq": "KEH-6268",
        "arrival_time": "1948",
        "departure_time": "1948",
        "district": "鳥松區",
        "village": "仁美里",
        "location": "學堂路91號",
        "type": "定點",
        "collection_type": "garbage"
      }
    },
    {
      "type": "Feature",
      "geometry": {
        "type": "Point",
        "coordinates": [
          120.392625,
          22.658256
        ]
      },
      "properties": {
        "routeId": "kaohsiung-keh-6268-a995a3",
        "city": "kaohsiung",
        "route_name": "KEH-6268",
        "car_seq": "KEH-6268",
        "arrival_time": "1954",
        "departure_time": "1957",
        "district": "鳥松區",
        "village": "仁美里",
        "location": "學堂路83號",
        "type": "定點",
        "collection_type": "garbage"
      }
    },
    {
      "type": "Feature",
      "geometry": {
        "type": "Point",
        "coordinates": [
          120.394158,
          22.65792
        ]
      },
      "properties": {
        "routeId": "kaohsiung-keh-6268-a995a3",
        "city": "kaohsiung",
        "route_name": "KEH-6268",
        "car_seq": "KEH-6268",
        "arrival_time": "1955",
        "departure_time": "1958",
        "district": "鳥松區",
        "village": "仁美里",
        "location": "學堂路27號",
        "type": "定點",
        "collection_type": "garbage"
      }
    },
    {
      "type": "Feature",
      "geometry": {
        "type": "Point",
        "coordinates": [
          120.394723,
          22.657713
        ]
      },
      "properties": {
        "routeId": "kaohsiung-keh-6268-a995a3",
        "city": "kaohsiung",
        "route_name": "KEH-6268",
        "car_seq": "KEH-6268",
        "arrival_time": "1956",
        "departure_time": "1959",
        "district": "鳥松區",
        "village": "仁美里",
        "location": "美山路295號",
        "type": "定點",
        "collection_type": "garbage"
      }
    },
    {
      "type": "Feature",
      "geometry": {
        "type": "Point",
        "coordinates": [
          120.394848,
          22.660454
        ]
      },
      "properties": {
        "routeId": "kaohsiung-keh-6268-a995a3",
        "city": "kaohsiung",
        "route_name": "KEH-6268",
        "car_seq": "KEH-6268",
        "arrival_time": "1957",
        "departure_time": "1958",
        "district": "鳥松區",
        "village": "仁美里",
        "location": "華山一街26號",
        "type": "定點",
        "collection_type": "garbage"
      }
    },
    {
      "type": "Feature",
      "geometry": {
        "type": "Point",
        "coordinates": [
          120.394661,
          22.66016
        ]
      },
      "properties": {
        "routeId": "kaohsiung-keh-6268-a995a3",
        "city": "kaohsiung",
        "route_name": "KEH-6268",
        "car_seq": "KEH-6268",
        "arrival_time": "1958",
        "departure_time": "1959",
        "district": "鳥松區",
        "village": "仁美里",
        "location": "華山路18號",
        "type": "定點",
        "collection_type": "garbage"
      }
    },
    {
      "type": "Feature",
      "geometry": {
        "type": "Point",
        "coordinates": [
          120.394583,
          22.659697
        ]
      },
      "properties": {
        "routeId": "kaohsiung-keh-6268-a995a3",
        "city": "kaohsiung",
        "route_name": "KEH-6268",
        "car_seq": "KEH-6268",
        "arrival_time": "1959",
        "departure_time": "2002",
        "district": "鳥松區",
        "village": "仁美里",
        "location": "華榮二街20號",
        "type": "定點",
        "collection_type": "garbage"
      }
    },
    {
      "type": "Feature",
      "geometry": {
        "type": "Point",
        "coordinates": [
          120.394328,
          22.659248
        ]
      },
      "properties": {
        "routeId": "kaohsiung-keh-6268-a995a3",
        "city": "kaohsiung",
        "route_name": "KEH-6268",
        "car_seq": "KEH-6268",
        "arrival_time": "2000",
        "departure_time": "2000",
        "district": "鳥松區",
        "village": "仁美里",
        "location": "華榮三街16號",
        "type": "定點",
        "collection_type": "garbage"
      }
    },
    {
      "type": "Feature",
      "geometry": {
        "type": "Point",
        "coordinates": [
          120.394043,
          22.659775
        ]
      },
      "properties": {
        "routeId": "kaohsiung-keh-6268-a995a3",
        "city": "kaohsiung",
        "route_name": "KEH-6268",
        "car_seq": "KEH-6268",
        "arrival_time": "2000",
        "departure_time": "2001",
        "district": "鳥松區",
        "village": "仁美里",
        "location": "華榮二街38號",
        "type": "定點",
        "collection_type": "garbage"
      }
    },
    {
      "type": "Feature",
      "geometry": {
        "type": "Point",
        "coordinates": [
          120.394116,
          22.660283
        ]
      },
      "properties": {
        "routeId": "kaohsiung-keh-6268-a995a3",
        "city": "kaohsiung",
        "route_name": "KEH-6268",
        "car_seq": "KEH-6268",
        "arrival_time": "2001",
        "departure_time": "2002",
        "district": "鳥松區",
        "village": "仁美里",
        "location": "華山路36號",
        "type": "定點",
        "collection_type": "garbage"
      }
    },
    {
      "type": "Feature",
      "geometry": {
        "type": "Point",
        "coordinates": [
          120.39399,
          22.660678
        ]
      },
      "properties": {
        "routeId": "kaohsiung-keh-6268-a995a3",
        "city": "kaohsiung",
        "route_name": "KEH-6268",
        "car_seq": "KEH-6268",
        "arrival_time": "2001",
        "departure_time": "2002",
        "district": "鳥松區",
        "village": "仁美里",
        "location": "華榮路35號",
        "type": "定點",
        "collection_type": "garbage"
      }
    },
    {
      "type": "Feature",
      "geometry": {
        "type": "Point",
        "coordinates": [
          120.393356,
          22.66084
        ]
      },
      "properties": {
        "routeId": "kaohsiung-keh-6268-a995a3",
        "city": "kaohsiung",
        "route_name": "KEH-6268",
        "car_seq": "KEH-6268",
        "arrival_time": "2002",
        "departure_time": "2003",
        "district": "鳥松區",
        "village": "仁美里",
        "location": "華榮一街30號",
        "type": "定點",
        "collection_type": "garbage"
      }
    },
    {
      "type": "Feature",
      "geometry": {
        "type": "Point",
        "coordinates": [
          120.393037,
          22.660153
        ]
      },
      "properties": {
        "routeId": "kaohsiung-keh-6268-a995a3",
        "city": "kaohsiung",
        "route_name": "KEH-6268",
        "car_seq": "KEH-6268",
        "arrival_time": "2006",
        "departure_time": "2007",
        "district": "鳥松區",
        "village": "仁美里",
        "location": "中山路80巷六弄2號",
        "type": "定點",
        "collection_type": "garbage"
      }
    },
    {
      "type": "Feature",
      "geometry": {
        "type": "Point",
        "coordinates": [
          120.393122,
          22.659638
        ]
      },
      "properties": {
        "routeId": "kaohsiung-keh-6268-a995a3",
        "city": "kaohsiung",
        "route_name": "KEH-6268",
        "car_seq": "KEH-6268",
        "arrival_time": "2007",
        "departure_time": "2008",
        "district": "鳥松區",
        "village": "仁美里",
        "location": "華榮二街89號前",
        "type": "定點",
        "collection_type": "garbage"
      }
    },
    {
      "type": "Feature",
      "geometry": {
        "type": "Point",
        "coordinates": [
          120.392807,
          22.658432
        ]
      },
      "properties": {
        "routeId": "kaohsiung-keh-6268-a995a3",
        "city": "kaohsiung",
        "route_name": "KEH-6268",
        "car_seq": "KEH-6268",
        "arrival_time": "2008",
        "departure_time": "2009",
        "district": "鳥松區",
        "village": "仁美里",
        "location": "學堂路12號",
        "type": "定點",
        "collection_type": "garbage"
      }
    },
    {
      "type": "Feature",
      "geometry": {
        "type": "Point",
        "coordinates": [
          120.386719,
          22.658767
        ]
      },
      "properties": {
        "routeId": "kaohsiung-keh-6268-a995a3",
        "city": "kaohsiung",
        "route_name": "KEH-6268",
        "car_seq": "KEH-6268",
        "arrival_time": "2011",
        "departure_time": "2012",
        "district": "鳥松區",
        "village": "仁美里",
        "location": "大同路51-5號",
        "type": "定點",
        "collection_type": "garbage"
      }
    },
    {
      "type": "Feature",
      "geometry": {
        "type": "Point",
        "coordinates": [
          120.384371,
          22.655774
        ]
      },
      "properties": {
        "routeId": "kaohsiung-keh-6268-a995a3",
        "city": "kaohsiung",
        "route_name": "KEH-6268",
        "car_seq": "KEH-6268",
        "arrival_time": "2012",
        "departure_time": "2013",
        "district": "鳥松區",
        "village": "坔埔里",
        "location": "同富街132巷4弄27號",
        "type": "定點",
        "collection_type": "garbage"
      }
    },
    {
      "type": "Feature",
      "geometry": {
        "type": "Point",
        "coordinates": [
          120.384585,
          22.655006
        ]
      },
      "properties": {
        "routeId": "kaohsiung-keh-6268-a995a3",
        "city": "kaohsiung",
        "route_name": "KEH-6268",
        "car_seq": "KEH-6268",
        "arrival_time": "2014",
        "departure_time": "2015",
        "district": "鳥松區",
        "village": "坔埔里",
        "location": "同富街132巷3弄1號",
        "type": "定點",
        "collection_type": "garbage"
      }
    },
    {
      "type": "Feature",
      "geometry": {
        "type": "Point",
        "coordinates": [
          120.384898,
          22.654996
        ]
      },
      "properties": {
        "routeId": "kaohsiung-keh-6268-a995a3",
        "city": "kaohsiung",
        "route_name": "KEH-6268",
        "car_seq": "KEH-6268",
        "arrival_time": "2014",
        "departure_time": "2015",
        "district": "鳥松區",
        "village": "坔埔里",
        "location": "同富街132巷1弄1號",
        "type": "定點",
        "collection_type": "garbage"
      }
    },
    {
      "type": "Feature",
      "geometry": {
        "type": "Point",
        "coordinates": [
          120.385099,
          22.655106
        ]
      },
      "properties": {
        "routeId": "kaohsiung-keh-6268-a995a3",
        "city": "kaohsiung",
        "route_name": "KEH-6268",
        "car_seq": "KEH-6268",
        "arrival_time": "2016",
        "departure_time": "2017",
        "district": "鳥松區",
        "village": "坔埔里",
        "location": "同富街130號",
        "type": "定點",
        "collection_type": "garbage"
      }
    },
    {
      "type": "Feature",
      "geometry": {
        "type": "Point",
        "coordinates": [
          120.385427,
          22.6551
        ]
      },
      "properties": {
        "routeId": "kaohsiung-keh-6268-a995a3",
        "city": "kaohsiung",
        "route_name": "KEH-6268",
        "car_seq": "KEH-6268",
        "arrival_time": "2020",
        "departure_time": "2021",
        "district": "鳥松區",
        "village": "坔埔里",
        "location": "同富街131巷1弄1號",
        "type": "定點",
        "collection_type": "garbage"
      }
    },
    {
      "type": "Feature",
      "geometry": {
        "type": "Point",
        "coordinates": [
          120.385735,
          22.654976
        ]
      },
      "properties": {
        "routeId": "kaohsiung-keh-6268-a995a3",
        "city": "kaohsiung",
        "route_name": "KEH-6268",
        "car_seq": "KEH-6268",
        "arrival_time": "2021",
        "departure_time": "2022",
        "district": "鳥松區",
        "village": "坔埔里",
        "location": "同富街131巷4弄2號",
        "type": "定點",
        "collection_type": "garbage"
      }
    }
  ]
}