{
  "type": "FeatureCollection",
  "features": [
    {
      "type": "Feature",
      "geometry": {
        "type": "Point",
        "coordinates": [
          120.336895,
          22.597379
        ]
      },
      "properties": {
        "routeId": "kaohsiung-ket-9591-bc7c41",
        "city": "kaohsiung",
        "route_name": "KET-9591",
        "car_seq": "KET-9591",
        "arrival_time": "1700",
        "departure_time": "1702",
        "district": "鳳山區",
        "village": "富榮里",
        "location": "林森路311巷 45號﹝頭﹞",
        "type": "定點",
        "collection_type": "garbage"
      }
    },
    {
      "type": "Feature",
      "geometry": {
        "type": "Point",
        "coordinates": [
          120.336678,
          22.598213
        ]
      },
      "properties": {
        "routeId": "kaohsiung-ket-9591-bc7c41",
        "city": "kaohsiung",
        "route_name": "KET-9591",
        "car_seq": "KET-9591",
        "arrival_time": "1707",
        "departure_time": "1708",
        "district": "鳳山區",
        "village": "富榮里",
        "location": "三商街107號（廣招英）",
        "type": "定點",
        "collection_type": "garbage"
      }
    },
    {
      "type": "Feature",
      "geometry": {
        "type": "Point",
        "coordinates": [
          120.338511,
          22.595811
        ]
      },
      "properties": {
        "routeId": "kaohsiung-ket-9591-bc7c41",
        "city": "kaohsiung",
        "route_name": "KET-9591",
        "car_seq": "KET-9591",
        "arrival_time": "1710",
        "departure_time": "1713",
        "district": "鳳山區",
        "village": "富榮里",
        "location": "三商街5之2號（里長服務處）",
        "type": "定點",
        "collection_type": "garbage"
      }
    },
    {
      "type": "Feature",
      "geometry": {
        "type": "Point",
        "coordinates": [
          120.336949,
          22.597009
        ]
      },
      "properties": {
        "routeId": "kaohsiung-ket-9591-bc7c41",
        "city": "kaohsiung",
        "route_name": "KET-9591",
        "car_seq": "KET-9591",
        "arrival_time": "1721",
        "departure_time": "1722",
        "district": "鳳山區",
        "village": "富榮里",
        "location": "林森路295巷26號",
        "type": "定點",
        "collection_type": "garbage"
      }
    },
    {
      "type": "Feature",
      "geometry": {
        "type": "Point",
        "coordinates": [
          120.33668,
          22.59784
        ]
      },
      "properties": {
        "routeId": "kaohsiung-ket-9591-bc7c41",
        "city": "kaohsiung",
        "route_name": "KET-9591",
        "car_seq": "KET-9591",
        "arrival_time": "1722",
        "departure_time": "1724",
        "district": "鳳山區",
        "village": "富榮里",
        "location": "文豐街11巷43號",
        "type": "定點",
        "collection_type": "garbage"
      }
    },
    {
      "type": "Feature",
      "geometry": {
        "type": "Point",
        "coordinates": [
          120.337631,
          22.597013
        ]
      },
      "properties": {
        "routeId": "kaohsiung-ket-9591-bc7c41",
        "city": "kaohsiung",
        "route_name": "KET-9591",
        "car_seq": "KET-9591",
        "arrival_time": "1724",
        "departure_time": "1725",
        "district": "鳳山區",
        "village": "富榮里",
        "location": "三商街43號（集群檳榔）",
        "type": "定點",
        "collection_type": "garbage"
      }
    },
    {
      "type": "Feature",
      "geometry": {
        "type": "Point",
        "coordinates": [
          120.337478,
          22.596883
        ]
      },
      "properties": {
        "routeId": "kaohsiung-ket-9591-bc7c41",
        "city": "kaohsiung",
        "route_name": "KET-9591",
        "car_seq": "KET-9591",
        "arrival_time": "1725",
        "departure_time": "1726",
        "district": "鳳山區",
        "village": "富榮里",
        "location": "林森路311巷2號﹝尾﹞",
        "type": "定點",
        "collection_type": "garbage"
      }
    },
    {
      "type": "Feature",
      "geometry": {
        "type": "Point",
        "coordinates": [
          120.332116,
          22.598908
        ]
      },
      "properties": {
        "routeId": "kaohsiung-ket-9591-bc7c41",
        "city": "kaohsiung",
        "route_name": "KET-9591",
        "car_seq": "KET-9591",
        "arrival_time": "1732",
        "departure_time": "1733",
        "district": "鳳山區",
        "village": "善美里",
        "location": "南正二路108號",
        "type": "定點",
        "collection_type": "garbage"
      }
    },
    {
      "type": "Feature",
      "geometry": {
        "type": "Point",
        "coordinates": [
          120.331787,
          22.599032
        ]
      },
      "properties": {
        "routeId": "kaohsiung-ket-9591-bc7c41",
        "city": "kaohsiung",
        "route_name": "KET-9591",
        "car_seq": "KET-9591",
        "arrival_time": "1733",
        "departure_time": "1735",
        "district": "鳳山區",
        "village": "善美里",
        "location": "南正二路126號（南正兒童公園）",
        "type": "定點",
        "collection_type": "garbage"
      }
    },
    {
      "type": "Feature",
      "geometry": {
        "type": "Point",
        "coordinates": [
          120.334809,
          22.601243
        ]
      },
      "properties": {
        "routeId": "kaohsiung-ket-9591-bc7c41",
        "city": "kaohsiung",
        "route_name": "KET-9591",
        "car_seq": "KET-9591",
        "arrival_time": "1744",
        "departure_time": "1745",
        "district": "鳳山區",
        "village": "善美里",
        "location": "善志街7號",
        "type": "定點",
        "collection_type": "garbage"
      }
    },
    {
      "type": "Feature",
      "geometry": {
        "type": "Point",
        "coordinates": [
          120.335139,
          22.602239
        ]
      },
      "properties": {
        "routeId": "kaohsiung-ket-9591-bc7c41",
        "city": "kaohsiung",
        "route_name": "KET-9591",
        "car_seq": "KET-9591",
        "arrival_time": "1745",
        "departure_time": "1746",
        "district": "鳳山區",
        "village": "善美里",
        "location": "鳳南路272號",
        "type": "定點",
        "collection_type": "garbage"
      }
    },
    {
      "type": "Feature",
      "geometry": {
        "type": "Point",
        "coordinates": [
          120.333102,
          22.600646
        ]
      },
      "properties": {
        "routeId": "kaohsiung-ket-9591-bc7c41",
        "city": "kaohsiung",
        "route_name": "KET-9591",
        "car_seq": "KET-9591",
        "arrival_time": "1748",
        "departure_time": "1749",
        "district": "鳳山區",
        "village": "善美里",
        "location": "保泰路270巷14之1號",
        "type": "定點",
        "collection_type": "garbage"
      }
    },
    {
      "type": "Feature",
      "geometry": {
        "type": "Point",
        "coordinates": [
          120.332588,
          22.600373
        ]
      },
      "properties": {
        "routeId": "kaohsiung-ket-9591-bc7c41",
        "city": "kaohsiung",
        "route_name": "KET-9591",
        "car_seq": "KET-9591",
        "arrival_time": "1749",
        "departure_time": "1751",
        "district": "鳳山區",
        "village": "善美里",
        "location": "南正二路150巷55號",
        "type": "定點",
        "collection_type": "garbage"
      }
    },
    {
      "type": "Feature",
      "geometry": {
        "type": "Point",
        "coordinates": [
          120.331818,
          22.599853
        ]
      },
      "properties": {
        "routeId": "kaohsiung-ket-9591-bc7c41",
        "city": "kaohsiung",
        "route_name": "KET-9591",
        "car_seq": "KET-9591",
        "arrival_time": "1751",
        "departure_time": "1753",
        "district": "鳳山區",
        "village": "善美里",
        "location": "南正二路150巷23號",
        "type": "定點",
        "collection_type": "garbage"
      }
    },
    {
      "type": "Feature",
      "geometry": {
        "type": "Point",
        "coordinates": [
          120.331399,
          22.599573
        ]
      },
      "properties": {
        "routeId": "kaohsiung-ket-9591-bc7c41",
        "city": "kaohsiung",
        "route_name": "KET-9591",
        "car_seq": "KET-9591",
        "arrival_time": "1753",
        "departure_time": "1755",
        "district": "鳳山區",
        "village": "善美里",
        "location": "南正二路150巷1號",
        "type": "定點",
        "collection_type": "garbage"
      }
    },
    {
      "type": "Feature",
      "geometry": {
        "type": "Point",
        "coordinates": [
          120.331304,
          22.599475
        ]
      },
      "properties": {
        "routeId": "kaohsiung-ket-9591-bc7c41",
        "city": "kaohsiung",
        "route_name": "KET-9591",
        "car_seq": "KET-9591",
        "arrival_time": "1755",
        "departure_time": "1756",
        "district": "鳳山區",
        "village": "善美里",
        "location": "保泰路160巷55號",
        "type": "定點",
        "collection_type": "garbage"
      }
    },
    {
      "type": "Feature",
      "geometry": {
        "type": "Point",
        "coordinates": [
          120.336005,
          22.599667
        ]
      },
      "properties": {
        "routeId": "kaohsiung-ket-9591-bc7c41",
        "city": "kaohsiung",
        "route_name": "KET-9591",
        "car_seq": "KET-9591",
        "arrival_time": "1939",
        "departure_time": "1940",
        "district": "鳳山區",
        "village": "富甲里",
        "location": "南江街14號",
        "type": "定點",
        "collection_type": "garbage"
      }
    },
    {
      "type": "Feature",
      "geometry": {
        "type": "Point",
        "coordinates": [
          120.335705,
          22.599467
        ]
      },
      "properties": {
        "routeId": "kaohsiung-ket-9591-bc7c41",
        "city": "kaohsiung",
        "route_name": "KET-9591",
        "car_seq": "KET-9591",
        "arrival_time": "1941",
        "departure_time": "1942",
        "district": "鳳山區",
        "village": "富甲里",
        "location": "三商街155號",
        "type": "定點",
        "collection_type": "garbage"
      }
    },
    {
      "type": "Feature",
      "geometry": {
        "type": "Point",
        "coordinates": [
          120.335412,
          22.600272
        ]
      },
      "properties": {
        "routeId": "kaohsiung-ket-9591-bc7c41",
        "city": "kaohsiung",
        "route_name": "KET-9591",
        "car_seq": "KET-9591",
        "arrival_time": "1947",
        "departure_time": "1948",
        "district": "鳳山區",
        "village": "富甲里",
        "location": "三商街204號",
        "type": "定點",
        "collection_type": "garbage"
      }
    },
    {
      "type": "Feature",
      "geometry": {
        "type": "Point",
        "coordinates": [
          120.334975,
          22.601344
        ]
      },
      "properties": {
        "routeId": "kaohsiung-ket-9591-bc7c41",
        "city": "kaohsiung",
        "route_name": "KET-9591",
        "car_seq": "KET-9591",
        "arrival_time": "1948",
        "departure_time": "1952",
        "district": "鳳山區",
        "village": "富甲里",
        "location": "善志街17號（永信大樓）",
        "type": "定點",
        "collection_type": "garbage"
      }
    },
    {
      "type": "Feature",
      "geometry": {
        "type": "Point",
        "coordinates": [
          120.334605,
          22.601462
        ]
      },
      "properties": {
        "routeId": "kaohsiung-ket-9591-bc7c41",
        "city": "kaohsiung",
        "route_name": "KET-9591",
        "car_seq": "KET-9591",
        "arrival_time": "1952",
        "departure_time": "1954",
        "district": "鳳山區",
        "village": "善美里",
        "location": "三商街238號",
        "type": "定點",
        "collection_type": "garbage"
      }
    },
    {
      "type": "Feature",
      "geometry": {
        "type": "Point",
        "coordinates": [
          120.335331,
          22.60037
        ]
      },
      "properties": {
        "routeId": "kaohsiung-ket-9591-bc7c41",
        "city": "kaohsiung",
        "route_name": "KET-9591",
        "car_seq": "KET-9591",
        "arrival_time": "1954",
        "departure_time": "1956",
        "district": "鳳山區",
        "village": "富甲里",
        "location": "三商街214號（百裕大樓）",
        "type": "定點",
        "collection_type": "garbage"
      }
    },
    {
      "type": "Feature",
      "geometry": {
        "type": "Point",
        "coordinates": [
          120.325602,
          22.594308
        ]
      },
      "properties": {
        "routeId": "kaohsiung-ket-9591-bc7c41",
        "city": "kaohsiung",
        "route_name": "KET-9591",
        "car_seq": "KET-9591",
        "arrival_time": "2007",
        "departure_time": "2008",
        "district": "鳳山區",
        "village": "福誠里",
        "location": "忠誠路75巷14號",
        "type": "定點",
        "collection_type": "garbage"
      }
    },
    {
      "type": "Feature",
      "geometry": {
        "type": "Point",
        "coordinates": [
          120.325648,
          22.595818
        ]
      },
      "properties": {
        "routeId": "kaohsiung-ket-9591-bc7c41",
        "city": "kaohsiung",
        "route_name": "KET-9591",
        "car_seq": "KET-9591",
        "arrival_time": "2009",
        "departure_time": "2010",
        "district": "鳳山區",
        "village": "福誠里",
        "location": "忠誠路133號",
        "type": "定點",
        "collection_type": "garbage"
      }
    },
    {
      "type": "Feature",
      "geometry": {
        "type": "Point",
        "coordinates": [
          120.325119,
          22.59579
        ]
      },
      "properties": {
        "routeId": "kaohsiung-ket-9591-bc7c41",
        "city": "kaohsiung",
        "route_name": "KET-9591",
        "car_seq": "KET-9591",
        "arrival_time": "2010",
        "departure_time": "2011",
        "district": "鳳山區",
        "village": "福誠里",
        "location": "勇志街83號",
        "type": "定點",
        "collection_type": "garbage"
      }
    },
    {
      "type": "Feature",
      "geometry": {
        "type": "Point",
        "coordinates": [
          120.324832,
          22.595443
        ]
      },
      "properties": {
        "routeId": "kaohsiung-ket-9591-bc7c41",
        "city": "kaohsiung",
        "route_name": "KET-9591",
        "car_seq": "KET-9591",
        "arrival_time": "2011",
        "departure_time": "2012",
        "district": "鳳山區",
        "village": "福誠里",
        "location": "勇志街51號",
        "type": "定點",
        "collection_type": "garbage"
      }
    },
    {
      "type": "Feature",
      "geometry": {
        "type": "Point",
        "coordinates": [
          120.325196,
          22.595314
        ]
      },
      "properties": {
        "routeId": "kaohsiung-ket-9591-bc7c41",
        "city": "kaohsiung",
        "route_name": "KET-9591",
        "car_seq": "KET-9591",
        "arrival_time": "2012",
        "departure_time": "2013",
        "district": "鳳山區",
        "village": "福誠里",
        "location": "忠誠路119巷27號",
        "type": "定點",
        "collection_type": "garbage"
      }
    },
    {
      "type": "Feature",
      "geometry": {
        "type": "Point",
        "coordinates": [
          120.325416,
          22.595462
        ]
      },
      "properties": {
        "routeId": "kaohsiung-ket-9591-bc7c41",
        "city": "kaohsiung",
        "route_name": "KET-9591",
        "car_seq": "KET-9591",
        "arrival_time": "2013",
        "departure_time": "2014",
        "district": "鳳山區",
        "village": "福誠里",
        "location": "忠誠路119巷12號",
        "type": "定點",
        "collection_type": "garbage"
      }
    },
    {
      "type": "Feature",
      "geometry": {
        "type": "Point",
        "coordinates": [
          120.326213,
          22.598474
        ]
      },
      "properties": {
        "routeId": "kaohsiung-ket-9591-bc7c41",
        "city": "kaohsiung",
        "route_name": "KET-9591",
        "car_seq": "KET-9591",
        "arrival_time": "2014",
        "departure_time": "2015",
        "district": "鳳山區",
        "village": "福誠里",
        "location": "七雄街66號",
        "type": "定點",
        "collection_type": "garbage"
      }
    },
    {
      "type": "Feature",
      "geometry": {
        "type": "Point",
        "coordinates": [
          120.326211,
          22.597947
        ]
      },
      "properties": {
        "routeId": "kaohsiung-ket-9591-bc7c41",
        "city": "kaohsiung",
        "route_name": "KET-9591",
        "car_seq": "KET-9591",
        "arrival_time": "2015",
        "departure_time": "2016",
        "district": "鳳山區",
        "village": "福誠里",
        "location": "七雄街40號",
        "type": "定點",
        "collection_type": "garbage"
      }
    },
    {
      "type": "Feature",
      "geometry": {
        "type": "Point",
        "coordinates": [
          120.326463,
          22.59711
        ]
      },
      "properties": {
        "routeId": "kaohsiung-ket-9591-bc7c41",
        "city": "kaohsiung",
        "route_name": "KET-9591",
        "car_seq": "KET-9591",
        "arrival_time": "2017",
        "departure_time": "2018",
        "district": "鳳山區",
        "village": "福誠里",
        "location": "六法街37號",
        "type": "定點",
        "collection_type": "garbage"
      }
    },
    {
      "type": "Feature",
      "geometry": {
        "type": "Point",
        "coordinates": [
          120.326674,
          22.597024
        ]
      },
      "properties": {
        "routeId": "kaohsiung-ket-9591-bc7c41",
        "city": "kaohsiung",
        "route_name": "KET-9591",
        "car_seq": "KET-9591",
        "arrival_time": "2018",
        "departure_time": "2019",
        "district": "鳳山區",
        "village": "福誠里",
        "location": "五常街52巷26號",
        "type": "定點",
        "collection_type": "garbage"
      }
    },
    {
      "type": "Feature",
      "geometry": {
        "type": "Point",
        "coordinates": [
          120.327087,
          22.595775
        ]
      },
      "properties": {
        "routeId": "kaohsiung-ket-9591-bc7c41",
        "city": "kaohsiung",
        "route_name": "KET-9591",
        "car_seq": "KET-9591",
        "arrival_time": "2019",
        "departure_time": "2020",
        "district": "鳳山區",
        "village": "福誠里",
        "location": "四海街62巷6號",
        "type": "定點",
        "collection_type": "garbage"
      }
    },
    {
      "type": "Feature",
      "geometry": {
        "type": "Point",
        "coordinates": [
          120.326189,
          22.596074
        ]
      },
      "properties": {
        "routeId": "kaohsiung-ket-9591-bc7c41",
        "city": "kaohsiung",
        "route_name": "KET-9591",
        "car_seq": "KET-9591",
        "arrival_time": "2020",
        "departure_time": "2021",
        "district": "鳳山區",
        "village": "福誠里",
        "location": "五常街11號",
        "type": "定點",
        "collection_type": "garbage"
      }
    },
    {
      "type": "Feature",
      "geometry": {
        "type": "Point",
        "coordinates": [
          120.326021,
          22.596525
        ]
      },
      "properties": {
        "routeId": "kaohsiung-ket-9591-bc7c41",
        "city": "kaohsiung",
        "route_name": "KET-9591",
        "car_seq": "KET-9591",
        "arrival_time": "2021",
        "departure_time": "2023",
        "district": "鳳山區",
        "village": "福誠里",
        "location": "五常街84號",
        "type": "定點",
        "collection_type": "garbage"
      }
    },
    {
      "type": "Feature",
      "geometry": {
        "type": "Point",
        "coordinates": [
          120.325684,
          22.596986
        ]
      },
      "properties": {
        "routeId": "kaohsiung-ket-9591-bc7c41",
        "city": "kaohsiung",
        "route_name": "KET-9591",
        "car_seq": "KET-9591",
        "arrival_time": "2023",
        "departure_time": "2025",
        "district": "鳳山區",
        "village": "福誠里",
        "location": "忠誠路170號",
        "type": "定點",
        "collection_type": "garbage"
      }
    },
    {
      "type": "Feature",
      "geometry": {
        "type": "Point",
        "coordinates": [
          120.325456,
          22.597487
        ]
      },
      "properties": {
        "routeId": "kaohsiung-ket-9591-bc7c41",
        "city": "kaohsiung",
        "route_name": "KET-9591",
        "car_seq": "KET-9591",
        "arrival_time": "2024",
        "departure_time": "2026",
        "district": "鳳山區",
        "village": "福誠里",
        "location": "忠誠路192號",
        "type": "定點",
        "collection_type": "garbage"
      }
    }
  ]
}