{
  "type": "FeatureCollection",
  "features": [
    {
      "type": "Feature",
      "geometry": {
        "type": "Point",
        "coordinates": [
          120.395332,
          22.604005
        ]
      },
      "properties": {
        "routeId": "kaohsiung-keh-6255-bb2715",
        "city": "kaohsiung",
        "route_name": "KEH-6255",
        "car_seq": "KEH-6255",
        "arrival_time": "1645",
        "departure_time": "1646",
        "district": "大寮區",
        "village": "會社里",
        "location": "鳳林三路439巷20號",
        "type": "定點",
        "collection_type": "garbage"
      }
    },
    {
      "type": "Feature",
      "geometry": {
        "type": "Point",
        "coordinates": [
          120.395273,
          22.603466
        ]
      },
      "properties": {
        "routeId": "kaohsiung-keh-6255-bb2715",
        "city": "kaohsiung",
        "route_name": "KEH-6255",
        "car_seq": "KEH-6255",
        "arrival_time": "1647",
        "departure_time": "1647",
        "district": "大寮區",
        "village": "會社里",
        "location": "鳳林三路439巷58號",
        "type": "定點",
        "collection_type": "garbage"
      }
    },
    {
      "type": "Feature",
      "geometry": {
        "type": "Point",
        "coordinates": [
          120.395748,
          22.602838
        ]
      },
      "properties": {
        "routeId": "kaohsiung-keh-6255-bb2715",
        "city": "kaohsiung",
        "route_name": "KEH-6255",
        "car_seq": "KEH-6255",
        "arrival_time": "1649",
        "departure_time": "1649",
        "district": "大寮區",
        "village": "會社里",
        "location": "正氣路26巷1號",
        "type": "定點",
        "collection_type": "garbage"
      }
    },
    {
      "type": "Feature",
      "geometry": {
        "type": "Point",
        "coordinates": [
          120.39599,
          22.602228
        ]
      },
      "properties": {
        "routeId": "kaohsiung-keh-6255-bb2715",
        "city": "kaohsiung",
        "route_name": "KEH-6255",
        "car_seq": "KEH-6255",
        "arrival_time": "1651",
        "departure_time": "1651",
        "district": "大寮區",
        "village": "會社里",
        "location": "正氣路29巷12號",
        "type": "定點",
        "collection_type": "garbage"
      }
    },
    {
      "type": "Feature",
      "geometry": {
        "type": "Point",
        "coordinates": [
          120.3967,
          22.601368
        ]
      },
      "properties": {
        "routeId": "kaohsiung-keh-6255-bb2715",
        "city": "kaohsiung",
        "route_name": "KEH-6255",
        "car_seq": "KEH-6255",
        "arrival_time": "1653",
        "departure_time": "1653",
        "district": "大寮區",
        "village": "會社里",
        "location": "鳳林三路373巷31號",
        "type": "定點",
        "collection_type": "garbage"
      }
    },
    {
      "type": "Feature",
      "geometry": {
        "type": "Point",
        "coordinates": [
          120.395346,
          22.599701
        ]
      },
      "properties": {
        "routeId": "kaohsiung-keh-6255-bb2715",
        "city": "kaohsiung",
        "route_name": "KEH-6255",
        "car_seq": "KEH-6255",
        "arrival_time": "1655",
        "departure_time": "1655",
        "district": "大寮區",
        "village": "會社里",
        "location": "鳳林三路301巷35號",
        "type": "定點",
        "collection_type": "garbage"
      }
    },
    {
      "type": "Feature",
      "geometry": {
        "type": "Point",
        "coordinates": [
          120.396015,
          22.5999
        ]
      },
      "properties": {
        "routeId": "kaohsiung-keh-6255-bb2715",
        "city": "kaohsiung",
        "route_name": "KEH-6255",
        "car_seq": "KEH-6255",
        "arrival_time": "1657",
        "departure_time": "1657",
        "district": "大寮區",
        "village": "會社里",
        "location": "鳳林三路301巷163號",
        "type": "定點",
        "collection_type": "garbage"
      }
    },
    {
      "type": "Feature",
      "geometry": {
        "type": "Point",
        "coordinates": [
          120.39648,
          22.60002
        ]
      },
      "properties": {
        "routeId": "kaohsiung-keh-6255-bb2715",
        "city": "kaohsiung",
        "route_name": "KEH-6255",
        "car_seq": "KEH-6255",
        "arrival_time": "1658",
        "departure_time": "1658",
        "district": "大寮區",
        "village": "會社里",
        "location": "鳳林三路301巷147號",
        "type": "定點",
        "collection_type": "garbage"
      }
    },
    {
      "type": "Feature",
      "geometry": {
        "type": "Point",
        "coordinates": [
          120.397121,
          22.600321
        ]
      },
      "properties": {
        "routeId": "kaohsiung-keh-6255-bb2715",
        "city": "kaohsiung",
        "route_name": "KEH-6255",
        "car_seq": "KEH-6255",
        "arrival_time": "1659",
        "departure_time": "1659",
        "district": "大寮區",
        "village": "會社里",
        "location": "鳳林三路301巷115號",
        "type": "定點",
        "collection_type": "garbage"
      }
    },
    {
      "type": "Feature",
      "geometry": {
        "type": "Point",
        "coordinates": [
          120.39727,
          22.600553
        ]
      },
      "properties": {
        "routeId": "kaohsiung-keh-6255-bb2715",
        "city": "kaohsiung",
        "route_name": "KEH-6255",
        "car_seq": "KEH-6255",
        "arrival_time": "1700",
        "departure_time": "1700",
        "district": "大寮區",
        "village": "會社里",
        "location": "鳳林三路337巷48號",
        "type": "定點",
        "collection_type": "garbage"
      }
    },
    {
      "type": "Feature",
      "geometry": {
        "type": "Point",
        "coordinates": [
          120.397093,
          22.600853
        ]
      },
      "properties": {
        "routeId": "kaohsiung-keh-6255-bb2715",
        "city": "kaohsiung",
        "route_name": "KEH-6255",
        "car_seq": "KEH-6255",
        "arrival_time": "1701",
        "departure_time": "1701",
        "district": "大寮區",
        "village": "會社里",
        "location": "鳳林三路337巷28號",
        "type": "定點",
        "collection_type": "garbage"
      }
    },
    {
      "type": "Feature",
      "geometry": {
        "type": "Point",
        "coordinates": [
          120.396407,
          22.60161
        ]
      },
      "properties": {
        "routeId": "kaohsiung-keh-6255-bb2715",
        "city": "kaohsiung",
        "route_name": "KEH-6255",
        "car_seq": "KEH-6255",
        "arrival_time": "1702",
        "departure_time": "1702",
        "district": "大寮區",
        "village": "會社里",
        "location": "鳳林三路373巷22號",
        "type": "定點",
        "collection_type": "garbage"
      }
    },
    {
      "type": "Feature",
      "geometry": {
        "type": "Point",
        "coordinates": [
          120.395852,
          22.60155
        ]
      },
      "properties": {
        "routeId": "kaohsiung-keh-6255-bb2715",
        "city": "kaohsiung",
        "route_name": "KEH-6255",
        "car_seq": "KEH-6255",
        "arrival_time": "1703",
        "departure_time": "1703",
        "district": "大寮區",
        "village": "會社里",
        "location": "鳳林三路373巷20號",
        "type": "定點",
        "collection_type": "garbage"
      }
    },
    {
      "type": "Feature",
      "geometry": {
        "type": "Point",
        "coordinates": [
          120.395114,
          22.601035
        ]
      },
      "properties": {
        "routeId": "kaohsiung-keh-6255-bb2715",
        "city": "kaohsiung",
        "route_name": "KEH-6255",
        "car_seq": "KEH-6255",
        "arrival_time": "1704",
        "departure_time": "1704",
        "district": "大寮區",
        "village": "會社里",
        "location": "鳳林三路373巷86號",
        "type": "定點",
        "collection_type": "garbage"
      }
    },
    {
      "type": "Feature",
      "geometry": {
        "type": "Point",
        "coordinates": [
          120.395503,
          22.601803
        ]
      },
      "properties": {
        "routeId": "kaohsiung-keh-6255-bb2715",
        "city": "kaohsiung",
        "route_name": "KEH-6255",
        "car_seq": "KEH-6255",
        "arrival_time": "1705",
        "departure_time": "1705",
        "district": "大寮區",
        "village": "會社里",
        "location": "正氣路47-16號",
        "type": "定點",
        "collection_type": "garbage"
      }
    },
    {
      "type": "Feature",
      "geometry": {
        "type": "Point",
        "coordinates": [
          120.394498,
          22.602319
        ]
      },
      "properties": {
        "routeId": "kaohsiung-keh-6255-bb2715",
        "city": "kaohsiung",
        "route_name": "KEH-6255",
        "car_seq": "KEH-6255",
        "arrival_time": "1706",
        "departure_time": "1706",
        "district": "大寮區",
        "village": "會社里",
        "location": "正氣路74-24號",
        "type": "定點",
        "collection_type": "garbage"
      }
    },
    {
      "type": "Feature",
      "geometry": {
        "type": "Point",
        "coordinates": [
          120.393705,
          22.600891
        ]
      },
      "properties": {
        "routeId": "kaohsiung-keh-6255-bb2715",
        "city": "kaohsiung",
        "route_name": "KEH-6255",
        "car_seq": "KEH-6255",
        "arrival_time": "1708",
        "departure_time": "1709",
        "district": "大寮區",
        "village": "會社里",
        "location": "正氣路73-24號",
        "type": "定點",
        "collection_type": "garbage"
      }
    },
    {
      "type": "Feature",
      "geometry": {
        "type": "Point",
        "coordinates": [
          120.394875,
          22.601783
        ]
      },
      "properties": {
        "routeId": "kaohsiung-keh-6255-bb2715",
        "city": "kaohsiung",
        "route_name": "KEH-6255",
        "car_seq": "KEH-6255",
        "arrival_time": "1709",
        "departure_time": "1709",
        "district": "大寮區",
        "village": "會社里",
        "location": "正氣路61號",
        "type": "定點",
        "collection_type": "garbage"
      }
    },
    {
      "type": "Feature",
      "geometry": {
        "type": "Point",
        "coordinates": [
          120.395597,
          22.602257
        ]
      },
      "properties": {
        "routeId": "kaohsiung-keh-6255-bb2715",
        "city": "kaohsiung",
        "route_name": "KEH-6255",
        "car_seq": "KEH-6255",
        "arrival_time": "1710",
        "departure_time": "1710",
        "district": "大寮區",
        "village": "會社里",
        "location": "正氣路43號",
        "type": "定點",
        "collection_type": "garbage"
      }
    },
    {
      "type": "Feature",
      "geometry": {
        "type": "Point",
        "coordinates": [
          120.396929,
          22.603527
        ]
      },
      "properties": {
        "routeId": "kaohsiung-keh-6255-bb2715",
        "city": "kaohsiung",
        "route_name": "KEH-6255",
        "car_seq": "KEH-6255",
        "arrival_time": "1712",
        "departure_time": "1712",
        "district": "大寮區",
        "village": "會社里",
        "location": "鳳林三路382巷5號",
        "type": "定點",
        "collection_type": "garbage"
      }
    },
    {
      "type": "Feature",
      "geometry": {
        "type": "Point",
        "coordinates": [
          120.397122,
          22.603611
        ]
      },
      "properties": {
        "routeId": "kaohsiung-keh-6255-bb2715",
        "city": "kaohsiung",
        "route_name": "KEH-6255",
        "car_seq": "KEH-6255",
        "arrival_time": "1713",
        "departure_time": "1713",
        "district": "大寮區",
        "village": "會社里",
        "location": "鳳林三路382巷17號",
        "type": "定點",
        "collection_type": "garbage"
      }
    },
    {
      "type": "Feature",
      "geometry": {
        "type": "Point",
        "coordinates": [
          120.396762,
          22.604483
        ]
      },
      "properties": {
        "routeId": "kaohsiung-keh-6255-bb2715",
        "city": "kaohsiung",
        "route_name": "KEH-6255",
        "car_seq": "KEH-6255",
        "arrival_time": "1715",
        "departure_time": "1715",
        "district": "大寮區",
        "village": "會社里",
        "location": "鳳林三路382巷129號",
        "type": "定點",
        "collection_type": "garbage"
      }
    },
    {
      "type": "Feature",
      "geometry": {
        "type": "Point",
        "coordinates": [
          120.397383,
          22.60399
        ]
      },
      "properties": {
        "routeId": "kaohsiung-keh-6255-bb2715",
        "city": "kaohsiung",
        "route_name": "KEH-6255",
        "car_seq": "KEH-6255",
        "arrival_time": "1717",
        "departure_time": "1717",
        "district": "大寮區",
        "village": "會社里",
        "location": "鳳林三路382巷71號",
        "type": "定點",
        "collection_type": "garbage"
      }
    },
    {
      "type": "Feature",
      "geometry": {
        "type": "Point",
        "coordinates": [
          120.397837,
          22.602574
        ]
      },
      "properties": {
        "routeId": "kaohsiung-keh-6255-bb2715",
        "city": "kaohsiung",
        "route_name": "KEH-6255",
        "car_seq": "KEH-6255",
        "arrival_time": "1718",
        "departure_time": "1718",
        "district": "大寮區",
        "village": "會社里",
        "location": "鳳林三路344巷10號",
        "type": "定點",
        "collection_type": "garbage"
      }
    },
    {
      "type": "Feature",
      "geometry": {
        "type": "Point",
        "coordinates": [
          120.399066,
          22.599778
        ]
      },
      "properties": {
        "routeId": "kaohsiung-keh-6255-bb2715",
        "city": "kaohsiung",
        "route_name": "KEH-6255",
        "car_seq": "KEH-6255",
        "arrival_time": "1720",
        "departure_time": "1720",
        "district": "大寮區",
        "village": "會社里",
        "location": "鳳林三路247巷18-2號",
        "type": "定點",
        "collection_type": "garbage"
      }
    },
    {
      "type": "Feature",
      "geometry": {
        "type": "Point",
        "coordinates": [
          120.398594,
          22.599065
        ]
      },
      "properties": {
        "routeId": "kaohsiung-keh-6255-bb2715",
        "city": "kaohsiung",
        "route_name": "KEH-6255",
        "car_seq": "KEH-6255",
        "arrival_time": "1721",
        "departure_time": "1721",
        "district": "大寮區",
        "village": "會社里",
        "location": "鳳林三路247巷25-3號",
        "type": "定點",
        "collection_type": "garbage"
      }
    },
    {
      "type": "Feature",
      "geometry": {
        "type": "Point",
        "coordinates": [
          120.39854,
          22.598064
        ]
      },
      "properties": {
        "routeId": "kaohsiung-keh-6255-bb2715",
        "city": "kaohsiung",
        "route_name": "KEH-6255",
        "car_seq": "KEH-6255",
        "arrival_time": "1722",
        "departure_time": "1722",
        "district": "大寮區",
        "village": "會社里",
        "location": "鳳林三路247巷96號",
        "type": "定點",
        "collection_type": "garbage"
      }
    },
    {
      "type": "Feature",
      "geometry": {
        "type": "Point",
        "coordinates": [
          120.398698,
          22.597888
        ]
      },
      "properties": {
        "routeId": "kaohsiung-keh-6255-bb2715",
        "city": "kaohsiung",
        "route_name": "KEH-6255",
        "car_seq": "KEH-6255",
        "arrival_time": "1723",
        "departure_time": "1723",
        "district": "大寮區",
        "village": "會社里",
        "location": "鳳林三路247巷119號",
        "type": "定點",
        "collection_type": "garbage"
      }
    },
    {
      "type": "Feature",
      "geometry": {
        "type": "Point",
        "coordinates": [
          120.398512,
          22.597127
        ]
      },
      "properties": {
        "routeId": "kaohsiung-keh-6255-bb2715",
        "city": "kaohsiung",
        "route_name": "KEH-6255",
        "car_seq": "KEH-6255",
        "arrival_time": "1724",
        "departure_time": "1724",
        "district": "大寮區",
        "village": "會社里",
        "location": "鳳林三路161巷173號",
        "type": "定點",
        "collection_type": "garbage"
      }
    },
    {
      "type": "Feature",
      "geometry": {
        "type": "Point",
        "coordinates": [
          120.397897,
          22.597069
        ]
      },
      "properties": {
        "routeId": "kaohsiung-keh-6255-bb2715",
        "city": "kaohsiung",
        "route_name": "KEH-6255",
        "car_seq": "KEH-6255",
        "arrival_time": "1725",
        "departure_time": "1725",
        "district": "大寮區",
        "village": "會社里",
        "location": "鳳林三路161巷111號",
        "type": "定點",
        "collection_type": "garbage"
      }
    },
    {
      "type": "Feature",
      "geometry": {
        "type": "Point",
        "coordinates": [
          120.400633,
          22.598765
        ]
      },
      "properties": {
        "routeId": "kaohsiung-keh-6255-bb2715",
        "city": "kaohsiung",
        "route_name": "KEH-6255",
        "car_seq": "KEH-6255",
        "arrival_time": "1726",
        "departure_time": "1726",
        "district": "大寮區",
        "village": "會社里",
        "location": "鳳林三路184-7號",
        "type": "定點",
        "collection_type": "garbage"
      }
    },
    {
      "type": "Feature",
      "geometry": {
        "type": "Point",
        "coordinates": [
          120.402634,
          22.596786
        ]
      },
      "properties": {
        "routeId": "kaohsiung-keh-6255-bb2715",
        "city": "kaohsiung",
        "route_name": "KEH-6255",
        "car_seq": "KEH-6255",
        "arrival_time": "1728",
        "departure_time": "1728",
        "district": "大寮區",
        "village": "會社里",
        "location": "大寮路23巷33號",
        "type": "定點",
        "collection_type": "garbage"
      }
    },
    {
      "type": "Feature",
      "geometry": {
        "type": "Point",
        "coordinates": [
          120.40208,
          22.596402
        ]
      },
      "properties": {
        "routeId": "kaohsiung-keh-6255-bb2715",
        "city": "kaohsiung",
        "route_name": "KEH-6255",
        "car_seq": "KEH-6255",
        "arrival_time": "1730",
        "departure_time": "1730",
        "district": "大寮區",
        "village": "會社里",
        "location": "大寮路23巷5號",
        "type": "定點",
        "collection_type": "garbage"
      }
    },
    {
      "type": "Feature",
      "geometry": {
        "type": "Point",
        "coordinates": [
          120.40078,
          22.595033
        ]
      },
      "properties": {
        "routeId": "kaohsiung-keh-6255-bb2715",
        "city": "kaohsiung",
        "route_name": "KEH-6255",
        "car_seq": "KEH-6255",
        "arrival_time": "1733",
        "departure_time": "1733",
        "district": "大寮區",
        "village": "會社里",
        "location": "鳳林三路37巷31號",
        "type": "定點",
        "collection_type": "garbage"
      }
    },
    {
      "type": "Feature",
      "geometry": {
        "type": "Point",
        "coordinates": [
          120.400631,
          22.594852
        ]
      },
      "properties": {
        "routeId": "kaohsiung-keh-6255-bb2715",
        "city": "kaohsiung",
        "route_name": "KEH-6255",
        "car_seq": "KEH-6255",
        "arrival_time": "1734",
        "departure_time": "1734",
        "district": "大寮區",
        "village": "會社里",
        "location": "鳳林三路19巷8-37號",
        "type": "定點",
        "collection_type": "garbage"
      }
    },
    {
      "type": "Feature",
      "geometry": {
        "type": "Point",
        "coordinates": [
          120.400707,
          22.594566
        ]
      },
      "properties": {
        "routeId": "kaohsiung-keh-6255-bb2715",
        "city": "kaohsiung",
        "route_name": "KEH-6255",
        "car_seq": "KEH-6255",
        "arrival_time": "1736",
        "departure_time": "1736",
        "district": "大寮區",
        "village": "會社里",
        "location": "鳳林三路19巷8-18號",
        "type": "定點",
        "collection_type": "garbage"
      }
    },
    {
      "type": "Feature",
      "geometry": {
        "type": "Point",
        "coordinates": [
          120.400751,
          22.594431
        ]
      },
      "properties": {
        "routeId": "kaohsiung-keh-6255-bb2715",
        "city": "kaohsiung",
        "route_name": "KEH-6255",
        "car_seq": "KEH-6255",
        "arrival_time": "1737",
        "departure_time": "1737",
        "district": "大寮區",
        "village": "會社里",
        "location": "鳳林三路19巷42號",
        "type": "定點",
        "collection_type": "garbage"
      }
    },
    {
      "type": "Feature",
      "geometry": {
        "type": "Point",
        "coordinates": [
          120.401113,
          22.594539
        ]
      },
      "properties": {
        "routeId": "kaohsiung-keh-6255-bb2715",
        "city": "kaohsiung",
        "route_name": "KEH-6255",
        "car_seq": "KEH-6255",
        "arrival_time": "1739",
        "departure_time": "1739",
        "district": "大寮區",
        "village": "會社里",
        "location": "鳳林三路19巷22號",
        "type": "定點",
        "collection_type": "garbage"
      }
    },
    {
      "type": "Feature",
      "geometry": {
        "type": "Point",
        "coordinates": [
          120.401465,
          22.594344
        ]
      },
      "properties": {
        "routeId": "kaohsiung-keh-6255-bb2715",
        "city": "kaohsiung",
        "route_name": "KEH-6255",
        "car_seq": "KEH-6255",
        "arrival_time": "1740",
        "departure_time": "1740",
        "district": "大寮區",
        "village": "會社里",
        "location": "鳳林三路19巷11號",
        "type": "定點",
        "collection_type": "garbage"
      }
    },
    {
      "type": "Feature",
      "geometry": {
        "type": "Point",
        "coordinates": [
          120.401589,
          22.594024
        ]
      },
      "properties": {
        "routeId": "kaohsiung-keh-6255-bb2715",
        "city": "kaohsiung",
        "route_name": "KEH-6255",
        "car_seq": "KEH-6255",
        "arrival_time": "1741",
        "departure_time": "1741",
        "district": "大寮區",
        "village": "會社里",
        "location": "鳳林三路5-29號",
        "type": "定點",
        "collection_type": "garbage"
      }
    },
    {
      "type": "Feature",
      "geometry": {
        "type": "Point",
        "coordinates": [
          120.369949,
          22.589766
        ]
      },
      "properties": {
        "routeId": "kaohsiung-keh-6255-bb2715",
        "city": "kaohsiung",
        "route_name": "KEH-6255",
        "car_seq": "KEH-6255",
        "arrival_time": "1745",
        "departure_time": "1745",
        "district": "大寮區",
        "village": "內坑里",
        "location": "六和路64號",
        "type": "定點",
        "collection_type": "garbage"
      }
    },
    {
      "type": "Feature",
      "geometry": {
        "type": "Point",
        "coordinates": [
          120.370444,
          22.589984
        ]
      },
      "properties": {
        "routeId": "kaohsiung-keh-6255-bb2715",
        "city": "kaohsiung",
        "route_name": "KEH-6255",
        "car_seq": "KEH-6255",
        "arrival_time": "1746",
        "departure_time": "1746",
        "district": "大寮區",
        "village": "內坑里",
        "location": "六和路46巷8號",
        "type": "定點",
        "collection_type": "garbage"
      }
    },
    {
      "type": "Feature",
      "geometry": {
        "type": "Point",
        "coordinates": [
          120.370527,
          22.590342
        ]
      },
      "properties": {
        "routeId": "kaohsiung-keh-6255-bb2715",
        "city": "kaohsiung",
        "route_name": "KEH-6255",
        "car_seq": "KEH-6255",
        "arrival_time": "1747",
        "departure_time": "1747",
        "district": "大寮區",
        "village": "內坑里",
        "location": "六和路26巷48號",
        "type": "定點",
        "collection_type": "garbage"
      }
    },
    {
      "type": "Feature",
      "geometry": {
        "type": "Point",
        "coordinates": [
          120.370709,
          22.590226
        ]
      },
      "properties": {
        "routeId": "kaohsiung-keh-6255-bb2715",
        "city": "kaohsiung",
        "route_name": "KEH-6255",
        "car_seq": "KEH-6255",
        "arrival_time": "1748",
        "departure_time": "1748",
        "district": "大寮區",
        "village": "內坑里",
        "location": "六和路26巷21號",
        "type": "定點",
        "collection_type": "garbage"
      }
    },
    {
      "type": "Feature",
      "geometry": {
        "type": "Point",
        "coordinates": [
          120.371101,
          22.5896
        ]
      },
      "properties": {
        "routeId": "kaohsiung-keh-6255-bb2715",
        "city": "kaohsiung",
        "route_name": "KEH-6255",
        "car_seq": "KEH-6255",
        "arrival_time": "1749",
        "departure_time": "1749",
        "district": "大寮區",
        "village": "內坑里",
        "location": "六和路6號",
        "type": "定點",
        "collection_type": "garbage"
      }
    },
    {
      "type": "Feature",
      "geometry": {
        "type": "Point",
        "coordinates": [
          120.3903,
          22.596986
        ]
      },
      "properties": {
        "routeId": "kaohsiung-keh-6255-bb2715",
        "city": "kaohsiung",
        "route_name": "KEH-6255",
        "car_seq": "KEH-6255",
        "arrival_time": "1835",
        "departure_time": "1836",
        "district": "大寮區",
        "village": "內坑里",
        "location": "內坑路78-8號",
        "type": "定點",
        "collection_type": "garbage"
      }
    },
    {
      "type": "Feature",
      "geometry": {
        "type": "Point",
        "coordinates": [
          120.390524,
          22.595575
        ]
      },
      "properties": {
        "routeId": "kaohsiung-keh-6255-bb2715",
        "city": "kaohsiung",
        "route_name": "KEH-6255",
        "car_seq": "KEH-6255",
        "arrival_time": "1836",
        "departure_time": "1836",
        "district": "大寮區",
        "village": "內坑里",
        "location": "內坑路90號",
        "type": "定點",
        "collection_type": "garbage"
      }
    },
    {
      "type": "Feature",
      "geometry": {
        "type": "Point",
        "coordinates": [
          120.390795,
          22.59624
        ]
      },
      "properties": {
        "routeId": "kaohsiung-keh-6255-bb2715",
        "city": "kaohsiung",
        "route_name": "KEH-6255",
        "car_seq": "KEH-6255",
        "arrival_time": "1838",
        "departure_time": "1838",
        "district": "大寮區",
        "village": "內坑里",
        "location": "內坑路90-10號",
        "type": "定點",
        "collection_type": "garbage"
      }
    },
    {
      "type": "Feature",
      "geometry": {
        "type": "Point",
        "coordinates": [
          120.388912,
          22.595618
        ]
      },
      "properties": {
        "routeId": "kaohsiung-keh-6255-bb2715",
        "city": "kaohsiung",
        "route_name": "KEH-6255",
        "car_seq": "KEH-6255",
        "arrival_time": "1841",
        "departure_time": "1841",
        "district": "大寮區",
        "village": "內坑里",
        "location": "內坑路109號",
        "type": "定點",
        "collection_type": "garbage"
      }
    },
    {
      "type": "Feature",
      "geometry": {
        "type": "Point",
        "coordinates": [
          120.388834,
          22.59578
        ]
      },
      "properties": {
        "routeId": "kaohsiung-keh-6255-bb2715",
        "city": "kaohsiung",
        "route_name": "KEH-6255",
        "car_seq": "KEH-6255",
        "arrival_time": "1842",
        "departure_time": "1842",
        "district": "大寮區",
        "village": "內坑里",
        "location": "內坑路110號",
        "type": "定點",
        "collection_type": "garbage"
      }
    },
    {
      "type": "Feature",
      "geometry": {
        "type": "Point",
        "coordinates": [
          120.388616,
          22.596247
        ]
      },
      "properties": {
        "routeId": "kaohsiung-keh-6255-bb2715",
        "city": "kaohsiung",
        "route_name": "KEH-6255",
        "car_seq": "KEH-6255",
        "arrival_time": "1844",
        "departure_time": "1844",
        "district": "大寮區",
        "village": "內坑里",
        "location": "內坑路112-9號",
        "type": "定點",
        "collection_type": "garbage"
      }
    },
    {
      "type": "Feature",
      "geometry": {
        "type": "Point",
        "coordinates": [
          120.388464,
          22.595202
        ]
      },
      "properties": {
        "routeId": "kaohsiung-keh-6255-bb2715",
        "city": "kaohsiung",
        "route_name": "KEH-6255",
        "car_seq": "KEH-6255",
        "arrival_time": "1849",
        "departure_time": "1849",
        "district": "大寮區",
        "village": "內坑里",
        "location": "內坑路108-19號",
        "type": "定點",
        "collection_type": "garbage"
      }
    },
    {
      "type": "Feature",
      "geometry": {
        "type": "Point",
        "coordinates": [
          120.388157,
          22.594653
        ]
      },
      "properties": {
        "routeId": "kaohsiung-keh-6255-bb2715",
        "city": "kaohsiung",
        "route_name": "KEH-6255",
        "car_seq": "KEH-6255",
        "arrival_time": "1851",
        "departure_time": "1852",
        "district": "大寮區",
        "village": "內坑里",
        "location": "內坑路108-67號",
        "type": "定點",
        "collection_type": "garbage"
      }
    },
    {
      "type": "Feature",
      "geometry": {
        "type": "Point",
        "coordinates": [
          120.388172,
          22.59448
        ]
      },
      "properties": {
        "routeId": "kaohsiung-keh-6255-bb2715",
        "city": "kaohsiung",
        "route_name": "KEH-6255",
        "car_seq": "KEH-6255",
        "arrival_time": "1853",
        "departure_time": "1855",
        "district": "大寮區",
        "village": "內坑里",
        "location": "內坑路108-48號",
        "type": "定點",
        "collection_type": "garbage"
      }
    },
    {
      "type": "Feature",
      "geometry": {
        "type": "Point",
        "coordinates": [
          120.389647,
          22.59466
        ]
      },
      "properties": {
        "routeId": "kaohsiung-keh-6255-bb2715",
        "city": "kaohsiung",
        "route_name": "KEH-6255",
        "car_seq": "KEH-6255",
        "arrival_time": "1856",
        "departure_time": "1856",
        "district": "大寮區",
        "village": "內坑里",
        "location": "內坑路109-37號",
        "type": "定點",
        "collection_type": "garbage"
      }
    },
    {
      "type": "Feature",
      "geometry": {
        "type": "Point",
        "coordinates": [
          120.389491,
          22.591152
        ]
      },
      "properties": {
        "routeId": "kaohsiung-keh-6255-bb2715",
        "city": "kaohsiung",
        "route_name": "KEH-6255",
        "car_seq": "KEH-6255",
        "arrival_time": "1858",
        "departure_time": "1858",
        "district": "大寮區",
        "village": "內坑里",
        "location": "內坑路133-11號",
        "type": "定點",
        "collection_type": "garbage"
      }
    },
    {
      "type": "Feature",
      "geometry": {
        "type": "Point",
        "coordinates": [
          120.384559,
          22.59074
        ]
      },
      "properties": {
        "routeId": "kaohsiung-keh-6255-bb2715",
        "city": "kaohsiung",
        "route_name": "KEH-6255",
        "car_seq": "KEH-6255",
        "arrival_time": "1902",
        "departure_time": "1902",
        "district": "大寮區",
        "village": "內坑里",
        "location": "內坑路144-11號",
        "type": "定點",
        "collection_type": "garbage"
      }
    },
    {
      "type": "Feature",
      "geometry": {
        "type": "Point",
        "coordinates": [
          120.378713,
          22.585376
        ]
      },
      "properties": {
        "routeId": "kaohsiung-keh-6255-bb2715",
        "city": "kaohsiung",
        "route_name": "KEH-6255",
        "car_seq": "KEH-6255",
        "arrival_time": "1904",
        "departure_time": "1904",
        "district": "大寮區",
        "village": "拷潭里",
        "location": "拷潭路184號",
        "type": "定點",
        "collection_type": "garbage"
      }
    },
    {
      "type": "Feature",
      "geometry": {
        "type": "Point",
        "coordinates": [
          120.379766,
          22.585003
        ]
      },
      "properties": {
        "routeId": "kaohsiung-keh-6255-bb2715",
        "city": "kaohsiung",
        "route_name": "KEH-6255",
        "car_seq": "KEH-6255",
        "arrival_time": "1906",
        "departure_time": "1906",
        "district": "大寮區",
        "village": "拷潭里",
        "location": "拷潭路180-4號",
        "type": "定點",
        "collection_type": "garbage"
      }
    },
    {
      "type": "Feature",
      "geometry": {
        "type": "Point",
        "coordinates": [
          120.380478,
          22.584869
        ]
      },
      "properties": {
        "routeId": "kaohsiung-keh-6255-bb2715",
        "city": "kaohsiung",
        "route_name": "KEH-6255",
        "car_seq": "KEH-6255",
        "arrival_time": "1908",
        "departure_time": "1911",
        "district": "大寮區",
        "village": "拷潭里",
        "location": "拷潭路163號",
        "type": "定點",
        "collection_type": "garbage"
      }
    },
    {
      "type": "Feature",
      "geometry": {
        "type": "Point",
        "coordinates": [
          120.380995,
          22.584782
        ]
      },
      "properties": {
        "routeId": "kaohsiung-keh-6255-bb2715",
        "city": "kaohsiung",
        "route_name": "KEH-6255",
        "car_seq": "KEH-6255",
        "arrival_time": "1912",
        "departure_time": "1913",
        "district": "大寮區",
        "village": "拷潭里",
        "location": "拷潭路172-4號",
        "type": "定點",
        "collection_type": "garbage"
      }
    },
    {
      "type": "Feature",
      "geometry": {
        "type": "Point",
        "coordinates": [
          120.390856,
          22.588039
        ]
      },
      "properties": {
        "routeId": "kaohsiung-keh-6255-bb2715",
        "city": "kaohsiung",
        "route_name": "KEH-6255",
        "car_seq": "KEH-6255",
        "arrival_time": "1914",
        "departure_time": "1914",
        "district": "大寮區",
        "village": "拷潭里",
        "location": "拷潭路40-13號",
        "type": "定點",
        "collection_type": "garbage"
      }
    },
    {
      "type": "Feature",
      "geometry": {
        "type": "Point",
        "coordinates": [
          120.390628,
          22.588142
        ]
      },
      "properties": {
        "routeId": "kaohsiung-keh-6255-bb2715",
        "city": "kaohsiung",
        "route_name": "KEH-6255",
        "car_seq": "KEH-6255",
        "arrival_time": "1917",
        "departure_time": "1917",
        "district": "大寮區",
        "village": "拷潭里",
        "location": "拷潭路40-20號",
        "type": "定點",
        "collection_type": "garbage"
      }
    },
    {
      "type": "Feature",
      "geometry": {
        "type": "Point",
        "coordinates": [
          120.390386,
          22.586417
        ]
      },
      "properties": {
        "routeId": "kaohsiung-keh-6255-bb2715",
        "city": "kaohsiung",
        "route_name": "KEH-6255",
        "car_seq": "KEH-6255",
        "arrival_time": "1919",
        "departure_time": "1919",
        "district": "大寮區",
        "village": "拷潭里",
        "location": "拷潭路49號",
        "type": "定點",
        "collection_type": "garbage"
      }
    },
    {
      "type": "Feature",
      "geometry": {
        "type": "Point",
        "coordinates": [
          120.389987,
          22.585348
        ]
      },
      "properties": {
        "routeId": "kaohsiung-keh-6255-bb2715",
        "city": "kaohsiung",
        "route_name": "KEH-6255",
        "car_seq": "KEH-6255",
        "arrival_time": "1922",
        "departure_time": "1922",
        "district": "大寮區",
        "village": "拷潭里",
        "location": "拷潭路20號",
        "type": "定點",
        "collection_type": "garbage"
      }
    },
    {
      "type": "Feature",
      "geometry": {
        "type": "Point",
        "coordinates": [
          120.390315,
          22.585666
        ]
      },
      "properties": {
        "routeId": "kaohsiung-keh-6255-bb2715",
        "city": "kaohsiung",
        "route_name": "KEH-6255",
        "car_seq": "KEH-6255",
        "arrival_time": "1924",
        "departure_time": "1924",
        "district": "大寮區",
        "village": "拷潭里",
        "location": "拷潭路23號",
        "type": "定點",
        "collection_type": "garbage"
      }
    },
    {
      "type": "Feature",
      "geometry": {
        "type": "Point",
        "coordinates": [
          120.390521,
          22.587033
        ]
      },
      "properties": {
        "routeId": "kaohsiung-keh-6255-bb2715",
        "city": "kaohsiung",
        "route_name": "KEH-6255",
        "car_seq": "KEH-6255",
        "arrival_time": "1926",
        "departure_time": "1926",
        "district": "大寮區",
        "village": "拷潭里",
        "location": "拷潭路47號",
        "type": "定點",
        "collection_type": "garbage"
      }
    },
    {
      "type": "Feature",
      "geometry": {
        "type": "Point",
        "coordinates": [
          120.392635,
          22.581208
        ]
      },
      "properties": {
        "routeId": "kaohsiung-keh-6255-bb2715",
        "city": "kaohsiung",
        "route_name": "KEH-6255",
        "car_seq": "KEH-6255",
        "arrival_time": "1929",
        "departure_time": "1929",
        "district": "大寮區",
        "village": "拷潭里",
        "location": "拷潭路3之21號",
        "type": "定點",
        "collection_type": "garbage"
      }
    },
    {
      "type": "Feature",
      "geometry": {
        "type": "Point",
        "coordinates": [
          120.387112,
          22.583973
        ]
      },
      "properties": {
        "routeId": "kaohsiung-keh-6255-bb2715",
        "city": "kaohsiung",
        "route_name": "KEH-6255",
        "car_seq": "KEH-6255",
        "arrival_time": "1931",
        "departure_time": "1931",
        "district": "大寮區",
        "village": "拷潭里",
        "location": "拷潭路93號",
        "type": "定點",
        "collection_type": "garbage"
      }
    },
    {
      "type": "Feature",
      "geometry": {
        "type": "Point",
        "coordinates": [
          120.377979,
          22.585775
        ]
      },
      "properties": {
        "routeId": "kaohsiung-keh-6255-bb2715",
        "city": "kaohsiung",
        "route_name": "KEH-6255",
        "car_seq": "KEH-6255",
        "arrival_time": "1933",
        "departure_time": "1933",
        "district": "大寮區",
        "village": "拷潭里",
        "location": "拷潭路207號",
        "type": "定點",
        "collection_type": "garbage"
      }
    },
    {
      "type": "Feature",
      "geometry": {
        "type": "Point",
        "coordinates": [
          120.380433,
          22.583908
        ]
      },
      "properties": {
        "routeId": "kaohsiung-keh-6255-bb2715",
        "city": "kaohsiung",
        "route_name": "KEH-6255",
        "car_seq": "KEH-6255",
        "arrival_time": "1935",
        "departure_time": "1935",
        "district": "大寮區",
        "village": "拷潭里",
        "location": "拷潭路151號",
        "type": "定點",
        "collection_type": "garbage"
      }
    },
    {
      "type": "Feature",
      "geometry": {
        "type": "Point",
        "coordinates": [
          120.391405,
          22.587548
        ]
      },
      "properties": {
        "routeId": "kaohsiung-keh-6255-bb2715",
        "city": "kaohsiung",
        "route_name": "KEH-6255",
        "car_seq": "KEH-6255",
        "arrival_time": "1937",
        "departure_time": "1937",
        "district": "大寮區",
        "village": "拷潭里",
        "location": "拷潭路36之1號",
        "type": "定點",
        "collection_type": "garbage"
      }
    },
    {
      "type": "Feature",
      "geometry": {
        "type": "Point",
        "coordinates": [
          120.39181,
          22.589555
        ]
      },
      "properties": {
        "routeId": "kaohsiung-keh-6255-bb2715",
        "city": "kaohsiung",
        "route_name": "KEH-6255",
        "car_seq": "KEH-6255",
        "arrival_time": "1941",
        "departure_time": "1941",
        "district": "大寮區",
        "village": "拷潭里",
        "location": "保福路3之25號",
        "type": "定點",
        "collection_type": "garbage"
      }
    },
    {
      "type": "Feature",
      "geometry": {
        "type": "Point",
        "coordinates": [
          120.391773,
          22.58153
        ]
      },
      "properties": {
        "routeId": "kaohsiung-keh-6255-bb2715",
        "city": "kaohsiung",
        "route_name": "KEH-6255",
        "car_seq": "KEH-6255",
        "arrival_time": "1943",
        "departure_time": "1943",
        "district": "大寮區",
        "village": "拷潭里",
        "location": "拷潭路3之29號",
        "type": "定點",
        "collection_type": "garbage"
      }
    }
  ]
}