{
  "type": "FeatureCollection",
  "features": [
    {
      "type": "Feature",
      "geometry": {
        "type": "Point",
        "coordinates": [
          120.379161,
          22.662409
        ]
      },
      "properties": {
        "routeId": "kaohsiung-ket-9556-608c27",
        "city": "kaohsiung",
        "route_name": "KET-9556",
        "car_seq": "KET-9556",
        "arrival_time": "1655",
        "departure_time": "1658",
        "district": "鳥松區",
        "village": "鳥松里",
        "location": "松埔路6號",
        "type": "定點",
        "collection_type": "garbage"
      }
    },
    {
      "type": "Feature",
      "geometry": {
        "type": "Point",
        "coordinates": [
          120.377995,
          22.663001
        ]
      },
      "properties": {
        "routeId": "kaohsiung-ket-9556-608c27",
        "city": "kaohsiung",
        "route_name": "KET-9556",
        "car_seq": "KET-9556",
        "arrival_time": "1656",
        "departure_time": "1659",
        "district": "鳥松區",
        "village": "鳥松里",
        "location": "松埔路5之3號",
        "type": "定點",
        "collection_type": "garbage"
      }
    },
    {
      "type": "Feature",
      "geometry": {
        "type": "Point",
        "coordinates": [
          120.376319,
          22.664691
        ]
      },
      "properties": {
        "routeId": "kaohsiung-ket-9556-608c27",
        "city": "kaohsiung",
        "route_name": "KET-9556",
        "car_seq": "KET-9556",
        "arrival_time": "1704",
        "departure_time": "1707",
        "district": "鳥松區",
        "village": "坔埔里",
        "location": "松埔路3巷4之8號",
        "type": "定點",
        "collection_type": "garbage"
      }
    },
    {
      "type": "Feature",
      "geometry": {
        "type": "Point",
        "coordinates": [
          120.362361,
          22.662455
        ]
      },
      "properties": {
        "routeId": "kaohsiung-ket-9556-608c27",
        "city": "kaohsiung",
        "route_name": "KET-9556",
        "car_seq": "KET-9556",
        "arrival_time": "1719",
        "departure_time": "1722",
        "district": "鳥松區",
        "village": "鳥松里",
        "location": "大仁南路2號",
        "type": "定點",
        "collection_type": "garbage"
      }
    },
    {
      "type": "Feature",
      "geometry": {
        "type": "Point",
        "coordinates": [
          120.361598,
          22.662385
        ]
      },
      "properties": {
        "routeId": "kaohsiung-ket-9556-608c27",
        "city": "kaohsiung",
        "route_name": "KET-9556",
        "car_seq": "KET-9556",
        "arrival_time": "1720",
        "departure_time": "1723",
        "district": "鳥松區",
        "village": "鳥松里",
        "location": "鳥松路105之1號",
        "type": "定點",
        "collection_type": "garbage"
      }
    },
    {
      "type": "Feature",
      "geometry": {
        "type": "Point",
        "coordinates": [
          120.361936,
          22.66194
        ]
      },
      "properties": {
        "routeId": "kaohsiung-ket-9556-608c27",
        "city": "kaohsiung",
        "route_name": "KET-9556",
        "car_seq": "KET-9556",
        "arrival_time": "1721",
        "departure_time": "1724",
        "district": "鳥松區",
        "village": "鳥松里",
        "location": "鳥松路88號旁空地",
        "type": "定點",
        "collection_type": "garbage"
      }
    },
    {
      "type": "Feature",
      "geometry": {
        "type": "Point",
        "coordinates": [
          120.362675,
          22.660981
        ]
      },
      "properties": {
        "routeId": "kaohsiung-ket-9556-608c27",
        "city": "kaohsiung",
        "route_name": "KET-9556",
        "car_seq": "KET-9556",
        "arrival_time": "1725",
        "departure_time": "1728",
        "district": "鳥松區",
        "village": "鳥松里",
        "location": "大仁東路2號",
        "type": "定點",
        "collection_type": "garbage"
      }
    },
    {
      "type": "Feature",
      "geometry": {
        "type": "Point",
        "coordinates": [
          120.362285,
          22.661418
        ]
      },
      "properties": {
        "routeId": "kaohsiung-ket-9556-608c27",
        "city": "kaohsiung",
        "route_name": "KET-9556",
        "car_seq": "KET-9556",
        "arrival_time": "1727",
        "departure_time": "1730",
        "district": "鳥松區",
        "village": "鳥松里",
        "location": "大仁南路50-5號",
        "type": "定點",
        "collection_type": "garbage"
      }
    },
    {
      "type": "Feature",
      "geometry": {
        "type": "Point",
        "coordinates": [
          120.362433,
          22.661991
        ]
      },
      "properties": {
        "routeId": "kaohsiung-ket-9556-608c27",
        "city": "kaohsiung",
        "route_name": "KET-9556",
        "car_seq": "KET-9556",
        "arrival_time": "1727",
        "departure_time": "1730",
        "district": "鳥松區",
        "village": "鳥松里",
        "location": "大仁南路24號",
        "type": "定點",
        "collection_type": "garbage"
      }
    },
    {
      "type": "Feature",
      "geometry": {
        "type": "Point",
        "coordinates": [
          120.360386,
          22.665431
        ]
      },
      "properties": {
        "routeId": "kaohsiung-ket-9556-608c27",
        "city": "kaohsiung",
        "route_name": "KET-9556",
        "car_seq": "KET-9556",
        "arrival_time": "1735",
        "departure_time": "1738",
        "district": "鳥松區",
        "village": "夢裡里",
        "location": "育成一街80號",
        "type": "定點",
        "collection_type": "garbage"
      }
    },
    {
      "type": "Feature",
      "geometry": {
        "type": "Point",
        "coordinates": [
          120.359779,
          22.665575
        ]
      },
      "properties": {
        "routeId": "kaohsiung-ket-9556-608c27",
        "city": "kaohsiung",
        "route_name": "KET-9556",
        "car_seq": "KET-9556",
        "arrival_time": "1736",
        "departure_time": "1739",
        "district": "鳥松區",
        "village": "夢裡里",
        "location": "育成二街109號",
        "type": "定點",
        "collection_type": "garbage"
      }
    },
    {
      "type": "Feature",
      "geometry": {
        "type": "Point",
        "coordinates": [
          120.360316,
          22.666619
        ]
      },
      "properties": {
        "routeId": "kaohsiung-ket-9556-608c27",
        "city": "kaohsiung",
        "route_name": "KET-9556",
        "car_seq": "KET-9556",
        "arrival_time": "1737",
        "departure_time": "1740",
        "district": "鳥松區",
        "village": "夢裡里",
        "location": "育成三街30號",
        "type": "定點",
        "collection_type": "garbage"
      }
    },
    {
      "type": "Feature",
      "geometry": {
        "type": "Point",
        "coordinates": [
          120.3585,
          22.665593
        ]
      },
      "properties": {
        "routeId": "kaohsiung-ket-9556-608c27",
        "city": "kaohsiung",
        "route_name": "KET-9556",
        "car_seq": "KET-9556",
        "arrival_time": "1739",
        "departure_time": "1742",
        "district": "鳥松區",
        "village": "夢裡里",
        "location": "琅環三街63號",
        "type": "定點",
        "collection_type": "garbage"
      }
    },
    {
      "type": "Feature",
      "geometry": {
        "type": "Point",
        "coordinates": [
          120.360746,
          22.667306
        ]
      },
      "properties": {
        "routeId": "kaohsiung-ket-9556-608c27",
        "city": "kaohsiung",
        "route_name": "KET-9556",
        "car_seq": "KET-9556",
        "arrival_time": "1743",
        "departure_time": "1746",
        "district": "鳥松區",
        "village": "夢裡里",
        "location": "夢裡東巷3-16號",
        "type": "定點",
        "collection_type": "garbage"
      }
    },
    {
      "type": "Feature",
      "geometry": {
        "type": "Point",
        "coordinates": [
          120.360552,
          22.667237
        ]
      },
      "properties": {
        "routeId": "kaohsiung-ket-9556-608c27",
        "city": "kaohsiung",
        "route_name": "KET-9556",
        "car_seq": "KET-9556",
        "arrival_time": "1744",
        "departure_time": "1747",
        "district": "鳥松區",
        "village": "夢裡里",
        "location": "育英街26號",
        "type": "定點",
        "collection_type": "garbage"
      }
    },
    {
      "type": "Feature",
      "geometry": {
        "type": "Point",
        "coordinates": [
          120.360038,
          22.667162
        ]
      },
      "properties": {
        "routeId": "kaohsiung-ket-9556-608c27",
        "city": "kaohsiung",
        "route_name": "KET-9556",
        "car_seq": "KET-9556",
        "arrival_time": "1745",
        "departure_time": "1748",
        "district": "鳥松區",
        "village": "夢裡里",
        "location": "夢裡路16號",
        "type": "定點",
        "collection_type": "garbage"
      }
    },
    {
      "type": "Feature",
      "geometry": {
        "type": "Point",
        "coordinates": [
          120.359607,
          22.667491
        ]
      },
      "properties": {
        "routeId": "kaohsiung-ket-9556-608c27",
        "city": "kaohsiung",
        "route_name": "KET-9556",
        "car_seq": "KET-9556",
        "arrival_time": "1746",
        "departure_time": "1749",
        "district": "鳥松區",
        "village": "夢裡里",
        "location": "夢裡路30-3號",
        "type": "定點",
        "collection_type": "garbage"
      }
    },
    {
      "type": "Feature",
      "geometry": {
        "type": "Point",
        "coordinates": [
          120.359495,
          22.667574
        ]
      },
      "properties": {
        "routeId": "kaohsiung-ket-9556-608c27",
        "city": "kaohsiung",
        "route_name": "KET-9556",
        "car_seq": "KET-9556",
        "arrival_time": "1747",
        "departure_time": "1750",
        "district": "鳥松區",
        "village": "夢裡里",
        "location": "夢裡路31號",
        "type": "定點",
        "collection_type": "garbage"
      }
    },
    {
      "type": "Feature",
      "geometry": {
        "type": "Point",
        "coordinates": [
          120.359258,
          22.667874
        ]
      },
      "properties": {
        "routeId": "kaohsiung-ket-9556-608c27",
        "city": "kaohsiung",
        "route_name": "KET-9556",
        "car_seq": "KET-9556",
        "arrival_time": "1748",
        "departure_time": "1751",
        "district": "鳥松區",
        "village": "夢裡里",
        "location": "夢裡路31-9號前",
        "type": "定點",
        "collection_type": "garbage"
      }
    },
    {
      "type": "Feature",
      "geometry": {
        "type": "Point",
        "coordinates": [
          120.358834,
          22.668026
        ]
      },
      "properties": {
        "routeId": "kaohsiung-ket-9556-608c27",
        "city": "kaohsiung",
        "route_name": "KET-9556",
        "car_seq": "KET-9556",
        "arrival_time": "1749",
        "departure_time": "1752",
        "district": "鳥松區",
        "village": "夢裡里",
        "location": "夢裡路39號",
        "type": "定點",
        "collection_type": "garbage"
      }
    },
    {
      "type": "Feature",
      "geometry": {
        "type": "Point",
        "coordinates": [
          120.359021,
          22.668475
        ]
      },
      "properties": {
        "routeId": "kaohsiung-ket-9556-608c27",
        "city": "kaohsiung",
        "route_name": "KET-9556",
        "car_seq": "KET-9556",
        "arrival_time": "1750",
        "departure_time": "1753",
        "district": "鳥松區",
        "village": "夢裡里",
        "location": "夢裡路36號前",
        "type": "定點",
        "collection_type": "garbage"
      }
    },
    {
      "type": "Feature",
      "geometry": {
        "type": "Point",
        "coordinates": [
          120.359664,
          22.668765
        ]
      },
      "properties": {
        "routeId": "kaohsiung-ket-9556-608c27",
        "city": "kaohsiung",
        "route_name": "KET-9556",
        "car_seq": "KET-9556",
        "arrival_time": "1751",
        "departure_time": "1754",
        "district": "鳥松區",
        "village": "夢裡里",
        "location": "夢裡南巷1號",
        "type": "定點",
        "collection_type": "garbage"
      }
    },
    {
      "type": "Feature",
      "geometry": {
        "type": "Point",
        "coordinates": [
          120.359672,
          22.669343
        ]
      },
      "properties": {
        "routeId": "kaohsiung-ket-9556-608c27",
        "city": "kaohsiung",
        "route_name": "KET-9556",
        "car_seq": "KET-9556",
        "arrival_time": "1752",
        "departure_time": "1755",
        "district": "鳥松區",
        "village": "夢裡里",
        "location": "夢裡路60之1號前",
        "type": "定點",
        "collection_type": "garbage"
      }
    },
    {
      "type": "Feature",
      "geometry": {
        "type": "Point",
        "coordinates": [
          120.3595,
          22.669677
        ]
      },
      "properties": {
        "routeId": "kaohsiung-ket-9556-608c27",
        "city": "kaohsiung",
        "route_name": "KET-9556",
        "car_seq": "KET-9556",
        "arrival_time": "1753",
        "departure_time": "1756",
        "district": "鳥松區",
        "village": "夢裡里",
        "location": "夢裡路57之1號前",
        "type": "定點",
        "collection_type": "garbage"
      }
    },
    {
      "type": "Feature",
      "geometry": {
        "type": "Point",
        "coordinates": [
          120.359218,
          22.669616
        ]
      },
      "properties": {
        "routeId": "kaohsiung-ket-9556-608c27",
        "city": "kaohsiung",
        "route_name": "KET-9556",
        "car_seq": "KET-9556",
        "arrival_time": "1754",
        "departure_time": "1757",
        "district": "鳥松區",
        "village": "夢裡里",
        "location": "夢裡路56-5號",
        "type": "定點",
        "collection_type": "garbage"
      }
    },
    {
      "type": "Feature",
      "geometry": {
        "type": "Point",
        "coordinates": [
          120.358166,
          22.669615
        ]
      },
      "properties": {
        "routeId": "kaohsiung-ket-9556-608c27",
        "city": "kaohsiung",
        "route_name": "KET-9556",
        "car_seq": "KET-9556",
        "arrival_time": "1755",
        "departure_time": "1758",
        "district": "鳥松區",
        "village": "夢裡里",
        "location": "夢裡西巷3號",
        "type": "定點",
        "collection_type": "garbage"
      }
    },
    {
      "type": "Feature",
      "geometry": {
        "type": "Point",
        "coordinates": [
          120.357584,
          22.668382
        ]
      },
      "properties": {
        "routeId": "kaohsiung-ket-9556-608c27",
        "city": "kaohsiung",
        "route_name": "KET-9556",
        "car_seq": "KET-9556",
        "arrival_time": "1757",
        "departure_time": "1800",
        "district": "鳥松區",
        "village": "夢裡里",
        "location": "育英街135號",
        "type": "定點",
        "collection_type": "garbage"
      }
    },
    {
      "type": "Feature",
      "geometry": {
        "type": "Point",
        "coordinates": [
          120.357783,
          22.668033
        ]
      },
      "properties": {
        "routeId": "kaohsiung-ket-9556-608c27",
        "city": "kaohsiung",
        "route_name": "KET-9556",
        "car_seq": "KET-9556",
        "arrival_time": "1758",
        "departure_time": "1801",
        "district": "鳥松區",
        "village": "夢裡里",
        "location": "育英街131號",
        "type": "定點",
        "collection_type": "garbage"
      }
    },
    {
      "type": "Feature",
      "geometry": {
        "type": "Point",
        "coordinates": [
          120.357888,
          22.667859
        ]
      },
      "properties": {
        "routeId": "kaohsiung-ket-9556-608c27",
        "city": "kaohsiung",
        "route_name": "KET-9556",
        "car_seq": "KET-9556",
        "arrival_time": "1759",
        "departure_time": "1802",
        "district": "鳥松區",
        "village": "夢裡里",
        "location": "育英街121號",
        "type": "定點",
        "collection_type": "garbage"
      }
    },
    {
      "type": "Feature",
      "geometry": {
        "type": "Point",
        "coordinates": [
          120.357371,
          22.668153
        ]
      },
      "properties": {
        "routeId": "kaohsiung-ket-9556-608c27",
        "city": "kaohsiung",
        "route_name": "KET-9556",
        "car_seq": "KET-9556",
        "arrival_time": "1801",
        "departure_time": "1804",
        "district": "鳥松區",
        "village": "夢裡里",
        "location": "澄新一街65號",
        "type": "定點",
        "collection_type": "garbage"
      }
    },
    {
      "type": "Feature",
      "geometry": {
        "type": "Point",
        "coordinates": [
          120.357155,
          22.66854
        ]
      },
      "properties": {
        "routeId": "kaohsiung-ket-9556-608c27",
        "city": "kaohsiung",
        "route_name": "KET-9556",
        "car_seq": "KET-9556",
        "arrival_time": "1802",
        "departure_time": "1805",
        "district": "鳥松區",
        "village": "夢裡里",
        "location": "澄新一街41號",
        "type": "定點",
        "collection_type": "garbage"
      }
    },
    {
      "type": "Feature",
      "geometry": {
        "type": "Point",
        "coordinates": [
          120.356673,
          22.668896
        ]
      },
      "properties": {
        "routeId": "kaohsiung-ket-9556-608c27",
        "city": "kaohsiung",
        "route_name": "KET-9556",
        "car_seq": "KET-9556",
        "arrival_time": "1803",
        "departure_time": "1806",
        "district": "鳥松區",
        "village": "夢裡里",
        "location": "澄新一街22號",
        "type": "定點",
        "collection_type": "garbage"
      }
    },
    {
      "type": "Feature",
      "geometry": {
        "type": "Point",
        "coordinates": [
          120.356196,
          22.669813
        ]
      },
      "properties": {
        "routeId": "kaohsiung-ket-9556-608c27",
        "city": "kaohsiung",
        "route_name": "KET-9556",
        "car_seq": "KET-9556",
        "arrival_time": "1804",
        "departure_time": "1807",
        "district": "鳥松區",
        "village": "夢裡里",
        "location": "澄新二街25號",
        "type": "定點",
        "collection_type": "garbage"
      }
    },
    {
      "type": "Feature",
      "geometry": {
        "type": "Point",
        "coordinates": [
          120.356089,
          22.670024
        ]
      },
      "properties": {
        "routeId": "kaohsiung-ket-9556-608c27",
        "city": "kaohsiung",
        "route_name": "KET-9556",
        "car_seq": "KET-9556",
        "arrival_time": "1805",
        "departure_time": "1808",
        "district": "鳥松區",
        "village": "夢裡里",
        "location": "澄新二街32號",
        "type": "定點",
        "collection_type": "garbage"
      }
    },
    {
      "type": "Feature",
      "geometry": {
        "type": "Point",
        "coordinates": [
          120.354687,
          22.673638
        ]
      },
      "properties": {
        "routeId": "kaohsiung-ket-9556-608c27",
        "city": "kaohsiung",
        "route_name": "KET-9556",
        "car_seq": "KET-9556",
        "arrival_time": "1808",
        "departure_time": "1811",
        "district": "鳥松區",
        "village": "夢裡里",
        "location": "澄新六街37巷8號",
        "type": "定點",
        "collection_type": "garbage"
      }
    },
    {
      "type": "Feature",
      "geometry": {
        "type": "Point",
        "coordinates": [
          120.354219,
          22.673995
        ]
      },
      "properties": {
        "routeId": "kaohsiung-ket-9556-608c27",
        "city": "kaohsiung",
        "route_name": "KET-9556",
        "car_seq": "KET-9556",
        "arrival_time": "1810",
        "departure_time": "1813",
        "district": "鳥松區",
        "village": "夢裡里",
        "location": "仁勇路223號",
        "type": "定點",
        "collection_type": "garbage"
      }
    },
    {
      "type": "Feature",
      "geometry": {
        "type": "Point",
        "coordinates": [
          120.354662,
          22.673103
        ]
      },
      "properties": {
        "routeId": "kaohsiung-ket-9556-608c27",
        "city": "kaohsiung",
        "route_name": "KET-9556",
        "car_seq": "KET-9556",
        "arrival_time": "1812",
        "departure_time": "1815",
        "district": "鳥松區",
        "village": "夢裡里",
        "location": "夢祥巷230號",
        "type": "定點",
        "collection_type": "garbage"
      }
    },
    {
      "type": "Feature",
      "geometry": {
        "type": "Point",
        "coordinates": [
          120.355106,
          22.671786
        ]
      },
      "properties": {
        "routeId": "kaohsiung-ket-9556-608c27",
        "city": "kaohsiung",
        "route_name": "KET-9556",
        "car_seq": "KET-9556",
        "arrival_time": "1813",
        "departure_time": "1816",
        "district": "鳥松區",
        "village": "夢裡里",
        "location": "夢祥巷174號",
        "type": "定點",
        "collection_type": "garbage"
      }
    },
    {
      "type": "Feature",
      "geometry": {
        "type": "Point",
        "coordinates": [
          120.355963,
          22.669854
        ]
      },
      "properties": {
        "routeId": "kaohsiung-ket-9556-608c27",
        "city": "kaohsiung",
        "route_name": "KET-9556",
        "car_seq": "KET-9556",
        "arrival_time": "1814",
        "departure_time": "1817",
        "district": "鳥松區",
        "village": "夢裡里",
        "location": "夢祥巷104號",
        "type": "定點",
        "collection_type": "garbage"
      }
    },
    {
      "type": "Feature",
      "geometry": {
        "type": "Point",
        "coordinates": [
          120.356492,
          22.668738
        ]
      },
      "properties": {
        "routeId": "kaohsiung-ket-9556-608c27",
        "city": "kaohsiung",
        "route_name": "KET-9556",
        "car_seq": "KET-9556",
        "arrival_time": "1816",
        "departure_time": "1819",
        "district": "鳥松區",
        "village": "夢裡里",
        "location": "夢祥巷70號前",
        "type": "定點",
        "collection_type": "garbage"
      }
    },
    {
      "type": "Feature",
      "geometry": {
        "type": "Point",
        "coordinates": [
          120.357276,
          22.667774
        ]
      },
      "properties": {
        "routeId": "kaohsiung-ket-9556-608c27",
        "city": "kaohsiung",
        "route_name": "KET-9556",
        "car_seq": "KET-9556",
        "arrival_time": "1818",
        "departure_time": "1821",
        "district": "鳥松區",
        "village": "夢裡里",
        "location": "夢裡西巷30號",
        "type": "定點",
        "collection_type": "garbage"
      }
    },
    {
      "type": "Feature",
      "geometry": {
        "type": "Point",
        "coordinates": [
          120.357687,
          22.667539
        ]
      },
      "properties": {
        "routeId": "kaohsiung-ket-9556-608c27",
        "city": "kaohsiung",
        "route_name": "KET-9556",
        "car_seq": "KET-9556",
        "arrival_time": "1820",
        "departure_time": "1823",
        "district": "鳥松區",
        "village": "夢裡里",
        "location": "夢裡西巷47號",
        "type": "定點",
        "collection_type": "garbage"
      }
    },
    {
      "type": "Feature",
      "geometry": {
        "type": "Point",
        "coordinates": [
          120.358042,
          22.667217
        ]
      },
      "properties": {
        "routeId": "kaohsiung-ket-9556-608c27",
        "city": "kaohsiung",
        "route_name": "KET-9556",
        "car_seq": "KET-9556",
        "arrival_time": "1822",
        "departure_time": "1825",
        "district": "鳥松區",
        "village": "夢裡里",
        "location": "澄新一街114號",
        "type": "定點",
        "collection_type": "garbage"
      }
    },
    {
      "type": "Feature",
      "geometry": {
        "type": "Point",
        "coordinates": [
          120.358442,
          22.667003
        ]
      },
      "properties": {
        "routeId": "kaohsiung-ket-9556-608c27",
        "city": "kaohsiung",
        "route_name": "KET-9556",
        "car_seq": "KET-9556",
        "arrival_time": "1825",
        "departure_time": "1828",
        "district": "鳥松區",
        "village": "夢裡里",
        "location": "育英街111號",
        "type": "定點",
        "collection_type": "garbage"
      }
    },
    {
      "type": "Feature",
      "geometry": {
        "type": "Point",
        "coordinates": [
          120.362089,
          22.667375
        ]
      },
      "properties": {
        "routeId": "kaohsiung-ket-9556-608c27",
        "city": "kaohsiung",
        "route_name": "KET-9556",
        "car_seq": "KET-9556",
        "arrival_time": "1827",
        "departure_time": "1830",
        "district": "鳥松區",
        "village": "夢裡里",
        "location": "夢裡東巷18-8號",
        "type": "定點",
        "collection_type": "garbage"
      }
    },
    {
      "type": "Feature",
      "geometry": {
        "type": "Point",
        "coordinates": [
          120.362207,
          22.667456
        ]
      },
      "properties": {
        "routeId": "kaohsiung-ket-9556-608c27",
        "city": "kaohsiung",
        "route_name": "KET-9556",
        "car_seq": "KET-9556",
        "arrival_time": "1828",
        "departure_time": "1831",
        "district": "鳥松區",
        "village": "夢裡里",
        "location": "立群街75號",
        "type": "定點",
        "collection_type": "garbage"
      }
    },
    {
      "type": "Feature",
      "geometry": {
        "type": "Point",
        "coordinates": [
          120.362398,
          22.666712
        ]
      },
      "properties": {
        "routeId": "kaohsiung-ket-9556-608c27",
        "city": "kaohsiung",
        "route_name": "KET-9556",
        "car_seq": "KET-9556",
        "arrival_time": "1829",
        "departure_time": "1832",
        "district": "鳥松區",
        "village": "夢裡里",
        "location": "立群街35號",
        "type": "定點",
        "collection_type": "garbage"
      }
    },
    {
      "type": "Feature",
      "geometry": {
        "type": "Point",
        "coordinates": [
          120.361335,
          22.668132
        ]
      },
      "properties": {
        "routeId": "kaohsiung-ket-9556-608c27",
        "city": "kaohsiung",
        "route_name": "KET-9556",
        "car_seq": "KET-9556",
        "arrival_time": "1830",
        "departure_time": "1833",
        "district": "鳥松區",
        "village": "夢裡里",
        "location": "大仁北路232之1號",
        "type": "定點",
        "collection_type": "garbage"
      }
    },
    {
      "type": "Feature",
      "geometry": {
        "type": "Point",
        "coordinates": [
          120.361421,
          22.668586
        ]
      },
      "properties": {
        "routeId": "kaohsiung-ket-9556-608c27",
        "city": "kaohsiung",
        "route_name": "KET-9556",
        "car_seq": "KET-9556",
        "arrival_time": "1831",
        "departure_time": "1834",
        "district": "鳥松區",
        "village": "夢裡里",
        "location": "夢裡東巷12號",
        "type": "定點",
        "collection_type": "garbage"
      }
    },
    {
      "type": "Feature",
      "geometry": {
        "type": "Point",
        "coordinates": [
          120.361718,
          22.668892
        ]
      },
      "properties": {
        "routeId": "kaohsiung-ket-9556-608c27",
        "city": "kaohsiung",
        "route_name": "KET-9556",
        "car_seq": "KET-9556",
        "arrival_time": "1832",
        "departure_time": "1835",
        "district": "鳥松區",
        "village": "夢裡里",
        "location": "立昌街39號",
        "type": "定點",
        "collection_type": "garbage"
      }
    },
    {
      "type": "Feature",
      "geometry": {
        "type": "Point",
        "coordinates": [
          120.36197,
          22.668337
        ]
      },
      "properties": {
        "routeId": "kaohsiung-ket-9556-608c27",
        "city": "kaohsiung",
        "route_name": "KET-9556",
        "car_seq": "KET-9556",
        "arrival_time": "1833",
        "departure_time": "1836",
        "district": "鳥松區",
        "village": "夢裡里",
        "location": "立昌街32號",
        "type": "定點",
        "collection_type": "garbage"
      }
    },
    {
      "type": "Feature",
      "geometry": {
        "type": "Point",
        "coordinates": [
          120.359787,
          22.66794
        ]
      },
      "properties": {
        "routeId": "kaohsiung-ket-9556-608c27",
        "city": "kaohsiung",
        "route_name": "KET-9556",
        "car_seq": "KET-9556",
        "arrival_time": "1835",
        "departure_time": "1838",
        "district": "鳥松區",
        "village": "夢裡里",
        "location": "夢裡南巷8號",
        "type": "定點",
        "collection_type": "garbage"
      }
    },
    {
      "type": "Feature",
      "geometry": {
        "type": "Point",
        "coordinates": [
          120.359842,
          22.667807
        ]
      },
      "properties": {
        "routeId": "kaohsiung-ket-9556-608c27",
        "city": "kaohsiung",
        "route_name": "KET-9556",
        "car_seq": "KET-9556",
        "arrival_time": "1836",
        "departure_time": "1839",
        "district": "鳥松區",
        "village": "夢裡里",
        "location": "夢裡南巷8-7號前",
        "type": "定點",
        "collection_type": "garbage"
      }
    },
    {
      "type": "Feature",
      "geometry": {
        "type": "Point",
        "coordinates": [
          120.360836,
          22.668244
        ]
      },
      "properties": {
        "routeId": "kaohsiung-ket-9556-608c27",
        "city": "kaohsiung",
        "route_name": "KET-9556",
        "car_seq": "KET-9556",
        "arrival_time": "1838",
        "departure_time": "1841",
        "district": "鳥松區",
        "village": "夢裡里",
        "location": "夢裡東巷10-3號",
        "type": "定點",
        "collection_type": "garbage"
      }
    },
    {
      "type": "Feature",
      "geometry": {
        "type": "Point",
        "coordinates": [
          120.360936,
          22.66898
        ]
      },
      "properties": {
        "routeId": "kaohsiung-ket-9556-608c27",
        "city": "kaohsiung",
        "route_name": "KET-9556",
        "car_seq": "KET-9556",
        "arrival_time": "1840",
        "departure_time": "1843",
        "district": "鳥松區",
        "village": "夢裡里",
        "location": "夢裡東巷14號",
        "type": "定點",
        "collection_type": "garbage"
      }
    },
    {
      "type": "Feature",
      "geometry": {
        "type": "Point",
        "coordinates": [
          120.360725,
          22.668887
        ]
      },
      "properties": {
        "routeId": "kaohsiung-ket-9556-608c27",
        "city": "kaohsiung",
        "route_name": "KET-9556",
        "car_seq": "KET-9556",
        "arrival_time": "1841",
        "departure_time": "1844",
        "district": "鳥松區",
        "village": "夢裡里",
        "location": "夢裡東巷20-1號",
        "type": "定點",
        "collection_type": "garbage"
      }
    },
    {
      "type": "Feature",
      "geometry": {
        "type": "Point",
        "coordinates": [
          120.361909,
          22.669329
        ]
      },
      "properties": {
        "routeId": "kaohsiung-ket-9556-608c27",
        "city": "kaohsiung",
        "route_name": "KET-9556",
        "car_seq": "KET-9556",
        "arrival_time": "1912",
        "departure_time": "1915",
        "district": "鳥松區",
        "village": "鳥松里",
        "location": "中正路455-1號前",
        "type": "定點",
        "collection_type": "garbage"
      }
    },
    {
      "type": "Feature",
      "geometry": {
        "type": "Point",
        "coordinates": [
          120.362454,
          22.667788
        ]
      },
      "properties": {
        "routeId": "kaohsiung-ket-9556-608c27",
        "city": "kaohsiung",
        "route_name": "KET-9556",
        "car_seq": "KET-9556",
        "arrival_time": "1914",
        "departure_time": "1916",
        "district": "鳥松區",
        "village": "鳥松里",
        "location": "中正路387-30號",
        "type": "定點",
        "collection_type": "garbage"
      }
    },
    {
      "type": "Feature",
      "geometry": {
        "type": "Point",
        "coordinates": [
          120.362599,
          22.666938
        ]
      },
      "properties": {
        "routeId": "kaohsiung-ket-9556-608c27",
        "city": "kaohsiung",
        "route_name": "KET-9556",
        "car_seq": "KET-9556",
        "arrival_time": "1915",
        "departure_time": "1917",
        "district": "鳥松區",
        "village": "鳥松里",
        "location": "中正路387-7號",
        "type": "定點",
        "collection_type": "garbage"
      }
    },
    {
      "type": "Feature",
      "geometry": {
        "type": "Point",
        "coordinates": [
          120.3629,
          22.665326
        ]
      },
      "properties": {
        "routeId": "kaohsiung-ket-9556-608c27",
        "city": "kaohsiung",
        "route_name": "KET-9556",
        "car_seq": "KET-9556",
        "arrival_time": "1916",
        "departure_time": "1918",
        "district": "鳥松區",
        "village": "鳥松里",
        "location": "中正路369-2號前",
        "type": "定點",
        "collection_type": "garbage"
      }
    },
    {
      "type": "Feature",
      "geometry": {
        "type": "Point",
        "coordinates": [
          120.363156,
          22.663715
        ]
      },
      "properties": {
        "routeId": "kaohsiung-ket-9556-608c27",
        "city": "kaohsiung",
        "route_name": "KET-9556",
        "car_seq": "KET-9556",
        "arrival_time": "1921",
        "departure_time": "1924",
        "district": "鳥松區",
        "village": "鳥松里",
        "location": "中正路367-16號前",
        "type": "定點",
        "collection_type": "garbage"
      }
    },
    {
      "type": "Feature",
      "geometry": {
        "type": "Point",
        "coordinates": [
          120.363356,
          22.662773
        ]
      },
      "properties": {
        "routeId": "kaohsiung-ket-9556-608c27",
        "city": "kaohsiung",
        "route_name": "KET-9556",
        "car_seq": "KET-9556",
        "arrival_time": "1925",
        "departure_time": "1928",
        "district": "鳥松區",
        "village": "鳥松里",
        "location": "中正路353號",
        "type": "定點",
        "collection_type": "garbage"
      }
    },
    {
      "type": "Feature",
      "geometry": {
        "type": "Point",
        "coordinates": [
          120.363404,
          22.662286
        ]
      },
      "properties": {
        "routeId": "kaohsiung-ket-9556-608c27",
        "city": "kaohsiung",
        "route_name": "KET-9556",
        "car_seq": "KET-9556",
        "arrival_time": "1926",
        "departure_time": "1929",
        "district": "鳥松區",
        "village": "鳥松里",
        "location": "中正路343號",
        "type": "定點",
        "collection_type": "garbage"
      }
    },
    {
      "type": "Feature",
      "geometry": {
        "type": "Point",
        "coordinates": [
          120.363474,
          22.661819
        ]
      },
      "properties": {
        "routeId": "kaohsiung-ket-9556-608c27",
        "city": "kaohsiung",
        "route_name": "KET-9556",
        "car_seq": "KET-9556",
        "arrival_time": "1927",
        "departure_time": "1930",
        "district": "鳥松區",
        "village": "鳥松里",
        "location": "中正路317號",
        "type": "定點",
        "collection_type": "garbage"
      }
    },
    {
      "type": "Feature",
      "geometry": {
        "type": "Point",
        "coordinates": [
          120.363538,
          22.660685
        ]
      },
      "properties": {
        "routeId": "kaohsiung-ket-9556-608c27",
        "city": "kaohsiung",
        "route_name": "KET-9556",
        "car_seq": "KET-9556",
        "arrival_time": "1928",
        "departure_time": "1931",
        "district": "鳥松區",
        "village": "鳥松里",
        "location": "中正路293號",
        "type": "定點",
        "collection_type": "garbage"
      }
    },
    {
      "type": "Feature",
      "geometry": {
        "type": "Point",
        "coordinates": [
          120.36425,
          22.660606
        ]
      },
      "properties": {
        "routeId": "kaohsiung-ket-9556-608c27",
        "city": "kaohsiung",
        "route_name": "KET-9556",
        "car_seq": "KET-9556",
        "arrival_time": "1929",
        "departure_time": "1932",
        "district": "鳥松區",
        "village": "鳥松里",
        "location": "中正路100-2號",
        "type": "定點",
        "collection_type": "garbage"
      }
    },
    {
      "type": "Feature",
      "geometry": {
        "type": "Point",
        "coordinates": [
          120.363882,
          22.661937
        ]
      },
      "properties": {
        "routeId": "kaohsiung-ket-9556-608c27",
        "city": "kaohsiung",
        "route_name": "KET-9556",
        "car_seq": "KET-9556",
        "arrival_time": "1930",
        "departure_time": "1933",
        "district": "鳥松區",
        "village": "鳥松里",
        "location": "中正路114號至松埔路口",
        "type": "定點",
        "collection_type": "garbage"
      }
    },
    {
      "type": "Feature",
      "geometry": {
        "type": "Point",
        "coordinates": [
          120.363183,
          22.667183
        ]
      },
      "properties": {
        "routeId": "kaohsiung-ket-9556-608c27",
        "city": "kaohsiung",
        "route_name": "KET-9556",
        "car_seq": "KET-9556",
        "arrival_time": "1931",
        "departure_time": "1934",
        "district": "鳥松區",
        "village": "鳥松里",
        "location": "中正路332號",
        "type": "定點",
        "collection_type": "garbage"
      }
    },
    {
      "type": "Feature",
      "geometry": {
        "type": "Point",
        "coordinates": [
          120.362495,
          22.669212
        ]
      },
      "properties": {
        "routeId": "kaohsiung-ket-9556-608c27",
        "city": "kaohsiung",
        "route_name": "KET-9556",
        "car_seq": "KET-9556",
        "arrival_time": "1933",
        "departure_time": "1936",
        "district": "鳥松區",
        "village": "鳥松里",
        "location": "中正路392號",
        "type": "定點",
        "collection_type": "garbage"
      }
    },
    {
      "type": "Feature",
      "geometry": {
        "type": "Point",
        "coordinates": [
          120.368951,
          22.669114
        ]
      },
      "properties": {
        "routeId": "kaohsiung-ket-9556-608c27",
        "city": "kaohsiung",
        "route_name": "KET-9556",
        "car_seq": "KET-9556",
        "arrival_time": "1940",
        "departure_time": "1943",
        "district": "鳥松區",
        "village": "鳥松里",
        "location": "東山路1-8號",
        "type": "定點",
        "collection_type": "garbage"
      }
    },
    {
      "type": "Feature",
      "geometry": {
        "type": "Point",
        "coordinates": [
          120.366559,
          22.669996
        ]
      },
      "properties": {
        "routeId": "kaohsiung-ket-9556-608c27",
        "city": "kaohsiung",
        "route_name": "KET-9556",
        "car_seq": "KET-9556",
        "arrival_time": "1941",
        "departure_time": "1944",
        "district": "鳥松區",
        "village": "鳥松里",
        "location": "東山路橫一巷3號",
        "type": "定點",
        "collection_type": "garbage"
      }
    },
    {
      "type": "Feature",
      "geometry": {
        "type": "Point",
        "coordinates": [
          120.367317,
          22.670152
        ]
      },
      "properties": {
        "routeId": "kaohsiung-ket-9556-608c27",
        "city": "kaohsiung",
        "route_name": "KET-9556",
        "car_seq": "KET-9556",
        "arrival_time": "1942",
        "departure_time": "1945",
        "district": "鳥松區",
        "village": "鳥松里",
        "location": "東山路橫一巷12號",
        "type": "定點",
        "collection_type": "garbage"
      }
    },
    {
      "type": "Feature",
      "geometry": {
        "type": "Point",
        "coordinates": [
          120.368504,
          22.671361
        ]
      },
      "properties": {
        "routeId": "kaohsiung-ket-9556-608c27",
        "city": "kaohsiung",
        "route_name": "KET-9556",
        "car_seq": "KET-9556",
        "arrival_time": "1943",
        "departure_time": "1946",
        "district": "鳥松區",
        "village": "鳥松里",
        "location": "東山路橫一巷21號",
        "type": "定點",
        "collection_type": "garbage"
      }
    },
    {
      "type": "Feature",
      "geometry": {
        "type": "Point",
        "coordinates": [
          120.370133,
          22.667674
        ]
      },
      "properties": {
        "routeId": "kaohsiung-ket-9556-608c27",
        "city": "kaohsiung",
        "route_name": "KET-9556",
        "car_seq": "KET-9556",
        "arrival_time": "1944",
        "departure_time": "1947",
        "district": "鳥松區",
        "village": "鳥松里",
        "location": "松埔北巷29之10號",
        "type": "定點",
        "collection_type": "garbage"
      }
    },
    {
      "type": "Feature",
      "geometry": {
        "type": "Point",
        "coordinates": [
          120.370329,
          22.665347
        ]
      },
      "properties": {
        "routeId": "kaohsiung-ket-9556-608c27",
        "city": "kaohsiung",
        "route_name": "KET-9556",
        "car_seq": "KET-9556",
        "arrival_time": "1946",
        "departure_time": "1949",
        "district": "鳥松區",
        "village": "鳥松里",
        "location": "松埔北巷42號",
        "type": "定點",
        "collection_type": "garbage"
      }
    },
    {
      "type": "Feature",
      "geometry": {
        "type": "Point",
        "coordinates": [
          120.371855,
          22.664717
        ]
      },
      "properties": {
        "routeId": "kaohsiung-ket-9556-608c27",
        "city": "kaohsiung",
        "route_name": "KET-9556",
        "car_seq": "KET-9556",
        "arrival_time": "1947",
        "departure_time": "1950",
        "district": "鳥松區",
        "village": "鳥松里",
        "location": "松埔北巷2-2號",
        "type": "定點",
        "collection_type": "garbage"
      }
    },
    {
      "type": "Feature",
      "geometry": {
        "type": "Point",
        "coordinates": [
          120.372362,
          22.666222
        ]
      },
      "properties": {
        "routeId": "kaohsiung-ket-9556-608c27",
        "city": "kaohsiung",
        "route_name": "KET-9556",
        "car_seq": "KET-9556",
        "arrival_time": "1950",
        "departure_time": "1953",
        "district": "鳥松區",
        "village": "鳥松里",
        "location": "松埔北巷2之12號至4之22號",
        "type": "定點",
        "collection_type": "garbage"
      }
    },
    {
      "type": "Feature",
      "geometry": {
        "type": "Point",
        "coordinates": [
          120.373368,
          22.665354
        ]
      },
      "properties": {
        "routeId": "kaohsiung-ket-9556-608c27",
        "city": "kaohsiung",
        "route_name": "KET-9556",
        "car_seq": "KET-9556",
        "arrival_time": "1953",
        "departure_time": "1956",
        "district": "鳥松區",
        "village": "鳥松里",
        "location": "松埔北巷2-96號",
        "type": "定點",
        "collection_type": "garbage"
      }
    },
    {
      "type": "Feature",
      "geometry": {
        "type": "Point",
        "coordinates": [
          120.373485,
          22.66675
        ]
      },
      "properties": {
        "routeId": "kaohsiung-ket-9556-608c27",
        "city": "kaohsiung",
        "route_name": "KET-9556",
        "car_seq": "KET-9556",
        "arrival_time": "2002",
        "departure_time": "2005",
        "district": "鳥松區",
        "village": "鳥松里",
        "location": "松埔北巷4-22號",
        "type": "定點",
        "collection_type": "garbage"
      }
    },
    {
      "type": "Feature",
      "geometry": {
        "type": "Point",
        "coordinates": [
          120.374626,
          22.667784
        ]
      },
      "properties": {
        "routeId": "kaohsiung-ket-9556-608c27",
        "city": "kaohsiung",
        "route_name": "KET-9556",
        "car_seq": "KET-9556",
        "arrival_time": "2004",
        "departure_time": "2007",
        "district": "鳥松區",
        "village": "鳥松里",
        "location": "松埔北巷7號之9",
        "type": "定點",
        "collection_type": "garbage"
      }
    },
    {
      "type": "Feature",
      "geometry": {
        "type": "Point",
        "coordinates": [
          120.377459,
          22.670919
        ]
      },
      "properties": {
        "routeId": "kaohsiung-ket-9556-608c27",
        "city": "kaohsiung",
        "route_name": "KET-9556",
        "car_seq": "KET-9556",
        "arrival_time": "2009",
        "departure_time": "2011",
        "district": "鳥松區",
        "village": "鳥松里",
        "location": "松埔北巷11-1號",
        "type": "定點",
        "collection_type": "garbage"
      }
    },
    {
      "type": "Feature",
      "geometry": {
        "type": "Point",
        "coordinates": [
          120.377751,
          22.670915
        ]
      },
      "properties": {
        "routeId": "kaohsiung-ket-9556-608c27",
        "city": "kaohsiung",
        "route_name": "KET-9556",
        "car_seq": "KET-9556",
        "arrival_time": "2010",
        "departure_time": "2013",
        "district": "鳥松區",
        "village": "鳥松里",
        "location": "松埔北巷9-63號",
        "type": "定點",
        "collection_type": "garbage"
      }
    },
    {
      "type": "Feature",
      "geometry": {
        "type": "Point",
        "coordinates": [
          120.378611,
          22.670124
        ]
      },
      "properties": {
        "routeId": "kaohsiung-ket-9556-608c27",
        "city": "kaohsiung",
        "route_name": "KET-9556",
        "car_seq": "KET-9556",
        "arrival_time": "2011",
        "departure_time": "2014",
        "district": "鳥松區",
        "village": "鳥松里",
        "location": "松埔北巷9-21號",
        "type": "定點",
        "collection_type": "garbage"
      }
    },
    {
      "type": "Feature",
      "geometry": {
        "type": "Point",
        "coordinates": [
          120.371465,
          22.66334
        ]
      },
      "properties": {
        "routeId": "kaohsiung-ket-9556-608c27",
        "city": "kaohsiung",
        "route_name": "KET-9556",
        "car_seq": "KET-9556",
        "arrival_time": "2016",
        "departure_time": "2019",
        "district": "鳥松區",
        "village": "鳥松里",
        "location": "松埔北巷3號",
        "type": "定點",
        "collection_type": "garbage"
      }
    },
    {
      "type": "Feature",
      "geometry": {
        "type": "Point",
        "coordinates": [
          120.364216,
          22.662445
        ]
      },
      "properties": {
        "routeId": "kaohsiung-ket-9556-608c27",
        "city": "kaohsiung",
        "route_name": "KET-9556",
        "car_seq": "KET-9556",
        "arrival_time": "2018",
        "departure_time": "2021",
        "district": "鳥松區",
        "village": "鳥松里",
        "location": "松埔路1-1號",
        "type": "定點",
        "collection_type": "garbage"
      }
    },
    {
      "type": "Feature",
      "geometry": {
        "type": "Point",
        "coordinates": [
          120.368769,
          22.662815
        ]
      },
      "properties": {
        "routeId": "kaohsiung-ket-9556-608c27",
        "city": "kaohsiung",
        "route_name": "KET-9556",
        "car_seq": "KET-9556",
        "arrival_time": "2019",
        "departure_time": "2022",
        "district": "鳥松區",
        "village": "鳥松里",
        "location": "松埔路1-35號",
        "type": "定點",
        "collection_type": "garbage"
      }
    }
  ]
}