{
  "type": "FeatureCollection",
  "features": [
    {
      "type": "Feature",
      "geometry": {
        "type": "Point",
        "coordinates": [
          120.291765,
          22.653108
        ]
      },
      "properties": {
        "routeId": "kaohsiung-keb-7763-c0bf6a",
        "city": "kaohsiung",
        "route_name": "KEB-7763",
        "car_seq": "KEB-7763",
        "arrival_time": "1612",
        "departure_time": "1614",
        "district": "鼓山區",
        "village": "龍水里",
        "location": "中華一路2220之2號前",
        "type": "定點",
        "collection_type": "garbage"
      }
    },
    {
      "type": "Feature",
      "geometry": {
        "type": "Point",
        "coordinates": [
          120.292416,
          22.652263
        ]
      },
      "properties": {
        "routeId": "kaohsiung-keb-7763-c0bf6a",
        "city": "kaohsiung",
        "route_name": "KEB-7763",
        "car_seq": "KEB-7763",
        "arrival_time": "1615",
        "departure_time": "1617",
        "district": "鼓山區",
        "village": "龍子里",
        "location": "中華一路2111號前",
        "type": "定點",
        "collection_type": "garbage"
      }
    },
    {
      "type": "Feature",
      "geometry": {
        "type": "Point",
        "coordinates": [
          120.292497,
          22.653889
        ]
      },
      "properties": {
        "routeId": "kaohsiung-keb-7763-c0bf6a",
        "city": "kaohsiung",
        "route_name": "KEB-7763",
        "car_seq": "KEB-7763",
        "arrival_time": "1618",
        "departure_time": "1620",
        "district": "鼓山區",
        "village": "龍子里",
        "location": "中華一路487號前",
        "type": "定點",
        "collection_type": "garbage"
      }
    },
    {
      "type": "Feature",
      "geometry": {
        "type": "Point",
        "coordinates": [
          120.292618,
          22.656312
        ]
      },
      "properties": {
        "routeId": "kaohsiung-keb-7763-c0bf6a",
        "city": "kaohsiung",
        "route_name": "KEB-7763",
        "car_seq": "KEB-7763",
        "arrival_time": "1620",
        "departure_time": "1621",
        "district": "鼓山區",
        "village": "龍子里",
        "location": "中華一路407號",
        "type": "定點",
        "collection_type": "garbage"
      }
    },
    {
      "type": "Feature",
      "geometry": {
        "type": "Point",
        "coordinates": [
          120.299128,
          22.665621
        ]
      },
      "properties": {
        "routeId": "kaohsiung-keb-7763-c0bf6a",
        "city": "kaohsiung",
        "route_name": "KEB-7763",
        "car_seq": "KEB-7763",
        "arrival_time": "1639",
        "departure_time": "1641",
        "district": "鼓山區",
        "village": "明誠里",
        "location": "裕誠路1095號前",
        "type": "定點",
        "collection_type": "garbage"
      }
    },
    {
      "type": "Feature",
      "geometry": {
        "type": "Point",
        "coordinates": [
          120.300701,
          22.665649
        ]
      },
      "properties": {
        "routeId": "kaohsiung-keb-7763-c0bf6a",
        "city": "kaohsiung",
        "route_name": "KEB-7763",
        "car_seq": "KEB-7763",
        "arrival_time": "1641",
        "departure_time": "1643",
        "district": "鼓山區",
        "village": "明誠里",
        "location": "裕誠路1065號前",
        "type": "定點",
        "collection_type": "garbage"
      }
    },
    {
      "type": "Feature",
      "geometry": {
        "type": "Point",
        "coordinates": [
          120.2942,
          22.656502
        ]
      },
      "properties": {
        "routeId": "kaohsiung-keb-7763-c0bf6a",
        "city": "kaohsiung",
        "route_name": "KEB-7763",
        "car_seq": "KEB-7763",
        "arrival_time": "1643",
        "departure_time": "1645",
        "district": "鼓山區",
        "village": "明誠里",
        "location": "裕誠路1025~1039號前",
        "type": "定點",
        "collection_type": "garbage"
      }
    },
    {
      "type": "Feature",
      "geometry": {
        "type": "Point",
        "coordinates": [
          120.272169,
          22.619598
        ]
      },
      "properties": {
        "routeId": "kaohsiung-keb-7763-c0bf6a",
        "city": "kaohsiung",
        "route_name": "KEB-7763",
        "car_seq": "KEB-7763",
        "arrival_time": "1849",
        "departure_time": "1851",
        "district": "鼓山區",
        "village": "延平里",
        "location": "濱海一路57巷59之1號前",
        "type": "定點",
        "collection_type": "garbage"
      }
    },
    {
      "type": "Feature",
      "geometry": {
        "type": "Point",
        "coordinates": [
          120.280799,
          22.647355
        ]
      },
      "properties": {
        "routeId": "kaohsiung-keb-7763-c0bf6a",
        "city": "kaohsiung",
        "route_name": "KEB-7763",
        "car_seq": "KEB-7763",
        "arrival_time": "2035",
        "departure_time": "2036",
        "district": "鼓山區",
        "village": "厚生里",
        "location": "翠華路80號前",
        "type": "定點",
        "collection_type": "garbage"
      }
    },
    {
      "type": "Feature",
      "geometry": {
        "type": "Point",
        "coordinates": [
          120.280178,
          22.646975
        ]
      },
      "properties": {
        "routeId": "kaohsiung-keb-7763-c0bf6a",
        "city": "kaohsiung",
        "route_name": "KEB-7763",
        "car_seq": "KEB-7763",
        "arrival_time": "2041",
        "departure_time": "2043",
        "district": "鼓山區",
        "village": "厚生里",
        "location": "翠華路63巷90號前",
        "type": "定點",
        "collection_type": "garbage"
      }
    },
    {
      "type": "Feature",
      "geometry": {
        "type": "Point",
        "coordinates": [
          120.279537,
          22.647627
        ]
      },
      "properties": {
        "routeId": "kaohsiung-keb-7763-c0bf6a",
        "city": "kaohsiung",
        "route_name": "KEB-7763",
        "car_seq": "KEB-7763",
        "arrival_time": "2044",
        "departure_time": "2045",
        "district": "鼓山區",
        "village": "厚生里",
        "location": "華安街112號前",
        "type": "定點",
        "collection_type": "garbage"
      }
    },
    {
      "type": "Feature",
      "geometry": {
        "type": "Point",
        "coordinates": [
          120.274071,
          22.649321
        ]
      },
      "properties": {
        "routeId": "kaohsiung-keb-7763-c0bf6a",
        "city": "kaohsiung",
        "route_name": "KEB-7763",
        "car_seq": "KEB-7763",
        "arrival_time": "2057",
        "departure_time": "2059",
        "district": "鼓山區",
        "village": "正德里",
        "location": "青泉街69號對面",
        "type": "定點",
        "collection_type": "garbage"
      }
    },
    {
      "type": "Feature",
      "geometry": {
        "type": "Point",
        "coordinates": [
          120.27619,
          22.650538
        ]
      },
      "properties": {
        "routeId": "kaohsiung-keb-7763-c0bf6a",
        "city": "kaohsiung",
        "route_name": "KEB-7763",
        "car_seq": "KEB-7763",
        "arrival_time": "2118",
        "departure_time": "2120",
        "district": "鼓山區",
        "village": "正德里",
        "location": "鼓山三路15之1號前",
        "type": "定點",
        "collection_type": "garbage"
      }
    }
  ]
}