{
  "type": "FeatureCollection",
  "features": [
    {
      "type": "Feature",
      "geometry": {
        "type": "Point",
        "coordinates": [
          120.36147,
          22.793431
        ]
      },
      "properties": {
        "routeId": "kaohsiung-keh-5766-8ef2c4",
        "city": "kaohsiung",
        "route_name": "KEH-5766",
        "car_seq": "KEH-5766",
        "arrival_time": "1656",
        "departure_time": "1700",
        "district": "燕巢區",
        "village": "西燕里",
        "location": "中民路612號",
        "type": "定點",
        "collection_type": "garbage"
      }
    },
    {
      "type": "Feature",
      "geometry": {
        "type": "Point",
        "coordinates": [
          120.358681,
          22.793248
        ]
      },
      "properties": {
        "routeId": "kaohsiung-keh-5766-8ef2c4",
        "city": "kaohsiung",
        "route_name": "KEH-5766",
        "car_seq": "KEH-5766",
        "arrival_time": "1704",
        "departure_time": "1707",
        "district": "燕巢區",
        "village": "西燕里",
        "location": "中民路714號",
        "type": "定點",
        "collection_type": "garbage"
      }
    },
    {
      "type": "Feature",
      "geometry": {
        "type": "Point",
        "coordinates": [
          120.352901,
          22.792262
        ]
      },
      "properties": {
        "routeId": "kaohsiung-keh-5766-8ef2c4",
        "city": "kaohsiung",
        "route_name": "KEH-5766",
        "car_seq": "KEH-5766",
        "arrival_time": "1718",
        "departure_time": "1720",
        "district": "燕巢區",
        "village": "安招里",
        "location": "中民路869號",
        "type": "定點",
        "collection_type": "garbage"
      }
    },
    {
      "type": "Feature",
      "geometry": {
        "type": "Point",
        "coordinates": [
          120.351479,
          22.791253
        ]
      },
      "properties": {
        "routeId": "kaohsiung-keh-5766-8ef2c4",
        "city": "kaohsiung",
        "route_name": "KEH-5766",
        "car_seq": "KEH-5766",
        "arrival_time": "1723",
        "departure_time": "1725",
        "district": "燕巢區",
        "village": "安招里",
        "location": "新厝巷48號",
        "type": "定點",
        "collection_type": "garbage"
      }
    },
    {
      "type": "Feature",
      "geometry": {
        "type": "Point",
        "coordinates": [
          120.354221,
          22.792031
        ]
      },
      "properties": {
        "routeId": "kaohsiung-keh-5766-8ef2c4",
        "city": "kaohsiung",
        "route_name": "KEH-5766",
        "car_seq": "KEH-5766",
        "arrival_time": "1729",
        "departure_time": "1731",
        "district": "燕巢區",
        "village": "安招里",
        "location": "中民路797號",
        "type": "定點",
        "collection_type": "garbage"
      }
    },
    {
      "type": "Feature",
      "geometry": {
        "type": "Point",
        "coordinates": [
          120.359254,
          22.793067
        ]
      },
      "properties": {
        "routeId": "kaohsiung-keh-5766-8ef2c4",
        "city": "kaohsiung",
        "route_name": "KEH-5766",
        "car_seq": "KEH-5766",
        "arrival_time": "1748",
        "departure_time": "1750",
        "district": "燕巢區",
        "village": "西燕里",
        "location": "中民路663之7號",
        "type": "定點",
        "collection_type": "garbage"
      }
    },
    {
      "type": "Feature",
      "geometry": {
        "type": "Point",
        "coordinates": [
          120.359437,
          22.792048
        ]
      },
      "properties": {
        "routeId": "kaohsiung-keh-5766-8ef2c4",
        "city": "kaohsiung",
        "route_name": "KEH-5766",
        "car_seq": "KEH-5766",
        "arrival_time": "1806",
        "departure_time": "1808",
        "district": "燕巢區",
        "village": "西燕里",
        "location": "中西路18號",
        "type": "定點",
        "collection_type": "garbage"
      }
    },
    {
      "type": "Feature",
      "geometry": {
        "type": "Point",
        "coordinates": [
          120.35827,
          22.79416
        ]
      },
      "properties": {
        "routeId": "kaohsiung-keh-5766-8ef2c4",
        "city": "kaohsiung",
        "route_name": "KEH-5766",
        "car_seq": "KEH-5766",
        "arrival_time": "1811",
        "departure_time": "1813",
        "district": "燕巢區",
        "village": "西燕里",
        "location": "中西路71巷8號",
        "type": "定點",
        "collection_type": "garbage"
      }
    },
    {
      "type": "Feature",
      "geometry": {
        "type": "Point",
        "coordinates": [
          120.35635,
          22.794355
        ]
      },
      "properties": {
        "routeId": "kaohsiung-keh-5766-8ef2c4",
        "city": "kaohsiung",
        "route_name": "KEH-5766",
        "car_seq": "KEH-5766",
        "arrival_time": "1815",
        "departure_time": "1817",
        "district": "燕巢區",
        "village": "西燕里",
        "location": "中西路71巷146弄19號",
        "type": "定點",
        "collection_type": "garbage"
      }
    },
    {
      "type": "Feature",
      "geometry": {
        "type": "Point",
        "coordinates": [
          120.355638,
          22.794764
        ]
      },
      "properties": {
        "routeId": "kaohsiung-keh-5766-8ef2c4",
        "city": "kaohsiung",
        "route_name": "KEH-5766",
        "car_seq": "KEH-5766",
        "arrival_time": "1818",
        "departure_time": "1820",
        "district": "燕巢區",
        "village": "西燕里",
        "location": "新生路98號",
        "type": "定點",
        "collection_type": "garbage"
      }
    },
    {
      "type": "Feature",
      "geometry": {
        "type": "Point",
        "coordinates": [
          120.355414,
          22.794438
        ]
      },
      "properties": {
        "routeId": "kaohsiung-keh-5766-8ef2c4",
        "city": "kaohsiung",
        "route_name": "KEH-5766",
        "car_seq": "KEH-5766",
        "arrival_time": "1835",
        "departure_time": "1837",
        "district": "燕巢區",
        "village": "南燕里",
        "location": "新生路79號",
        "type": "定點",
        "collection_type": "garbage"
      }
    },
    {
      "type": "Feature",
      "geometry": {
        "type": "Point",
        "coordinates": [
          120.35955,
          22.790312
        ]
      },
      "properties": {
        "routeId": "kaohsiung-keh-5766-8ef2c4",
        "city": "kaohsiung",
        "route_name": "KEH-5766",
        "car_seq": "KEH-5766",
        "arrival_time": "1842",
        "departure_time": "1845",
        "district": "燕巢區",
        "village": "南燕里",
        "location": "中西路1-53號",
        "type": "定點",
        "collection_type": "garbage"
      }
    },
    {
      "type": "Feature",
      "geometry": {
        "type": "Point",
        "coordinates": [
          120.359108,
          22.791162
        ]
      },
      "properties": {
        "routeId": "kaohsiung-keh-5766-8ef2c4",
        "city": "kaohsiung",
        "route_name": "KEH-5766",
        "car_seq": "KEH-5766",
        "arrival_time": "1930",
        "departure_time": "1934",
        "district": "燕巢區",
        "village": "南燕里",
        "location": "中民路707巷58號",
        "type": "定點",
        "collection_type": "garbage"
      }
    },
    {
      "type": "Feature",
      "geometry": {
        "type": "Point",
        "coordinates": [
          120.359544,
          22.794179
        ]
      },
      "properties": {
        "routeId": "kaohsiung-keh-5766-8ef2c4",
        "city": "kaohsiung",
        "route_name": "KEH-5766",
        "car_seq": "KEH-5766",
        "arrival_time": "1935",
        "departure_time": "1940",
        "district": "燕巢區",
        "village": "西燕里",
        "location": "中西路70巷22號",
        "type": "定點",
        "collection_type": "garbage"
      }
    },
    {
      "type": "Feature",
      "geometry": {
        "type": "Point",
        "coordinates": [
          120.361054,
          22.794505
        ]
      },
      "properties": {
        "routeId": "kaohsiung-keh-5766-8ef2c4",
        "city": "kaohsiung",
        "route_name": "KEH-5766",
        "car_seq": "KEH-5766",
        "arrival_time": "1942",
        "departure_time": "1945",
        "district": "燕巢區",
        "village": "西燕里",
        "location": "中西路70巷94號",
        "type": "定點",
        "collection_type": "garbage"
      }
    },
    {
      "type": "Feature",
      "geometry": {
        "type": "Point",
        "coordinates": [
          120.359555,
          22.792511
        ]
      },
      "properties": {
        "routeId": "kaohsiung-keh-5766-8ef2c4",
        "city": "kaohsiung",
        "route_name": "KEH-5766",
        "car_seq": "KEH-5766",
        "arrival_time": "1953",
        "departure_time": "1955",
        "district": "燕巢區",
        "village": "西燕里",
        "location": "中民路659巷16弄25號",
        "type": "定點",
        "collection_type": "garbage"
      }
    },
    {
      "type": "Feature",
      "geometry": {
        "type": "Point",
        "coordinates": [
          120.360242,
          22.791665
        ]
      },
      "properties": {
        "routeId": "kaohsiung-keh-5766-8ef2c4",
        "city": "kaohsiung",
        "route_name": "KEH-5766",
        "car_seq": "KEH-5766",
        "arrival_time": "1956",
        "departure_time": "1957",
        "district": "燕巢區",
        "village": "南燕里",
        "location": "中興路64巷80-9號",
        "type": "定點",
        "collection_type": "garbage"
      }
    },
    {
      "type": "Feature",
      "geometry": {
        "type": "Point",
        "coordinates": [
          120.361573,
          22.79256
        ]
      },
      "properties": {
        "routeId": "kaohsiung-keh-5766-8ef2c4",
        "city": "kaohsiung",
        "route_name": "KEH-5766",
        "car_seq": "KEH-5766",
        "arrival_time": "1958",
        "departure_time": "2000",
        "district": "燕巢區",
        "village": "南燕里",
        "location": "中興路10巷3號",
        "type": "定點",
        "collection_type": "garbage"
      }
    },
    {
      "type": "Feature",
      "geometry": {
        "type": "Point",
        "coordinates": [
          120.380103,
          22.763793
        ]
      },
      "properties": {
        "routeId": "kaohsiung-keh-5766-8ef2c4",
        "city": "kaohsiung",
        "route_name": "KEH-5766",
        "car_seq": "KEH-5766",
        "arrival_time": "2010",
        "departure_time": "2015",
        "district": "燕巢區",
        "village": "橫山里",
        "location": "興龍路57號",
        "type": "定點",
        "collection_type": "garbage"
      }
    },
    {
      "type": "Feature",
      "geometry": {
        "type": "Point",
        "coordinates": [
          120.385424,
          22.770326
        ]
      },
      "properties": {
        "routeId": "kaohsiung-keh-5766-8ef2c4",
        "city": "kaohsiung",
        "route_name": "KEH-5766",
        "car_seq": "KEH-5766",
        "arrival_time": "2030",
        "departure_time": "2035",
        "district": "燕巢區",
        "village": "橫山里",
        "location": "大仁路25-2號",
        "type": "定點",
        "collection_type": "garbage"
      }
    }
  ]
}