{
  "type": "FeatureCollection",
  "features": [
    {
      "type": "Feature",
      "geometry": {
        "type": "Point",
        "coordinates": [
          120.245434,
          22.785606
        ]
      },
      "properties": {
        "routeId": "kaohsiung-keh-6672-88174e",
        "city": "kaohsiung",
        "route_name": "KEH-6672",
        "car_seq": "KEH-6672",
        "arrival_time": "1805",
        "departure_time": "1808",
        "district": "彌陀區",
        "village": "鹽埕里",
        "location": "中正西路150巷3號",
        "type": "定點",
        "collection_type": "garbage"
      }
    },
    {
      "type": "Feature",
      "geometry": {
        "type": "Point",
        "coordinates": [
          120.245893,
          22.786467
        ]
      },
      "properties": {
        "routeId": "kaohsiung-keh-6672-88174e",
        "city": "kaohsiung",
        "route_name": "KEH-6672",
        "car_seq": "KEH-6672",
        "arrival_time": "1806",
        "departure_time": "1809",
        "district": "彌陀區",
        "village": "鹽埕里",
        "location": "鹽港一路69之2號",
        "type": "定點",
        "collection_type": "garbage"
      }
    },
    {
      "type": "Feature",
      "geometry": {
        "type": "Point",
        "coordinates": [
          120.244957,
          22.789258
        ]
      },
      "properties": {
        "routeId": "kaohsiung-keh-6672-88174e",
        "city": "kaohsiung",
        "route_name": "KEH-6672",
        "car_seq": "KEH-6672",
        "arrival_time": "1808",
        "departure_time": "1811",
        "district": "彌陀區",
        "village": "鹽埕里",
        "location": "和平路20之4號",
        "type": "定點",
        "collection_type": "garbage"
      }
    },
    {
      "type": "Feature",
      "geometry": {
        "type": "Point",
        "coordinates": [
          120.243652,
          22.789349
        ]
      },
      "properties": {
        "routeId": "kaohsiung-keh-6672-88174e",
        "city": "kaohsiung",
        "route_name": "KEH-6672",
        "car_seq": "KEH-6672",
        "arrival_time": "1811",
        "departure_time": "1814",
        "district": "彌陀區",
        "village": "鹽埕里",
        "location": "鹽埕北路74號",
        "type": "定點",
        "collection_type": "garbage"
      }
    },
    {
      "type": "Feature",
      "geometry": {
        "type": "Point",
        "coordinates": [
          120.243042,
          22.789383
        ]
      },
      "properties": {
        "routeId": "kaohsiung-keh-6672-88174e",
        "city": "kaohsiung",
        "route_name": "KEH-6672",
        "car_seq": "KEH-6672",
        "arrival_time": "1813",
        "departure_time": "1816",
        "district": "彌陀區",
        "village": "鹽埕里",
        "location": "產業路8號",
        "type": "定點",
        "collection_type": "garbage"
      }
    },
    {
      "type": "Feature",
      "geometry": {
        "type": "Point",
        "coordinates": [
          120.239999,
          22.794682
        ]
      },
      "properties": {
        "routeId": "kaohsiung-keh-6672-88174e",
        "city": "kaohsiung",
        "route_name": "KEH-6672",
        "car_seq": "KEH-6672",
        "arrival_time": "1816",
        "departure_time": "1819",
        "district": "彌陀區",
        "village": "文安里",
        "location": "文安路東段198號",
        "type": "定點",
        "collection_type": "garbage"
      }
    },
    {
      "type": "Feature",
      "geometry": {
        "type": "Point",
        "coordinates": [
          120.237483,
          22.792535
        ]
      },
      "properties": {
        "routeId": "kaohsiung-keh-6672-88174e",
        "city": "kaohsiung",
        "route_name": "KEH-6672",
        "car_seq": "KEH-6672",
        "arrival_time": "1819",
        "departure_time": "1822",
        "district": "彌陀區",
        "village": "文安里",
        "location": "文安路1巷10號",
        "type": "定點",
        "collection_type": "garbage"
      }
    },
    {
      "type": "Feature",
      "geometry": {
        "type": "Point",
        "coordinates": [
          120.237258,
          22.791851
        ]
      },
      "properties": {
        "routeId": "kaohsiung-keh-6672-88174e",
        "city": "kaohsiung",
        "route_name": "KEH-6672",
        "car_seq": "KEH-6672",
        "arrival_time": "1821",
        "departure_time": "1824",
        "district": "彌陀區",
        "village": "文安里",
        "location": "文安路1巷3號巷口",
        "type": "定點",
        "collection_type": "garbage"
      }
    },
    {
      "type": "Feature",
      "geometry": {
        "type": "Point",
        "coordinates": [
          120.236797,
          22.793025
        ]
      },
      "properties": {
        "routeId": "kaohsiung-keh-6672-88174e",
        "city": "kaohsiung",
        "route_name": "KEH-6672",
        "car_seq": "KEH-6672",
        "arrival_time": "1824",
        "departure_time": "1827",
        "district": "彌陀區",
        "village": "文安里",
        "location": "文安路2巷16號",
        "type": "定點",
        "collection_type": "garbage"
      }
    },
    {
      "type": "Feature",
      "geometry": {
        "type": "Point",
        "coordinates": [
          120.236408,
          22.794324
        ]
      },
      "properties": {
        "routeId": "kaohsiung-keh-6672-88174e",
        "city": "kaohsiung",
        "route_name": "KEH-6672",
        "car_seq": "KEH-6672",
        "arrival_time": "1825",
        "departure_time": "1828",
        "district": "彌陀區",
        "village": "文安里",
        "location": "文安路86號",
        "type": "定點",
        "collection_type": "garbage"
      }
    },
    {
      "type": "Feature",
      "geometry": {
        "type": "Point",
        "coordinates": [
          120.235969,
          22.792711
        ]
      },
      "properties": {
        "routeId": "kaohsiung-keh-6672-88174e",
        "city": "kaohsiung",
        "route_name": "KEH-6672",
        "car_seq": "KEH-6672",
        "arrival_time": "1827",
        "departure_time": "1830",
        "district": "彌陀區",
        "village": "文安里",
        "location": "文安路3巷3號",
        "type": "定點",
        "collection_type": "garbage"
      }
    },
    {
      "type": "Feature",
      "geometry": {
        "type": "Point",
        "coordinates": [
          120.235719,
          22.792961
        ]
      },
      "properties": {
        "routeId": "kaohsiung-keh-6672-88174e",
        "city": "kaohsiung",
        "route_name": "KEH-6672",
        "car_seq": "KEH-6672",
        "arrival_time": "1828",
        "departure_time": "1831",
        "district": "彌陀區",
        "village": "文安里",
        "location": "文安路4巷2之2號",
        "type": "定點",
        "collection_type": "garbage"
      }
    },
    {
      "type": "Feature",
      "geometry": {
        "type": "Point",
        "coordinates": [
          120.234776,
          22.795105
        ]
      },
      "properties": {
        "routeId": "kaohsiung-keh-6672-88174e",
        "city": "kaohsiung",
        "route_name": "KEH-6672",
        "car_seq": "KEH-6672",
        "arrival_time": "1837",
        "departure_time": "1840",
        "district": "彌陀區",
        "village": "文安里",
        "location": "國校路2之6號",
        "type": "定點",
        "collection_type": "garbage"
      }
    },
    {
      "type": "Feature",
      "geometry": {
        "type": "Point",
        "coordinates": [
          120.237492,
          22.792484
        ]
      },
      "properties": {
        "routeId": "kaohsiung-keh-6672-88174e",
        "city": "kaohsiung",
        "route_name": "KEH-6672",
        "car_seq": "KEH-6672",
        "arrival_time": "1839",
        "departure_time": "1842",
        "district": "彌陀區",
        "village": "文安里",
        "location": "文安路北1巷6號",
        "type": "定點",
        "collection_type": "garbage"
      }
    },
    {
      "type": "Feature",
      "geometry": {
        "type": "Point",
        "coordinates": [
          120.2342,
          22.797466
        ]
      },
      "properties": {
        "routeId": "kaohsiung-keh-6672-88174e",
        "city": "kaohsiung",
        "route_name": "KEH-6672",
        "car_seq": "KEH-6672",
        "arrival_time": "1842",
        "departure_time": "1845",
        "district": "彌陀區",
        "village": "文安里",
        "location": "文安路北2巷5號",
        "type": "定點",
        "collection_type": "garbage"
      }
    },
    {
      "type": "Feature",
      "geometry": {
        "type": "Point",
        "coordinates": [
          120.23755,
          22.794148
        ]
      },
      "properties": {
        "routeId": "kaohsiung-keh-6672-88174e",
        "city": "kaohsiung",
        "route_name": "KEH-6672",
        "car_seq": "KEH-6672",
        "arrival_time": "1845",
        "departure_time": "1848",
        "district": "彌陀區",
        "village": "文安里",
        "location": "文安路明仁巷38號",
        "type": "定點",
        "collection_type": "garbage"
      }
    },
    {
      "type": "Feature",
      "geometry": {
        "type": "Point",
        "coordinates": [
          120.235428,
          22.795262
        ]
      },
      "properties": {
        "routeId": "kaohsiung-keh-6672-88174e",
        "city": "kaohsiung",
        "route_name": "KEH-6672",
        "car_seq": "KEH-6672",
        "arrival_time": "1847",
        "departure_time": "1850",
        "district": "彌陀區",
        "village": "文安里",
        "location": "國校路2巷19號",
        "type": "定點",
        "collection_type": "garbage"
      }
    },
    {
      "type": "Feature",
      "geometry": {
        "type": "Point",
        "coordinates": [
          120.235829,
          22.796471
        ]
      },
      "properties": {
        "routeId": "kaohsiung-keh-6672-88174e",
        "city": "kaohsiung",
        "route_name": "KEH-6672",
        "car_seq": "KEH-6672",
        "arrival_time": "1850",
        "departure_time": "1853",
        "district": "彌陀區",
        "village": "文安里",
        "location": "文安路廟巷61號",
        "type": "定點",
        "collection_type": "garbage"
      }
    },
    {
      "type": "Feature",
      "geometry": {
        "type": "Point",
        "coordinates": [
          120.233466,
          22.792221
        ]
      },
      "properties": {
        "routeId": "kaohsiung-keh-6672-88174e",
        "city": "kaohsiung",
        "route_name": "KEH-6672",
        "car_seq": "KEH-6672",
        "arrival_time": "1852",
        "departure_time": "1855",
        "district": "彌陀區",
        "village": "文安里",
        "location": "文安路文和巷3號空地",
        "type": "定點",
        "collection_type": "garbage"
      }
    },
    {
      "type": "Feature",
      "geometry": {
        "type": "Point",
        "coordinates": [
          120.232099,
          22.796285
        ]
      },
      "properties": {
        "routeId": "kaohsiung-keh-6672-88174e",
        "city": "kaohsiung",
        "route_name": "KEH-6672",
        "car_seq": "KEH-6672",
        "arrival_time": "1923",
        "departure_time": "1926",
        "district": "彌陀區",
        "village": "舊港里",
        "location": "舊港路東段26號",
        "type": "定點",
        "collection_type": "garbage"
      }
    },
    {
      "type": "Feature",
      "geometry": {
        "type": "Point",
        "coordinates": [
          120.232021,
          22.796719
        ]
      },
      "properties": {
        "routeId": "kaohsiung-keh-6672-88174e",
        "city": "kaohsiung",
        "route_name": "KEH-6672",
        "car_seq": "KEH-6672",
        "arrival_time": "1925",
        "departure_time": "1928",
        "district": "彌陀區",
        "village": "舊港里",
        "location": "舊港路東段32之6號對面",
        "type": "定點",
        "collection_type": "garbage"
      }
    },
    {
      "type": "Feature",
      "geometry": {
        "type": "Point",
        "coordinates": [
          120.232518,
          22.796914
        ]
      },
      "properties": {
        "routeId": "kaohsiung-keh-6672-88174e",
        "city": "kaohsiung",
        "route_name": "KEH-6672",
        "car_seq": "KEH-6672",
        "arrival_time": "1925",
        "departure_time": "1928",
        "district": "彌陀區",
        "village": "舊港里",
        "location": "舊港路東段30巷20號旁",
        "type": "定點",
        "collection_type": "garbage"
      }
    },
    {
      "type": "Feature",
      "geometry": {
        "type": "Point",
        "coordinates": [
          120.231308,
          22.79682
        ]
      },
      "properties": {
        "routeId": "kaohsiung-keh-6672-88174e",
        "city": "kaohsiung",
        "route_name": "KEH-6672",
        "car_seq": "KEH-6672",
        "arrival_time": "1927",
        "departure_time": "1930",
        "district": "彌陀區",
        "village": "舊港里",
        "location": "舊港路東段56號",
        "type": "定點",
        "collection_type": "garbage"
      }
    },
    {
      "type": "Feature",
      "geometry": {
        "type": "Point",
        "coordinates": [
          120.230375,
          22.797853
        ]
      },
      "properties": {
        "routeId": "kaohsiung-keh-6672-88174e",
        "city": "kaohsiung",
        "route_name": "KEH-6672",
        "car_seq": "KEH-6672",
        "arrival_time": "1930",
        "departure_time": "1933",
        "district": "彌陀區",
        "village": "舊港里",
        "location": "舊港路10號",
        "type": "定點",
        "collection_type": "garbage"
      }
    },
    {
      "type": "Feature",
      "geometry": {
        "type": "Point",
        "coordinates": [
          120.230438,
          22.798124
        ]
      },
      "properties": {
        "routeId": "kaohsiung-keh-6672-88174e",
        "city": "kaohsiung",
        "route_name": "KEH-6672",
        "car_seq": "KEH-6672",
        "arrival_time": "1930",
        "departure_time": "1933",
        "district": "彌陀區",
        "village": "舊港里",
        "location": "舊港路14號",
        "type": "定點",
        "collection_type": "garbage"
      }
    },
    {
      "type": "Feature",
      "geometry": {
        "type": "Point",
        "coordinates": [
          120.230991,
          22.799119
        ]
      },
      "properties": {
        "routeId": "kaohsiung-keh-6672-88174e",
        "city": "kaohsiung",
        "route_name": "KEH-6672",
        "car_seq": "KEH-6672",
        "arrival_time": "1932",
        "departure_time": "1935",
        "district": "彌陀區",
        "village": "舊港里",
        "location": "舊港路38之3號路口",
        "type": "定點",
        "collection_type": "garbage"
      }
    },
    {
      "type": "Feature",
      "geometry": {
        "type": "Point",
        "coordinates": [
          120.231112,
          22.799735
        ]
      },
      "properties": {
        "routeId": "kaohsiung-keh-6672-88174e",
        "city": "kaohsiung",
        "route_name": "KEH-6672",
        "car_seq": "KEH-6672",
        "arrival_time": "1933",
        "departure_time": "1936",
        "district": "彌陀區",
        "village": "舊港里",
        "location": "舊港橫路2號",
        "type": "定點",
        "collection_type": "garbage"
      }
    },
    {
      "type": "Feature",
      "geometry": {
        "type": "Point",
        "coordinates": [
          120.230684,
          22.799882
        ]
      },
      "properties": {
        "routeId": "kaohsiung-keh-6672-88174e",
        "city": "kaohsiung",
        "route_name": "KEH-6672",
        "car_seq": "KEH-6672",
        "arrival_time": "1934",
        "departure_time": "1937",
        "district": "彌陀區",
        "village": "舊港里",
        "location": "舊港橫路14號",
        "type": "定點",
        "collection_type": "garbage"
      }
    },
    {
      "type": "Feature",
      "geometry": {
        "type": "Point",
        "coordinates": [
          120.229304,
          22.801047
        ]
      },
      "properties": {
        "routeId": "kaohsiung-keh-6672-88174e",
        "city": "kaohsiung",
        "route_name": "KEH-6672",
        "car_seq": "KEH-6672",
        "arrival_time": "1937",
        "departure_time": "1940",
        "district": "彌陀區",
        "village": "舊港里",
        "location": "舊港路北2巷10之1號",
        "type": "定點",
        "collection_type": "garbage"
      }
    },
    {
      "type": "Feature",
      "geometry": {
        "type": "Point",
        "coordinates": [
          120.230245,
          22.799064
        ]
      },
      "properties": {
        "routeId": "kaohsiung-keh-6672-88174e",
        "city": "kaohsiung",
        "route_name": "KEH-6672",
        "car_seq": "KEH-6672",
        "arrival_time": "1939",
        "departure_time": "1942",
        "district": "彌陀區",
        "village": "舊港里",
        "location": "舊港路北3巷15號",
        "type": "定點",
        "collection_type": "garbage"
      }
    },
    {
      "type": "Feature",
      "geometry": {
        "type": "Point",
        "coordinates": [
          120.229611,
          22.799191
        ]
      },
      "properties": {
        "routeId": "kaohsiung-keh-6672-88174e",
        "city": "kaohsiung",
        "route_name": "KEH-6672",
        "car_seq": "KEH-6672",
        "arrival_time": "1942",
        "departure_time": "1945",
        "district": "彌陀區",
        "village": "舊港里",
        "location": "舊港路南二巷16號",
        "type": "定點",
        "collection_type": "garbage"
      }
    },
    {
      "type": "Feature",
      "geometry": {
        "type": "Point",
        "coordinates": [
          120.229446,
          22.798642
        ]
      },
      "properties": {
        "routeId": "kaohsiung-keh-6672-88174e",
        "city": "kaohsiung",
        "route_name": "KEH-6672",
        "car_seq": "KEH-6672",
        "arrival_time": "1942",
        "departure_time": "1945",
        "district": "彌陀區",
        "village": "舊港里",
        "location": "舊港路南2巷6號",
        "type": "定點",
        "collection_type": "garbage"
      }
    },
    {
      "type": "Feature",
      "geometry": {
        "type": "Point",
        "coordinates": [
          120.229795,
          22.798287
        ]
      },
      "properties": {
        "routeId": "kaohsiung-keh-6672-88174e",
        "city": "kaohsiung",
        "route_name": "KEH-6672",
        "car_seq": "KEH-6672",
        "arrival_time": "1943",
        "departure_time": "1946",
        "district": "彌陀區",
        "village": "舊港里",
        "location": "舊港路西1巷3號",
        "type": "定點",
        "collection_type": "garbage"
      }
    },
    {
      "type": "Feature",
      "geometry": {
        "type": "Point",
        "coordinates": [
          120.231003,
          22.797564
        ]
      },
      "properties": {
        "routeId": "kaohsiung-keh-6672-88174e",
        "city": "kaohsiung",
        "route_name": "KEH-6672",
        "car_seq": "KEH-6672",
        "arrival_time": "1947",
        "departure_time": "1950",
        "district": "彌陀區",
        "village": "舊港里",
        "location": "舊港路東巷1弄7號",
        "type": "定點",
        "collection_type": "garbage"
      }
    },
    {
      "type": "Feature",
      "geometry": {
        "type": "Point",
        "coordinates": [
          120.24289,
          22.78743
        ]
      },
      "properties": {
        "routeId": "kaohsiung-keh-6672-88174e",
        "city": "kaohsiung",
        "route_name": "KEH-6672",
        "car_seq": "KEH-6672",
        "arrival_time": "1953",
        "departure_time": "1956",
        "district": "彌陀區",
        "village": "鹽埕里",
        "location": "鹽港二路39之1號",
        "type": "定點",
        "collection_type": "garbage"
      }
    },
    {
      "type": "Feature",
      "geometry": {
        "type": "Point",
        "coordinates": [
          120.242221,
          22.786497
        ]
      },
      "properties": {
        "routeId": "kaohsiung-keh-6672-88174e",
        "city": "kaohsiung",
        "route_name": "KEH-6672",
        "car_seq": "KEH-6672",
        "arrival_time": "1955",
        "departure_time": "1958",
        "district": "彌陀區",
        "village": "鹽埕里",
        "location": "成功北路7號",
        "type": "定點",
        "collection_type": "garbage"
      }
    },
    {
      "type": "Feature",
      "geometry": {
        "type": "Point",
        "coordinates": [
          120.242267,
          22.787635
        ]
      },
      "properties": {
        "routeId": "kaohsiung-keh-6672-88174e",
        "city": "kaohsiung",
        "route_name": "KEH-6672",
        "car_seq": "KEH-6672",
        "arrival_time": "1956",
        "departure_time": "1959",
        "district": "彌陀區",
        "village": "鹽埕里",
        "location": "成功北路11號",
        "type": "定點",
        "collection_type": "garbage"
      }
    },
    {
      "type": "Feature",
      "geometry": {
        "type": "Point",
        "coordinates": [
          120.242509,
          22.787683
        ]
      },
      "properties": {
        "routeId": "kaohsiung-keh-6672-88174e",
        "city": "kaohsiung",
        "route_name": "KEH-6672",
        "car_seq": "KEH-6672",
        "arrival_time": "1957",
        "departure_time": "2000",
        "district": "彌陀區",
        "village": "鹽埕里",
        "location": "成功北路20號",
        "type": "定點",
        "collection_type": "garbage"
      }
    },
    {
      "type": "Feature",
      "geometry": {
        "type": "Point",
        "coordinates": [
          120.243624,
          22.788682
        ]
      },
      "properties": {
        "routeId": "kaohsiung-keh-6672-88174e",
        "city": "kaohsiung",
        "route_name": "KEH-6672",
        "car_seq": "KEH-6672",
        "arrival_time": "1957",
        "departure_time": "2000",
        "district": "彌陀區",
        "village": "鹽埕里",
        "location": "安樂路38之2號",
        "type": "定點",
        "collection_type": "garbage"
      }
    },
    {
      "type": "Feature",
      "geometry": {
        "type": "Point",
        "coordinates": [
          120.245459,
          22.788567
        ]
      },
      "properties": {
        "routeId": "kaohsiung-keh-6672-88174e",
        "city": "kaohsiung",
        "route_name": "KEH-6672",
        "car_seq": "KEH-6672",
        "arrival_time": "2000",
        "departure_time": "2003",
        "district": "彌陀區",
        "village": "過港里",
        "location": "安樂路9號",
        "type": "定點",
        "collection_type": "garbage"
      }
    },
    {
      "type": "Feature",
      "geometry": {
        "type": "Point",
        "coordinates": [
          120.244863,
          22.786899
        ]
      },
      "properties": {
        "routeId": "kaohsiung-keh-6672-88174e",
        "city": "kaohsiung",
        "route_name": "KEH-6672",
        "car_seq": "KEH-6672",
        "arrival_time": "2003",
        "departure_time": "2006",
        "district": "彌陀區",
        "village": "鹽埕里",
        "location": "鹽港一路66號",
        "type": "定點",
        "collection_type": "garbage"
      }
    },
    {
      "type": "Feature",
      "geometry": {
        "type": "Point",
        "coordinates": [
          120.245363,
          22.787735
        ]
      },
      "properties": {
        "routeId": "kaohsiung-keh-6672-88174e",
        "city": "kaohsiung",
        "route_name": "KEH-6672",
        "car_seq": "KEH-6672",
        "arrival_time": "2006",
        "departure_time": "2009",
        "district": "彌陀區",
        "village": "鹽埕里",
        "location": "鹽埕中路東三巷5號",
        "type": "定點",
        "collection_type": "garbage"
      }
    },
    {
      "type": "Feature",
      "geometry": {
        "type": "Point",
        "coordinates": [
          120.246063,
          22.788171
        ]
      },
      "properties": {
        "routeId": "kaohsiung-keh-6672-88174e",
        "city": "kaohsiung",
        "route_name": "KEH-6672",
        "car_seq": "KEH-6672",
        "arrival_time": "2006",
        "departure_time": "2009",
        "district": "彌陀區",
        "village": "鹽埕里",
        "location": "鹽埕大路西二巷2號",
        "type": "定點",
        "collection_type": "garbage"
      }
    },
    {
      "type": "Feature",
      "geometry": {
        "type": "Point",
        "coordinates": [
          120.244818,
          22.788015
        ]
      },
      "properties": {
        "routeId": "kaohsiung-keh-6672-88174e",
        "city": "kaohsiung",
        "route_name": "KEH-6672",
        "car_seq": "KEH-6672",
        "arrival_time": "2008",
        "departure_time": "2011",
        "district": "彌陀區",
        "village": "鹽埕里",
        "location": "鹽埕中路40號",
        "type": "定點",
        "collection_type": "garbage"
      }
    }
  ]
}