{
  "type": "FeatureCollection",
  "features": [
    {
      "type": "Feature",
      "geometry": {
        "type": "Point",
        "coordinates": [
          120.337284,
          22.610937
        ]
      },
      "properties": {
        "routeId": "kaohsiung-752-t7-78d3e2",
        "city": "kaohsiung",
        "route_name": "752-T7",
        "car_seq": "752-T7",
        "arrival_time": "1645",
        "departure_time": "1646",
        "district": "鳳山區",
        "village": "武漢里",
        "location": "武營路233號",
        "type": "定點",
        "collection_type": "garbage"
      }
    },
    {
      "type": "Feature",
      "geometry": {
        "type": "Point",
        "coordinates": [
          120.337318,
          22.610392
        ]
      },
      "properties": {
        "routeId": "kaohsiung-752-t7-78d3e2",
        "city": "kaohsiung",
        "route_name": "752-T7",
        "car_seq": "752-T7",
        "arrival_time": "1646",
        "departure_time": "1647",
        "district": "鳳山區",
        "village": "武漢里",
        "location": "武營路209號﹝北極殿﹞",
        "type": "定點",
        "collection_type": "garbage"
      }
    },
    {
      "type": "Feature",
      "geometry": {
        "type": "Point",
        "coordinates": [
          120.336142,
          22.610519
        ]
      },
      "properties": {
        "routeId": "kaohsiung-752-t7-78d3e2",
        "city": "kaohsiung",
        "route_name": "752-T7",
        "car_seq": "752-T7",
        "arrival_time": "1649",
        "departure_time": "1650",
        "district": "鳳山區",
        "village": "武漢里",
        "location": "崗山北街78巷22號",
        "type": "定點",
        "collection_type": "garbage"
      }
    },
    {
      "type": "Feature",
      "geometry": {
        "type": "Point",
        "coordinates": [
          120.335406,
          22.610199
        ]
      },
      "properties": {
        "routeId": "kaohsiung-752-t7-78d3e2",
        "city": "kaohsiung",
        "route_name": "752-T7",
        "car_seq": "752-T7",
        "arrival_time": "1652",
        "departure_time": "1653",
        "district": "鳳山區",
        "village": "武漢里",
        "location": "新甲路1號",
        "type": "定點",
        "collection_type": "garbage"
      }
    },
    {
      "type": "Feature",
      "geometry": {
        "type": "Point",
        "coordinates": [
          120.338188,
          22.607064
        ]
      },
      "properties": {
        "routeId": "kaohsiung-752-t7-78d3e2",
        "city": "kaohsiung",
        "route_name": "752-T7",
        "car_seq": "752-T7",
        "arrival_time": "1655",
        "departure_time": "1657",
        "district": "鳳山區",
        "village": "新武里",
        "location": "武營路52巷8號",
        "type": "定點",
        "collection_type": "garbage"
      }
    },
    {
      "type": "Feature",
      "geometry": {
        "type": "Point",
        "coordinates": [
          120.338724,
          22.607116
        ]
      },
      "properties": {
        "routeId": "kaohsiung-752-t7-78d3e2",
        "city": "kaohsiung",
        "route_name": "752-T7",
        "car_seq": "752-T7",
        "arrival_time": "1657",
        "departure_time": "1659",
        "district": "鳳山區",
        "village": "新武里",
        "location": "武營路52巷36號",
        "type": "定點",
        "collection_type": "garbage"
      }
    },
    {
      "type": "Feature",
      "geometry": {
        "type": "Point",
        "coordinates": [
          120.338982,
          22.606711
        ]
      },
      "properties": {
        "routeId": "kaohsiung-752-t7-78d3e2",
        "city": "kaohsiung",
        "route_name": "752-T7",
        "car_seq": "752-T7",
        "arrival_time": "1701",
        "departure_time": "1703",
        "district": "鳳山區",
        "village": "新武里",
        "location": "瑞隆東路268巷13號",
        "type": "定點",
        "collection_type": "garbage"
      }
    },
    {
      "type": "Feature",
      "geometry": {
        "type": "Point",
        "coordinates": [
          120.339598,
          22.607184
        ]
      },
      "properties": {
        "routeId": "kaohsiung-752-t7-78d3e2",
        "city": "kaohsiung",
        "route_name": "752-T7",
        "car_seq": "752-T7",
        "arrival_time": "1709",
        "departure_time": "1711",
        "district": "鳳山區",
        "village": "新武里",
        "location": "武營路52巷72號",
        "type": "定點",
        "collection_type": "garbage"
      }
    },
    {
      "type": "Feature",
      "geometry": {
        "type": "Point",
        "coordinates": [
          120.34001,
          22.607218
        ]
      },
      "properties": {
        "routeId": "kaohsiung-752-t7-78d3e2",
        "city": "kaohsiung",
        "route_name": "752-T7",
        "car_seq": "752-T7",
        "arrival_time": "1711",
        "departure_time": "1713",
        "district": "鳳山區",
        "village": "新武里",
        "location": "武營路52巷92號﹝長谷如意大樓﹞",
        "type": "定點",
        "collection_type": "garbage"
      }
    },
    {
      "type": "Feature",
      "geometry": {
        "type": "Point",
        "coordinates": [
          120.339159,
          22.607979
        ]
      },
      "properties": {
        "routeId": "kaohsiung-752-t7-78d3e2",
        "city": "kaohsiung",
        "route_name": "752-T7",
        "car_seq": "752-T7",
        "arrival_time": "1713",
        "departure_time": "1714",
        "district": "鳳山區",
        "village": "新武里",
        "location": "武營路84巷33號",
        "type": "定點",
        "collection_type": "garbage"
      }
    },
    {
      "type": "Feature",
      "geometry": {
        "type": "Point",
        "coordinates": [
          120.338631,
          22.60778
        ]
      },
      "properties": {
        "routeId": "kaohsiung-752-t7-78d3e2",
        "city": "kaohsiung",
        "route_name": "752-T7",
        "car_seq": "752-T7",
        "arrival_time": "1714",
        "departure_time": "1715",
        "district": "鳳山區",
        "village": "新武里",
        "location": "武營路84巷22號",
        "type": "定點",
        "collection_type": "garbage"
      }
    },
    {
      "type": "Feature",
      "geometry": {
        "type": "Point",
        "coordinates": [
          120.338157,
          22.607949
        ]
      },
      "properties": {
        "routeId": "kaohsiung-752-t7-78d3e2",
        "city": "kaohsiung",
        "route_name": "752-T7",
        "car_seq": "752-T7",
        "arrival_time": "1715",
        "departure_time": "1716",
        "district": "鳳山區",
        "village": "新武里",
        "location": "武營路84巷3號",
        "type": "定點",
        "collection_type": "garbage"
      }
    },
    {
      "type": "Feature",
      "geometry": {
        "type": "Point",
        "coordinates": [
          120.338682,
          22.608505
        ]
      },
      "properties": {
        "routeId": "kaohsiung-752-t7-78d3e2",
        "city": "kaohsiung",
        "route_name": "752-T7",
        "car_seq": "752-T7",
        "arrival_time": "1717",
        "departure_time": "1718",
        "district": "鳳山區",
        "village": "新武里",
        "location": "武營路106巷31號",
        "type": "定點",
        "collection_type": "garbage"
      }
    },
    {
      "type": "Feature",
      "geometry": {
        "type": "Point",
        "coordinates": [
          120.339298,
          22.608331
        ]
      },
      "properties": {
        "routeId": "kaohsiung-752-t7-78d3e2",
        "city": "kaohsiung",
        "route_name": "752-T7",
        "car_seq": "752-T7",
        "arrival_time": "1718",
        "departure_time": "1719",
        "district": "鳳山區",
        "village": "新武里",
        "location": "武營路106巷42號",
        "type": "定點",
        "collection_type": "garbage"
      }
    },
    {
      "type": "Feature",
      "geometry": {
        "type": "Point",
        "coordinates": [
          120.339236,
          22.608829
        ]
      },
      "properties": {
        "routeId": "kaohsiung-752-t7-78d3e2",
        "city": "kaohsiung",
        "route_name": "752-T7",
        "car_seq": "752-T7",
        "arrival_time": "1719",
        "departure_time": "1720",
        "district": "鳳山區",
        "village": "新武里",
        "location": "武營路106巷73弄11號",
        "type": "定點",
        "collection_type": "garbage"
      }
    },
    {
      "type": "Feature",
      "geometry": {
        "type": "Point",
        "coordinates": [
          120.338773,
          22.608905
        ]
      },
      "properties": {
        "routeId": "kaohsiung-752-t7-78d3e2",
        "city": "kaohsiung",
        "route_name": "752-T7",
        "car_seq": "752-T7",
        "arrival_time": "1720",
        "departure_time": "1721",
        "district": "鳳山區",
        "village": "新武里",
        "location": "武營路134巷38號",
        "type": "定點",
        "collection_type": "garbage"
      }
    },
    {
      "type": "Feature",
      "geometry": {
        "type": "Point",
        "coordinates": [
          120.338083,
          22.608836
        ]
      },
      "properties": {
        "routeId": "kaohsiung-752-t7-78d3e2",
        "city": "kaohsiung",
        "route_name": "752-T7",
        "car_seq": "752-T7",
        "arrival_time": "1721",
        "departure_time": "1722",
        "district": "鳳山區",
        "village": "新武里",
        "location": "武營路134巷8號",
        "type": "定點",
        "collection_type": "garbage"
      }
    },
    {
      "type": "Feature",
      "geometry": {
        "type": "Point",
        "coordinates": [
          120.337841,
          22.609608
        ]
      },
      "properties": {
        "routeId": "kaohsiung-752-t7-78d3e2",
        "city": "kaohsiung",
        "route_name": "752-T7",
        "car_seq": "752-T7",
        "arrival_time": "1722",
        "departure_time": "1723",
        "district": "鳳山區",
        "village": "新武里",
        "location": "武營路162巷7號",
        "type": "定點",
        "collection_type": "garbage"
      }
    },
    {
      "type": "Feature",
      "geometry": {
        "type": "Point",
        "coordinates": [
          120.337698,
          22.610029
        ]
      },
      "properties": {
        "routeId": "kaohsiung-752-t7-78d3e2",
        "city": "kaohsiung",
        "route_name": "752-T7",
        "car_seq": "752-T7",
        "arrival_time": "1723",
        "departure_time": "1724",
        "district": "鳳山區",
        "village": "新武里",
        "location": "武營路182號",
        "type": "定點",
        "collection_type": "garbage"
      }
    },
    {
      "type": "Feature",
      "geometry": {
        "type": "Point",
        "coordinates": [
          120.337982,
          22.610341
        ]
      },
      "properties": {
        "routeId": "kaohsiung-752-t7-78d3e2",
        "city": "kaohsiung",
        "route_name": "752-T7",
        "car_seq": "752-T7",
        "arrival_time": "1725",
        "departure_time": "1727",
        "district": "鳳山區",
        "village": "武漢里",
        "location": "崗山北街27號",
        "type": "定點",
        "collection_type": "garbage"
      }
    },
    {
      "type": "Feature",
      "geometry": {
        "type": "Point",
        "coordinates": [
          120.349318,
          22.60038
        ]
      },
      "properties": {
        "routeId": "kaohsiung-752-t7-78d3e2",
        "city": "kaohsiung",
        "route_name": "752-T7",
        "car_seq": "752-T7",
        "arrival_time": "1735",
        "departure_time": "1736",
        "district": "鳳山區",
        "village": "中崙里",
        "location": "中崙一路496巷31號",
        "type": "定點",
        "collection_type": "garbage"
      }
    },
    {
      "type": "Feature",
      "geometry": {
        "type": "Point",
        "coordinates": [
          120.349943,
          22.601358
        ]
      },
      "properties": {
        "routeId": "kaohsiung-752-t7-78d3e2",
        "city": "kaohsiung",
        "route_name": "752-T7",
        "car_seq": "752-T7",
        "arrival_time": "1736",
        "departure_time": "1737",
        "district": "鳳山區",
        "village": "中崙里",
        "location": "中崙路1之3號",
        "type": "定點",
        "collection_type": "garbage"
      }
    },
    {
      "type": "Feature",
      "geometry": {
        "type": "Point",
        "coordinates": [
          120.335158,
          22.610149
        ]
      },
      "properties": {
        "routeId": "kaohsiung-752-t7-78d3e2",
        "city": "kaohsiung",
        "route_name": "752-T7",
        "car_seq": "752-T7",
        "arrival_time": "1910",
        "departure_time": "1912",
        "district": "鳳山區",
        "village": "武漢里",
        "location": "崗山北街108號",
        "type": "定點",
        "collection_type": "garbage"
      }
    },
    {
      "type": "Feature",
      "geometry": {
        "type": "Point",
        "coordinates": [
          120.334861,
          22.61016
        ]
      },
      "properties": {
        "routeId": "kaohsiung-752-t7-78d3e2",
        "city": "kaohsiung",
        "route_name": "752-T7",
        "car_seq": "752-T7",
        "arrival_time": "1912",
        "departure_time": "1913",
        "district": "鳳山區",
        "village": "武漢里",
        "location": "崗山北街122號",
        "type": "定點",
        "collection_type": "garbage"
      }
    },
    {
      "type": "Feature",
      "geometry": {
        "type": "Point",
        "coordinates": [
          120.334571,
          22.610161
        ]
      },
      "properties": {
        "routeId": "kaohsiung-752-t7-78d3e2",
        "city": "kaohsiung",
        "route_name": "752-T7",
        "car_seq": "752-T7",
        "arrival_time": "1913",
        "departure_time": "1914",
        "district": "鳳山區",
        "village": "武漢里",
        "location": "崗山北街136號",
        "type": "定點",
        "collection_type": "garbage"
      }
    },
    {
      "type": "Feature",
      "geometry": {
        "type": "Point",
        "coordinates": [
          120.334345,
          22.610157
        ]
      },
      "properties": {
        "routeId": "kaohsiung-752-t7-78d3e2",
        "city": "kaohsiung",
        "route_name": "752-T7",
        "car_seq": "752-T7",
        "arrival_time": "1914",
        "departure_time": "1915",
        "district": "鳳山區",
        "village": "武漢里",
        "location": "崗山北街146號",
        "type": "定點",
        "collection_type": "garbage"
      }
    },
    {
      "type": "Feature",
      "geometry": {
        "type": "Point",
        "coordinates": [
          120.334003,
          22.610158
        ]
      },
      "properties": {
        "routeId": "kaohsiung-752-t7-78d3e2",
        "city": "kaohsiung",
        "route_name": "752-T7",
        "car_seq": "752-T7",
        "arrival_time": "1915",
        "departure_time": "1916",
        "district": "鳳山區",
        "village": "武漢里",
        "location": "崗山北街162號",
        "type": "定點",
        "collection_type": "garbage"
      }
    },
    {
      "type": "Feature",
      "geometry": {
        "type": "Point",
        "coordinates": [
          120.333712,
          22.61016
        ]
      },
      "properties": {
        "routeId": "kaohsiung-752-t7-78d3e2",
        "city": "kaohsiung",
        "route_name": "752-T7",
        "car_seq": "752-T7",
        "arrival_time": "1916",
        "departure_time": "1917",
        "district": "鳳山區",
        "village": "武漢里",
        "location": "崗山北街176號",
        "type": "定點",
        "collection_type": "garbage"
      }
    },
    {
      "type": "Feature",
      "geometry": {
        "type": "Point",
        "coordinates": [
          120.333344,
          22.610144
        ]
      },
      "properties": {
        "routeId": "kaohsiung-752-t7-78d3e2",
        "city": "kaohsiung",
        "route_name": "752-T7",
        "car_seq": "752-T7",
        "arrival_time": "1917",
        "departure_time": "1918",
        "district": "鳳山區",
        "village": "武漢里",
        "location": "崗山北街190號",
        "type": "定點",
        "collection_type": "garbage"
      }
    },
    {
      "type": "Feature",
      "geometry": {
        "type": "Point",
        "coordinates": [
          120.333254,
          22.610178
        ]
      },
      "properties": {
        "routeId": "kaohsiung-752-t7-78d3e2",
        "city": "kaohsiung",
        "route_name": "752-T7",
        "car_seq": "752-T7",
        "arrival_time": "1918",
        "departure_time": "1919",
        "district": "鳳山區",
        "village": "武漢里",
        "location": "崗山北街198號",
        "type": "定點",
        "collection_type": "garbage"
      }
    },
    {
      "type": "Feature",
      "geometry": {
        "type": "Point",
        "coordinates": [
          120.332764,
          22.610491
        ]
      },
      "properties": {
        "routeId": "kaohsiung-752-t7-78d3e2",
        "city": "kaohsiung",
        "route_name": "752-T7",
        "car_seq": "752-T7",
        "arrival_time": "1919",
        "departure_time": "1920",
        "district": "鳳山區",
        "village": "武漢里",
        "location": "武慶二路14之1號﹝益群中醫﹞",
        "type": "定點",
        "collection_type": "garbage"
      }
    },
    {
      "type": "Feature",
      "geometry": {
        "type": "Point",
        "coordinates": [
          120.333097,
          22.610835
        ]
      },
      "properties": {
        "routeId": "kaohsiung-752-t7-78d3e2",
        "city": "kaohsiung",
        "route_name": "752-T7",
        "car_seq": "752-T7",
        "arrival_time": "1920",
        "departure_time": "1923",
        "district": "鳳山區",
        "village": "武漢里",
        "location": "武慶二路34號",
        "type": "定點",
        "collection_type": "garbage"
      }
    },
    {
      "type": "Feature",
      "geometry": {
        "type": "Point",
        "coordinates": [
          120.333267,
          22.61168
        ]
      },
      "properties": {
        "routeId": "kaohsiung-752-t7-78d3e2",
        "city": "kaohsiung",
        "route_name": "752-T7",
        "car_seq": "752-T7",
        "arrival_time": "1925",
        "departure_time": "1926",
        "district": "鳳山區",
        "village": "武漢里",
        "location": "武慶二路80巷4號",
        "type": "定點",
        "collection_type": "garbage"
      }
    },
    {
      "type": "Feature",
      "geometry": {
        "type": "Point",
        "coordinates": [
          120.333573,
          22.611888
        ]
      },
      "properties": {
        "routeId": "kaohsiung-752-t7-78d3e2",
        "city": "kaohsiung",
        "route_name": "752-T7",
        "car_seq": "752-T7",
        "arrival_time": "1926",
        "departure_time": "1927",
        "district": "鳳山區",
        "village": "武漢里",
        "location": "武慶二路80巷19號",
        "type": "定點",
        "collection_type": "garbage"
      }
    },
    {
      "type": "Feature",
      "geometry": {
        "type": "Point",
        "coordinates": [
          120.334608,
          22.611775
        ]
      },
      "properties": {
        "routeId": "kaohsiung-752-t7-78d3e2",
        "city": "kaohsiung",
        "route_name": "752-T7",
        "car_seq": "752-T7",
        "arrival_time": "1929",
        "departure_time": "1930",
        "district": "鳳山區",
        "village": "武漢里",
        "location": "武慶二路80巷42號",
        "type": "定點",
        "collection_type": "garbage"
      }
    },
    {
      "type": "Feature",
      "geometry": {
        "type": "Point",
        "coordinates": [
          120.334674,
          22.611564
        ]
      },
      "properties": {
        "routeId": "kaohsiung-752-t7-78d3e2",
        "city": "kaohsiung",
        "route_name": "752-T7",
        "car_seq": "752-T7",
        "arrival_time": "1930",
        "departure_time": "1932",
        "district": "鳳山區",
        "village": "武漢里",
        "location": "武慶二路56巷43弄3號",
        "type": "定點",
        "collection_type": "garbage"
      }
    },
    {
      "type": "Feature",
      "geometry": {
        "type": "Point",
        "coordinates": [
          120.334637,
          22.611224
        ]
      },
      "properties": {
        "routeId": "kaohsiung-752-t7-78d3e2",
        "city": "kaohsiung",
        "route_name": "752-T7",
        "car_seq": "752-T7",
        "arrival_time": "1932",
        "departure_time": "1937",
        "district": "鳳山區",
        "village": "武漢里",
        "location": "武慶二路56巷36號（親家大樓）",
        "type": "定點",
        "collection_type": "garbage"
      }
    },
    {
      "type": "Feature",
      "geometry": {
        "type": "Point",
        "coordinates": [
          120.334183,
          22.611415
        ]
      },
      "properties": {
        "routeId": "kaohsiung-752-t7-78d3e2",
        "city": "kaohsiung",
        "route_name": "752-T7",
        "car_seq": "752-T7",
        "arrival_time": "1937",
        "departure_time": "1938",
        "district": "鳳山區",
        "village": "武漢里",
        "location": "武慶二路56巷19號",
        "type": "定點",
        "collection_type": "garbage"
      }
    },
    {
      "type": "Feature",
      "geometry": {
        "type": "Point",
        "coordinates": [
          120.33374,
          22.61109
        ]
      },
      "properties": {
        "routeId": "kaohsiung-752-t7-78d3e2",
        "city": "kaohsiung",
        "route_name": "752-T7",
        "car_seq": "752-T7",
        "arrival_time": "1938",
        "departure_time": "1942",
        "district": "鳳山區",
        "village": "武漢里",
        "location": "武慶二路56巷8號",
        "type": "定點",
        "collection_type": "garbage"
      }
    },
    {
      "type": "Feature",
      "geometry": {
        "type": "Point",
        "coordinates": [
          120.333181,
          22.611163
        ]
      },
      "properties": {
        "routeId": "kaohsiung-752-t7-78d3e2",
        "city": "kaohsiung",
        "route_name": "752-T7",
        "car_seq": "752-T7",
        "arrival_time": "1942",
        "departure_time": "1956",
        "district": "鳳山區",
        "village": "武漢里",
        "location": "武慶二路56巷2號（康庭大樓）",
        "type": "定點",
        "collection_type": "garbage"
      }
    },
    {
      "type": "Feature",
      "geometry": {
        "type": "Point",
        "coordinates": [
          120.332982,
          22.61211
        ]
      },
      "properties": {
        "routeId": "kaohsiung-752-t7-78d3e2",
        "city": "kaohsiung",
        "route_name": "752-T7",
        "car_seq": "752-T7",
        "arrival_time": "1957",
        "departure_time": "1957",
        "district": "鳳山區",
        "village": "武漢里",
        "location": "武慶二路98號",
        "type": "定點",
        "collection_type": "garbage"
      }
    },
    {
      "type": "Feature",
      "geometry": {
        "type": "Point",
        "coordinates": [
          120.335229,
          22.611946
        ]
      },
      "properties": {
        "routeId": "kaohsiung-752-t7-78d3e2",
        "city": "kaohsiung",
        "route_name": "752-T7",
        "car_seq": "752-T7",
        "arrival_time": "1959",
        "departure_time": "2002",
        "district": "鳳山區",
        "village": "武漢里",
        "location": "新甲路93號（福人居大樓）",
        "type": "定點",
        "collection_type": "garbage"
      }
    },
    {
      "type": "Feature",
      "geometry": {
        "type": "Point",
        "coordinates": [
          120.335303,
          22.611317
        ]
      },
      "properties": {
        "routeId": "kaohsiung-752-t7-78d3e2",
        "city": "kaohsiung",
        "route_name": "752-T7",
        "car_seq": "752-T7",
        "arrival_time": "2002",
        "departure_time": "2004",
        "district": "鳳山區",
        "village": "武漢里",
        "location": "新甲路55號（萬代福大樓）",
        "type": "定點",
        "collection_type": "garbage"
      }
    },
    {
      "type": "Feature",
      "geometry": {
        "type": "Point",
        "coordinates": [
          120.336344,
          22.6107
        ]
      },
      "properties": {
        "routeId": "kaohsiung-752-t7-78d3e2",
        "city": "kaohsiung",
        "route_name": "752-T7",
        "car_seq": "752-T7",
        "arrival_time": "2004",
        "departure_time": "2005",
        "district": "鳳山區",
        "village": "武漢里",
        "location": "武營路239巷23號﹝武漢里活動中心﹞",
        "type": "定點",
        "collection_type": "garbage"
      }
    },
    {
      "type": "Feature",
      "geometry": {
        "type": "Point",
        "coordinates": [
          120.337075,
          22.610973
        ]
      },
      "properties": {
        "routeId": "kaohsiung-752-t7-78d3e2",
        "city": "kaohsiung",
        "route_name": "752-T7",
        "car_seq": "752-T7",
        "arrival_time": "2005",
        "departure_time": "2007",
        "district": "鳳山區",
        "village": "武漢里",
        "location": "武營路239巷3號",
        "type": "定點",
        "collection_type": "garbage"
      }
    },
    {
      "type": "Feature",
      "geometry": {
        "type": "Point",
        "coordinates": [
          120.336815,
          22.611699
        ]
      },
      "properties": {
        "routeId": "kaohsiung-752-t7-78d3e2",
        "city": "kaohsiung",
        "route_name": "752-T7",
        "car_seq": "752-T7",
        "arrival_time": "2009",
        "departure_time": "2010",
        "district": "鳳山區",
        "village": "武漢里",
        "location": "武營路255巷14號",
        "type": "定點",
        "collection_type": "garbage"
      }
    },
    {
      "type": "Feature",
      "geometry": {
        "type": "Point",
        "coordinates": [
          120.336488,
          22.611816
        ]
      },
      "properties": {
        "routeId": "kaohsiung-752-t7-78d3e2",
        "city": "kaohsiung",
        "route_name": "752-T7",
        "car_seq": "752-T7",
        "arrival_time": "2012",
        "departure_time": "2013",
        "district": "鳳山區",
        "village": "武漢里",
        "location": "武營路273巷29號",
        "type": "定點",
        "collection_type": "garbage"
      }
    },
    {
      "type": "Feature",
      "geometry": {
        "type": "Point",
        "coordinates": [
          120.337142,
          22.611915
        ]
      },
      "properties": {
        "routeId": "kaohsiung-752-t7-78d3e2",
        "city": "kaohsiung",
        "route_name": "752-T7",
        "car_seq": "752-T7",
        "arrival_time": "2013",
        "departure_time": "2015",
        "district": "鳳山區",
        "village": "武漢里",
        "location": "武營路271號",
        "type": "定點",
        "collection_type": "garbage"
      }
    },
    {
      "type": "Feature",
      "geometry": {
        "type": "Point",
        "coordinates": [
          120.338756,
          22.60535
        ]
      },
      "properties": {
        "routeId": "kaohsiung-752-t7-78d3e2",
        "city": "kaohsiung",
        "route_name": "752-T7",
        "car_seq": "752-T7",
        "arrival_time": "2017",
        "departure_time": "2020",
        "district": "鳳山區",
        "village": "瑞隆里",
        "location": "保泰路540號﹝瑞崗公寓大廈﹞",
        "type": "定點",
        "collection_type": "garbage"
      }
    }
  ]
}