{
  "type": "FeatureCollection",
  "features": [
    {
      "type": "Feature",
      "geometry": {
        "type": "Point",
        "coordinates": [
          121.4154253,
          25.05076194
        ]
      },
      "properties": {
        "routeId": "new-taipei-243005",
        "city": "new-taipei",
        "lineid": "243005",
        "linename": "路線5下午",
        "rank": "1",
        "village": "大科里",
        "name": "南亞（南林路）"
      }
    },
    {
      "type": "Feature",
      "geometry": {
        "type": "Point",
        "coordinates": [
          121.42244286,
          25.035944788
        ]
      },
      "properties": {
        "routeId": "new-taipei-243005",
        "city": "new-taipei",
        "lineid": "243005",
        "linename": "路線5下午",
        "rank": "2",
        "village": "貴和里",
        "name": "慈光26村"
      }
    },
    {
      "type": "Feature",
      "geometry": {
        "type": "Point",
        "coordinates": [
          121.4221614,
          25.03510477
        ]
      },
      "properties": {
        "routeId": "new-taipei-243005",
        "city": "new-taipei",
        "lineid": "243005",
        "linename": "路線5下午",
        "rank": "3",
        "village": "貴和里",
        "name": "明志路三段351巷6號"
      }
    },
    {
      "type": "Feature",
      "geometry": {
        "type": "Point",
        "coordinates": [
          121.4228812,
          25.03477669
        ]
      },
      "properties": {
        "routeId": "new-taipei-243005",
        "city": "new-taipei",
        "lineid": "243005",
        "linename": "路線5下午",
        "rank": "4",
        "village": "貴和里",
        "name": "明志路三段351巷5弄口"
      }
    },
    {
      "type": "Feature",
      "geometry": {
        "type": "Point",
        "coordinates": [
          121.4238934,
          25.0364271
        ]
      },
      "properties": {
        "routeId": "new-taipei-243005",
        "city": "new-taipei",
        "lineid": "243005",
        "linename": "路線5下午",
        "rank": "5",
        "village": "貴和里",
        "name": "漢口街22巷口"
      }
    },
    {
      "type": "Feature",
      "geometry": {
        "type": "Point",
        "coordinates": [
          121.4236188,
          25.03657109
        ]
      },
      "properties": {
        "routeId": "new-taipei-243005",
        "city": "new-taipei",
        "lineid": "243005",
        "linename": "路線5下午",
        "rank": "6",
        "village": "貴和里",
        "name": "漢口街9巷口"
      }
    },
    {
      "type": "Feature",
      "geometry": {
        "type": "Point",
        "coordinates": [
          121.424274,
          25.03760557
        ]
      },
      "properties": {
        "routeId": "new-taipei-243005",
        "city": "new-taipei",
        "lineid": "243005",
        "linename": "路線5下午",
        "rank": "7",
        "village": "貴和里",
        "name": "明志路三段231巷4弄口"
      }
    },
    {
      "type": "Feature",
      "geometry": {
        "type": "Point",
        "coordinates": [
          121.4245949,
          25.03792727
        ]
      },
      "properties": {
        "routeId": "new-taipei-243005",
        "city": "new-taipei",
        "lineid": "243005",
        "linename": "路線5下午",
        "rank": "8",
        "village": "貴和里",
        "name": "台麗街16巷3號"
      }
    },
    {
      "type": "Feature",
      "geometry": {
        "type": "Point",
        "coordinates": [
          121.4245813,
          25.03819628
        ]
      },
      "properties": {
        "routeId": "new-taipei-243005",
        "city": "new-taipei",
        "lineid": "243005",
        "linename": "路線5下午",
        "rank": "9",
        "village": "貴賢里",
        "name": "台麗街13巷口"
      }
    },
    {
      "type": "Feature",
      "geometry": {
        "type": "Point",
        "coordinates": [
          121.42481092,
          25.039456608348
        ]
      },
      "properties": {
        "routeId": "new-taipei-243005",
        "city": "new-taipei",
        "lineid": "243005",
        "linename": "路線5下午",
        "rank": "10",
        "village": "貴賢里",
        "name": "明志路三段163巷內"
      }
    },
    {
      "type": "Feature",
      "geometry": {
        "type": "Point",
        "coordinates": [
          121.42532696,
          25.0399368653771
        ]
      },
      "properties": {
        "routeId": "new-taipei-243005",
        "city": "new-taipei",
        "lineid": "243005",
        "linename": "路線5下午",
        "rank": "11",
        "village": "貴賢里",
        "name": "明志路三段145巷2弄口"
      }
    },
    {
      "type": "Feature",
      "geometry": {
        "type": "Point",
        "coordinates": [
          121.4265601,
          25.03937421
        ]
      },
      "properties": {
        "routeId": "new-taipei-243005",
        "city": "new-taipei",
        "lineid": "243005",
        "linename": "路線5下午",
        "rank": "12",
        "village": "貴賢里",
        "name": "明志路三段145巷36弄口"
      }
    },
    {
      "type": "Feature",
      "geometry": {
        "type": "Point",
        "coordinates": [
          121.4254376,
          25.04004531
        ]
      },
      "properties": {
        "routeId": "new-taipei-243005",
        "city": "new-taipei",
        "lineid": "243005",
        "linename": "路線5下午",
        "rank": "13",
        "village": "貴賢里",
        "name": "明志路3段145巷5弄內"
      }
    },
    {
      "type": "Feature",
      "geometry": {
        "type": "Point",
        "coordinates": [
          121.4259546,
          25.04135331
        ]
      },
      "properties": {
        "routeId": "new-taipei-243005",
        "city": "new-taipei",
        "lineid": "243005",
        "linename": "路線5下午",
        "rank": "14",
        "village": "貴賢里",
        "name": "貴子路36巷3弄口"
      }
    },
    {
      "type": "Feature",
      "geometry": {
        "type": "Point",
        "coordinates": [
          121.42549205,
          25.0421694976369
        ]
      },
      "properties": {
        "routeId": "new-taipei-243005",
        "city": "new-taipei",
        "lineid": "243005",
        "linename": "路線5下午",
        "rank": "15",
        "village": "貴賢里",
        "name": "貴子路9巷內"
      }
    },
    {
      "type": "Feature",
      "geometry": {
        "type": "Point",
        "coordinates": [
          121.4255923,
          25.04342857
        ]
      },
      "properties": {
        "routeId": "new-taipei-243005",
        "city": "new-taipei",
        "lineid": "243005",
        "linename": "路線5下午",
        "rank": "16",
        "village": "新明里",
        "name": "民國街16巷口至明志路"
      }
    },
    {
      "type": "Feature",
      "geometry": {
        "type": "Point",
        "coordinates": [
          121.42379177553721,
          25.043644106017787
        ]
      },
      "properties": {
        "routeId": "new-taipei-243005",
        "city": "new-taipei",
        "lineid": "243005",
        "linename": "路線5下午",
        "rank": "17",
        "village": "明志里",
        "name": "應化街"
      }
    },
    {
      "type": "Feature",
      "geometry": {
        "type": "Point",
        "coordinates": [
          121.4232657,
          25.04256
        ]
      },
      "properties": {
        "routeId": "new-taipei-243005",
        "city": "new-taipei",
        "lineid": "243005",
        "linename": "路線5下午",
        "rank": "18",
        "village": "貴子里",
        "name": "明志路三段74巷28弄16號"
      }
    },
    {
      "type": "Feature",
      "geometry": {
        "type": "Point",
        "coordinates": [
          121.4238948,
          25.0417158825532
        ]
      },
      "properties": {
        "routeId": "new-taipei-243005",
        "city": "new-taipei",
        "lineid": "243005",
        "linename": "路線5下午",
        "rank": "19",
        "village": "貴子里",
        "name": "明志路三段74巷游泳池旁"
      }
    },
    {
      "type": "Feature",
      "geometry": {
        "type": "Point",
        "coordinates": [
          121.4266307,
          25.0446254
        ]
      },
      "properties": {
        "routeId": "new-taipei-243005",
        "city": "new-taipei",
        "lineid": "243005",
        "linename": "路線5下午",
        "rank": "20",
        "village": "新明里",
        "name": "新民路22巷口"
      }
    },
    {
      "type": "Feature",
      "geometry": {
        "type": "Point",
        "coordinates": [
          121.42737504,
          25.0442165432827
        ]
      },
      "properties": {
        "routeId": "new-taipei-243005",
        "city": "new-taipei",
        "lineid": "243005",
        "linename": "路線5下午",
        "rank": "21",
        "village": "新明里",
        "name": "新民路與中央路5巷17弄交叉口"
      }
    }
  ]
}