{
  "type": "FeatureCollection",
  "features": [
    {
      "type": "Feature",
      "geometry": {
        "type": "Point",
        "coordinates": [
          121.460182,
          25.001852
        ]
      },
      "properties": {
        "routeId": "new-taipei-220055",
        "city": "new-taipei",
        "lineid": "220055",
        "linename": "A03路線晚上",
        "rank": "1",
        "village": "福星里",
        "name": "忠孝路28號"
      }
    },
    {
      "type": "Feature",
      "geometry": {
        "type": "Point",
        "coordinates": [
          121.460709,
          25.001934
        ]
      },
      "properties": {
        "routeId": "new-taipei-220055",
        "city": "new-taipei",
        "lineid": "220055",
        "linename": "A03路線晚上",
        "rank": "2",
        "village": "福星里",
        "name": "忠孝路48巷口"
      }
    },
    {
      "type": "Feature",
      "geometry": {
        "type": "Point",
        "coordinates": [
          121.461128,
          25.001999
        ]
      },
      "properties": {
        "routeId": "new-taipei-220055",
        "city": "new-taipei",
        "lineid": "220055",
        "linename": "A03路線晚上",
        "rank": "3",
        "village": "福星里",
        "name": "忠孝路64巷口"
      }
    },
    {
      "type": "Feature",
      "geometry": {
        "type": "Point",
        "coordinates": [
          121.461502,
          25.002056
        ]
      },
      "properties": {
        "routeId": "new-taipei-220055",
        "city": "new-taipei",
        "lineid": "220055",
        "linename": "A03路線晚上",
        "rank": "4",
        "village": "福星里",
        "name": "忠孝路80巷口"
      }
    },
    {
      "type": "Feature",
      "geometry": {
        "type": "Point",
        "coordinates": [
          121.462387,
          25.002195
        ]
      },
      "properties": {
        "routeId": "new-taipei-220055",
        "city": "new-taipei",
        "lineid": "220055",
        "linename": "A03路線晚上",
        "rank": "5",
        "village": "福星里",
        "name": "忠孝路110號"
      }
    },
    {
      "type": "Feature",
      "geometry": {
        "type": "Point",
        "coordinates": [
          121.4630453,
          25.00228506
        ]
      },
      "properties": {
        "routeId": "new-taipei-220055",
        "city": "new-taipei",
        "lineid": "220055",
        "linename": "A03路線晚上",
        "rank": "6",
        "village": "福星里",
        "name": "忠孝路120號"
      }
    },
    {
      "type": "Feature",
      "geometry": {
        "type": "Point",
        "coordinates": [
          121.463775376074,
          25.0024034534202
        ]
      },
      "properties": {
        "routeId": "new-taipei-220055",
        "city": "new-taipei",
        "lineid": "220055",
        "linename": "A03路線晚上",
        "rank": "7",
        "village": "廣德里",
        "name": "忠孝路142號"
      }
    },
    {
      "type": "Feature",
      "geometry": {
        "type": "Point",
        "coordinates": [
          121.46418,
          25.002472
        ]
      },
      "properties": {
        "routeId": "new-taipei-220055",
        "city": "new-taipei",
        "lineid": "220055",
        "linename": "A03路線晚上",
        "rank": "8",
        "village": "廣德里",
        "name": "忠孝路162號"
      }
    },
    {
      "type": "Feature",
      "geometry": {
        "type": "Point",
        "coordinates": [
          121.463859804893,
          25.0024565305697
        ]
      },
      "properties": {
        "routeId": "new-taipei-220055",
        "city": "new-taipei",
        "lineid": "220055",
        "linename": "A03路線晚上",
        "rank": "9",
        "village": "福德里",
        "name": "忠孝路167號"
      }
    },
    {
      "type": "Feature",
      "geometry": {
        "type": "Point",
        "coordinates": [
          121.463326,
          25.0023766237327
        ]
      },
      "properties": {
        "routeId": "new-taipei-220055",
        "city": "new-taipei",
        "lineid": "220055",
        "linename": "A03路線晚上",
        "rank": "10",
        "village": "福德里",
        "name": "忠孝路147號"
      }
    },
    {
      "type": "Feature",
      "geometry": {
        "type": "Point",
        "coordinates": [
          121.46308028282,
          25.0023335080117
        ]
      },
      "properties": {
        "routeId": "new-taipei-220055",
        "city": "new-taipei",
        "lineid": "220055",
        "linename": "A03路線晚上",
        "rank": "11",
        "village": "福星里",
        "name": "忠孝路125號"
      }
    },
    {
      "type": "Feature",
      "geometry": {
        "type": "Point",
        "coordinates": [
          121.462112107969,
          25.0021841768526
        ]
      },
      "properties": {
        "routeId": "new-taipei-220055",
        "city": "new-taipei",
        "lineid": "220055",
        "linename": "A03路線晚上",
        "rank": "12",
        "village": "福星里",
        "name": "忠孝路87號"
      }
    },
    {
      "type": "Feature",
      "geometry": {
        "type": "Point",
        "coordinates": [
          121.461138192625,
          25.0020399614174
        ]
      },
      "properties": {
        "routeId": "new-taipei-220055",
        "city": "new-taipei",
        "lineid": "220055",
        "linename": "A03路線晚上",
        "rank": "13",
        "village": "福星里",
        "name": "忠孝路39號"
      }
    },
    {
      "type": "Feature",
      "geometry": {
        "type": "Point",
        "coordinates": [
          121.460547906745,
          25.0019460771701
        ]
      },
      "properties": {
        "routeId": "new-taipei-220055",
        "city": "new-taipei",
        "lineid": "220055",
        "linename": "A03路線晚上",
        "rank": "14",
        "village": "福星里",
        "name": "忠孝路25號"
      }
    },
    {
      "type": "Feature",
      "geometry": {
        "type": "Point",
        "coordinates": [
          121.463256,
          25.01079775
        ]
      },
      "properties": {
        "routeId": "new-taipei-220055",
        "city": "new-taipei",
        "lineid": "220055",
        "linename": "A03路線晚上",
        "rank": "15",
        "village": "深丘里",
        "name": "中山路一段134號"
      }
    },
    {
      "type": "Feature",
      "geometry": {
        "type": "Point",
        "coordinates": [
          121.466721,
          25.011597
        ]
      },
      "properties": {
        "routeId": "new-taipei-220055",
        "city": "new-taipei",
        "lineid": "220055",
        "linename": "A03路線晚上",
        "rank": "16",
        "village": "深丘里",
        "name": "民安街14號"
      }
    },
    {
      "type": "Feature",
      "geometry": {
        "type": "Point",
        "coordinates": [
          121.4669664,
          25.0111887
        ]
      },
      "properties": {
        "routeId": "new-taipei-220055",
        "city": "new-taipei",
        "lineid": "220055",
        "linename": "A03路線晚上",
        "rank": "17",
        "village": "深丘里",
        "name": "民安街30號"
      }
    },
    {
      "type": "Feature",
      "geometry": {
        "type": "Point",
        "coordinates": [
          121.4664902,
          25.011147
        ]
      },
      "properties": {
        "routeId": "new-taipei-220055",
        "city": "new-taipei",
        "lineid": "220055",
        "linename": "A03路線晚上",
        "rank": "18",
        "village": "深丘里",
        "name": "中山路一段158巷29號"
      }
    },
    {
      "type": "Feature",
      "geometry": {
        "type": "Point",
        "coordinates": [
          121.4662814,
          25.0115288
        ]
      },
      "properties": {
        "routeId": "new-taipei-220055",
        "city": "new-taipei",
        "lineid": "220055",
        "linename": "A03路線晚上",
        "rank": "19",
        "village": "深丘里",
        "name": "中山路一段158巷13號"
      }
    },
    {
      "type": "Feature",
      "geometry": {
        "type": "Point",
        "coordinates": [
          121.466105,
          25.011873
        ]
      },
      "properties": {
        "routeId": "new-taipei-220055",
        "city": "new-taipei",
        "lineid": "220055",
        "linename": "A03路線晚上",
        "rank": "20",
        "village": "深丘里",
        "name": "中山路一段158巷3號"
      }
    },
    {
      "type": "Feature",
      "geometry": {
        "type": "Point",
        "coordinates": [
          121.464119,
          25.01012
        ]
      },
      "properties": {
        "routeId": "new-taipei-220055",
        "city": "new-taipei",
        "lineid": "220055",
        "linename": "A03路線晚上",
        "rank": "21",
        "village": "福丘里",
        "name": "新民街21號"
      }
    },
    {
      "type": "Feature",
      "geometry": {
        "type": "Point",
        "coordinates": [
          121.463951,
          25.009689
        ]
      },
      "properties": {
        "routeId": "new-taipei-220055",
        "city": "new-taipei",
        "lineid": "220055",
        "linename": "A03路線晚上",
        "rank": "22",
        "village": "福丘里",
        "name": "新民街9號"
      }
    },
    {
      "type": "Feature",
      "geometry": {
        "type": "Point",
        "coordinates": [
          121.463753,
          25.00976
        ]
      },
      "properties": {
        "routeId": "new-taipei-220055",
        "city": "new-taipei",
        "lineid": "220055",
        "linename": "A03路線晚上",
        "rank": "23",
        "village": "福丘里",
        "name": "新民街7巷1號"
      }
    },
    {
      "type": "Feature",
      "geometry": {
        "type": "Point",
        "coordinates": [
          121.463531,
          25.010218
        ]
      },
      "properties": {
        "routeId": "new-taipei-220055",
        "city": "new-taipei",
        "lineid": "220055",
        "linename": "A03路線晚上",
        "rank": "24",
        "village": "福丘里",
        "name": "新民街7巷13號"
      }
    },
    {
      "type": "Feature",
      "geometry": {
        "type": "Point",
        "coordinates": [
          121.463539,
          25.010422
        ]
      },
      "properties": {
        "routeId": "new-taipei-220055",
        "city": "new-taipei",
        "lineid": "220055",
        "linename": "A03路線晚上",
        "rank": "25",
        "village": "福丘里",
        "name": "新民街7巷23號"
      }
    },
    {
      "type": "Feature",
      "geometry": {
        "type": "Point",
        "coordinates": [
          121.463692,
          25.01049
        ]
      },
      "properties": {
        "routeId": "new-taipei-220055",
        "city": "new-taipei",
        "lineid": "220055",
        "linename": "A03路線晚上",
        "rank": "26",
        "village": "福丘里",
        "name": "新民街7巷29號"
      }
    },
    {
      "type": "Feature",
      "geometry": {
        "type": "Point",
        "coordinates": [
          121.46488,
          25.01039
        ]
      },
      "properties": {
        "routeId": "new-taipei-220055",
        "city": "new-taipei",
        "lineid": "220055",
        "linename": "A03路線晚上",
        "rank": "27",
        "village": "深丘里",
        "name": "新民街6巷6號"
      }
    },
    {
      "type": "Feature",
      "geometry": {
        "type": "Point",
        "coordinates": [
          121.4648072,
          25.0103002
        ]
      },
      "properties": {
        "routeId": "new-taipei-220055",
        "city": "new-taipei",
        "lineid": "220055",
        "linename": "A03路線晚上",
        "rank": "28",
        "village": "深丘里",
        "name": "新民街6巷14號"
      }
    },
    {
      "type": "Feature",
      "geometry": {
        "type": "Point",
        "coordinates": [
          121.46518,
          25.0099
        ]
      },
      "properties": {
        "routeId": "new-taipei-220055",
        "city": "new-taipei",
        "lineid": "220055",
        "linename": "A03路線晚上",
        "rank": "29",
        "village": "深丘里",
        "name": "新民街4巷21號"
      }
    },
    {
      "type": "Feature",
      "geometry": {
        "type": "Point",
        "coordinates": [
          121.4649,
          25.00999
        ]
      },
      "properties": {
        "routeId": "new-taipei-220055",
        "city": "new-taipei",
        "lineid": "220055",
        "linename": "A03路線晚上",
        "rank": "30",
        "village": "深丘里",
        "name": "停整點:新民街4巷17號"
      }
    },
    {
      "type": "Feature",
      "geometry": {
        "type": "Point",
        "coordinates": [
          121.464333,
          25.007254
        ]
      },
      "properties": {
        "routeId": "new-taipei-220055",
        "city": "new-taipei",
        "lineid": "220055",
        "linename": "A03路線晚上",
        "rank": "31",
        "village": "國泰里",
        "name": "館前東路156巷9號"
      }
    },
    {
      "type": "Feature",
      "geometry": {
        "type": "Point",
        "coordinates": [
          121.46418,
          25.006916
        ]
      },
      "properties": {
        "routeId": "new-taipei-220055",
        "city": "new-taipei",
        "lineid": "220055",
        "linename": "A03路線晚上",
        "rank": "32",
        "village": "國泰里",
        "name": "館前東路156巷21號"
      }
    },
    {
      "type": "Feature",
      "geometry": {
        "type": "Point",
        "coordinates": [
          121.464592,
          25.006731
        ]
      },
      "properties": {
        "routeId": "new-taipei-220055",
        "city": "new-taipei",
        "lineid": "220055",
        "linename": "A03路線晚上",
        "rank": "33",
        "village": "國泰里",
        "name": "館前東路156巷29號"
      }
    },
    {
      "type": "Feature",
      "geometry": {
        "type": "Point",
        "coordinates": [
          121.46431,
          25.006493
        ]
      },
      "properties": {
        "routeId": "new-taipei-220055",
        "city": "new-taipei",
        "lineid": "220055",
        "linename": "A03路線晚上",
        "rank": "34",
        "village": "國泰里",
        "name": "實踐路65巷17號"
      }
    },
    {
      "type": "Feature",
      "geometry": {
        "type": "Point",
        "coordinates": [
          121.46283,
          24.999681
        ]
      },
      "properties": {
        "routeId": "new-taipei-220055",
        "city": "new-taipei",
        "lineid": "220055",
        "linename": "A03路線晚上",
        "rank": "35",
        "village": "大豐里",
        "name": "重慶路278巷2號"
      }
    },
    {
      "type": "Feature",
      "geometry": {
        "type": "Point",
        "coordinates": [
          121.462456,
          24.999615
        ]
      },
      "properties": {
        "routeId": "new-taipei-220055",
        "city": "new-taipei",
        "lineid": "220055",
        "linename": "A03路線晚上",
        "rank": "36",
        "village": "大豐里",
        "name": "重慶路278巷12號"
      }
    },
    {
      "type": "Feature",
      "geometry": {
        "type": "Point",
        "coordinates": [
          121.462189,
          24.999508
        ]
      },
      "properties": {
        "routeId": "new-taipei-220055",
        "city": "new-taipei",
        "lineid": "220055",
        "linename": "A03路線晚上",
        "rank": "37",
        "village": "大豐里",
        "name": "重慶路290巷22弄27號"
      }
    },
    {
      "type": "Feature",
      "geometry": {
        "type": "Point",
        "coordinates": [
          121.46225,
          24.99916
        ]
      },
      "properties": {
        "routeId": "new-taipei-220055",
        "city": "new-taipei",
        "lineid": "220055",
        "linename": "A03路線晚上",
        "rank": "38",
        "village": "大豐里",
        "name": "重慶路290巷22弄4號"
      }
    },
    {
      "type": "Feature",
      "geometry": {
        "type": "Point",
        "coordinates": [
          121.46275,
          24.99892
        ]
      },
      "properties": {
        "routeId": "new-taipei-220055",
        "city": "new-taipei",
        "lineid": "220055",
        "linename": "A03路線晚上",
        "rank": "39",
        "village": "大豐里",
        "name": "重慶路290巷10號"
      }
    },
    {
      "type": "Feature",
      "geometry": {
        "type": "Point",
        "coordinates": [
          121.461311,
          24.99662
        ]
      },
      "properties": {
        "routeId": "new-taipei-220055",
        "city": "new-taipei",
        "lineid": "220055",
        "linename": "A03路線晚上",
        "rank": "40",
        "village": "重慶里",
        "name": "國慶路149巷2弄口"
      }
    },
    {
      "type": "Feature",
      "geometry": {
        "type": "Point",
        "coordinates": [
          121.461227,
          24.996962
        ]
      },
      "properties": {
        "routeId": "new-taipei-220055",
        "city": "new-taipei",
        "lineid": "220055",
        "linename": "A03路線晚上",
        "rank": "41",
        "village": "重慶里",
        "name": "國慶路149巷6弄口"
      }
    },
    {
      "type": "Feature",
      "geometry": {
        "type": "Point",
        "coordinates": [
          121.46078,
          24.9971
        ]
      },
      "properties": {
        "routeId": "new-taipei-220055",
        "city": "new-taipei",
        "lineid": "220055",
        "linename": "A03路線晚上",
        "rank": "42",
        "village": "重慶里",
        "name": "國慶路149巷13弄4號"
      }
    },
    {
      "type": "Feature",
      "geometry": {
        "type": "Point",
        "coordinates": [
          121.46049,
          24.99705
        ]
      },
      "properties": {
        "routeId": "new-taipei-220055",
        "city": "new-taipei",
        "lineid": "220055",
        "linename": "A03路線晚上",
        "rank": "43",
        "village": "重慶里",
        "name": "國慶路149巷13弄10號"
      }
    },
    {
      "type": "Feature",
      "geometry": {
        "type": "Point",
        "coordinates": [
          121.46053,
          24.99735
        ]
      },
      "properties": {
        "routeId": "new-taipei-220055",
        "city": "new-taipei",
        "lineid": "220055",
        "linename": "A03路線晚上",
        "rank": "44",
        "village": "重慶里",
        "name": "國慶路149巷21弄8號"
      }
    },
    {
      "type": "Feature",
      "geometry": {
        "type": "Point",
        "coordinates": [
          121.46091,
          24.99741
        ]
      },
      "properties": {
        "routeId": "new-taipei-220055",
        "city": "new-taipei",
        "lineid": "220055",
        "linename": "A03路線晚上",
        "rank": "45",
        "village": "重慶里",
        "name": "國慶路149巷21弄2號"
      }
    },
    {
      "type": "Feature",
      "geometry": {
        "type": "Point",
        "coordinates": [
          121.46073,
          24.99769
        ]
      },
      "properties": {
        "routeId": "new-taipei-220055",
        "city": "new-taipei",
        "lineid": "220055",
        "linename": "A03路線晚上",
        "rank": "46",
        "village": "重慶里",
        "name": "國慶路149巷29弄4號"
      }
    },
    {
      "type": "Feature",
      "geometry": {
        "type": "Point",
        "coordinates": [
          121.46027,
          24.9976
        ]
      },
      "properties": {
        "routeId": "new-taipei-220055",
        "city": "new-taipei",
        "lineid": "220055",
        "linename": "A03路線晚上",
        "rank": "47",
        "village": "重慶里",
        "name": "國慶路149巷29弄16號"
      }
    },
    {
      "type": "Feature",
      "geometry": {
        "type": "Point",
        "coordinates": [
          121.46184,
          24.997
        ]
      },
      "properties": {
        "routeId": "new-taipei-220055",
        "city": "new-taipei",
        "lineid": "220055",
        "linename": "A03路線晚上",
        "rank": "48",
        "village": "重慶里",
        "name": "國慶路149巷4弄16號"
      }
    },
    {
      "type": "Feature",
      "geometry": {
        "type": "Point",
        "coordinates": [
          121.461746,
          24.997787
        ]
      },
      "properties": {
        "routeId": "new-taipei-220055",
        "city": "new-taipei",
        "lineid": "220055",
        "linename": "A03路線晚上",
        "rank": "49",
        "village": "重慶里",
        "name": "國慶路167巷27號"
      }
    },
    {
      "type": "Feature",
      "geometry": {
        "type": "Point",
        "coordinates": [
          121.461021,
          24.998138
        ]
      },
      "properties": {
        "routeId": "new-taipei-220055",
        "city": "new-taipei",
        "lineid": "220055",
        "linename": "A03路線晚上",
        "rank": "50",
        "village": "重慶里",
        "name": "國慶路149巷38弄2號"
      }
    },
    {
      "type": "Feature",
      "geometry": {
        "type": "Point",
        "coordinates": [
          121.46078,
          24.99801
        ]
      },
      "properties": {
        "routeId": "new-taipei-220055",
        "city": "new-taipei",
        "lineid": "220055",
        "linename": "A03路線晚上",
        "rank": "51",
        "village": "重慶里",
        "name": "國慶路149巷37弄1號"
      }
    },
    {
      "type": "Feature",
      "geometry": {
        "type": "Point",
        "coordinates": [
          121.46031,
          24.99792
        ]
      },
      "properties": {
        "routeId": "new-taipei-220055",
        "city": "new-taipei",
        "lineid": "220055",
        "linename": "A03路線晚上",
        "rank": "52",
        "village": "重慶里",
        "name": "國慶路149巷37弄13號"
      }
    },
    {
      "type": "Feature",
      "geometry": {
        "type": "Point",
        "coordinates": [
          121.460083,
          24.998199
        ]
      },
      "properties": {
        "routeId": "new-taipei-220055",
        "city": "new-taipei",
        "lineid": "220055",
        "linename": "A03路線晚上",
        "rank": "53",
        "village": "仁愛里",
        "name": "仁愛路62巷17弄口"
      }
    },
    {
      "type": "Feature",
      "geometry": {
        "type": "Point",
        "coordinates": [
          121.459999,
          24.998529
        ]
      },
      "properties": {
        "routeId": "new-taipei-220055",
        "city": "new-taipei",
        "lineid": "220055",
        "linename": "A03路線晚上",
        "rank": "54",
        "village": "仁愛里",
        "name": "停整點:仁愛路62巷14弄口"
      }
    },
    {
      "type": "Feature",
      "geometry": {
        "type": "Point",
        "coordinates": [
          121.45985,
          24.99941
        ]
      },
      "properties": {
        "routeId": "new-taipei-220055",
        "city": "new-taipei",
        "lineid": "220055",
        "linename": "A03路線晚上",
        "rank": "55",
        "village": "仁愛里",
        "name": "仁愛路62巷口"
      }
    },
    {
      "type": "Feature",
      "geometry": {
        "type": "Point",
        "coordinates": [
          121.460541,
          24.999525
        ]
      },
      "properties": {
        "routeId": "new-taipei-220055",
        "city": "new-taipei",
        "lineid": "220055",
        "linename": "A03路線晚上",
        "rank": "56",
        "village": "仁愛里",
        "name": "仁愛路76巷口"
      }
    },
    {
      "type": "Feature",
      "geometry": {
        "type": "Point",
        "coordinates": [
          121.460564,
          24.999086
        ]
      },
      "properties": {
        "routeId": "new-taipei-220055",
        "city": "new-taipei",
        "lineid": "220055",
        "linename": "A03路線晚上",
        "rank": "57",
        "village": "仁愛里",
        "name": "仁愛路76巷10號"
      }
    },
    {
      "type": "Feature",
      "geometry": {
        "type": "Point",
        "coordinates": [
          121.4608,
          24.99861
        ]
      },
      "properties": {
        "routeId": "new-taipei-220055",
        "city": "new-taipei",
        "lineid": "220055",
        "linename": "A03路線晚上",
        "rank": "58",
        "village": "仁愛里",
        "name": "仁愛路62巷15弄24號"
      }
    },
    {
      "type": "Feature",
      "geometry": {
        "type": "Point",
        "coordinates": [
          121.46107,
          24.99896
        ]
      },
      "properties": {
        "routeId": "new-taipei-220055",
        "city": "new-taipei",
        "lineid": "220055",
        "linename": "A03路線晚上",
        "rank": "59",
        "village": "仁愛里",
        "name": "仁愛路86巷14號"
      }
    },
    {
      "type": "Feature",
      "geometry": {
        "type": "Point",
        "coordinates": [
          121.46103,
          24.99915
        ]
      },
      "properties": {
        "routeId": "new-taipei-220055",
        "city": "new-taipei",
        "lineid": "220055",
        "linename": "A03路線晚上",
        "rank": "60",
        "village": "仁愛里",
        "name": "仁愛路86巷8號"
      }
    },
    {
      "type": "Feature",
      "geometry": {
        "type": "Point",
        "coordinates": [
          121.46095,
          24.99965
        ]
      },
      "properties": {
        "routeId": "new-taipei-220055",
        "city": "new-taipei",
        "lineid": "220055",
        "linename": "A03路線晚上",
        "rank": "61",
        "village": "仁愛里",
        "name": "仁愛路73巷口"
      }
    },
    {
      "type": "Feature",
      "geometry": {
        "type": "Point",
        "coordinates": [
          121.46152,
          24.99976
        ]
      },
      "properties": {
        "routeId": "new-taipei-220055",
        "city": "new-taipei",
        "lineid": "220055",
        "linename": "A03路線晚上",
        "rank": "62",
        "village": "大豐里",
        "name": "忠孝路48巷11弄5號"
      }
    },
    {
      "type": "Feature",
      "geometry": {
        "type": "Point",
        "coordinates": [
          121.46198,
          24.99982
        ]
      },
      "properties": {
        "routeId": "new-taipei-220055",
        "city": "new-taipei",
        "lineid": "220055",
        "linename": "A03路線晚上",
        "rank": "63",
        "village": "大豐里",
        "name": "忠孝路48巷11弄17號"
      }
    },
    {
      "type": "Feature",
      "geometry": {
        "type": "Point",
        "coordinates": [
          121.461571,
          24.998726
        ]
      },
      "properties": {
        "routeId": "new-taipei-220055",
        "city": "new-taipei",
        "lineid": "220055",
        "linename": "A03路線晚上",
        "rank": "64",
        "village": "大豐里",
        "name": "重慶路290巷46弄口"
      }
    },
    {
      "type": "Feature",
      "geometry": {
        "type": "Point",
        "coordinates": [
          121.459,
          24.999422
        ]
      },
      "properties": {
        "routeId": "new-taipei-220055",
        "city": "new-taipei",
        "lineid": "220055",
        "linename": "A03路線晚上",
        "rank": "65",
        "village": "仁愛里",
        "name": "仁愛路28號"
      }
    }
  ]
}