{
  "type": "FeatureCollection",
  "features": [
    {
      "type": "Feature",
      "geometry": {
        "type": "Point",
        "coordinates": [
          121.502056,
          24.797892
        ]
      },
      "properties": {
        "routeId": "new-taipei-233003",
        "city": "new-taipei",
        "lineid": "233003",
        "linename": "福山線",
        "rank": "1",
        "village": "福山里",
        "name": "下盆教會"
      }
    },
    {
      "type": "Feature",
      "geometry": {
        "type": "Point",
        "coordinates": [
          121.494616,
          24.795517
        ]
      },
      "properties": {
        "routeId": "new-taipei-233003",
        "city": "new-taipei",
        "lineid": "233003",
        "linename": "福山線",
        "rank": "2",
        "village": "福山里",
        "name": "世紀養鱒場"
      }
    },
    {
      "type": "Feature",
      "geometry": {
        "type": "Point",
        "coordinates": [
          121.492476,
          24.791908
        ]
      },
      "properties": {
        "routeId": "new-taipei-233003",
        "city": "new-taipei",
        "lineid": "233003",
        "linename": "福山線",
        "rank": "3",
        "village": "福山里",
        "name": "樂山莊"
      }
    },
    {
      "type": "Feature",
      "geometry": {
        "type": "Point",
        "coordinates": [
          121.491724,
          24.790806
        ]
      },
      "properties": {
        "routeId": "new-taipei-233003",
        "city": "new-taipei",
        "lineid": "233003",
        "linename": "福山線",
        "rank": "4",
        "village": "福山里",
        "name": "張福堂宅前"
      }
    },
    {
      "type": "Feature",
      "geometry": {
        "type": "Point",
        "coordinates": [
          121.502724,
          24.778674
        ]
      },
      "properties": {
        "routeId": "new-taipei-233003",
        "city": "new-taipei",
        "lineid": "233003",
        "linename": "福山線",
        "rank": "5",
        "village": "福山里",
        "name": "福炎商店"
      }
    },
    {
      "type": "Feature",
      "geometry": {
        "type": "Point",
        "coordinates": [
          121.502064,
          24.777545
        ]
      },
      "properties": {
        "routeId": "new-taipei-233003",
        "city": "new-taipei",
        "lineid": "233003",
        "linename": "福山線",
        "rank": "6",
        "village": "福山里",
        "name": "張建堂宅前"
      }
    },
    {
      "type": "Feature",
      "geometry": {
        "type": "Point",
        "coordinates": [
          121.502129,
          24.777662
        ]
      },
      "properties": {
        "routeId": "new-taipei-233003",
        "city": "new-taipei",
        "lineid": "233003",
        "linename": "福山線",
        "rank": "7",
        "village": "福山里",
        "name": "福山國小"
      }
    },
    {
      "type": "Feature",
      "geometry": {
        "type": "Point",
        "coordinates": [
          121.503376,
          24.780407
        ]
      },
      "properties": {
        "routeId": "new-taipei-233003",
        "city": "new-taipei",
        "lineid": "233003",
        "linename": "福山線",
        "rank": "8",
        "village": "福山里",
        "name": "卡拉模基"
      }
    },
    {
      "type": "Feature",
      "geometry": {
        "type": "Point",
        "coordinates": [
          121.500286,
          24.775341
        ]
      },
      "properties": {
        "routeId": "new-taipei-233003",
        "city": "new-taipei",
        "lineid": "233003",
        "linename": "福山線",
        "rank": "9",
        "village": "福山里",
        "name": "大羅蘭"
      }
    }
  ]
}