{
  "type": "FeatureCollection",
  "features": [
    {
      "type": "Feature",
      "geometry": {
        "type": "Point",
        "coordinates": [
          121.49026,
          24.994984
        ]
      },
      "properties": {
        "routeId": "new-taipei-235072",
        "city": "new-taipei",
        "lineid": "235072",
        "linename": "路線72晚上",
        "rank": "1",
        "village": "建和里",
        "name": "錦和路111號"
      }
    },
    {
      "type": "Feature",
      "geometry": {
        "type": "Point",
        "coordinates": [
          121.489857,
          24.996231
        ]
      },
      "properties": {
        "routeId": "new-taipei-235072",
        "city": "new-taipei",
        "lineid": "235072",
        "linename": "路線72晚上",
        "rank": "2",
        "village": "建和里",
        "name": "連城路299號"
      }
    },
    {
      "type": "Feature",
      "geometry": {
        "type": "Point",
        "coordinates": [
          121.495687,
          24.997374
        ]
      },
      "properties": {
        "routeId": "new-taipei-235072",
        "city": "new-taipei",
        "lineid": "235072",
        "linename": "路線72晚上",
        "rank": "3",
        "village": "連城里",
        "name": "連城路171巷(安邦綠苑)"
      }
    },
    {
      "type": "Feature",
      "geometry": {
        "type": "Point",
        "coordinates": [
          121.496654,
          25.000068
        ]
      },
      "properties": {
        "routeId": "new-taipei-235072",
        "city": "new-taipei",
        "lineid": "235072",
        "linename": "路線72晚上",
        "rank": "4",
        "village": "連城里",
        "name": "連城路89巷口"
      }
    },
    {
      "type": "Feature",
      "geometry": {
        "type": "Point",
        "coordinates": [
          121.500816,
          25.002716
        ]
      },
      "properties": {
        "routeId": "new-taipei-235072",
        "city": "new-taipei",
        "lineid": "235072",
        "linename": "路線72晚上",
        "rank": "5",
        "village": "廟美里",
        "name": "中山路二段179號"
      }
    },
    {
      "type": "Feature",
      "geometry": {
        "type": "Point",
        "coordinates": [
          121.505386,
          25.005709
        ]
      },
      "properties": {
        "routeId": "new-taipei-235072",
        "city": "new-taipei",
        "lineid": "235072",
        "linename": "路線72晚上",
        "rank": "6",
        "village": "福善里",
        "name": "中山路二段3巷口"
      }
    },
    {
      "type": "Feature",
      "geometry": {
        "type": "Point",
        "coordinates": [
          121.505283,
          25.005766
        ]
      },
      "properties": {
        "routeId": "new-taipei-235072",
        "city": "new-taipei",
        "lineid": "235072",
        "linename": "路線72晚上",
        "rank": "7",
        "village": "福善里",
        "name": "中山路二段2巷口"
      }
    },
    {
      "type": "Feature",
      "geometry": {
        "type": "Point",
        "coordinates": [
          121.496931,
          25.002475
        ]
      },
      "properties": {
        "routeId": "new-taipei-235072",
        "city": "new-taipei",
        "lineid": "235072",
        "linename": "路線72晚上",
        "rank": "8",
        "village": "福善里",
        "name": "中山路二段274號"
      }
    },
    {
      "type": "Feature",
      "geometry": {
        "type": "Point",
        "coordinates": [
          121.496716,
          25.002693
        ]
      },
      "properties": {
        "routeId": "new-taipei-235072",
        "city": "new-taipei",
        "lineid": "235072",
        "linename": "路線72晚上",
        "rank": "9",
        "village": "福善里",
        "name": "景平路712號"
      }
    },
    {
      "type": "Feature",
      "geometry": {
        "type": "Point",
        "coordinates": [
          121.496567,
          25.004659
        ]
      },
      "properties": {
        "routeId": "new-taipei-235072",
        "city": "new-taipei",
        "lineid": "235072",
        "linename": "路線72晚上",
        "rank": "10",
        "village": "福美里",
        "name": "景平路754號"
      }
    },
    {
      "type": "Feature",
      "geometry": {
        "type": "Point",
        "coordinates": [
          121.497172,
          25.004862
        ]
      },
      "properties": {
        "routeId": "new-taipei-235072",
        "city": "new-taipei",
        "lineid": "235072",
        "linename": "路線72晚上",
        "rank": "11",
        "village": "福善里",
        "name": "福美路301巷口"
      }
    },
    {
      "type": "Feature",
      "geometry": {
        "type": "Point",
        "coordinates": [
          121.499168,
          25.004042
        ]
      },
      "properties": {
        "routeId": "new-taipei-235072",
        "city": "new-taipei",
        "lineid": "235072",
        "linename": "路線72晚上",
        "rank": "12",
        "village": "碧河里",
        "name": "永和路9巷(一江新村)"
      }
    },
    {
      "type": "Feature",
      "geometry": {
        "type": "Point",
        "coordinates": [
          121.496855,
          25.000621
        ]
      },
      "properties": {
        "routeId": "new-taipei-235072",
        "city": "new-taipei",
        "lineid": "235072",
        "linename": "路線72晚上",
        "rank": "13",
        "village": "連城里",
        "name": "連城路94號"
      }
    },
    {
      "type": "Feature",
      "geometry": {
        "type": "Point",
        "coordinates": [
          121.491357,
          24.996299
        ]
      },
      "properties": {
        "routeId": "new-taipei-235072",
        "city": "new-taipei",
        "lineid": "235072",
        "linename": "路線72晚上",
        "rank": "14",
        "village": "建和里",
        "name": "連城路265巷2號(連城黃昏市場)"
      }
    }
  ]
}