{
  "type": "FeatureCollection",
  "features": [
    {
      "type": "Feature",
      "geometry": {
        "type": "Point",
        "coordinates": [
          121.452255,
          25.106991
        ]
      },
      "properties": {
        "routeId": "new-taipei-248019",
        "city": "new-taipei",
        "lineid": "248019",
        "linename": "11-1路線下午",
        "rank": "1",
        "village": "集福里",
        "name": "孝義路24號起【沿線】"
      }
    },
    {
      "type": "Feature",
      "geometry": {
        "type": "Point",
        "coordinates": [
          121.45430925697758,
          25.11045755810996
        ]
      },
      "properties": {
        "routeId": "new-taipei-248019",
        "city": "new-taipei",
        "lineid": "248019",
        "linename": "11-1路線下午",
        "rank": "2",
        "village": "集福里",
        "name": "孝義路47巷【沿線】"
      }
    },
    {
      "type": "Feature",
      "geometry": {
        "type": "Point",
        "coordinates": [
          121.45397043074115,
          25.112019468748635
        ]
      },
      "properties": {
        "routeId": "new-taipei-248019",
        "city": "new-taipei",
        "lineid": "248019",
        "linename": "11-1路線下午",
        "rank": "3",
        "village": "集福里",
        "name": "孝義路55巷內"
      }
    },
    {
      "type": "Feature",
      "geometry": {
        "type": "Point",
        "coordinates": [
          121.449989,
          25.114548
        ]
      },
      "properties": {
        "routeId": "new-taipei-248019",
        "city": "new-taipei",
        "lineid": "248019",
        "linename": "11-1路線下午",
        "rank": "4",
        "village": "集福里",
        "name": "【孝恩堂】"
      }
    },
    {
      "type": "Feature",
      "geometry": {
        "type": "Point",
        "coordinates": [
          121.44872641851555,
          25.11525641232852
        ]
      },
      "properties": {
        "routeId": "new-taipei-248019",
        "city": "new-taipei",
        "lineid": "248019",
        "linename": "11-1路線下午",
        "rank": "5",
        "village": "集福里",
        "name": "孝義路47巷尾端"
      }
    },
    {
      "type": "Feature",
      "geometry": {
        "type": "Point",
        "coordinates": [
          121.44833687378446,
          25.115511607552964
        ]
      },
      "properties": {
        "routeId": "new-taipei-248019",
        "city": "new-taipei",
        "lineid": "248019",
        "linename": "11-1路線下午",
        "rank": "6",
        "village": "集福里",
        "name": "【七塊厝】"
      }
    },
    {
      "type": "Feature",
      "geometry": {
        "type": "Point",
        "coordinates": [
          121.436333,
          25.121637
        ]
      },
      "properties": {
        "routeId": "new-taipei-248019",
        "city": "new-taipei",
        "lineid": "248019",
        "linename": "11-1路線下午",
        "rank": "7",
        "village": "集福里",
        "name": "【田埔巷】"
      }
    },
    {
      "type": "Feature",
      "geometry": {
        "type": "Point",
        "coordinates": [
          121.43859847538306,
          25.12357726399142
        ]
      },
      "properties": {
        "routeId": "new-taipei-248019",
        "city": "new-taipei",
        "lineid": "248019",
        "linename": "11-1路線下午",
        "rank": "8",
        "village": "集賢里",
        "name": "田埔巷、凌雲路口"
      }
    },
    {
      "type": "Feature",
      "geometry": {
        "type": "Point",
        "coordinates": [
          121.4251172452739,
          25.122543176037944
        ]
      },
      "properties": {
        "routeId": "new-taipei-248019",
        "city": "new-taipei",
        "lineid": "248019",
        "linename": "11-1路線下午",
        "rank": "9",
        "village": "集賢里",
        "name": "凌雲路至下廟【沿線】"
      }
    },
    {
      "type": "Feature",
      "geometry": {
        "type": "Point",
        "coordinates": [
          121.43099320130068,
          25.118119037345622
        ]
      },
      "properties": {
        "routeId": "new-taipei-248019",
        "city": "new-taipei",
        "lineid": "248019",
        "linename": "11-1路線下午",
        "rank": "10",
        "village": "觀音里",
        "name": "下廟至中直路【沿線】"
      }
    },
    {
      "type": "Feature",
      "geometry": {
        "type": "Point",
        "coordinates": [
          121.43034760339935,
          25.110739267756024
        ]
      },
      "properties": {
        "routeId": "new-taipei-248019",
        "city": "new-taipei",
        "lineid": "248019",
        "linename": "11-1路線下午",
        "rank": "11",
        "village": "觀音里",
        "name": "中直路6號至48號返回往13號"
      }
    },
    {
      "type": "Feature",
      "geometry": {
        "type": "Point",
        "coordinates": [
          121.42091911338844,
          25.11404446740872
        ]
      },
      "properties": {
        "routeId": "new-taipei-248019",
        "city": "new-taipei",
        "lineid": "248019",
        "linename": "11-1路線下午",
        "rank": "12",
        "village": "觀音里",
        "name": "觀音坑"
      }
    },
    {
      "type": "Feature",
      "geometry": {
        "type": "Point",
        "coordinates": [
          121.42001825232774,
          25.11498128247879
        ]
      },
      "properties": {
        "routeId": "new-taipei-248019",
        "city": "new-taipei",
        "lineid": "248019",
        "linename": "11-1路線下午",
        "rank": "13",
        "village": "觀音里",
        "name": "八角樓"
      }
    },
    {
      "type": "Feature",
      "geometry": {
        "type": "Point",
        "coordinates": [
          121.43540366414902,
          25.104230664042415
        ]
      },
      "properties": {
        "routeId": "new-taipei-248019",
        "city": "new-taipei",
        "lineid": "248019",
        "linename": "11-1路線下午",
        "rank": "14",
        "village": "觀音里",
        "name": "八角樓至中國炭素沿線"
      }
    }
  ]
}