{
  "type": "FeatureCollection",
  "features": [
    {
      "type": "Feature",
      "geometry": {
        "type": "Point",
        "coordinates": [
          121.393831,
          24.962482
        ]
      },
      "properties": {
        "routeId": "new-taipei-238008",
        "city": "new-taipei",
        "lineid": "238008",
        "linename": "路線8下午",
        "rank": "1",
        "village": "北園里",
        "name": "西圳街1段172號"
      }
    },
    {
      "type": "Feature",
      "geometry": {
        "type": "Point",
        "coordinates": [
          121.39562168105,
          24.960136894664
        ]
      },
      "properties": {
        "routeId": "new-taipei-238008",
        "city": "new-taipei",
        "lineid": "238008",
        "linename": "路線8下午",
        "rank": "2",
        "village": "北園里",
        "name": "西圳街1段165巷20弄18-1號"
      }
    },
    {
      "type": "Feature",
      "geometry": {
        "type": "Point",
        "coordinates": [
          121.39520534387,
          24.960825804164
        ]
      },
      "properties": {
        "routeId": "new-taipei-238008",
        "city": "new-taipei",
        "lineid": "238008",
        "linename": "路線8下午",
        "rank": "3",
        "village": "北園里",
        "name": "西圳街1段165巷20弄12號"
      }
    },
    {
      "type": "Feature",
      "geometry": {
        "type": "Point",
        "coordinates": [
          121.39589339356,
          24.961117189042
        ]
      },
      "properties": {
        "routeId": "new-taipei-238008",
        "city": "new-taipei",
        "lineid": "238008",
        "linename": "路線8下午",
        "rank": "4",
        "village": "北園里",
        "name": "西圳街1段165巷20弄1號"
      }
    },
    {
      "type": "Feature",
      "geometry": {
        "type": "Point",
        "coordinates": [
          121.395519941036,
          24.961838415091
        ]
      },
      "properties": {
        "routeId": "new-taipei-238008",
        "city": "new-taipei",
        "lineid": "238008",
        "linename": "路線8下午",
        "rank": "5",
        "village": "北園里",
        "name": "西圳街1段165巷15號"
      }
    },
    {
      "type": "Feature",
      "geometry": {
        "type": "Point",
        "coordinates": [
          121.3953244613,
          24.962174056403
        ]
      },
      "properties": {
        "routeId": "new-taipei-238008",
        "city": "new-taipei",
        "lineid": "238008",
        "linename": "路線8下午",
        "rank": "6",
        "village": "北園里",
        "name": "西圳街1段165巷7號"
      }
    },
    {
      "type": "Feature",
      "geometry": {
        "type": "Point",
        "coordinates": [
          121.397097259333,
          24.963369093293
        ]
      },
      "properties": {
        "routeId": "new-taipei-238008",
        "city": "new-taipei",
        "lineid": "238008",
        "linename": "路線8下午",
        "rank": "7",
        "village": "北園里",
        "name": "西圳街1段136號"
      }
    },
    {
      "type": "Feature",
      "geometry": {
        "type": "Point",
        "coordinates": [
          121.400459475445,
          24.962789159557
        ]
      },
      "properties": {
        "routeId": "new-taipei-238008",
        "city": "new-taipei",
        "lineid": "238008",
        "linename": "路線8下午",
        "rank": "8",
        "village": "北園里",
        "name": "西圳街1段64號"
      }
    },
    {
      "type": "Feature",
      "geometry": {
        "type": "Point",
        "coordinates": [
          121.403073245368,
          24.960271369511
        ]
      },
      "properties": {
        "routeId": "new-taipei-238008",
        "city": "new-taipei",
        "lineid": "238008",
        "linename": "路線8下午",
        "rank": "9",
        "village": "東園里",
        "name": "柑園街1段49號"
      }
    },
    {
      "type": "Feature",
      "geometry": {
        "type": "Point",
        "coordinates": [
          121.404279315309,
          24.960282679017
        ]
      },
      "properties": {
        "routeId": "new-taipei-238008",
        "city": "new-taipei",
        "lineid": "238008",
        "linename": "路線8下午",
        "rank": "10",
        "village": "東園里",
        "name": "柑園街1段23-8號"
      }
    },
    {
      "type": "Feature",
      "geometry": {
        "type": "Point",
        "coordinates": [
          121.40472046684,
          24.960598865271
        ]
      },
      "properties": {
        "routeId": "new-taipei-238008",
        "city": "new-taipei",
        "lineid": "238008",
        "linename": "路線8下午",
        "rank": "11",
        "village": "東園里",
        "name": "柑園街1段21巷2號"
      }
    },
    {
      "type": "Feature",
      "geometry": {
        "type": "Point",
        "coordinates": [
          121.403025,
          24.960338
        ]
      },
      "properties": {
        "routeId": "new-taipei-238008",
        "city": "new-taipei",
        "lineid": "238008",
        "linename": "路線8下午",
        "rank": "12",
        "village": "東園里",
        "name": "柑園街1段60號"
      }
    },
    {
      "type": "Feature",
      "geometry": {
        "type": "Point",
        "coordinates": [
          121.401108743551,
          24.959651193921
        ]
      },
      "properties": {
        "routeId": "new-taipei-238008",
        "city": "new-taipei",
        "lineid": "238008",
        "linename": "路線8下午",
        "rank": "13",
        "village": "東園里",
        "name": "柑園街1段133巷口"
      }
    },
    {
      "type": "Feature",
      "geometry": {
        "type": "Point",
        "coordinates": [
          121.39883094725,
          24.956817105468
        ]
      },
      "properties": {
        "routeId": "new-taipei-238008",
        "city": "new-taipei",
        "lineid": "238008",
        "linename": "路線8下午",
        "rank": "14",
        "village": "東園里",
        "name": "柑園街1段142號"
      }
    },
    {
      "type": "Feature",
      "geometry": {
        "type": "Point",
        "coordinates": [
          121.397011709272,
          24.95670269233
        ]
      },
      "properties": {
        "routeId": "new-taipei-238008",
        "city": "new-taipei",
        "lineid": "238008",
        "linename": "路線8下午",
        "rank": "15",
        "village": "東園里",
        "name": "柑園街1段166號"
      }
    },
    {
      "type": "Feature",
      "geometry": {
        "type": "Point",
        "coordinates": [
          121.396406658895,
          24.956671219583
        ]
      },
      "properties": {
        "routeId": "new-taipei-238008",
        "city": "new-taipei",
        "lineid": "238008",
        "linename": "路線8下午",
        "rank": "16",
        "village": "東園里",
        "name": "柑園街1段172號"
      }
    },
    {
      "type": "Feature",
      "geometry": {
        "type": "Point",
        "coordinates": [
          121.393125801258,
          24.95628596387
        ]
      },
      "properties": {
        "routeId": "new-taipei-238008",
        "city": "new-taipei",
        "lineid": "238008",
        "linename": "路線8下午",
        "rank": "17",
        "village": "東園里",
        "name": "柑園街1段216號"
      }
    },
    {
      "type": "Feature",
      "geometry": {
        "type": "Point",
        "coordinates": [
          121.391224536499,
          24.956434732123
        ]
      },
      "properties": {
        "routeId": "new-taipei-238008",
        "city": "new-taipei",
        "lineid": "238008",
        "linename": "路線8下午",
        "rank": "18",
        "village": "東園里",
        "name": "柑園街1段232巷口"
      }
    },
    {
      "type": "Feature",
      "geometry": {
        "type": "Point",
        "coordinates": [
          121.390807212647,
          24.956432742141
        ]
      },
      "properties": {
        "routeId": "new-taipei-238008",
        "city": "new-taipei",
        "lineid": "238008",
        "linename": "路線8下午",
        "rank": "19",
        "village": "柑園里",
        "name": "柑園街1段262號"
      }
    },
    {
      "type": "Feature",
      "geometry": {
        "type": "Point",
        "coordinates": [
          121.388306,
          24.95591
        ]
      },
      "properties": {
        "routeId": "new-taipei-238008",
        "city": "new-taipei",
        "lineid": "238008",
        "linename": "路線8下午",
        "rank": "20",
        "village": "柑園里",
        "name": "柑園街2段16號"
      }
    },
    {
      "type": "Feature",
      "geometry": {
        "type": "Point",
        "coordinates": [
          121.387684500663,
          24.955671475292
        ]
      },
      "properties": {
        "routeId": "new-taipei-238008",
        "city": "new-taipei",
        "lineid": "238008",
        "linename": "路線8下午",
        "rank": "21",
        "village": "柑園里",
        "name": "柑園街2段24號"
      }
    },
    {
      "type": "Feature",
      "geometry": {
        "type": "Point",
        "coordinates": [
          121.3867665334,
          24.955174986046
        ]
      },
      "properties": {
        "routeId": "new-taipei-238008",
        "city": "new-taipei",
        "lineid": "238008",
        "linename": "路線8下午",
        "rank": "22",
        "village": "柑園里",
        "name": "柑園街2段78號"
      }
    },
    {
      "type": "Feature",
      "geometry": {
        "type": "Point",
        "coordinates": [
          121.385379986438,
          24.954830443511
        ]
      },
      "properties": {
        "routeId": "new-taipei-238008",
        "city": "new-taipei",
        "lineid": "238008",
        "linename": "路線8下午",
        "rank": "23",
        "village": "柑園里",
        "name": "柑園街2段107號"
      }
    },
    {
      "type": "Feature",
      "geometry": {
        "type": "Point",
        "coordinates": [
          121.383600558659,
          24.954829272803
        ]
      },
      "properties": {
        "routeId": "new-taipei-238008",
        "city": "new-taipei",
        "lineid": "238008",
        "linename": "路線8下午",
        "rank": "24",
        "village": "柑園里",
        "name": "柑園街2段140號"
      }
    },
    {
      "type": "Feature",
      "geometry": {
        "type": "Point",
        "coordinates": [
          121.382075371111,
          24.954335537941
        ]
      },
      "properties": {
        "routeId": "new-taipei-238008",
        "city": "new-taipei",
        "lineid": "238008",
        "linename": "路線8下午",
        "rank": "25",
        "village": "西園里",
        "name": "柑園街2段150號"
      }
    },
    {
      "type": "Feature",
      "geometry": {
        "type": "Point",
        "coordinates": [
          121.382772623925,
          24.95306913633
        ]
      },
      "properties": {
        "routeId": "new-taipei-238008",
        "city": "new-taipei",
        "lineid": "238008",
        "linename": "路線8下午",
        "rank": "26",
        "village": "柑園里",
        "name": "柑園街2段149巷27號"
      }
    },
    {
      "type": "Feature",
      "geometry": {
        "type": "Point",
        "coordinates": [
          121.381151163194,
          24.953672386309
        ]
      },
      "properties": {
        "routeId": "new-taipei-238008",
        "city": "new-taipei",
        "lineid": "238008",
        "linename": "路線8下午",
        "rank": "27",
        "village": "西園里",
        "name": "柑園街2段170巷口"
      }
    },
    {
      "type": "Feature",
      "geometry": {
        "type": "Point",
        "coordinates": [
          121.38088481932,
          24.953410607957
        ]
      },
      "properties": {
        "routeId": "new-taipei-238008",
        "city": "new-taipei",
        "lineid": "238008",
        "linename": "路線8下午",
        "rank": "28",
        "village": "柑園里",
        "name": "柑園街2段175巷口"
      }
    },
    {
      "type": "Feature",
      "geometry": {
        "type": "Point",
        "coordinates": [
          121.387179125454,
          24.956297424634
        ]
      },
      "properties": {
        "routeId": "new-taipei-238008",
        "city": "new-taipei",
        "lineid": "238008",
        "linename": "路線8下午",
        "rank": "29",
        "village": "柑園里",
        "name": "柑園街2段30巷12號"
      }
    },
    {
      "type": "Feature",
      "geometry": {
        "type": "Point",
        "coordinates": [
          121.386649510127,
          24.956899814141
        ]
      },
      "properties": {
        "routeId": "new-taipei-238008",
        "city": "new-taipei",
        "lineid": "238008",
        "linename": "路線8下午",
        "rank": "30",
        "village": "北園里",
        "name": "西圳街2段97巷29號"
      }
    }
  ]
}