{
  "type": "FeatureCollection",
  "features": [
    {
      "type": "Feature",
      "geometry": {
        "type": "Point",
        "coordinates": [
          121.556696,
          24.859257
        ]
      },
      "properties": {
        "routeId": "new-taipei-233002",
        "city": "new-taipei",
        "lineid": "233002",
        "linename": "A2路線",
        "rank": "1",
        "village": "烏來里",
        "name": "王國權宅路口"
      }
    },
    {
      "type": "Feature",
      "geometry": {
        "type": "Point",
        "coordinates": [
          121.556267,
          24.8584
        ]
      },
      "properties": {
        "routeId": "new-taipei-233002",
        "city": "new-taipei",
        "lineid": "233002",
        "linename": "A2路線",
        "rank": "2",
        "village": "烏來里",
        "name": "啦卡路上方"
      }
    },
    {
      "type": "Feature",
      "geometry": {
        "type": "Point",
        "coordinates": [
          121.553042,
          24.862275
        ]
      },
      "properties": {
        "routeId": "new-taipei-233002",
        "city": "new-taipei",
        "lineid": "233002",
        "linename": "A2路線",
        "rank": "3",
        "village": "烏來里",
        "name": "烏來公墓"
      }
    },
    {
      "type": "Feature",
      "geometry": {
        "type": "Point",
        "coordinates": [
          121.552591,
          24.859501
        ]
      },
      "properties": {
        "routeId": "new-taipei-233002",
        "city": "new-taipei",
        "lineid": "233002",
        "linename": "A2路線",
        "rank": "4",
        "village": "烏來里",
        "name": "發電廠"
      }
    },
    {
      "type": "Feature",
      "geometry": {
        "type": "Point",
        "coordinates": [
          121.552332,
          24.866801
        ]
      },
      "properties": {
        "routeId": "new-taipei-233002",
        "city": "new-taipei",
        "lineid": "233002",
        "linename": "A2路線",
        "rank": "5",
        "village": "烏來里",
        "name": "分駐所"
      }
    },
    {
      "type": "Feature",
      "geometry": {
        "type": "Point",
        "coordinates": [
          121.548313,
          24.863433
        ]
      },
      "properties": {
        "routeId": "new-taipei-233002",
        "city": "new-taipei",
        "lineid": "233002",
        "linename": "A2路線",
        "rank": "6",
        "village": "烏來里",
        "name": "艾瑪仕"
      }
    },
    {
      "type": "Feature",
      "geometry": {
        "type": "Point",
        "coordinates": [
          121.548618,
          24.863662
        ]
      },
      "properties": {
        "routeId": "new-taipei-233002",
        "city": "new-taipei",
        "lineid": "233002",
        "linename": "A2路線",
        "rank": "7",
        "village": "烏來里",
        "name": "前鄉長宅前"
      }
    },
    {
      "type": "Feature",
      "geometry": {
        "type": "Point",
        "coordinates": [
          121.548729,
          24.863043
        ]
      },
      "properties": {
        "routeId": "new-taipei-233002",
        "city": "new-taipei",
        "lineid": "233002",
        "linename": "A2路線",
        "rank": "8",
        "village": "烏來里",
        "name": "烏來社區86巷"
      }
    },
    {
      "type": "Feature",
      "geometry": {
        "type": "Point",
        "coordinates": [
          121.548305,
          24.863578
        ]
      },
      "properties": {
        "routeId": "new-taipei-233002",
        "city": "new-taipei",
        "lineid": "233002",
        "linename": "A2路線",
        "rank": "9",
        "village": "烏來里",
        "name": "吳忠正宅前"
      }
    },
    {
      "type": "Feature",
      "geometry": {
        "type": "Point",
        "coordinates": [
          121.547696,
          24.863612
        ]
      },
      "properties": {
        "routeId": "new-taipei-233002",
        "city": "new-taipei",
        "lineid": "233002",
        "linename": "A2路線",
        "rank": "10",
        "village": "烏來里",
        "name": "社區早餐店前"
      }
    },
    {
      "type": "Feature",
      "geometry": {
        "type": "Point",
        "coordinates": [
          121.548526,
          24.863504
        ]
      },
      "properties": {
        "routeId": "new-taipei-233002",
        "city": "new-taipei",
        "lineid": "233002",
        "linename": "A2路線",
        "rank": "11",
        "village": "烏來里",
        "name": "教會路口"
      }
    },
    {
      "type": "Feature",
      "geometry": {
        "type": "Point",
        "coordinates": [
          121.548001,
          24.861615
        ]
      },
      "properties": {
        "routeId": "new-taipei-233002",
        "city": "new-taipei",
        "lineid": "233002",
        "linename": "A2路線",
        "rank": "12",
        "village": "烏來里",
        "name": "泉世界溫泉"
      }
    },
    {
      "type": "Feature",
      "geometry": {
        "type": "Point",
        "coordinates": [
          121.549367,
          24.860358
        ]
      },
      "properties": {
        "routeId": "new-taipei-233002",
        "city": "new-taipei",
        "lineid": "233002",
        "linename": "A2路線",
        "rank": "13",
        "village": "烏來里",
        "name": "大山溫泉"
      }
    },
    {
      "type": "Feature",
      "geometry": {
        "type": "Point",
        "coordinates": [
          121.548983,
          24.858816
        ]
      },
      "properties": {
        "routeId": "new-taipei-233002",
        "city": "new-taipei",
        "lineid": "233002",
        "linename": "A2路線",
        "rank": "14",
        "village": "烏來里",
        "name": "百事可問"
      }
    },
    {
      "type": "Feature",
      "geometry": {
        "type": "Point",
        "coordinates": [
          121.548282,
          24.859303
        ]
      },
      "properties": {
        "routeId": "new-taipei-233002",
        "city": "new-taipei",
        "lineid": "233002",
        "linename": "A2路線",
        "rank": "15",
        "village": "烏來里",
        "name": "達利溫泉"
      }
    },
    {
      "type": "Feature",
      "geometry": {
        "type": "Point",
        "coordinates": [
          121.549119,
          24.858104
        ]
      },
      "properties": {
        "routeId": "new-taipei-233002",
        "city": "new-taipei",
        "lineid": "233002",
        "linename": "A2路線",
        "rank": "16",
        "village": "烏來里",
        "name": "櫻花餐廳"
      }
    },
    {
      "type": "Feature",
      "geometry": {
        "type": "Point",
        "coordinates": [
          121.548046,
          24.857014
        ]
      },
      "properties": {
        "routeId": "new-taipei-233002",
        "city": "new-taipei",
        "lineid": "233002",
        "linename": "A2路線",
        "rank": "17",
        "village": "烏來里",
        "name": "王代表宅前"
      }
    },
    {
      "type": "Feature",
      "geometry": {
        "type": "Point",
        "coordinates": [
          121.547144,
          24.854989
        ]
      },
      "properties": {
        "routeId": "new-taipei-233002",
        "city": "new-taipei",
        "lineid": "233002",
        "linename": "A2路線",
        "rank": "18",
        "village": "烏來里",
        "name": "強羅花壇溫泉"
      }
    },
    {
      "type": "Feature",
      "geometry": {
        "type": "Point",
        "coordinates": [
          121.54744,
          24.856139
        ]
      },
      "properties": {
        "routeId": "new-taipei-233002",
        "city": "new-taipei",
        "lineid": "233002",
        "linename": "A2路線",
        "rank": "19",
        "village": "烏來里",
        "name": "雲景溫泉"
      }
    },
    {
      "type": "Feature",
      "geometry": {
        "type": "Point",
        "coordinates": [
          121.54714,
          24.85576
        ]
      },
      "properties": {
        "routeId": "new-taipei-233002",
        "city": "new-taipei",
        "lineid": "233002",
        "linename": "A2路線",
        "rank": "20",
        "village": "烏來里",
        "name": "黃賽門宅前"
      }
    },
    {
      "type": "Feature",
      "geometry": {
        "type": "Point",
        "coordinates": [
          121.55152,
          24.864358
        ]
      },
      "properties": {
        "routeId": "new-taipei-233002",
        "city": "new-taipei",
        "lineid": "233002",
        "linename": "A2路線",
        "rank": "21",
        "village": "烏來里",
        "name": "老街沿線"
      }
    },
    {
      "type": "Feature",
      "geometry": {
        "type": "Point",
        "coordinates": [
          121.54908,
          24.868237
        ]
      },
      "properties": {
        "routeId": "new-taipei-233002",
        "city": "new-taipei",
        "lineid": "233002",
        "linename": "A2路線",
        "rank": "22",
        "village": "烏來里",
        "name": "定點停留"
      }
    },
    {
      "type": "Feature",
      "geometry": {
        "type": "Point",
        "coordinates": [
          121.547166,
          24.87065
        ]
      },
      "properties": {
        "routeId": "new-taipei-233002",
        "city": "new-taipei",
        "lineid": "233002",
        "linename": "A2路線",
        "rank": "23",
        "village": "忠治里",
        "name": "堰堤豆花店"
      }
    },
    {
      "type": "Feature",
      "geometry": {
        "type": "Point",
        "coordinates": [
          121.542395,
          24.880226
        ]
      },
      "properties": {
        "routeId": "new-taipei-233002",
        "city": "new-taipei",
        "lineid": "233002",
        "linename": "A2路線",
        "rank": "24",
        "village": "忠治里",
        "name": "鄉園土雞城"
      }
    },
    {
      "type": "Feature",
      "geometry": {
        "type": "Point",
        "coordinates": [
          121.540499,
          24.884999
        ]
      },
      "properties": {
        "routeId": "new-taipei-233002",
        "city": "new-taipei",
        "lineid": "233002",
        "linename": "A2路線",
        "rank": "25",
        "village": "忠治里",
        "name": "天人.紅合谷"
      }
    },
    {
      "type": "Feature",
      "geometry": {
        "type": "Point",
        "coordinates": [
          121.54745,
          24.8844
        ]
      },
      "properties": {
        "routeId": "new-taipei-233002",
        "city": "new-taipei",
        "lineid": "233002",
        "linename": "A2路線",
        "rank": "26",
        "village": "忠治里",
        "name": "忠治站牌"
      }
    },
    {
      "type": "Feature",
      "geometry": {
        "type": "Point",
        "coordinates": [
          121.547663,
          24.883956
        ]
      },
      "properties": {
        "routeId": "new-taipei-233002",
        "city": "new-taipei",
        "lineid": "233002",
        "linename": "A2路線",
        "rank": "27",
        "village": "忠治里",
        "name": "忠治社區"
      }
    },
    {
      "type": "Feature",
      "geometry": {
        "type": "Point",
        "coordinates": [
          121.549656,
          24.890197
        ]
      },
      "properties": {
        "routeId": "new-taipei-233002",
        "city": "new-taipei",
        "lineid": "233002",
        "linename": "A2路線",
        "rank": "28",
        "village": "忠治里",
        "name": "忠治產道沿線清運(每周2.6)"
      }
    },
    {
      "type": "Feature",
      "geometry": {
        "type": "Point",
        "coordinates": [
          121.551332,
          24.890197
        ]
      },
      "properties": {
        "routeId": "new-taipei-233002",
        "city": "new-taipei",
        "lineid": "233002",
        "linename": "A2路線",
        "rank": "29",
        "village": "忠治里",
        "name": "舊隧道口"
      }
    }
  ]
}