{
  "type": "FeatureCollection",
  "features": [
    {
      "type": "Feature",
      "geometry": {
        "type": "Point",
        "coordinates": [
          121.4329148,
          24.995552
        ]
      },
      "properties": {
        "routeId": "new-taipei-220082",
        "city": "new-taipei",
        "lineid": "220082",
        "linename": "B11路線晚上",
        "rank": "1",
        "village": "崑崙里",
        "name": "大觀路三段50巷42號"
      }
    },
    {
      "type": "Feature",
      "geometry": {
        "type": "Point",
        "coordinates": [
          121.4320228,
          24.9948495
        ]
      },
      "properties": {
        "routeId": "new-taipei-220082",
        "city": "new-taipei",
        "lineid": "220082",
        "linename": "B11路線晚上",
        "rank": "2",
        "village": "崑崙里",
        "name": "篤行路一段20號"
      }
    },
    {
      "type": "Feature",
      "geometry": {
        "type": "Point",
        "coordinates": [
          121.4316703,
          24.9927193
        ]
      },
      "properties": {
        "routeId": "new-taipei-220082",
        "city": "new-taipei",
        "lineid": "220082",
        "linename": "B11路線晚上",
        "rank": "3",
        "village": "崑崙里",
        "name": "大觀路三段219巷口"
      }
    },
    {
      "type": "Feature",
      "geometry": {
        "type": "Point",
        "coordinates": [
          121.4316291,
          24.9921391
        ]
      },
      "properties": {
        "routeId": "new-taipei-220082",
        "city": "new-taipei",
        "lineid": "220082",
        "linename": "B11路線晚上",
        "rank": "4",
        "village": "崑崙里",
        "name": "篤行路二段72號"
      }
    },
    {
      "type": "Feature",
      "geometry": {
        "type": "Point",
        "coordinates": [
          121.4315345,
          24.9916615
        ]
      },
      "properties": {
        "routeId": "new-taipei-220082",
        "city": "new-taipei",
        "lineid": "220082",
        "linename": "B11路線晚上",
        "rank": "5",
        "village": "崑崙里",
        "name": "篤行路二段90巷口"
      }
    },
    {
      "type": "Feature",
      "geometry": {
        "type": "Point",
        "coordinates": [
          121.4313782,
          24.9911644
        ]
      },
      "properties": {
        "routeId": "new-taipei-220082",
        "city": "new-taipei",
        "lineid": "220082",
        "linename": "B11路線晚上",
        "rank": "6",
        "village": "崑崙里",
        "name": "篤行路二段106號"
      }
    },
    {
      "type": "Feature",
      "geometry": {
        "type": "Point",
        "coordinates": [
          121.4311983,
          24.9907872
        ]
      },
      "properties": {
        "routeId": "new-taipei-220082",
        "city": "new-taipei",
        "lineid": "220082",
        "linename": "B11路線晚上",
        "rank": "7",
        "village": "崑崙里",
        "name": "篤行路二段126號"
      }
    },
    {
      "type": "Feature",
      "geometry": {
        "type": "Point",
        "coordinates": [
          121.4297372,
          24.9883388
        ]
      },
      "properties": {
        "routeId": "new-taipei-220082",
        "city": "new-taipei",
        "lineid": "220082",
        "linename": "B11路線晚上",
        "rank": "8",
        "village": "溪北里",
        "name": "篤行路二段144號"
      }
    },
    {
      "type": "Feature",
      "geometry": {
        "type": "Point",
        "coordinates": [
          121.4289694,
          24.9873853
        ]
      },
      "properties": {
        "routeId": "new-taipei-220082",
        "city": "new-taipei",
        "lineid": "220082",
        "linename": "B11路線晚上",
        "rank": "9",
        "village": "溪福里",
        "name": "篤行路三段18號(大樓)"
      }
    },
    {
      "type": "Feature",
      "geometry": {
        "type": "Point",
        "coordinates": [
          121.4286841,
          24.987073
        ]
      },
      "properties": {
        "routeId": "new-taipei-220082",
        "city": "new-taipei",
        "lineid": "220082",
        "linename": "B11路線晚上",
        "rank": "10",
        "village": "溪福里",
        "name": "篤行路三段24號"
      }
    },
    {
      "type": "Feature",
      "geometry": {
        "type": "Point",
        "coordinates": [
          121.4284433,
          24.9867753
        ]
      },
      "properties": {
        "routeId": "new-taipei-220082",
        "city": "new-taipei",
        "lineid": "220082",
        "linename": "B11路線晚上",
        "rank": "11",
        "village": "溪福里",
        "name": "篤行路三段28號"
      }
    },
    {
      "type": "Feature",
      "geometry": {
        "type": "Point",
        "coordinates": [
          121.4277868,
          24.9861106
        ]
      },
      "properties": {
        "routeId": "new-taipei-220082",
        "city": "new-taipei",
        "lineid": "220082",
        "linename": "B11路線晚上",
        "rank": "12",
        "village": "溪福里",
        "name": "篤行路三段玉平巷68弄口"
      }
    },
    {
      "type": "Feature",
      "geometry": {
        "type": "Point",
        "coordinates": [
          121.4273269,
          24.9857411
        ]
      },
      "properties": {
        "routeId": "new-taipei-220082",
        "city": "new-taipei",
        "lineid": "220082",
        "linename": "B11路線晚上",
        "rank": "13",
        "village": "溪福里",
        "name": "篤行路三段玉平巷76弄口"
      }
    },
    {
      "type": "Feature",
      "geometry": {
        "type": "Point",
        "coordinates": [
          121.4279349,
          24.986128
        ]
      },
      "properties": {
        "routeId": "new-taipei-220082",
        "city": "new-taipei",
        "lineid": "220082",
        "linename": "B11路線晚上",
        "rank": "14",
        "village": "溪福里",
        "name": "篤行路三段51號"
      }
    },
    {
      "type": "Feature",
      "geometry": {
        "type": "Point",
        "coordinates": [
          121.4285851,
          24.9868193
        ]
      },
      "properties": {
        "routeId": "new-taipei-220082",
        "city": "new-taipei",
        "lineid": "220082",
        "linename": "B11路線晚上",
        "rank": "15",
        "village": "溪福里",
        "name": "篤行路三段43號"
      }
    },
    {
      "type": "Feature",
      "geometry": {
        "type": "Point",
        "coordinates": [
          121.428757,
          24.9870119
        ]
      },
      "properties": {
        "routeId": "new-taipei-220082",
        "city": "new-taipei",
        "lineid": "220082",
        "linename": "B11路線晚上",
        "rank": "16",
        "village": "溪福里",
        "name": "篤行路三段41號"
      }
    },
    {
      "type": "Feature",
      "geometry": {
        "type": "Point",
        "coordinates": [
          121.4293086,
          24.9876613
        ]
      },
      "properties": {
        "routeId": "new-taipei-220082",
        "city": "new-taipei",
        "lineid": "220082",
        "linename": "B11路線晚上",
        "rank": "17",
        "village": "溪福里",
        "name": "篤行路三段7號"
      }
    },
    {
      "type": "Feature",
      "geometry": {
        "type": "Point",
        "coordinates": [
          121.4296587,
          24.9880819
        ]
      },
      "properties": {
        "routeId": "new-taipei-220082",
        "city": "new-taipei",
        "lineid": "220082",
        "linename": "B11路線晚上",
        "rank": "18",
        "village": "堂春里",
        "name": "篤行路二段147號"
      }
    },
    {
      "type": "Feature",
      "geometry": {
        "type": "Point",
        "coordinates": [
          121.4298349,
          24.9882954
        ]
      },
      "properties": {
        "routeId": "new-taipei-220082",
        "city": "new-taipei",
        "lineid": "220082",
        "linename": "B11路線晚上",
        "rank": "19",
        "village": "堂春里",
        "name": "篤行路二段139號"
      }
    },
    {
      "type": "Feature",
      "geometry": {
        "type": "Point",
        "coordinates": [
          121.4292625,
          24.9887335
        ]
      },
      "properties": {
        "routeId": "new-taipei-220082",
        "city": "new-taipei",
        "lineid": "220082",
        "linename": "B11路線晚上",
        "rank": "20",
        "village": "溪北里",
        "name": "溪崑一街116號"
      }
    },
    {
      "type": "Feature",
      "geometry": {
        "type": "Point",
        "coordinates": [
          121.4290756,
          24.988091
        ]
      },
      "properties": {
        "routeId": "new-taipei-220082",
        "city": "new-taipei",
        "lineid": "220082",
        "linename": "B11路線晚上",
        "rank": "21",
        "village": "溪北里",
        "name": "滿平街139號"
      }
    },
    {
      "type": "Feature",
      "geometry": {
        "type": "Point",
        "coordinates": [
          121.4284719,
          24.9885083
        ]
      },
      "properties": {
        "routeId": "new-taipei-220082",
        "city": "new-taipei",
        "lineid": "220082",
        "linename": "B11路線晚上",
        "rank": "22",
        "village": "溪北里",
        "name": "滿平街111號"
      }
    },
    {
      "type": "Feature",
      "geometry": {
        "type": "Point",
        "coordinates": [
          121.4279726,
          24.9889054
        ]
      },
      "properties": {
        "routeId": "new-taipei-220082",
        "city": "new-taipei",
        "lineid": "220082",
        "linename": "B11路線晚上",
        "rank": "23",
        "village": "溪北里",
        "name": "滿平街85號"
      }
    },
    {
      "type": "Feature",
      "geometry": {
        "type": "Point",
        "coordinates": [
          121.4276758,
          24.9891293
        ]
      },
      "properties": {
        "routeId": "new-taipei-220082",
        "city": "new-taipei",
        "lineid": "220082",
        "linename": "B11路線晚上",
        "rank": "24",
        "village": "溪北里",
        "name": "滿平街67號"
      }
    },
    {
      "type": "Feature",
      "geometry": {
        "type": "Point",
        "coordinates": [
          121.42739,
          24.989354
        ]
      },
      "properties": {
        "routeId": "new-taipei-220082",
        "city": "new-taipei",
        "lineid": "220082",
        "linename": "B11路線晚上",
        "rank": "25",
        "village": "溪北里",
        "name": "滿平街55號"
      }
    },
    {
      "type": "Feature",
      "geometry": {
        "type": "Point",
        "coordinates": [
          121.4272841,
          24.9901372
        ]
      },
      "properties": {
        "routeId": "new-taipei-220082",
        "city": "new-taipei",
        "lineid": "220082",
        "linename": "B11路線晚上",
        "rank": "26",
        "village": "溪北里",
        "name": "溪北路33號"
      }
    },
    {
      "type": "Feature",
      "geometry": {
        "type": "Point",
        "coordinates": [
          121.4269497,
          24.990331
        ]
      },
      "properties": {
        "routeId": "new-taipei-220082",
        "city": "new-taipei",
        "lineid": "220082",
        "linename": "B11路線晚上",
        "rank": "27",
        "village": "溪北里",
        "name": "溪北路15號"
      }
    },
    {
      "type": "Feature",
      "geometry": {
        "type": "Point",
        "coordinates": [
          121.4265903,
          24.9905393
        ]
      },
      "properties": {
        "routeId": "new-taipei-220082",
        "city": "new-taipei",
        "lineid": "220082",
        "linename": "B11路線晚上",
        "rank": "28",
        "village": "溪北里",
        "name": "溪北路1號"
      }
    },
    {
      "type": "Feature",
      "geometry": {
        "type": "Point",
        "coordinates": [
          121.427168,
          24.991148
        ]
      },
      "properties": {
        "routeId": "new-taipei-220082",
        "city": "new-taipei",
        "lineid": "220082",
        "linename": "B11路線晚上",
        "rank": "29",
        "village": "溪北里",
        "name": "溪崑二街66巷底與板林路交叉口"
      }
    },
    {
      "type": "Feature",
      "geometry": {
        "type": "Point",
        "coordinates": [
          121.4289477,
          24.9923941
        ]
      },
      "properties": {
        "routeId": "new-taipei-220082",
        "city": "new-taipei",
        "lineid": "220082",
        "linename": "B11路線晚上",
        "rank": "30",
        "village": "崑崙里",
        "name": "大觀路三段269巷口"
      }
    },
    {
      "type": "Feature",
      "geometry": {
        "type": "Point",
        "coordinates": [
          121.4289961,
          24.9919497
        ]
      },
      "properties": {
        "routeId": "new-taipei-220082",
        "city": "new-taipei",
        "lineid": "220082",
        "linename": "B11路線晚上",
        "rank": "31",
        "village": "崑崙里",
        "name": "溪崑二街10號"
      }
    },
    {
      "type": "Feature",
      "geometry": {
        "type": "Point",
        "coordinates": [
          121.4286564,
          24.9914053
        ]
      },
      "properties": {
        "routeId": "new-taipei-220082",
        "city": "new-taipei",
        "lineid": "220082",
        "linename": "B11路線晚上",
        "rank": "32",
        "village": "溪北里",
        "name": "溪崑二街22巷口"
      }
    },
    {
      "type": "Feature",
      "geometry": {
        "type": "Point",
        "coordinates": [
          121.4284388,
          24.991101
        ]
      },
      "properties": {
        "routeId": "new-taipei-220082",
        "city": "new-taipei",
        "lineid": "220082",
        "linename": "B11路線晚上",
        "rank": "33",
        "village": "溪北里",
        "name": "溪崑二街36號"
      }
    },
    {
      "type": "Feature",
      "geometry": {
        "type": "Point",
        "coordinates": [
          121.4282982,
          24.9909034
        ]
      },
      "properties": {
        "routeId": "new-taipei-220082",
        "city": "new-taipei",
        "lineid": "220082",
        "linename": "B11路線晚上",
        "rank": "34",
        "village": "溪北里",
        "name": "溪崑二街44號"
      }
    },
    {
      "type": "Feature",
      "geometry": {
        "type": "Point",
        "coordinates": [
          121.4280729,
          24.9905863
        ]
      },
      "properties": {
        "routeId": "new-taipei-220082",
        "city": "new-taipei",
        "lineid": "220082",
        "linename": "B11路線晚上",
        "rank": "35",
        "village": "溪北里",
        "name": "溪崑二街56巷口"
      }
    },
    {
      "type": "Feature",
      "geometry": {
        "type": "Point",
        "coordinates": [
          121.4279302,
          24.9903873
        ]
      },
      "properties": {
        "routeId": "new-taipei-220082",
        "city": "new-taipei",
        "lineid": "220082",
        "linename": "B11路線晚上",
        "rank": "36",
        "village": "溪北里",
        "name": "溪崑二街64號"
      }
    },
    {
      "type": "Feature",
      "geometry": {
        "type": "Point",
        "coordinates": [
          121.4273203,
          24.9896372
        ]
      },
      "properties": {
        "routeId": "new-taipei-220082",
        "city": "new-taipei",
        "lineid": "220082",
        "linename": "B11路線晚上",
        "rank": "37",
        "village": "溪北里",
        "name": "溪崑二街84號"
      }
    },
    {
      "type": "Feature",
      "geometry": {
        "type": "Point",
        "coordinates": [
          121.4268117,
          24.9890068
        ]
      },
      "properties": {
        "routeId": "new-taipei-220082",
        "city": "new-taipei",
        "lineid": "220082",
        "linename": "B11路線晚上",
        "rank": "38",
        "village": "溪北里",
        "name": "溪崑二街96巷口"
      }
    },
    {
      "type": "Feature",
      "geometry": {
        "type": "Point",
        "coordinates": [
          121.4266168,
          24.9887601
        ]
      },
      "properties": {
        "routeId": "new-taipei-220082",
        "city": "new-taipei",
        "lineid": "220082",
        "linename": "B11路線晚上",
        "rank": "39",
        "village": "溪洲里",
        "name": "溪崑二街106巷口"
      }
    },
    {
      "type": "Feature",
      "geometry": {
        "type": "Point",
        "coordinates": [
          121.4261968,
          24.9882555
        ]
      },
      "properties": {
        "routeId": "new-taipei-220082",
        "city": "new-taipei",
        "lineid": "220082",
        "linename": "B11路線晚上",
        "rank": "40",
        "village": "溪洲里",
        "name": "溪崑二街118巷口"
      }
    },
    {
      "type": "Feature",
      "geometry": {
        "type": "Point",
        "coordinates": [
          121.4259405,
          24.9878652
        ]
      },
      "properties": {
        "routeId": "new-taipei-220082",
        "city": "new-taipei",
        "lineid": "220082",
        "linename": "B11路線晚上",
        "rank": "41",
        "village": "溪洲里",
        "name": "停整點:溪崑二街132巷口(公園王)"
      }
    },
    {
      "type": "Feature",
      "geometry": {
        "type": "Point",
        "coordinates": [
          121.4259311,
          24.9873607
        ]
      },
      "properties": {
        "routeId": "new-taipei-220082",
        "city": "new-taipei",
        "lineid": "220082",
        "linename": "B11路線晚上",
        "rank": "42",
        "village": "溪洲里",
        "name": "溪崑二街78號"
      }
    },
    {
      "type": "Feature",
      "geometry": {
        "type": "Point",
        "coordinates": [
          121.426186,
          24.986703
        ]
      },
      "properties": {
        "routeId": "new-taipei-220082",
        "city": "new-taipei",
        "lineid": "220082",
        "linename": "B11路線晚上",
        "rank": "43",
        "village": "溪洲里",
        "name": "滿平街84巷92號"
      }
    },
    {
      "type": "Feature",
      "geometry": {
        "type": "Point",
        "coordinates": [
          121.426532,
          24.986543
        ]
      },
      "properties": {
        "routeId": "new-taipei-220082",
        "city": "new-taipei",
        "lineid": "220082",
        "linename": "B11路線晚上",
        "rank": "44",
        "village": "溪洲里",
        "name": "滿平街84巷102號"
      }
    },
    {
      "type": "Feature",
      "geometry": {
        "type": "Point",
        "coordinates": [
          121.426704,
          24.986312
        ]
      },
      "properties": {
        "routeId": "new-taipei-220082",
        "city": "new-taipei",
        "lineid": "220082",
        "linename": "B11路線晚上",
        "rank": "45",
        "village": "溪福里",
        "name": "滿平街84巷114號"
      }
    },
    {
      "type": "Feature",
      "geometry": {
        "type": "Point",
        "coordinates": [
          121.4271316,
          24.9861846
        ]
      },
      "properties": {
        "routeId": "new-taipei-220082",
        "city": "new-taipei",
        "lineid": "220082",
        "linename": "B11路線晚上",
        "rank": "46",
        "village": "溪福里",
        "name": "篤行路三段玉平巷76弄17號"
      }
    },
    {
      "type": "Feature",
      "geometry": {
        "type": "Point",
        "coordinates": [
          121.428095,
          24.9844588
        ]
      },
      "properties": {
        "routeId": "new-taipei-220082",
        "city": "new-taipei",
        "lineid": "220082",
        "linename": "B11路線晚上",
        "rank": "47",
        "village": "溪福里",
        "name": "金門街379巷口"
      }
    },
    {
      "type": "Feature",
      "geometry": {
        "type": "Point",
        "coordinates": [
          121.428543,
          24.984877
        ]
      },
      "properties": {
        "routeId": "new-taipei-220082",
        "city": "new-taipei",
        "lineid": "220082",
        "linename": "B11路線晚上",
        "rank": "48",
        "village": "溪福里",
        "name": "金門街361巷口(米蘭A、B棟)"
      }
    },
    {
      "type": "Feature",
      "geometry": {
        "type": "Point",
        "coordinates": [
          121.4288707,
          24.9852921
        ]
      },
      "properties": {
        "routeId": "new-taipei-220082",
        "city": "new-taipei",
        "lineid": "220082",
        "linename": "B11路線晚上",
        "rank": "49",
        "village": "溪福里",
        "name": "金門街347號"
      }
    },
    {
      "type": "Feature",
      "geometry": {
        "type": "Point",
        "coordinates": [
          121.4298325,
          24.9863258
        ]
      },
      "properties": {
        "routeId": "new-taipei-220082",
        "city": "new-taipei",
        "lineid": "220082",
        "linename": "B11路線晚上",
        "rank": "50",
        "village": "溪福里",
        "name": "金門街309號(大樓)"
      }
    },
    {
      "type": "Feature",
      "geometry": {
        "type": "Point",
        "coordinates": [
          121.4313172,
          24.9881651
        ]
      },
      "properties": {
        "routeId": "new-taipei-220082",
        "city": "new-taipei",
        "lineid": "220082",
        "linename": "B11路線晚上",
        "rank": "51",
        "village": "堂春里",
        "name": "金門街281號"
      }
    },
    {
      "type": "Feature",
      "geometry": {
        "type": "Point",
        "coordinates": [
          121.4315927,
          24.9885639
        ]
      },
      "properties": {
        "routeId": "new-taipei-220082",
        "city": "new-taipei",
        "lineid": "220082",
        "linename": "B11路線晚上",
        "rank": "52",
        "village": "堂春里",
        "name": "金門街267號"
      }
    },
    {
      "type": "Feature",
      "geometry": {
        "type": "Point",
        "coordinates": [
          121.4319034,
          24.9889382
        ]
      },
      "properties": {
        "routeId": "new-taipei-220082",
        "city": "new-taipei",
        "lineid": "220082",
        "linename": "B11路線晚上",
        "rank": "53",
        "village": "堂春里",
        "name": "金門街249號"
      }
    },
    {
      "type": "Feature",
      "geometry": {
        "type": "Point",
        "coordinates": [
          121.4322481,
          24.9894688
        ]
      },
      "properties": {
        "routeId": "new-taipei-220082",
        "city": "new-taipei",
        "lineid": "220082",
        "linename": "B11路線晚上",
        "rank": "54",
        "village": "堂春里",
        "name": "金門街229號"
      }
    },
    {
      "type": "Feature",
      "geometry": {
        "type": "Point",
        "coordinates": [
          121.4328872,
          24.9912179
        ]
      },
      "properties": {
        "routeId": "new-taipei-220082",
        "city": "new-taipei",
        "lineid": "220082",
        "linename": "B11路線晚上",
        "rank": "55",
        "village": "成和里",
        "name": "金門街137巷口"
      }
    },
    {
      "type": "Feature",
      "geometry": {
        "type": "Point",
        "coordinates": [
          121.4330096,
          24.9915491
        ]
      },
      "properties": {
        "routeId": "new-taipei-220082",
        "city": "new-taipei",
        "lineid": "220082",
        "linename": "B11路線晚上",
        "rank": "56",
        "village": "成和里",
        "name": "金門街127巷口"
      }
    },
    {
      "type": "Feature",
      "geometry": {
        "type": "Point",
        "coordinates": [
          121.4331399,
          24.9922915
        ]
      },
      "properties": {
        "routeId": "new-taipei-220082",
        "city": "new-taipei",
        "lineid": "220082",
        "linename": "B11路線晚上",
        "rank": "57",
        "village": "成和里",
        "name": "金門街101號"
      }
    },
    {
      "type": "Feature",
      "geometry": {
        "type": "Point",
        "coordinates": [
          121.4331863,
          24.9928194
        ]
      },
      "properties": {
        "routeId": "new-taipei-220082",
        "city": "new-taipei",
        "lineid": "220082",
        "linename": "B11路線晚上",
        "rank": "58",
        "village": "成和里",
        "name": "金門街67巷口"
      }
    },
    {
      "type": "Feature",
      "geometry": {
        "type": "Point",
        "coordinates": [
          121.433308,
          24.9936615
        ]
      },
      "properties": {
        "routeId": "new-taipei-220082",
        "city": "new-taipei",
        "lineid": "220082",
        "linename": "B11路線晚上",
        "rank": "59",
        "village": "成和里",
        "name": "停整點:金門街43號"
      }
    },
    {
      "type": "Feature",
      "geometry": {
        "type": "Point",
        "coordinates": [
          121.4315014,
          24.9931712
        ]
      },
      "properties": {
        "routeId": "new-taipei-220082",
        "city": "new-taipei",
        "lineid": "220082",
        "linename": "B11路線晚上",
        "rank": "60",
        "village": "崑崙里",
        "name": "大觀路三段160巷口(養老院)"
      }
    },
    {
      "type": "Feature",
      "geometry": {
        "type": "Point",
        "coordinates": [
          121.4311513,
          24.9927913
        ]
      },
      "properties": {
        "routeId": "new-taipei-220082",
        "city": "new-taipei",
        "lineid": "220082",
        "linename": "B11路線晚上",
        "rank": "61",
        "village": "崑崙里",
        "name": "大觀路三段180巷口"
      }
    },
    {
      "type": "Feature",
      "geometry": {
        "type": "Point",
        "coordinates": [
          121.4306542,
          24.9923776
        ]
      },
      "properties": {
        "routeId": "new-taipei-220082",
        "city": "new-taipei",
        "lineid": "220082",
        "linename": "B11路線晚上",
        "rank": "62",
        "village": "崑崙里",
        "name": "大觀路三段212巷口"
      }
    },
    {
      "type": "Feature",
      "geometry": {
        "type": "Point",
        "coordinates": [
          121.4301542,
          24.9921282
        ]
      },
      "properties": {
        "routeId": "new-taipei-220082",
        "city": "new-taipei",
        "lineid": "220082",
        "linename": "B11路線晚上",
        "rank": "63",
        "village": "崑崙里",
        "name": "大觀路三段222號(野宴)"
      }
    },
    {
      "type": "Feature",
      "geometry": {
        "type": "Point",
        "coordinates": [
          121.4294964,
          24.9921346
        ]
      },
      "properties": {
        "routeId": "new-taipei-220082",
        "city": "new-taipei",
        "lineid": "220082",
        "linename": "B11路線晚上",
        "rank": "64",
        "village": "崑崙里",
        "name": "大觀路三段236號(養老院)"
      }
    },
    {
      "type": "Feature",
      "geometry": {
        "type": "Point",
        "coordinates": [
          121.4293036,
          24.992526
        ]
      },
      "properties": {
        "routeId": "new-taipei-220082",
        "city": "new-taipei",
        "lineid": "220082",
        "linename": "B11路線晚上",
        "rank": "65",
        "village": "崑崙里",
        "name": "大觀路三段236號之12"
      }
    },
    {
      "type": "Feature",
      "geometry": {
        "type": "Point",
        "coordinates": [
          121.429549,
          24.9930195
        ]
      },
      "properties": {
        "routeId": "new-taipei-220082",
        "city": "new-taipei",
        "lineid": "220082",
        "linename": "B11路線晚上",
        "rank": "66",
        "village": "崑崙里",
        "name": "大觀路三段212巷34號(養老院)"
      }
    },
    {
      "type": "Feature",
      "geometry": {
        "type": "Point",
        "coordinates": [
          121.4298684,
          24.9935784
        ]
      },
      "properties": {
        "routeId": "new-taipei-220082",
        "city": "new-taipei",
        "lineid": "220082",
        "linename": "B11路線晚上",
        "rank": "67",
        "village": "崑崙里",
        "name": "大觀路三段180巷尾"
      }
    },
    {
      "type": "Feature",
      "geometry": {
        "type": "Point",
        "coordinates": [
          121.4299449,
          24.9938336
        ]
      },
      "properties": {
        "routeId": "new-taipei-220082",
        "city": "new-taipei",
        "lineid": "220082",
        "linename": "B11路線晚上",
        "rank": "68",
        "village": "崑崙里",
        "name": "大觀路三段160巷34弄2號"
      }
    },
    {
      "type": "Feature",
      "geometry": {
        "type": "Point",
        "coordinates": [
          121.4308039,
          24.9943907
        ]
      },
      "properties": {
        "routeId": "new-taipei-220082",
        "city": "new-taipei",
        "lineid": "220082",
        "linename": "B11路線晚上",
        "rank": "69",
        "village": "崑崙里",
        "name": "沙崙街31號"
      }
    },
    {
      "type": "Feature",
      "geometry": {
        "type": "Point",
        "coordinates": [
          121.4312698,
          24.9942937
        ]
      },
      "properties": {
        "routeId": "new-taipei-220082",
        "city": "new-taipei",
        "lineid": "220082",
        "linename": "B11路線晚上",
        "rank": "70",
        "village": "崑崙里",
        "name": "沙崙街25號"
      }
    },
    {
      "type": "Feature",
      "geometry": {
        "type": "Point",
        "coordinates": [
          121.4317106,
          24.9942197
        ]
      },
      "properties": {
        "routeId": "new-taipei-220082",
        "city": "new-taipei",
        "lineid": "220082",
        "linename": "B11路線晚上",
        "rank": "71",
        "village": "崑崙里",
        "name": "沙崙街19號"
      }
    },
    {
      "type": "Feature",
      "geometry": {
        "type": "Point",
        "coordinates": [
          121.4307255,
          24.9920927
        ]
      },
      "properties": {
        "routeId": "new-taipei-220082",
        "city": "new-taipei",
        "lineid": "220082",
        "linename": "B11路線晚上",
        "rank": "72",
        "village": "崑崙里",
        "name": "溪崑一街19號對面"
      }
    },
    {
      "type": "Feature",
      "geometry": {
        "type": "Point",
        "coordinates": [
          121.4302785,
          24.9912739
        ]
      },
      "properties": {
        "routeId": "new-taipei-220082",
        "city": "new-taipei",
        "lineid": "220082",
        "linename": "B11路線晚上",
        "rank": "73",
        "village": "崑崙里",
        "name": "溪崑一街16巷口"
      }
    },
    {
      "type": "Feature",
      "geometry": {
        "type": "Point",
        "coordinates": [
          121.429815,
          24.9906234
        ]
      },
      "properties": {
        "routeId": "new-taipei-220082",
        "city": "new-taipei",
        "lineid": "220082",
        "linename": "B11路線晚上",
        "rank": "74",
        "village": "溪北里",
        "name": "溪崑一街42號"
      }
    },
    {
      "type": "Feature",
      "geometry": {
        "type": "Point",
        "coordinates": [
          121.4296085,
          24.9903432
        ]
      },
      "properties": {
        "routeId": "new-taipei-220082",
        "city": "new-taipei",
        "lineid": "220082",
        "linename": "B11路線晚上",
        "rank": "75",
        "village": "溪北里",
        "name": "溪崑一街52巷口"
      }
    },
    {
      "type": "Feature",
      "geometry": {
        "type": "Point",
        "coordinates": [
          121.4292622,
          24.9899346
        ]
      },
      "properties": {
        "routeId": "new-taipei-220082",
        "city": "new-taipei",
        "lineid": "220082",
        "linename": "B11路線晚上",
        "rank": "76",
        "village": "溪北里",
        "name": "溪崑一街72巷口"
      }
    },
    {
      "type": "Feature",
      "geometry": {
        "type": "Point",
        "coordinates": [
          121.4290348,
          24.9894973
        ]
      },
      "properties": {
        "routeId": "new-taipei-220082",
        "city": "new-taipei",
        "lineid": "220082",
        "linename": "B11路線晚上",
        "rank": "77",
        "village": "溪北里",
        "name": "溪崑一街94號"
      }
    },
    {
      "type": "Feature",
      "geometry": {
        "type": "Point",
        "coordinates": [
          121.4286464,
          24.9893301
        ]
      },
      "properties": {
        "routeId": "new-taipei-220082",
        "city": "new-taipei",
        "lineid": "220082",
        "linename": "B11路線晚上",
        "rank": "78",
        "village": "溪北里",
        "name": "溪北路97號"
      }
    },
    {
      "type": "Feature",
      "geometry": {
        "type": "Point",
        "coordinates": [
          121.4281918,
          24.9896749
        ]
      },
      "properties": {
        "routeId": "new-taipei-220082",
        "city": "new-taipei",
        "lineid": "220082",
        "linename": "B11路線晚上",
        "rank": "79",
        "village": "溪北里",
        "name": "溪北路71號"
      }
    },
    {
      "type": "Feature",
      "geometry": {
        "type": "Point",
        "coordinates": [
          121.4278185,
          24.9898232
        ]
      },
      "properties": {
        "routeId": "new-taipei-220082",
        "city": "new-taipei",
        "lineid": "220082",
        "linename": "B11路線晚上",
        "rank": "80",
        "village": "溪北里",
        "name": "溪北路55號"
      }
    },
    {
      "type": "Feature",
      "geometry": {
        "type": "Point",
        "coordinates": [
          121.4297784,
          24.9919174
        ]
      },
      "properties": {
        "routeId": "new-taipei-220082",
        "city": "new-taipei",
        "lineid": "220082",
        "linename": "B11路線晚上",
        "rank": "81",
        "village": "崑崙里",
        "name": "存德街16號"
      }
    },
    {
      "type": "Feature",
      "geometry": {
        "type": "Point",
        "coordinates": [
          121.4301659,
          24.9917243
        ]
      },
      "properties": {
        "routeId": "new-taipei-220082",
        "city": "new-taipei",
        "lineid": "220082",
        "linename": "B11路線晚上",
        "rank": "82",
        "village": "崑崙里",
        "name": "存德街28號"
      }
    },
    {
      "type": "Feature",
      "geometry": {
        "type": "Point",
        "coordinates": [
          121.4308136,
          24.9914645
        ]
      },
      "properties": {
        "routeId": "new-taipei-220082",
        "city": "new-taipei",
        "lineid": "220082",
        "linename": "B11路線晚上",
        "rank": "83",
        "village": "崑崙里",
        "name": "存德街58號"
      }
    },
    {
      "type": "Feature",
      "geometry": {
        "type": "Point",
        "coordinates": [
          121.4316581,
          24.9912077
        ]
      },
      "properties": {
        "routeId": "new-taipei-220082",
        "city": "new-taipei",
        "lineid": "220082",
        "linename": "B11路線晚上",
        "rank": "84",
        "village": "崑崙里",
        "name": "篤行路二段107號"
      }
    },
    {
      "type": "Feature",
      "geometry": {
        "type": "Point",
        "coordinates": [
          121.4319084,
          24.9911064
        ]
      },
      "properties": {
        "routeId": "new-taipei-220082",
        "city": "new-taipei",
        "lineid": "220082",
        "linename": "B11路線晚上",
        "rank": "85",
        "village": "崑崙里",
        "name": "存德街78巷口"
      }
    },
    {
      "type": "Feature",
      "geometry": {
        "type": "Point",
        "coordinates": [
          121.4322999,
          24.9909839
        ]
      },
      "properties": {
        "routeId": "new-taipei-220082",
        "city": "new-taipei",
        "lineid": "220082",
        "linename": "B11路線晚上",
        "rank": "86",
        "village": "崑崙里",
        "name": "存德街92巷口"
      }
    },
    {
      "type": "Feature",
      "geometry": {
        "type": "Point",
        "coordinates": [
          121.4325965,
          24.9909087
        ]
      },
      "properties": {
        "routeId": "new-taipei-220082",
        "city": "new-taipei",
        "lineid": "220082",
        "linename": "B11路線晚上",
        "rank": "87",
        "village": "崑崙里",
        "name": "金門街184號旁"
      }
    },
    {
      "type": "Feature",
      "geometry": {
        "type": "Point",
        "coordinates": [
          121.432581,
          24.990346
        ]
      },
      "properties": {
        "routeId": "new-taipei-220082",
        "city": "new-taipei",
        "lineid": "220082",
        "linename": "B11路線晚上",
        "rank": "88",
        "village": "崑崙里",
        "name": "金門街202號"
      }
    },
    {
      "type": "Feature",
      "geometry": {
        "type": "Point",
        "coordinates": [
          121.4319377,
          24.9903147
        ]
      },
      "properties": {
        "routeId": "new-taipei-220082",
        "city": "new-taipei",
        "lineid": "220082",
        "linename": "B11路線晚上",
        "rank": "89",
        "village": "崑崙里",
        "name": "篤行路二段131巷27號"
      }
    },
    {
      "type": "Feature",
      "geometry": {
        "type": "Point",
        "coordinates": [
          121.431561,
          24.9904791
        ]
      },
      "properties": {
        "routeId": "new-taipei-220082",
        "city": "new-taipei",
        "lineid": "220082",
        "linename": "B11路線晚上",
        "rank": "90",
        "village": "崑崙里",
        "name": "篤行路二段131巷1號"
      }
    },
    {
      "type": "Feature",
      "geometry": {
        "type": "Point",
        "coordinates": [
          121.4313253,
          24.9908291
        ]
      },
      "properties": {
        "routeId": "new-taipei-220082",
        "city": "new-taipei",
        "lineid": "220082",
        "linename": "B11路線晚上",
        "rank": "91",
        "village": "崑崙里",
        "name": "篤行路二段119號"
      }
    },
    {
      "type": "Feature",
      "geometry": {
        "type": "Point",
        "coordinates": [
          121.4316274,
          24.9916276
        ]
      },
      "properties": {
        "routeId": "new-taipei-220082",
        "city": "new-taipei",
        "lineid": "220082",
        "linename": "B11路線晚上",
        "rank": "92",
        "village": "崑崙里",
        "name": "篤行路二段93巷口"
      }
    },
    {
      "type": "Feature",
      "geometry": {
        "type": "Point",
        "coordinates": [
          121.4317464,
          24.9922425
        ]
      },
      "properties": {
        "routeId": "new-taipei-220082",
        "city": "new-taipei",
        "lineid": "220082",
        "linename": "B11路線晚上",
        "rank": "93",
        "village": "崑崙里",
        "name": "篤行路二段67巷口"
      }
    },
    {
      "type": "Feature",
      "geometry": {
        "type": "Point",
        "coordinates": [
          121.4318357,
          24.9928401
        ]
      },
      "properties": {
        "routeId": "new-taipei-220082",
        "city": "new-taipei",
        "lineid": "220082",
        "linename": "B11路線晚上",
        "rank": "94",
        "village": "崑崙里",
        "name": "篤行路二段27號"
      }
    },
    {
      "type": "Feature",
      "geometry": {
        "type": "Point",
        "coordinates": [
          121.431897,
          24.993237
        ]
      },
      "properties": {
        "routeId": "new-taipei-220082",
        "city": "new-taipei",
        "lineid": "220082",
        "linename": "B11路線晚上",
        "rank": "95",
        "village": "崑崙里",
        "name": "篤行路二段9號"
      }
    },
    {
      "type": "Feature",
      "geometry": {
        "type": "Point",
        "coordinates": [
          121.4320484,
          24.9937777
        ]
      },
      "properties": {
        "routeId": "new-taipei-220082",
        "city": "new-taipei",
        "lineid": "220082",
        "linename": "B11路線晚上",
        "rank": "96",
        "village": "崑崙里",
        "name": "大觀路三段175號"
      }
    },
    {
      "type": "Feature",
      "geometry": {
        "type": "Point",
        "coordinates": [
          121.432615,
          24.9944124
        ]
      },
      "properties": {
        "routeId": "new-taipei-220082",
        "city": "new-taipei",
        "lineid": "220082",
        "linename": "B11路線晚上",
        "rank": "97",
        "village": "崑崙里",
        "name": "大觀路三段121號"
      }
    }
  ]
}