{
  "type": "FeatureCollection",
  "features": [
    {
      "type": "Feature",
      "geometry": {
        "type": "Point",
        "coordinates": [
          121.346998,
          24.942701
        ]
      },
      "properties": {
        "routeId": "new-taipei-239008",
        "city": "new-taipei",
        "lineid": "239008",
        "linename": "路線8",
        "rank": "1",
        "village": "尖山里",
        "name": "尖山路101巷10號"
      }
    },
    {
      "type": "Feature",
      "geometry": {
        "type": "Point",
        "coordinates": [
          121.349933442955,
          24.9496673854093
        ]
      },
      "properties": {
        "routeId": "new-taipei-239008",
        "city": "new-taipei",
        "lineid": "239008",
        "linename": "路線8",
        "rank": "2",
        "village": "尖山里",
        "name": "尖山路59巷口"
      }
    },
    {
      "type": "Feature",
      "geometry": {
        "type": "Point",
        "coordinates": [
          121.3389412,
          24.96116562
        ]
      },
      "properties": {
        "routeId": "new-taipei-239008",
        "city": "new-taipei",
        "lineid": "239008",
        "linename": "路線8",
        "rank": "3",
        "village": "中湖里",
        "name": "西湖街曾厝巷50號"
      }
    },
    {
      "type": "Feature",
      "geometry": {
        "type": "Point",
        "coordinates": [
          121.33966646,
          24.968666233
        ]
      },
      "properties": {
        "routeId": "new-taipei-239008",
        "city": "new-taipei",
        "lineid": "239008",
        "linename": "路線8",
        "rank": "4",
        "village": "中湖里",
        "name": "西湖街289巷8號"
      }
    },
    {
      "type": "Feature",
      "geometry": {
        "type": "Point",
        "coordinates": [
          121.337268084655,
          24.9727410513063
        ]
      },
      "properties": {
        "routeId": "new-taipei-239008",
        "city": "new-taipei",
        "lineid": "239008",
        "linename": "路線8",
        "rank": "5",
        "village": "大湖里",
        "name": "大湖路532號"
      }
    },
    {
      "type": "Feature",
      "geometry": {
        "type": "Point",
        "coordinates": [
          121.331066060204,
          24.9789379972937
        ]
      },
      "properties": {
        "routeId": "new-taipei-239008",
        "city": "new-taipei",
        "lineid": "239008",
        "linename": "路線8",
        "rank": "6",
        "village": "大湖里",
        "name": "宏德司法新村"
      }
    },
    {
      "type": "Feature",
      "geometry": {
        "type": "Point",
        "coordinates": [
          121.332632491901,
          24.9772487284658
        ]
      },
      "properties": {
        "routeId": "new-taipei-239008",
        "city": "new-taipei",
        "lineid": "239008",
        "linename": "路線8",
        "rank": "7",
        "village": "大湖里",
        "name": "大湖路732巷24號"
      }
    },
    {
      "type": "Feature",
      "geometry": {
        "type": "Point",
        "coordinates": [
          121.335066436039,
          24.9777929067267
        ]
      },
      "properties": {
        "routeId": "new-taipei-239008",
        "city": "new-taipei",
        "lineid": "239008",
        "linename": "路線8",
        "rank": "8",
        "village": "大湖里",
        "name": "國際一路66號"
      }
    },
    {
      "type": "Feature",
      "geometry": {
        "type": "Point",
        "coordinates": [
          121.3368692,
          24.979459
        ]
      },
      "properties": {
        "routeId": "new-taipei-239008",
        "city": "new-taipei",
        "lineid": "239008",
        "linename": "路線8",
        "rank": "9",
        "village": "大湖里",
        "name": "香檳街2號"
      }
    },
    {
      "type": "Feature",
      "geometry": {
        "type": "Point",
        "coordinates": [
          121.335326075167,
          24.9771534595962
        ]
      },
      "properties": {
        "routeId": "new-taipei-239008",
        "city": "new-taipei",
        "lineid": "239008",
        "linename": "路線8",
        "rank": "10",
        "village": "大湖里",
        "name": "欣欣街1號"
      }
    },
    {
      "type": "Feature",
      "geometry": {
        "type": "Point",
        "coordinates": [
          121.3366262,
          24.97760877
        ]
      },
      "properties": {
        "routeId": "new-taipei-239008",
        "city": "new-taipei",
        "lineid": "239008",
        "linename": "路線8",
        "rank": "11",
        "village": "大湖里",
        "name": "明園街31號"
      }
    },
    {
      "type": "Feature",
      "geometry": {
        "type": "Point",
        "coordinates": [
          121.336276,
          24.97655329
        ]
      },
      "properties": {
        "routeId": "new-taipei-239008",
        "city": "new-taipei",
        "lineid": "239008",
        "linename": "路線8",
        "rank": "12",
        "village": "大湖里",
        "name": "朝陽街1號"
      }
    },
    {
      "type": "Feature",
      "geometry": {
        "type": "Point",
        "coordinates": [
          121.338148720511,
          24.9779065878327
        ]
      },
      "properties": {
        "routeId": "new-taipei-239008",
        "city": "new-taipei",
        "lineid": "239008",
        "linename": "路線8",
        "rank": "13",
        "village": "大湖里",
        "name": "朝陽街53巷18號"
      }
    },
    {
      "type": "Feature",
      "geometry": {
        "type": "Point",
        "coordinates": [
          121.33730084034,
          24.9763430607993
        ]
      },
      "properties": {
        "routeId": "new-taipei-239008",
        "city": "new-taipei",
        "lineid": "239008",
        "linename": "路線8",
        "rank": "14",
        "village": "大湖里",
        "name": "晨曦街16號"
      }
    },
    {
      "type": "Feature",
      "geometry": {
        "type": "Point",
        "coordinates": [
          121.3356348,
          24.97593178
        ]
      },
      "properties": {
        "routeId": "new-taipei-239008",
        "city": "new-taipei",
        "lineid": "239008",
        "linename": "路線8",
        "rank": "15",
        "village": "大湖里",
        "name": "國際二路70巷25號"
      }
    },
    {
      "type": "Feature",
      "geometry": {
        "type": "Point",
        "coordinates": [
          121.337183749141,
          24.9749563659374
        ]
      },
      "properties": {
        "routeId": "new-taipei-239008",
        "city": "new-taipei",
        "lineid": "239008",
        "linename": "路線8",
        "rank": "16",
        "village": "大湖里",
        "name": "國際二路18巷7號"
      }
    },
    {
      "type": "Feature",
      "geometry": {
        "type": "Point",
        "coordinates": [
          121.338441234662,
          24.9744347273597
        ]
      },
      "properties": {
        "routeId": "new-taipei-239008",
        "city": "new-taipei",
        "lineid": "239008",
        "linename": "路線8",
        "rank": "17",
        "village": "大湖里",
        "name": "國際二路10巷16號"
      }
    },
    {
      "type": "Feature",
      "geometry": {
        "type": "Point",
        "coordinates": [
          121.3370341694751,
          24.973327175091622
        ]
      },
      "properties": {
        "routeId": "new-taipei-239008",
        "city": "new-taipei",
        "lineid": "239008",
        "linename": "路線8",
        "rank": "18",
        "village": "大湖里",
        "name": "大湖路548巷2弄口"
      }
    },
    {
      "type": "Feature",
      "geometry": {
        "type": "Point",
        "coordinates": [
          121.339993915344,
          24.9722429481376
        ]
      },
      "properties": {
        "routeId": "new-taipei-239008",
        "city": "new-taipei",
        "lineid": "239008",
        "linename": "路線8",
        "rank": "19",
        "village": "中湖里",
        "name": "大湖路460巷1號"
      }
    }
  ]
}