{
  "type": "FeatureCollection",
  "features": [
    {
      "type": "Feature",
      "geometry": {
        "type": "Point",
        "coordinates": [
          121.727352,
          25.023756
        ]
      },
      "properties": {
        "routeId": "new-taipei-226004",
        "city": "new-taipei",
        "lineid": "226004",
        "linename": "D路線",
        "rank": "1",
        "village": "菁桐里",
        "name": "菁桐國小"
      }
    },
    {
      "type": "Feature",
      "geometry": {
        "type": "Point",
        "coordinates": [
          121.723053,
          25.023393
        ]
      },
      "properties": {
        "routeId": "new-taipei-226004",
        "city": "new-taipei",
        "lineid": "226004",
        "linename": "D路線",
        "rank": "2",
        "village": "菁桐里",
        "name": "萊爾富旁公車站牌"
      }
    },
    {
      "type": "Feature",
      "geometry": {
        "type": "Point",
        "coordinates": [
          121.710327,
          25.017735
        ]
      },
      "properties": {
        "routeId": "new-taipei-226004",
        "city": "new-taipei",
        "lineid": "226004",
        "linename": "D路線",
        "rank": "3",
        "village": "白石里",
        "name": "黃聰明厝"
      }
    },
    {
      "type": "Feature",
      "geometry": {
        "type": "Point",
        "coordinates": [
          121.704975,
          25.018846
        ]
      },
      "properties": {
        "routeId": "new-taipei-226004",
        "city": "new-taipei",
        "lineid": "226004",
        "linename": "D路線",
        "rank": "4",
        "village": "薯榔里",
        "name": "大香山3巷45號"
      }
    },
    {
      "type": "Feature",
      "geometry": {
        "type": "Point",
        "coordinates": [
          121.712886,
          25.02261
        ]
      },
      "properties": {
        "routeId": "new-taipei-226004",
        "city": "new-taipei",
        "lineid": "226004",
        "linename": "D路線",
        "rank": "5",
        "village": "薯榔里",
        "name": "一坑農路底迴轉處"
      }
    },
    {
      "type": "Feature",
      "geometry": {
        "type": "Point",
        "coordinates": [
          121.73757,
          25.024355
        ]
      },
      "properties": {
        "routeId": "new-taipei-226004",
        "city": "new-taipei",
        "lineid": "226004",
        "linename": "D路線",
        "rank": "6",
        "village": "石底里",
        "name": "平溪7-11延線"
      }
    },
    {
      "type": "Feature",
      "geometry": {
        "type": "Point",
        "coordinates": [
          121.73328,
          25.025862
        ]
      },
      "properties": {
        "routeId": "new-taipei-226004",
        "city": "new-taipei",
        "lineid": "226004",
        "linename": "D路線",
        "rank": "7",
        "village": "石底里",
        "name": "資收站換桶下資收物"
      }
    },
    {
      "type": "Feature",
      "geometry": {
        "type": "Point",
        "coordinates": [
          121.737744,
          25.028103
        ]
      },
      "properties": {
        "routeId": "new-taipei-226004",
        "city": "new-taipei",
        "lineid": "226004",
        "linename": "D路線",
        "rank": "8",
        "village": "平溪里",
        "name": "三坑平福橋延線"
      }
    },
    {
      "type": "Feature",
      "geometry": {
        "type": "Point",
        "coordinates": [
          121.738846,
          25.025278
        ]
      },
      "properties": {
        "routeId": "new-taipei-226004",
        "city": "new-taipei",
        "lineid": "226004",
        "linename": "D路線",
        "rank": "9",
        "village": "平溪里",
        "name": "平溪老街十字路口處"
      }
    },
    {
      "type": "Feature",
      "geometry": {
        "type": "Point",
        "coordinates": [
          121.740184,
          25.024959
        ]
      },
      "properties": {
        "routeId": "new-taipei-226004",
        "city": "new-taipei",
        "lineid": "226004",
        "linename": "D路線",
        "rank": "10",
        "village": "石底里",
        "name": "王淑雯厝延線"
      }
    },
    {
      "type": "Feature",
      "geometry": {
        "type": "Point",
        "coordinates": [
          121.776357,
          25.040527
        ]
      },
      "properties": {
        "routeId": "new-taipei-226004",
        "city": "new-taipei",
        "lineid": "226004",
        "linename": "D路線",
        "rank": "11",
        "village": "南山里",
        "name": "靜安路三段262號延線"
      }
    },
    {
      "type": "Feature",
      "geometry": {
        "type": "Point",
        "coordinates": [
          121.776697,
          25.042573
        ]
      },
      "properties": {
        "routeId": "new-taipei-226004",
        "city": "new-taipei",
        "lineid": "226004",
        "linename": "D路線",
        "rank": "12",
        "village": "十分里",
        "name": "十分老街榕樹下"
      }
    },
    {
      "type": "Feature",
      "geometry": {
        "type": "Point",
        "coordinates": [
          121.775378,
          25.041265
        ]
      },
      "properties": {
        "routeId": "new-taipei-226004",
        "city": "new-taipei",
        "lineid": "226004",
        "linename": "D路線",
        "rank": "13",
        "village": "十分里",
        "name": "十分火車站延線"
      }
    },
    {
      "type": "Feature",
      "geometry": {
        "type": "Point",
        "coordinates": [
          121.775204,
          25.043592
        ]
      },
      "properties": {
        "routeId": "new-taipei-226004",
        "city": "new-taipei",
        "lineid": "226004",
        "linename": "D路線",
        "rank": "14",
        "village": "十分里",
        "name": "龍興宮迴轉處"
      }
    },
    {
      "type": "Feature",
      "geometry": {
        "type": "Point",
        "coordinates": [
          121.78434,
          25.049526
        ]
      },
      "properties": {
        "routeId": "new-taipei-226004",
        "city": "new-taipei",
        "lineid": "226004",
        "linename": "D路線",
        "rank": "15",
        "village": "十分里",
        "name": "政達餐廳"
      }
    },
    {
      "type": "Feature",
      "geometry": {
        "type": "Point",
        "coordinates": [
          121.74794,
          25.029925
        ]
      },
      "properties": {
        "routeId": "new-taipei-226004",
        "city": "new-taipei",
        "lineid": "226004",
        "linename": "D路線",
        "rank": "16",
        "village": "嶺腳里",
        "name": "嶺腳車站迴轉處"
      }
    }
  ]
}