{
  "type": "FeatureCollection",
  "features": [
    {
      "type": "Feature",
      "geometry": {
        "type": "Point",
        "coordinates": [
          121.3302374,
          24.95571672
        ]
      },
      "properties": {
        "routeId": "new-taipei-239003",
        "city": "new-taipei",
        "lineid": "239003",
        "linename": "路線3",
        "rank": "1",
        "village": "尖山里",
        "name": "八德路16號"
      }
    },
    {
      "type": "Feature",
      "geometry": {
        "type": "Point",
        "coordinates": [
          121.32994,
          24.95769411
        ]
      },
      "properties": {
        "routeId": "new-taipei-239003",
        "city": "new-taipei",
        "lineid": "239003",
        "linename": "路線3",
        "rank": "2",
        "village": "永吉里",
        "name": "德昌二街70巷32弄59號"
      }
    },
    {
      "type": "Feature",
      "geometry": {
        "type": "Point",
        "coordinates": [
          121.333247722537,
          24.9592554667381
        ]
      },
      "properties": {
        "routeId": "new-taipei-239003",
        "city": "new-taipei",
        "lineid": "239003",
        "linename": "路線3",
        "rank": "3",
        "village": "永吉里",
        "name": "德昌二街47號"
      }
    },
    {
      "type": "Feature",
      "geometry": {
        "type": "Point",
        "coordinates": [
          121.3314411,
          24.9606613
        ]
      },
      "properties": {
        "routeId": "new-taipei-239003",
        "city": "new-taipei",
        "lineid": "239003",
        "linename": "路線3",
        "rank": "4",
        "village": "鳳祥里",
        "name": "德昌街162號"
      }
    },
    {
      "type": "Feature",
      "geometry": {
        "type": "Point",
        "coordinates": [
          121.334869,
          24.960209
        ]
      },
      "properties": {
        "routeId": "new-taipei-239003",
        "city": "new-taipei",
        "lineid": "239003",
        "linename": "路線3",
        "rank": "5",
        "village": "永吉里",
        "name": "鶯桃路289號"
      }
    },
    {
      "type": "Feature",
      "geometry": {
        "type": "Point",
        "coordinates": [
          121.337304206485,
          24.9589402519687
        ]
      },
      "properties": {
        "routeId": "new-taipei-239003",
        "city": "new-taipei",
        "lineid": "239003",
        "linename": "路線3",
        "rank": "6",
        "village": "永吉里",
        "name": "鶯桃路206巷2號"
      }
    },
    {
      "type": "Feature",
      "geometry": {
        "type": "Point",
        "coordinates": [
          121.334414,
          24.959564
        ]
      },
      "properties": {
        "routeId": "new-taipei-239003",
        "city": "new-taipei",
        "lineid": "239003",
        "linename": "路線3",
        "rank": "7",
        "village": "永吉里",
        "name": "鶯桃路295巷22號"
      }
    },
    {
      "type": "Feature",
      "geometry": {
        "type": "Point",
        "coordinates": [
          121.335214,
          24.956998
        ]
      },
      "properties": {
        "routeId": "new-taipei-239003",
        "city": "new-taipei",
        "lineid": "239003",
        "linename": "路線3",
        "rank": "8",
        "village": "永吉里",
        "name": "永吉街46巷5號"
      }
    },
    {
      "type": "Feature",
      "geometry": {
        "type": "Point",
        "coordinates": [
          121.334061,
          24.961695
        ]
      },
      "properties": {
        "routeId": "new-taipei-239003",
        "city": "new-taipei",
        "lineid": "239003",
        "linename": "路線3",
        "rank": "9",
        "village": "鳳鳴里",
        "name": "鶯桃路330號"
      }
    },
    {
      "type": "Feature",
      "geometry": {
        "type": "Point",
        "coordinates": [
          121.3336623,
          24.96348169
        ]
      },
      "properties": {
        "routeId": "new-taipei-239003",
        "city": "new-taipei",
        "lineid": "239003",
        "linename": "路線3",
        "rank": "10",
        "village": "鳳鳴里",
        "name": "福安街2號"
      }
    },
    {
      "type": "Feature",
      "geometry": {
        "type": "Point",
        "coordinates": [
          121.333206,
          24.964145
        ]
      },
      "properties": {
        "routeId": "new-taipei-239003",
        "city": "new-taipei",
        "lineid": "239003",
        "linename": "路線3",
        "rank": "11",
        "village": "鳳鳴里",
        "name": "鶯桃路416號"
      }
    },
    {
      "type": "Feature",
      "geometry": {
        "type": "Point",
        "coordinates": [
          121.333206,
          24.967901
        ]
      },
      "properties": {
        "routeId": "new-taipei-239003",
        "city": "new-taipei",
        "lineid": "239003",
        "linename": "路線3",
        "rank": "12",
        "village": "鳳鳴里",
        "name": "永和街44號"
      }
    },
    {
      "type": "Feature",
      "geometry": {
        "type": "Point",
        "coordinates": [
          121.330656,
          24.967859
        ]
      },
      "properties": {
        "routeId": "new-taipei-239003",
        "city": "new-taipei",
        "lineid": "239003",
        "linename": "路線3",
        "rank": "13",
        "village": "鳳鳴里",
        "name": "鶯桃路568號"
      }
    },
    {
      "type": "Feature",
      "geometry": {
        "type": "Point",
        "coordinates": [
          121.3291147,
          24.96917629
        ]
      },
      "properties": {
        "routeId": "new-taipei-239003",
        "city": "new-taipei",
        "lineid": "239003",
        "linename": "路線3",
        "rank": "14",
        "village": "鳳鳴里",
        "name": "鶯桃路658巷2號"
      }
    },
    {
      "type": "Feature",
      "geometry": {
        "type": "Point",
        "coordinates": [
          121.3337731,
          24.96072057
        ]
      },
      "properties": {
        "routeId": "new-taipei-239003",
        "city": "new-taipei",
        "lineid": "239003",
        "linename": "路線3",
        "rank": "15",
        "village": "鳳祥里",
        "name": "德昌街42號"
      }
    },
    {
      "type": "Feature",
      "geometry": {
        "type": "Point",
        "coordinates": [
          121.3387421,
          24.948254
        ]
      },
      "properties": {
        "routeId": "new-taipei-239003",
        "city": "new-taipei",
        "lineid": "239003",
        "linename": "路線3",
        "rank": "16",
        "village": "尖山里",
        "name": "八德路3-3號"
      }
    },
    {
      "type": "Feature",
      "geometry": {
        "type": "Point",
        "coordinates": [
          121.351709830497,
          24.9515628179784
        ]
      },
      "properties": {
        "routeId": "new-taipei-239003",
        "city": "new-taipei",
        "lineid": "239003",
        "linename": "路線3",
        "rank": "17",
        "village": "南靖里",
        "name": "中正二路3號"
      }
    },
    {
      "type": "Feature",
      "geometry": {
        "type": "Point",
        "coordinates": [
          121.351748,
          24.952851
        ]
      },
      "properties": {
        "routeId": "new-taipei-239003",
        "city": "new-taipei",
        "lineid": "239003",
        "linename": "路線3",
        "rank": "18",
        "village": "南鶯里",
        "name": "重慶街10號"
      }
    }
  ]
}