{
  "type": "FeatureCollection",
  "features": [
    {
      "type": "Feature",
      "geometry": {
        "type": "Point",
        "coordinates": [
          121.4744801,
          25.04736877
        ]
      },
      "properties": {
        "routeId": "new-taipei-241033",
        "city": "new-taipei",
        "lineid": "241033",
        "linename": "路線33下午1",
        "rank": "1",
        "village": "五谷里",
        "name": "重新路5段449號"
      }
    },
    {
      "type": "Feature",
      "geometry": {
        "type": "Point",
        "coordinates": [
          121.4723089,
          25.04665796
        ]
      },
      "properties": {
        "routeId": "new-taipei-241033",
        "city": "new-taipei",
        "lineid": "241033",
        "linename": "路線33下午1",
        "rank": "2",
        "village": "五谷里",
        "name": "重新路5段495號"
      }
    },
    {
      "type": "Feature",
      "geometry": {
        "type": "Point",
        "coordinates": [
          121.4721175226,
          25.0472895879
        ]
      },
      "properties": {
        "routeId": "new-taipei-241033",
        "city": "new-taipei",
        "lineid": "241033",
        "linename": "路線33下午1",
        "rank": "3",
        "village": "五谷里",
        "name": "光復路1段15巷2號"
      }
    },
    {
      "type": "Feature",
      "geometry": {
        "type": "Point",
        "coordinates": [
          121.47304,
          25.04654
        ]
      },
      "properties": {
        "routeId": "new-taipei-241033",
        "city": "new-taipei",
        "lineid": "241033",
        "linename": "路線33下午1",
        "rank": "4",
        "village": "五谷里",
        "name": "重新路5段510號"
      }
    },
    {
      "type": "Feature",
      "geometry": {
        "type": "Point",
        "coordinates": [
          121.474645589,
          25.0472868323
        ]
      },
      "properties": {
        "routeId": "new-taipei-241033",
        "city": "new-taipei",
        "lineid": "241033",
        "linename": "路線33下午1",
        "rank": "5",
        "village": "五谷里",
        "name": "重新路5段444號"
      }
    },
    {
      "type": "Feature",
      "geometry": {
        "type": "Point",
        "coordinates": [
          121.471168,
          25.043416
        ]
      },
      "properties": {
        "routeId": "new-taipei-241033",
        "city": "new-taipei",
        "lineid": "241033",
        "linename": "路線33下午1",
        "rank": "6",
        "village": "中興里",
        "name": "中興南街80巷7號"
      }
    },
    {
      "type": "Feature",
      "geometry": {
        "type": "Point",
        "coordinates": [
          121.47456,
          25.04486
        ]
      },
      "properties": {
        "routeId": "new-taipei-241033",
        "city": "new-taipei",
        "lineid": "241033",
        "linename": "路線33下午1",
        "rank": "7",
        "village": "五谷里",
        "name": "疏洪西路58號(憶霖公司前)"
      }
    },
    {
      "type": "Feature",
      "geometry": {
        "type": "Point",
        "coordinates": [
          121.4725219709,
          25.0444776826
        ]
      },
      "properties": {
        "routeId": "new-taipei-241033",
        "city": "new-taipei",
        "lineid": "241033",
        "linename": "路線33下午1",
        "rank": "8",
        "village": "五谷里",
        "name": "五谷王南街11巷23弄1號"
      }
    },
    {
      "type": "Feature",
      "geometry": {
        "type": "Point",
        "coordinates": [
          121.477283,
          25.048051
        ]
      },
      "properties": {
        "routeId": "new-taipei-241033",
        "city": "new-taipei",
        "lineid": "241033",
        "linename": "路線33下午1",
        "rank": "9",
        "village": "德厚里",
        "name": "重新路5段326巷65號"
      }
    },
    {
      "type": "Feature",
      "geometry": {
        "type": "Point",
        "coordinates": [
          121.4781205811,
          25.0494364595
        ]
      },
      "properties": {
        "routeId": "new-taipei-241033",
        "city": "new-taipei",
        "lineid": "241033",
        "linename": "路線33下午1",
        "rank": "10",
        "village": "德厚里",
        "name": "重新路5段317巷口"
      }
    },
    {
      "type": "Feature",
      "geometry": {
        "type": "Point",
        "coordinates": [
          121.4749587755,
          25.0485024299
        ]
      },
      "properties": {
        "routeId": "new-taipei-241033",
        "city": "new-taipei",
        "lineid": "241033",
        "linename": "路線33下午1",
        "rank": "11",
        "village": "五谷里",
        "name": "五谷王北街20巷11號"
      }
    },
    {
      "type": "Feature",
      "geometry": {
        "type": "Point",
        "coordinates": [
          121.472109,
          25.050931
        ]
      },
      "properties": {
        "routeId": "new-taipei-241033",
        "city": "new-taipei",
        "lineid": "241033",
        "linename": "路線33下午1",
        "rank": "12",
        "village": "谷王里",
        "name": "光復路1段99巷口"
      }
    },
    {
      "type": "Feature",
      "geometry": {
        "type": "Point",
        "coordinates": [
          121.466803,
          25.059827
        ]
      },
      "properties": {
        "routeId": "new-taipei-241033",
        "city": "new-taipei",
        "lineid": "241033",
        "linename": "路線33下午1",
        "rank": "13",
        "village": "頂崁里",
        "name": "光華路54號"
      }
    },
    {
      "type": "Feature",
      "geometry": {
        "type": "Point",
        "coordinates": [
          121.469048,
          25.061102
        ]
      },
      "properties": {
        "routeId": "new-taipei-241033",
        "city": "new-taipei",
        "lineid": "241033",
        "linename": "路線33下午1",
        "rank": "14",
        "village": "頂崁里",
        "name": "中興北街240巷31號"
      }
    },
    {
      "type": "Feature",
      "geometry": {
        "type": "Point",
        "coordinates": [
          121.468957,
          25.059105
        ]
      },
      "properties": {
        "routeId": "new-taipei-241033",
        "city": "new-taipei",
        "lineid": "241033",
        "linename": "路線33下午1",
        "rank": "15",
        "village": "頂崁里",
        "name": "中興北街204巷5號"
      }
    },
    {
      "type": "Feature",
      "geometry": {
        "type": "Point",
        "coordinates": [
          121.4689915,
          25.0577464
        ]
      },
      "properties": {
        "routeId": "new-taipei-241033",
        "city": "new-taipei",
        "lineid": "241033",
        "linename": "路線33下午1",
        "rank": "16",
        "village": "頂崁里",
        "name": "中興北街180巷1號"
      }
    },
    {
      "type": "Feature",
      "geometry": {
        "type": "Point",
        "coordinates": [
          121.468928743,
          25.05653
        ]
      },
      "properties": {
        "routeId": "new-taipei-241033",
        "city": "new-taipei",
        "lineid": "241033",
        "linename": "路線33下午1",
        "rank": "17",
        "village": "頂崁里",
        "name": "中興北街150巷5號"
      }
    },
    {
      "type": "Feature",
      "geometry": {
        "type": "Point",
        "coordinates": [
          121.468049,
          25.055924
        ]
      },
      "properties": {
        "routeId": "new-taipei-241033",
        "city": "new-taipei",
        "lineid": "241033",
        "linename": "路線33下午1",
        "rank": "18",
        "village": "頂崁里",
        "name": "中興北街136巷28號"
      }
    },
    {
      "type": "Feature",
      "geometry": {
        "type": "Point",
        "coordinates": [
          121.469034,
          25.054969
        ]
      },
      "properties": {
        "routeId": "new-taipei-241033",
        "city": "new-taipei",
        "lineid": "241033",
        "linename": "路線33下午1",
        "rank": "19",
        "village": "頂崁里",
        "name": "中興北街155巷6號"
      }
    },
    {
      "type": "Feature",
      "geometry": {
        "type": "Point",
        "coordinates": [
          121.46899,
          25.054513
        ]
      },
      "properties": {
        "routeId": "new-taipei-241033",
        "city": "new-taipei",
        "lineid": "241033",
        "linename": "路線33下午1",
        "rank": "20",
        "village": "頂崁里",
        "name": "中興北街104巷1號"
      }
    },
    {
      "type": "Feature",
      "geometry": {
        "type": "Point",
        "coordinates": [
          121.46900284,
          25.052857807
        ]
      },
      "properties": {
        "routeId": "new-taipei-241033",
        "city": "new-taipei",
        "lineid": "241033",
        "linename": "路線33下午1",
        "rank": "21",
        "village": "頂崁里",
        "name": "中興北街74號"
      }
    },
    {
      "type": "Feature",
      "geometry": {
        "type": "Point",
        "coordinates": [
          121.4694373564,
          25.0538409852
        ]
      },
      "properties": {
        "routeId": "new-taipei-241033",
        "city": "new-taipei",
        "lineid": "241033",
        "linename": "路線33下午1",
        "rank": "22",
        "village": "頂崁里",
        "name": "興德路141巷32號"
      }
    },
    {
      "type": "Feature",
      "geometry": {
        "type": "Point",
        "coordinates": [
          121.472041,
          25.049042
        ]
      },
      "properties": {
        "routeId": "new-taipei-241033",
        "city": "new-taipei",
        "lineid": "241033",
        "linename": "路線33下午1",
        "rank": "23",
        "village": "頂崁里",
        "name": "光復路一段64巷66號"
      }
    },
    {
      "type": "Feature",
      "geometry": {
        "type": "Point",
        "coordinates": [
          121.472021,
          25.047364
        ]
      },
      "properties": {
        "routeId": "new-taipei-241033",
        "city": "new-taipei",
        "lineid": "241033",
        "linename": "路線33下午1",
        "rank": "24",
        "village": "頂崁里",
        "name": "光復路一段30巷1號"
      }
    },
    {
      "type": "Feature",
      "geometry": {
        "type": "Point",
        "coordinates": [
          121.471114,
          25.046341
        ]
      },
      "properties": {
        "routeId": "new-taipei-241033",
        "city": "new-taipei",
        "lineid": "241033",
        "linename": "路線33下午1",
        "rank": "25",
        "village": "頂崁里",
        "name": "重新路五段527號"
      }
    },
    {
      "type": "Feature",
      "geometry": {
        "type": "Point",
        "coordinates": [
          121.4678281,
          25.04422401
        ]
      },
      "properties": {
        "routeId": "new-taipei-241033",
        "city": "new-taipei",
        "lineid": "241033",
        "linename": "路線33下午1",
        "rank": "26",
        "village": "頂崁里",
        "name": "重新路五段627巷口"
      }
    },
    {
      "type": "Feature",
      "geometry": {
        "type": "Point",
        "coordinates": [
          121.4693447,
          25.04543145
        ]
      },
      "properties": {
        "routeId": "new-taipei-241033",
        "city": "new-taipei",
        "lineid": "241033",
        "linename": "路線33下午1",
        "rank": "27",
        "village": "中興里",
        "name": "重新路五段588號"
      }
    },
    {
      "type": "Feature",
      "geometry": {
        "type": "Point",
        "coordinates": [
          121.4693093769,
          25.050646056
        ]
      },
      "properties": {
        "routeId": "new-taipei-241033",
        "city": "new-taipei",
        "lineid": "241033",
        "linename": "路線33下午1",
        "rank": "28",
        "village": "中興里",
        "name": "中興北街135巷1號"
      }
    },
    {
      "type": "Feature",
      "geometry": {
        "type": "Point",
        "coordinates": [
          121.468991,
          25.050452
        ]
      },
      "properties": {
        "routeId": "new-taipei-241033",
        "city": "new-taipei",
        "lineid": "241033",
        "linename": "路線33下午1",
        "rank": "29",
        "village": "中興里",
        "name": "中興北街52-7號"
      }
    },
    {
      "type": "Feature",
      "geometry": {
        "type": "Point",
        "coordinates": [
          121.4695726,
          25.04925061
        ]
      },
      "properties": {
        "routeId": "new-taipei-241033",
        "city": "new-taipei",
        "lineid": "241033",
        "linename": "路線33下午1",
        "rank": "30",
        "village": "中興里",
        "name": "中興北街42巷19號"
      }
    },
    {
      "type": "Feature",
      "geometry": {
        "type": "Point",
        "coordinates": [
          121.4706335,
          25.04399869
        ]
      },
      "properties": {
        "routeId": "new-taipei-241033",
        "city": "new-taipei",
        "lineid": "241033",
        "linename": "路線33下午1",
        "rank": "31",
        "village": "中興里",
        "name": "中興南街66號"
      }
    },
    {
      "type": "Feature",
      "geometry": {
        "type": "Point",
        "coordinates": [
          121.469919,
          25.044913
        ]
      },
      "properties": {
        "routeId": "new-taipei-241033",
        "city": "new-taipei",
        "lineid": "241033",
        "linename": "路線33下午1",
        "rank": "32",
        "village": "中興里",
        "name": "中興南街19號"
      }
    },
    {
      "type": "Feature",
      "geometry": {
        "type": "Point",
        "coordinates": [
          121.4697137,
          25.0489608
        ]
      },
      "properties": {
        "routeId": "new-taipei-241033",
        "city": "new-taipei",
        "lineid": "241033",
        "linename": "路線33下午1",
        "rank": "33",
        "village": "中興里",
        "name": "中興北街123號"
      }
    },
    {
      "type": "Feature",
      "geometry": {
        "type": "Point",
        "coordinates": [
          121.4715135,
          25.0492336
        ]
      },
      "properties": {
        "routeId": "new-taipei-241033",
        "city": "new-taipei",
        "lineid": "241033",
        "linename": "路線33下午1",
        "rank": "34",
        "village": "中興里",
        "name": "光復路一段68巷10號"
      }
    },
    {
      "type": "Feature",
      "geometry": {
        "type": "Point",
        "coordinates": [
          121.474662,
          25.049152
        ]
      },
      "properties": {
        "routeId": "new-taipei-241033",
        "city": "new-taipei",
        "lineid": "241033",
        "linename": "路線33下午1",
        "rank": "35",
        "village": "中興里",
        "name": "光復路一段61巷31弄1號"
      }
    },
    {
      "type": "Feature",
      "geometry": {
        "type": "Point",
        "coordinates": [
          121.475974,
          25.051423
        ]
      },
      "properties": {
        "routeId": "new-taipei-241033",
        "city": "new-taipei",
        "lineid": "241033",
        "linename": "路線33下午1",
        "rank": "36",
        "village": "中興里",
        "name": "五谷王北街50巷2號"
      }
    },
    {
      "type": "Feature",
      "geometry": {
        "type": "Point",
        "coordinates": [
          121.474193,
          25.051734
        ]
      },
      "properties": {
        "routeId": "new-taipei-241033",
        "city": "new-taipei",
        "lineid": "241033",
        "linename": "路線33下午1",
        "rank": "37",
        "village": "五谷里",
        "name": "五谷王北街58巷54號"
      }
    },
    {
      "type": "Feature",
      "geometry": {
        "type": "Point",
        "coordinates": [
          121.476184,
          25.052122
        ]
      },
      "properties": {
        "routeId": "new-taipei-241033",
        "city": "new-taipei",
        "lineid": "241033",
        "linename": "路線33下午1",
        "rank": "38",
        "village": "谷王里",
        "name": "五谷王北街141巷1號"
      }
    },
    {
      "type": "Feature",
      "geometry": {
        "type": "Point",
        "coordinates": [
          121.476274,
          25.053206
        ]
      },
      "properties": {
        "routeId": "new-taipei-241033",
        "city": "new-taipei",
        "lineid": "241033",
        "linename": "路線33下午1",
        "rank": "39",
        "village": "谷王里",
        "name": "五谷王北街80巷口"
      }
    },
    {
      "type": "Feature",
      "geometry": {
        "type": "Point",
        "coordinates": [
          121.4747,
          25.05798
        ]
      },
      "properties": {
        "routeId": "new-taipei-241033",
        "city": "new-taipei",
        "lineid": "241033",
        "linename": "路線33下午1",
        "rank": "40",
        "village": "谷王里",
        "name": "光復路2段87巷28號"
      }
    },
    {
      "type": "Feature",
      "geometry": {
        "type": "Point",
        "coordinates": [
          121.472096,
          25.054364
        ]
      },
      "properties": {
        "routeId": "new-taipei-241033",
        "city": "new-taipei",
        "lineid": "241033",
        "linename": "路線33下午1",
        "rank": "41",
        "village": "谷王里",
        "name": "光復路2段17巷6號"
      }
    },
    {
      "type": "Feature",
      "geometry": {
        "type": "Point",
        "coordinates": [
          121.466402,
          25.062122
        ]
      },
      "properties": {
        "routeId": "new-taipei-241033",
        "city": "new-taipei",
        "lineid": "241033",
        "linename": "路線33下午1",
        "rank": "42",
        "village": "頂崁里",
        "name": "光復路2段196巷"
      }
    },
    {
      "type": "Feature",
      "geometry": {
        "type": "Point",
        "coordinates": [
          121.4663483,
          25.0649334
        ]
      },
      "properties": {
        "routeId": "new-taipei-241033",
        "city": "new-taipei",
        "lineid": "241033",
        "linename": "路線33下午1",
        "rank": "43",
        "village": "頂崁里",
        "name": "重光街107號"
      }
    },
    {
      "type": "Feature",
      "geometry": {
        "type": "Point",
        "coordinates": [
          121.470484,
          25.058129
        ]
      },
      "properties": {
        "routeId": "new-taipei-241033",
        "city": "new-taipei",
        "lineid": "241033",
        "linename": "路線33下午1",
        "rank": "44",
        "village": "頂崁里",
        "name": "光復路2段102巷27號"
      }
    },
    {
      "type": "Feature",
      "geometry": {
        "type": "Point",
        "coordinates": [
          121.47095,
          25.058856
        ]
      },
      "properties": {
        "routeId": "new-taipei-241033",
        "city": "new-taipei",
        "lineid": "241033",
        "linename": "路線33下午1",
        "rank": "45",
        "village": "頂崁里",
        "name": "光復路2段126巷27號"
      }
    },
    {
      "type": "Feature",
      "geometry": {
        "type": "Point",
        "coordinates": [
          121.4704277,
          25.05737253
        ]
      },
      "properties": {
        "routeId": "new-taipei-241033",
        "city": "new-taipei",
        "lineid": "241033",
        "linename": "路線33下午1",
        "rank": "46",
        "village": "頂崁里",
        "name": "光復路2段88巷"
      }
    }
  ]
}