{
  "type": "FeatureCollection",
  "features": [
    {
      "type": "Feature",
      "geometry": {
        "type": "Point",
        "coordinates": [
          121.451416,
          24.99428
        ]
      },
      "properties": {
        "routeId": "new-taipei-220073",
        "city": "new-taipei",
        "lineid": "220073",
        "linename": "B02路線晚上",
        "rank": "1",
        "village": "華德里",
        "name": "四川路二段117巷口"
      }
    },
    {
      "type": "Feature",
      "geometry": {
        "type": "Point",
        "coordinates": [
          121.451736,
          24.994421
        ]
      },
      "properties": {
        "routeId": "new-taipei-220073",
        "city": "new-taipei",
        "lineid": "220073",
        "linename": "B02路線晚上",
        "rank": "2",
        "village": "華德里",
        "name": "四川路二段103號"
      }
    },
    {
      "type": "Feature",
      "geometry": {
        "type": "Point",
        "coordinates": [
          121.45222241,
          24.994553811
        ]
      },
      "properties": {
        "routeId": "new-taipei-220073",
        "city": "new-taipei",
        "lineid": "220073",
        "linename": "B02路線晚上",
        "rank": "3",
        "village": "華德里",
        "name": "四川路二段99號"
      }
    },
    {
      "type": "Feature",
      "geometry": {
        "type": "Point",
        "coordinates": [
          121.45252692,
          24.994661949
        ]
      },
      "properties": {
        "routeId": "new-taipei-220073",
        "city": "new-taipei",
        "lineid": "220073",
        "linename": "B02路線晚上",
        "rank": "4",
        "village": "華德里",
        "name": "四川路二段99號之3"
      }
    },
    {
      "type": "Feature",
      "geometry": {
        "type": "Point",
        "coordinates": [
          121.45283882,
          24.994801673
        ]
      },
      "properties": {
        "routeId": "new-taipei-220073",
        "city": "new-taipei",
        "lineid": "220073",
        "linename": "B02路線晚上",
        "rank": "5",
        "village": "華德里",
        "name": "四川路二段91巷口"
      }
    },
    {
      "type": "Feature",
      "geometry": {
        "type": "Point",
        "coordinates": [
          121.453064,
          24.994944
        ]
      },
      "properties": {
        "routeId": "new-taipei-220073",
        "city": "new-taipei",
        "lineid": "220073",
        "linename": "B02路線晚上",
        "rank": "6",
        "village": "華德里",
        "name": "四川路二段81巷口"
      }
    },
    {
      "type": "Feature",
      "geometry": {
        "type": "Point",
        "coordinates": [
          121.4534146,
          24.99507
        ]
      },
      "properties": {
        "routeId": "new-taipei-220073",
        "city": "new-taipei",
        "lineid": "220073",
        "linename": "B02路線晚上",
        "rank": "7",
        "village": "華德里",
        "name": "四川路二段65號"
      }
    },
    {
      "type": "Feature",
      "geometry": {
        "type": "Point",
        "coordinates": [
          121.453842,
          24.99526
        ]
      },
      "properties": {
        "routeId": "new-taipei-220073",
        "city": "new-taipei",
        "lineid": "220073",
        "linename": "B02路線晚上",
        "rank": "8",
        "village": "華德里",
        "name": "四川路二段51號-大樓"
      }
    },
    {
      "type": "Feature",
      "geometry": {
        "type": "Point",
        "coordinates": [
          121.45404328,
          24.995313276
        ]
      },
      "properties": {
        "routeId": "new-taipei-220073",
        "city": "new-taipei",
        "lineid": "220073",
        "linename": "B02路線晚上",
        "rank": "9",
        "village": "華德里",
        "name": "四川路二段41號"
      }
    },
    {
      "type": "Feature",
      "geometry": {
        "type": "Point",
        "coordinates": [
          121.45453628,
          24.995557431
        ]
      },
      "properties": {
        "routeId": "new-taipei-220073",
        "city": "new-taipei",
        "lineid": "220073",
        "linename": "B02路線晚上",
        "rank": "10",
        "village": "華德里",
        "name": "四川路二段25號"
      }
    },
    {
      "type": "Feature",
      "geometry": {
        "type": "Point",
        "coordinates": [
          121.4575881,
          25.0071071
        ]
      },
      "properties": {
        "routeId": "new-taipei-220073",
        "city": "new-taipei",
        "lineid": "220073",
        "linename": "B02路線晚上",
        "rank": "11",
        "village": "流芳里",
        "name": "館前西路88號"
      }
    },
    {
      "type": "Feature",
      "geometry": {
        "type": "Point",
        "coordinates": [
          121.4569656,
          25.0074847
        ]
      },
      "properties": {
        "routeId": "new-taipei-220073",
        "city": "new-taipei",
        "lineid": "220073",
        "linename": "B02路線晚上",
        "rank": "12",
        "village": "流芳里",
        "name": "館前西路110號"
      }
    },
    {
      "type": "Feature",
      "geometry": {
        "type": "Point",
        "coordinates": [
          121.4554496,
          25.0083715
        ]
      },
      "properties": {
        "routeId": "new-taipei-220073",
        "city": "new-taipei",
        "lineid": "220073",
        "linename": "B02路線晚上",
        "rank": "13",
        "village": "流芳里",
        "name": "館前西路152號"
      }
    },
    {
      "type": "Feature",
      "geometry": {
        "type": "Point",
        "coordinates": [
          121.4550846,
          25.0085018
        ]
      },
      "properties": {
        "routeId": "new-taipei-220073",
        "city": "new-taipei",
        "lineid": "220073",
        "linename": "B02路線晚上",
        "rank": "14",
        "village": "流芳里",
        "name": "館前西路156號"
      }
    },
    {
      "type": "Feature",
      "geometry": {
        "type": "Point",
        "coordinates": [
          121.4556587,
          25.0114965
        ]
      },
      "properties": {
        "routeId": "new-taipei-220073",
        "city": "new-taipei",
        "lineid": "220073",
        "linename": "B02路線晚上",
        "rank": "15",
        "village": "黃石里",
        "name": "西門街6號"
      }
    },
    {
      "type": "Feature",
      "geometry": {
        "type": "Point",
        "coordinates": [
          121.456546,
          25.0151844
        ]
      },
      "properties": {
        "routeId": "new-taipei-220073",
        "city": "new-taipei",
        "lineid": "220073",
        "linename": "B02路線晚上",
        "rank": "16",
        "village": "社後里",
        "name": "中正路98號"
      }
    },
    {
      "type": "Feature",
      "geometry": {
        "type": "Point",
        "coordinates": [
          121.4566537,
          25.0158111
        ]
      },
      "properties": {
        "routeId": "new-taipei-220073",
        "city": "new-taipei",
        "lineid": "220073",
        "linename": "B02路線晚上",
        "rank": "17",
        "village": "社後里",
        "name": "中正路126號"
      }
    },
    {
      "type": "Feature",
      "geometry": {
        "type": "Point",
        "coordinates": [
          121.4567017,
          25.0160668
        ]
      },
      "properties": {
        "routeId": "new-taipei-220073",
        "city": "new-taipei",
        "lineid": "220073",
        "linename": "B02路線晚上",
        "rank": "18",
        "village": "社後里",
        "name": "中正路140號"
      }
    },
    {
      "type": "Feature",
      "geometry": {
        "type": "Point",
        "coordinates": [
          121.4570906,
          25.0160527
        ]
      },
      "properties": {
        "routeId": "new-taipei-220073",
        "city": "new-taipei",
        "lineid": "220073",
        "linename": "B02路線晚上",
        "rank": "19",
        "village": "社後里",
        "name": "民權路257號"
      }
    },
    {
      "type": "Feature",
      "geometry": {
        "type": "Point",
        "coordinates": [
          121.4576202,
          25.0154297
        ]
      },
      "properties": {
        "routeId": "new-taipei-220073",
        "city": "new-taipei",
        "lineid": "220073",
        "linename": "B02路線晚上",
        "rank": "20",
        "village": "社後里",
        "name": "民權路225號"
      }
    },
    {
      "type": "Feature",
      "geometry": {
        "type": "Point",
        "coordinates": [
          121.4579416,
          25.0150727
        ]
      },
      "properties": {
        "routeId": "new-taipei-220073",
        "city": "new-taipei",
        "lineid": "220073",
        "linename": "B02路線晚上",
        "rank": "21",
        "village": "社後里",
        "name": "民權路211號"
      }
    },
    {
      "type": "Feature",
      "geometry": {
        "type": "Point",
        "coordinates": [
          121.459099,
          25.013727
        ]
      },
      "properties": {
        "routeId": "new-taipei-220073",
        "city": "new-taipei",
        "lineid": "220073",
        "linename": "B02路線晚上",
        "rank": "22",
        "village": "民安里",
        "name": "民權路196號"
      }
    },
    {
      "type": "Feature",
      "geometry": {
        "type": "Point",
        "coordinates": [
          121.4588377,
          25.0140331
        ]
      },
      "properties": {
        "routeId": "new-taipei-220073",
        "city": "new-taipei",
        "lineid": "220073",
        "linename": "B02路線晚上",
        "rank": "23",
        "village": "民安里",
        "name": "民權路214號"
      }
    },
    {
      "type": "Feature",
      "geometry": {
        "type": "Point",
        "coordinates": [
          121.4584025,
          25.0145451
        ]
      },
      "properties": {
        "routeId": "new-taipei-220073",
        "city": "new-taipei",
        "lineid": "220073",
        "linename": "B02路線晚上",
        "rank": "24",
        "village": "民安里",
        "name": "民權路238號"
      }
    },
    {
      "type": "Feature",
      "geometry": {
        "type": "Point",
        "coordinates": [
          121.4580846,
          25.014915
        ]
      },
      "properties": {
        "routeId": "new-taipei-220073",
        "city": "new-taipei",
        "lineid": "220073",
        "linename": "B02路線晚上",
        "rank": "25",
        "village": "民安里",
        "name": "民權路258號"
      }
    },
    {
      "type": "Feature",
      "geometry": {
        "type": "Point",
        "coordinates": [
          121.4574417,
          25.0156385
        ]
      },
      "properties": {
        "routeId": "new-taipei-220073",
        "city": "new-taipei",
        "lineid": "220073",
        "linename": "B02路線晚上",
        "rank": "26",
        "village": "民安里",
        "name": "民權路280號"
      }
    },
    {
      "type": "Feature",
      "geometry": {
        "type": "Point",
        "coordinates": [
          121.4572489,
          25.0158681
        ]
      },
      "properties": {
        "routeId": "new-taipei-220073",
        "city": "new-taipei",
        "lineid": "220073",
        "linename": "B02路線晚上",
        "rank": "27",
        "village": "民安里",
        "name": "民權路292號"
      }
    },
    {
      "type": "Feature",
      "geometry": {
        "type": "Point",
        "coordinates": [
          121.4567473,
          25.0164325
        ]
      },
      "properties": {
        "routeId": "new-taipei-220073",
        "city": "new-taipei",
        "lineid": "220073",
        "linename": "B02路線晚上",
        "rank": "28",
        "village": "民安里",
        "name": "民權路326號"
      }
    },
    {
      "type": "Feature",
      "geometry": {
        "type": "Point",
        "coordinates": [
          121.4565423,
          25.0168524
        ]
      },
      "properties": {
        "routeId": "new-taipei-220073",
        "city": "new-taipei",
        "lineid": "220073",
        "linename": "B02路線晚上",
        "rank": "29",
        "village": "建國里",
        "name": "停整點：中正路162號"
      }
    },
    {
      "type": "Feature",
      "geometry": {
        "type": "Point",
        "coordinates": [
          121.4561904,
          25.0176152
        ]
      },
      "properties": {
        "routeId": "new-taipei-220073",
        "city": "new-taipei",
        "lineid": "220073",
        "linename": "B02路線晚上",
        "rank": "30",
        "village": "港德里",
        "name": "中正路184號"
      }
    },
    {
      "type": "Feature",
      "geometry": {
        "type": "Point",
        "coordinates": [
          121.4559341,
          25.0181612
        ]
      },
      "properties": {
        "routeId": "new-taipei-220073",
        "city": "new-taipei",
        "lineid": "220073",
        "linename": "B02路線晚上",
        "rank": "31",
        "village": "港德里",
        "name": "中正路212號"
      }
    },
    {
      "type": "Feature",
      "geometry": {
        "type": "Point",
        "coordinates": [
          121.455318,
          25.0195027
        ]
      },
      "properties": {
        "routeId": "new-taipei-220073",
        "city": "new-taipei",
        "lineid": "220073",
        "linename": "B02路線晚上",
        "rank": "32",
        "village": "港尾里",
        "name": "中正路260號"
      }
    },
    {
      "type": "Feature",
      "geometry": {
        "type": "Point",
        "coordinates": [
          121.4548504,
          25.020501
        ]
      },
      "properties": {
        "routeId": "new-taipei-220073",
        "city": "new-taipei",
        "lineid": "220073",
        "linename": "B02路線晚上",
        "rank": "33",
        "village": "港尾里",
        "name": "中正路300號(世界之藝)"
      }
    },
    {
      "type": "Feature",
      "geometry": {
        "type": "Point",
        "coordinates": [
          121.4543381,
          25.0238438
        ]
      },
      "properties": {
        "routeId": "new-taipei-220073",
        "city": "new-taipei",
        "lineid": "220073",
        "linename": "B02路線晚上",
        "rank": "34",
        "village": "中正里",
        "name": "中正路358號"
      }
    },
    {
      "type": "Feature",
      "geometry": {
        "type": "Point",
        "coordinates": [
          121.454705,
          25.0242523
        ]
      },
      "properties": {
        "routeId": "new-taipei-220073",
        "city": "new-taipei",
        "lineid": "220073",
        "linename": "B02路線晚上",
        "rank": "35",
        "village": "中正里",
        "name": "中正路372巷4號"
      }
    },
    {
      "type": "Feature",
      "geometry": {
        "type": "Point",
        "coordinates": [
          121.4568051,
          25.022723
        ]
      },
      "properties": {
        "routeId": "new-taipei-220073",
        "city": "new-taipei",
        "lineid": "220073",
        "linename": "B02路線晚上",
        "rank": "36",
        "village": "新生里",
        "name": "新生街29巷口"
      }
    },
    {
      "type": "Feature",
      "geometry": {
        "type": "Point",
        "coordinates": [
          121.4578841,
          25.0222524
        ]
      },
      "properties": {
        "routeId": "new-taipei-220073",
        "city": "new-taipei",
        "lineid": "220073",
        "linename": "B02路線晚上",
        "rank": "37",
        "village": "新生里",
        "name": "新生街53巷口"
      }
    },
    {
      "type": "Feature",
      "geometry": {
        "type": "Point",
        "coordinates": [
          121.4580496,
          25.021596054
        ]
      },
      "properties": {
        "routeId": "new-taipei-220073",
        "city": "new-taipei",
        "lineid": "220073",
        "linename": "B02路線晚上",
        "rank": "38",
        "village": "新生里",
        "name": "新生街87巷口"
      }
    },
    {
      "type": "Feature",
      "geometry": {
        "type": "Point",
        "coordinates": [
          121.4581643,
          25.0219093
        ]
      },
      "properties": {
        "routeId": "new-taipei-220073",
        "city": "new-taipei",
        "lineid": "220073",
        "linename": "B02路線晚上",
        "rank": "39",
        "village": "新生里",
        "name": "新生街89巷口"
      }
    },
    {
      "type": "Feature",
      "geometry": {
        "type": "Point",
        "coordinates": [
          121.4578432,
          25.0212418
        ]
      },
      "properties": {
        "routeId": "new-taipei-220073",
        "city": "new-taipei",
        "lineid": "220073",
        "linename": "B02路線晚上",
        "rank": "40",
        "village": "新生里",
        "name": "新生街73號"
      }
    },
    {
      "type": "Feature",
      "geometry": {
        "type": "Point",
        "coordinates": [
          121.4572686,
          25.0209509
        ]
      },
      "properties": {
        "routeId": "new-taipei-220073",
        "city": "new-taipei",
        "lineid": "220073",
        "linename": "B02路線晚上",
        "rank": "41",
        "village": "新生里",
        "name": "新生街51號"
      }
    },
    {
      "type": "Feature",
      "geometry": {
        "type": "Point",
        "coordinates": [
          121.4567597,
          25.0210925
        ]
      },
      "properties": {
        "routeId": "new-taipei-220073",
        "city": "new-taipei",
        "lineid": "220073",
        "linename": "B02路線晚上",
        "rank": "42",
        "village": "新生里",
        "name": "新生街37號"
      }
    },
    {
      "type": "Feature",
      "geometry": {
        "type": "Point",
        "coordinates": [
          121.456172,
          25.0211687
        ]
      },
      "properties": {
        "routeId": "new-taipei-220073",
        "city": "new-taipei",
        "lineid": "220073",
        "linename": "B02路線晚上",
        "rank": "43",
        "village": "新生里",
        "name": "新生街25號"
      }
    },
    {
      "type": "Feature",
      "geometry": {
        "type": "Point",
        "coordinates": [
          121.4557158,
          25.0211679
        ]
      },
      "properties": {
        "routeId": "new-taipei-220073",
        "city": "new-taipei",
        "lineid": "220073",
        "linename": "B02路線晚上",
        "rank": "44",
        "village": "新生里",
        "name": "停整點：新生街15號"
      }
    },
    {
      "type": "Feature",
      "geometry": {
        "type": "Point",
        "coordinates": [
          121.4554649,
          25.0215761
        ]
      },
      "properties": {
        "routeId": "new-taipei-220073",
        "city": "new-taipei",
        "lineid": "220073",
        "linename": "B02路線晚上",
        "rank": "45",
        "village": "港尾里",
        "name": "瑞安街65號"
      }
    },
    {
      "type": "Feature",
      "geometry": {
        "type": "Point",
        "coordinates": [
          121.455408,
          25.0221182
        ]
      },
      "properties": {
        "routeId": "new-taipei-220073",
        "city": "new-taipei",
        "lineid": "220073",
        "linename": "B02路線晚上",
        "rank": "46",
        "village": "港尾里",
        "name": "瑞安街57號"
      }
    },
    {
      "type": "Feature",
      "geometry": {
        "type": "Point",
        "coordinates": [
          121.4552427,
          25.0230783
        ]
      },
      "properties": {
        "routeId": "new-taipei-220073",
        "city": "new-taipei",
        "lineid": "220073",
        "linename": "B02路線晚上",
        "rank": "47",
        "village": "中正里",
        "name": "瑞安街21號"
      }
    },
    {
      "type": "Feature",
      "geometry": {
        "type": "Point",
        "coordinates": [
          121.4547882,
          25.0233988
        ]
      },
      "properties": {
        "routeId": "new-taipei-220073",
        "city": "new-taipei",
        "lineid": "220073",
        "linename": "B02路線晚上",
        "rank": "48",
        "village": "中正里",
        "name": "瑞安街5號"
      }
    },
    {
      "type": "Feature",
      "geometry": {
        "type": "Point",
        "coordinates": [
          121.4546855,
          25.0208387
        ]
      },
      "properties": {
        "routeId": "new-taipei-220073",
        "city": "new-taipei",
        "lineid": "220073",
        "linename": "B02路線晚上",
        "rank": "49",
        "village": "香社里",
        "name": "中正路351號"
      }
    },
    {
      "type": "Feature",
      "geometry": {
        "type": "Point",
        "coordinates": [
          121.4551803,
          25.0197889
        ]
      },
      "properties": {
        "routeId": "new-taipei-220073",
        "city": "new-taipei",
        "lineid": "220073",
        "linename": "B02路線晚上",
        "rank": "50",
        "village": "社後里",
        "name": "中正路307號"
      }
    },
    {
      "type": "Feature",
      "geometry": {
        "type": "Point",
        "coordinates": [
          121.455563,
          25.0189328
        ]
      },
      "properties": {
        "routeId": "new-taipei-220073",
        "city": "new-taipei",
        "lineid": "220073",
        "linename": "B02路線晚上",
        "rank": "51",
        "village": "社後里",
        "name": "中正路265號"
      }
    },
    {
      "type": "Feature",
      "geometry": {
        "type": "Point",
        "coordinates": [
          121.4559482,
          25.0181276
        ]
      },
      "properties": {
        "routeId": "new-taipei-220073",
        "city": "new-taipei",
        "lineid": "220073",
        "linename": "B02路線晚上",
        "rank": "52",
        "village": "社後里",
        "name": "中正路235號"
      }
    },
    {
      "type": "Feature",
      "geometry": {
        "type": "Point",
        "coordinates": [
          121.4572273,
          25.01753766
        ]
      },
      "properties": {
        "routeId": "new-taipei-220073",
        "city": "new-taipei",
        "lineid": "220073",
        "linename": "B02路線晚上",
        "rank": "53",
        "village": "國光里",
        "name": "國光路32號"
      }
    },
    {
      "type": "Feature",
      "geometry": {
        "type": "Point",
        "coordinates": [
          121.4589728,
          25.01873154
        ]
      },
      "properties": {
        "routeId": "new-taipei-220073",
        "city": "new-taipei",
        "lineid": "220073",
        "linename": "B02路線晚上",
        "rank": "54",
        "village": "國光里",
        "name": "停整點：國光路67巷17號對面大庭新村A"
      }
    },
    {
      "type": "Feature",
      "geometry": {
        "type": "Point",
        "coordinates": [
          121.4585052,
          25.01864858
        ]
      },
      "properties": {
        "routeId": "new-taipei-220073",
        "city": "new-taipei",
        "lineid": "220073",
        "linename": "B02路線晚上",
        "rank": "55",
        "village": "國光里",
        "name": "國光路49巷9號大庭新村B"
      }
    },
    {
      "type": "Feature",
      "geometry": {
        "type": "Point",
        "coordinates": [
          121.4584708,
          25.01863877
        ]
      },
      "properties": {
        "routeId": "new-taipei-220073",
        "city": "new-taipei",
        "lineid": "220073",
        "linename": "B02路線晚上",
        "rank": "56",
        "village": "國光里",
        "name": "國光路49巷1號大庭新村C"
      }
    },
    {
      "type": "Feature",
      "geometry": {
        "type": "Point",
        "coordinates": [
          121.4580153,
          25.01799966
        ]
      },
      "properties": {
        "routeId": "new-taipei-220073",
        "city": "new-taipei",
        "lineid": "220073",
        "linename": "B02路線晚上",
        "rank": "57",
        "village": "國光里",
        "name": "國光路31巷16號大庭新村D"
      }
    },
    {
      "type": "Feature",
      "geometry": {
        "type": "Point",
        "coordinates": [
          121.4559139,
          25.0169834
        ]
      },
      "properties": {
        "routeId": "new-taipei-220073",
        "city": "new-taipei",
        "lineid": "220073",
        "linename": "B02路線晚上",
        "rank": "58",
        "village": "社後里",
        "name": "大仁街14巷口"
      }
    },
    {
      "type": "Feature",
      "geometry": {
        "type": "Point",
        "coordinates": [
          121.4552623,
          25.0167236
        ]
      },
      "properties": {
        "routeId": "new-taipei-220073",
        "city": "new-taipei",
        "lineid": "220073",
        "linename": "B02路線晚上",
        "rank": "59",
        "village": "社後里",
        "name": "大仁街40號"
      }
    },
    {
      "type": "Feature",
      "geometry": {
        "type": "Point",
        "coordinates": [
          121.4546692,
          25.0165478
        ]
      },
      "properties": {
        "routeId": "new-taipei-220073",
        "city": "new-taipei",
        "lineid": "220073",
        "linename": "B02路線晚上",
        "rank": "60",
        "village": "香雅里",
        "name": "大仁街62號"
      }
    },
    {
      "type": "Feature",
      "geometry": {
        "type": "Point",
        "coordinates": [
          121.4540874,
          25.0162612
        ]
      },
      "properties": {
        "routeId": "new-taipei-220073",
        "city": "new-taipei",
        "lineid": "220073",
        "linename": "B02路線晚上",
        "rank": "61",
        "village": "香雅里",
        "name": "大仁街86號"
      }
    },
    {
      "type": "Feature",
      "geometry": {
        "type": "Point",
        "coordinates": [
          121.4534778,
          25.0160344
        ]
      },
      "properties": {
        "routeId": "new-taipei-220073",
        "city": "new-taipei",
        "lineid": "220073",
        "linename": "B02路線晚上",
        "rank": "62",
        "village": "香雅里",
        "name": "大仁街100號"
      }
    },
    {
      "type": "Feature",
      "geometry": {
        "type": "Point",
        "coordinates": [
          121.4528344,
          25.0157935
        ]
      },
      "properties": {
        "routeId": "new-taipei-220073",
        "city": "new-taipei",
        "lineid": "220073",
        "linename": "B02路線晚上",
        "rank": "63",
        "village": "香雅里",
        "name": "大仁街114號"
      }
    },
    {
      "type": "Feature",
      "geometry": {
        "type": "Point",
        "coordinates": [
          121.4524887,
          25.0156657
        ]
      },
      "properties": {
        "routeId": "new-taipei-220073",
        "city": "new-taipei",
        "lineid": "220073",
        "linename": "B02路線晚上",
        "rank": "64",
        "village": "香雅里",
        "name": "大仁街126號"
      }
    },
    {
      "type": "Feature",
      "geometry": {
        "type": "Point",
        "coordinates": [
          121.452077,
          25.0153887
        ]
      },
      "properties": {
        "routeId": "new-taipei-220073",
        "city": "new-taipei",
        "lineid": "220073",
        "linename": "B02路線晚上",
        "rank": "65",
        "village": "香雅里",
        "name": "南雅西路二段285號"
      }
    },
    {
      "type": "Feature",
      "geometry": {
        "type": "Point",
        "coordinates": [
          121.451934,
          25.015101
        ]
      },
      "properties": {
        "routeId": "new-taipei-220073",
        "city": "new-taipei",
        "lineid": "220073",
        "linename": "B02路線晚上",
        "rank": "66",
        "village": "香雅里",
        "name": "南雅西路二段271號"
      }
    },
    {
      "type": "Feature",
      "geometry": {
        "type": "Point",
        "coordinates": [
          121.4517896,
          25.0148294
        ]
      },
      "properties": {
        "routeId": "new-taipei-220073",
        "city": "new-taipei",
        "lineid": "220073",
        "linename": "B02路線晚上",
        "rank": "67",
        "village": "香雅里",
        "name": "南雅西路二段257號"
      }
    },
    {
      "type": "Feature",
      "geometry": {
        "type": "Point",
        "coordinates": [
          121.4516433,
          25.0145357
        ]
      },
      "properties": {
        "routeId": "new-taipei-220073",
        "city": "new-taipei",
        "lineid": "220073",
        "linename": "B02路線晚上",
        "rank": "68",
        "village": "香雅里",
        "name": "南雅西路二段241號"
      }
    },
    {
      "type": "Feature",
      "geometry": {
        "type": "Point",
        "coordinates": [
          121.4516001,
          25.0138418
        ]
      },
      "properties": {
        "routeId": "new-taipei-220073",
        "city": "new-taipei",
        "lineid": "220073",
        "linename": "B02路線晚上",
        "rank": "69",
        "village": "香雅里",
        "name": "南雅西路二段213號"
      }
    },
    {
      "type": "Feature",
      "geometry": {
        "type": "Point",
        "coordinates": [
          121.451767,
          25.0132919
        ]
      },
      "properties": {
        "routeId": "new-taipei-220073",
        "city": "new-taipei",
        "lineid": "220073",
        "linename": "B02路線晚上",
        "rank": "70",
        "village": "湳興里",
        "name": "南雅西路二段195號"
      }
    },
    {
      "type": "Feature",
      "geometry": {
        "type": "Point",
        "coordinates": [
          121.451882,
          25.012883
        ]
      },
      "properties": {
        "routeId": "new-taipei-220073",
        "city": "new-taipei",
        "lineid": "220073",
        "linename": "B02路線晚上",
        "rank": "71",
        "village": "湳興里",
        "name": "南雅西路二段185號"
      }
    },
    {
      "type": "Feature",
      "geometry": {
        "type": "Point",
        "coordinates": [
          121.4520433,
          25.0123678
        ]
      },
      "properties": {
        "routeId": "new-taipei-220073",
        "city": "new-taipei",
        "lineid": "220073",
        "linename": "B02路線晚上",
        "rank": "72",
        "village": "湳興里",
        "name": "南雅西路二段163號"
      }
    },
    {
      "type": "Feature",
      "geometry": {
        "type": "Point",
        "coordinates": [
          121.4521272,
          25.0120995
        ]
      },
      "properties": {
        "routeId": "new-taipei-220073",
        "city": "new-taipei",
        "lineid": "220073",
        "linename": "B02路線晚上",
        "rank": "73",
        "village": "湳興里",
        "name": "南雅西路二段155號"
      }
    },
    {
      "type": "Feature",
      "geometry": {
        "type": "Point",
        "coordinates": [
          121.4522371,
          25.0117505
        ]
      },
      "properties": {
        "routeId": "new-taipei-220073",
        "city": "new-taipei",
        "lineid": "220073",
        "linename": "B02路線晚上",
        "rank": "74",
        "village": "湳興里",
        "name": "南雅西路二段143號"
      }
    },
    {
      "type": "Feature",
      "geometry": {
        "type": "Point",
        "coordinates": [
          121.452464,
          25.0110117
        ]
      },
      "properties": {
        "routeId": "new-taipei-220073",
        "city": "new-taipei",
        "lineid": "220073",
        "linename": "B02路線晚上",
        "rank": "75",
        "village": "湳興里",
        "name": "南雅西路二段121號"
      }
    },
    {
      "type": "Feature",
      "geometry": {
        "type": "Point",
        "coordinates": [
          121.4526498,
          25.0104618
        ]
      },
      "properties": {
        "routeId": "new-taipei-220073",
        "city": "new-taipei",
        "lineid": "220073",
        "linename": "B02路線晚上",
        "rank": "76",
        "village": "湳興里",
        "name": "南雅西路二段93號"
      }
    },
    {
      "type": "Feature",
      "geometry": {
        "type": "Point",
        "coordinates": [
          121.4529088,
          25.0096112
        ]
      },
      "properties": {
        "routeId": "new-taipei-220073",
        "city": "new-taipei",
        "lineid": "220073",
        "linename": "B02路線晚上",
        "rank": "77",
        "village": "湳興里",
        "name": "南雅西路二段25號(聖若望教堂)"
      }
    },
    {
      "type": "Feature",
      "geometry": {
        "type": "Point",
        "coordinates": [
          121.4530669,
          25.0091404
        ]
      },
      "properties": {
        "routeId": "new-taipei-220073",
        "city": "new-taipei",
        "lineid": "220073",
        "linename": "B02路線晚上",
        "rank": "78",
        "village": "湳興里",
        "name": "南雅西路二段7巷口"
      }
    },
    {
      "type": "Feature",
      "geometry": {
        "type": "Point",
        "coordinates": [
          121.4526175,
          25.0085868
        ]
      },
      "properties": {
        "routeId": "new-taipei-220073",
        "city": "new-taipei",
        "lineid": "220073",
        "linename": "B02路線晚上",
        "rank": "79",
        "village": "湳興里",
        "name": "館前西路166號"
      }
    },
    {
      "type": "Feature",
      "geometry": {
        "type": "Point",
        "coordinates": [
          121.4504178,
          25.0084992
        ]
      },
      "properties": {
        "routeId": "new-taipei-220073",
        "city": "new-taipei",
        "lineid": "220073",
        "linename": "B02路線晚上",
        "rank": "80",
        "village": "浮洲里",
        "name": "大觀路一段16號"
      }
    }
  ]
}