{
  "type": "FeatureCollection",
  "features": [
    {
      "type": "Feature",
      "geometry": {
        "type": "Point",
        "coordinates": [
          121.5375461,
          24.96130232
        ]
      },
      "properties": {
        "routeId": "new-taipei-231027",
        "city": "new-taipei",
        "lineid": "231027",
        "linename": "路線19",
        "rank": "1",
        "village": "張南里",
        "name": "環河路19巷"
      }
    },
    {
      "type": "Feature",
      "geometry": {
        "type": "Point",
        "coordinates": [
          121.538069,
          24.96128357
        ]
      },
      "properties": {
        "routeId": "new-taipei-231027",
        "city": "new-taipei",
        "lineid": "231027",
        "linename": "路線19",
        "rank": "2",
        "village": "張南里",
        "name": "環河路5號"
      }
    },
    {
      "type": "Feature",
      "geometry": {
        "type": "Point",
        "coordinates": [
          121.5377601,
          24.95596806
        ]
      },
      "properties": {
        "routeId": "new-taipei-231027",
        "city": "new-taipei",
        "lineid": "231027",
        "linename": "路線19",
        "rank": "3",
        "village": "新店里",
        "name": "新店後街105號"
      }
    },
    {
      "type": "Feature",
      "geometry": {
        "type": "Point",
        "coordinates": [
          121.5385974,
          24.95311155
        ]
      },
      "properties": {
        "routeId": "new-taipei-231027",
        "city": "new-taipei",
        "lineid": "231027",
        "linename": "路線19",
        "rank": "4",
        "village": "國校里",
        "name": "國校路76號(新店國小後門)"
      }
    },
    {
      "type": "Feature",
      "geometry": {
        "type": "Point",
        "coordinates": [
          121.5408887,
          24.95464938
        ]
      },
      "properties": {
        "routeId": "new-taipei-231027",
        "city": "new-taipei",
        "lineid": "231027",
        "linename": "路線19",
        "rank": "5",
        "village": "國校里",
        "name": "能仁路36號"
      }
    },
    {
      "type": "Feature",
      "geometry": {
        "type": "Point",
        "coordinates": [
          121.5396297,
          24.95549847
        ]
      },
      "properties": {
        "routeId": "new-taipei-231027",
        "city": "new-taipei",
        "lineid": "231027",
        "linename": "路線19",
        "rank": "6",
        "village": "文中里",
        "name": "北宜路一段105巷4弄"
      }
    },
    {
      "type": "Feature",
      "geometry": {
        "type": "Point",
        "coordinates": [
          121.5400621,
          24.96115323
        ]
      },
      "properties": {
        "routeId": "new-taipei-231027",
        "city": "new-taipei",
        "lineid": "231027",
        "linename": "路線19",
        "rank": "7",
        "village": "文明里",
        "name": "光明街138巷13弄"
      }
    },
    {
      "type": "Feature",
      "geometry": {
        "type": "Point",
        "coordinates": [
          121.5403403,
          24.96171838
        ]
      },
      "properties": {
        "routeId": "new-taipei-231027",
        "city": "new-taipei",
        "lineid": "231027",
        "linename": "路線19",
        "rank": "8",
        "village": "文明里",
        "name": "光明街168巷5弄"
      }
    },
    {
      "type": "Feature",
      "geometry": {
        "type": "Point",
        "coordinates": [
          121.540926,
          24.96279577
        ]
      },
      "properties": {
        "routeId": "new-taipei-231027",
        "city": "new-taipei",
        "lineid": "231027",
        "linename": "路線19",
        "rank": "9",
        "village": "文明里",
        "name": "檳榔路36巷21號"
      }
    },
    {
      "type": "Feature",
      "geometry": {
        "type": "Point",
        "coordinates": [
          121.5411833,
          24.96330342
        ]
      },
      "properties": {
        "routeId": "new-taipei-231027",
        "city": "new-taipei",
        "lineid": "231027",
        "linename": "路線19",
        "rank": "10",
        "village": "文明里",
        "name": "光明街286巷"
      }
    },
    {
      "type": "Feature",
      "geometry": {
        "type": "Point",
        "coordinates": [
          121.5436117,
          24.97184088
        ]
      },
      "properties": {
        "routeId": "new-taipei-231027",
        "city": "new-taipei",
        "lineid": "231027",
        "linename": "路線19",
        "rank": "11",
        "village": "張北里",
        "name": "中正路76巷11弄"
      }
    },
    {
      "type": "Feature",
      "geometry": {
        "type": "Point",
        "coordinates": [
          121.5435234,
          24.97116177
        ]
      },
      "properties": {
        "routeId": "new-taipei-231027",
        "city": "new-taipei",
        "lineid": "231027",
        "linename": "路線19",
        "rank": "12",
        "village": "張北里",
        "name": "中正路102巷8弄4號"
      }
    },
    {
      "type": "Feature",
      "geometry": {
        "type": "Point",
        "coordinates": [
          121.5366889,
          24.97494055
        ]
      },
      "properties": {
        "routeId": "new-taipei-231027",
        "city": "new-taipei",
        "lineid": "231027",
        "linename": "路線19",
        "rank": "13",
        "village": "百和里",
        "name": "中正路334巷"
      }
    }
  ]
}