{
  "type": "FeatureCollection",
  "features": [
    {
      "type": "Feature",
      "geometry": {
        "type": "Point",
        "coordinates": [
          121.467323,
          25.024832
        ]
      },
      "properties": {
        "routeId": "new-taipei-220093",
        "city": "new-taipei",
        "lineid": "220093",
        "linename": "C07路線晚上",
        "rank": "1",
        "village": "聯翠里",
        "name": "民生路3段36號"
      }
    },
    {
      "type": "Feature",
      "geometry": {
        "type": "Point",
        "coordinates": [
          121.467064,
          25.025358
        ]
      },
      "properties": {
        "routeId": "new-taipei-220093",
        "city": "new-taipei",
        "lineid": "220093",
        "linename": "C07路線晚上",
        "rank": "2",
        "village": "聯翠里",
        "name": "民生路3段54號"
      }
    },
    {
      "type": "Feature",
      "geometry": {
        "type": "Point",
        "coordinates": [
          121.466553,
          25.026409
        ]
      },
      "properties": {
        "routeId": "new-taipei-220093",
        "city": "new-taipei",
        "lineid": "220093",
        "linename": "C07路線晚上",
        "rank": "3",
        "village": "聯翠里",
        "name": "民生路3段110號"
      }
    },
    {
      "type": "Feature",
      "geometry": {
        "type": "Point",
        "coordinates": [
          121.466309,
          25.026867
        ]
      },
      "properties": {
        "routeId": "new-taipei-220093",
        "city": "new-taipei",
        "lineid": "220093",
        "linename": "C07路線晚上",
        "rank": "4",
        "village": "聯翠里",
        "name": "民生路3段134號"
      }
    },
    {
      "type": "Feature",
      "geometry": {
        "type": "Point",
        "coordinates": [
          121.466064,
          25.027346
        ]
      },
      "properties": {
        "routeId": "new-taipei-220093",
        "city": "new-taipei",
        "lineid": "220093",
        "linename": "C07路線晚上",
        "rank": "5",
        "village": "文化里",
        "name": "民生路3段148號"
      }
    },
    {
      "type": "Feature",
      "geometry": {
        "type": "Point",
        "coordinates": [
          121.465843,
          25.027775
        ]
      },
      "properties": {
        "routeId": "new-taipei-220093",
        "city": "new-taipei",
        "lineid": "220093",
        "linename": "C07路線晚上",
        "rank": "6",
        "village": "文化里",
        "name": "民生路3段164號"
      }
    },
    {
      "type": "Feature",
      "geometry": {
        "type": "Point",
        "coordinates": [
          121.465729,
          25.02799
        ]
      },
      "properties": {
        "routeId": "new-taipei-220093",
        "city": "new-taipei",
        "lineid": "220093",
        "linename": "C07路線晚上",
        "rank": "7",
        "village": "純翠里",
        "name": "民生路3段170號"
      }
    },
    {
      "type": "Feature",
      "geometry": {
        "type": "Point",
        "coordinates": [
          121.465157,
          25.029106
        ]
      },
      "properties": {
        "routeId": "new-taipei-220093",
        "city": "new-taipei",
        "lineid": "220093",
        "linename": "C07路線晚上",
        "rank": "8",
        "village": "純翠里",
        "name": "民生路3段176號"
      }
    },
    {
      "type": "Feature",
      "geometry": {
        "type": "Point",
        "coordinates": [
          121.465012,
          25.029419
        ]
      },
      "properties": {
        "routeId": "new-taipei-220093",
        "city": "new-taipei",
        "lineid": "220093",
        "linename": "C07路線晚上",
        "rank": "9",
        "village": "純翠里",
        "name": "民生路3段200號"
      }
    },
    {
      "type": "Feature",
      "geometry": {
        "type": "Point",
        "coordinates": [
          121.463692,
          25.030691
        ]
      },
      "properties": {
        "routeId": "new-taipei-220093",
        "city": "new-taipei",
        "lineid": "220093",
        "linename": "C07路線晚上",
        "rank": "10",
        "village": "滿翠里",
        "name": "民生路3段301之14號"
      }
    },
    {
      "type": "Feature",
      "geometry": {
        "type": "Point",
        "coordinates": [
          121.463905,
          25.030264
        ]
      },
      "properties": {
        "routeId": "new-taipei-220093",
        "city": "new-taipei",
        "lineid": "220093",
        "linename": "C07路線晚上",
        "rank": "11",
        "village": "滿翠里",
        "name": "民生路3段289號"
      }
    },
    {
      "type": "Feature",
      "geometry": {
        "type": "Point",
        "coordinates": [
          121.464157,
          25.029758
        ]
      },
      "properties": {
        "routeId": "new-taipei-220093",
        "city": "new-taipei",
        "lineid": "220093",
        "linename": "C07路線晚上",
        "rank": "12",
        "village": "滿翠里",
        "name": "民生路3段271號"
      }
    },
    {
      "type": "Feature",
      "geometry": {
        "type": "Point",
        "coordinates": [
          121.46431,
          25.029451
        ]
      },
      "properties": {
        "routeId": "new-taipei-220093",
        "city": "new-taipei",
        "lineid": "220093",
        "linename": "C07路線晚上",
        "rank": "13",
        "village": "滿翠里",
        "name": "民生路3段259號"
      }
    },
    {
      "type": "Feature",
      "geometry": {
        "type": "Point",
        "coordinates": [
          121.464554,
          25.028955
        ]
      },
      "properties": {
        "routeId": "new-taipei-220093",
        "city": "new-taipei",
        "lineid": "220093",
        "linename": "C07路線晚上",
        "rank": "14",
        "village": "滿翠里",
        "name": "民生路3段247號"
      }
    },
    {
      "type": "Feature",
      "geometry": {
        "type": "Point",
        "coordinates": [
          121.464851,
          25.02836
        ]
      },
      "properties": {
        "routeId": "new-taipei-220093",
        "city": "new-taipei",
        "lineid": "220093",
        "linename": "C07路線晚上",
        "rank": "15",
        "village": "滿翠里",
        "name": "民生路3段223號"
      }
    },
    {
      "type": "Feature",
      "geometry": {
        "type": "Point",
        "coordinates": [
          121.46508,
          25.027912
        ]
      },
      "properties": {
        "routeId": "new-taipei-220093",
        "city": "new-taipei",
        "lineid": "220093",
        "linename": "C07路線晚上",
        "rank": "16",
        "village": "明翠里",
        "name": "民生路3段209號"
      }
    },
    {
      "type": "Feature",
      "geometry": {
        "type": "Point",
        "coordinates": [
          121.46537,
          25.027323
        ]
      },
      "properties": {
        "routeId": "new-taipei-220093",
        "city": "new-taipei",
        "lineid": "220093",
        "linename": "C07路線晚上",
        "rank": "17",
        "village": "明翠里",
        "name": "民生路3段185號"
      }
    },
    {
      "type": "Feature",
      "geometry": {
        "type": "Point",
        "coordinates": [
          121.465683,
          25.026693
        ]
      },
      "properties": {
        "routeId": "new-taipei-220093",
        "city": "new-taipei",
        "lineid": "220093",
        "linename": "C07路線晚上",
        "rank": "18",
        "village": "明翠里",
        "name": "民生路3段157號"
      }
    },
    {
      "type": "Feature",
      "geometry": {
        "type": "Point",
        "coordinates": [
          121.465851,
          25.026373
        ]
      },
      "properties": {
        "routeId": "new-taipei-220093",
        "city": "new-taipei",
        "lineid": "220093",
        "linename": "C07路線晚上",
        "rank": "19",
        "village": "明翠里",
        "name": "民生路3段141號"
      }
    },
    {
      "type": "Feature",
      "geometry": {
        "type": "Point",
        "coordinates": [
          121.46608,
          25.025932
        ]
      },
      "properties": {
        "routeId": "new-taipei-220093",
        "city": "new-taipei",
        "lineid": "220093",
        "linename": "C07路線晚上",
        "rank": "20",
        "village": "明翠里",
        "name": "民生路3段127號"
      }
    },
    {
      "type": "Feature",
      "geometry": {
        "type": "Point",
        "coordinates": [
          121.466331,
          25.025455
        ]
      },
      "properties": {
        "routeId": "new-taipei-220093",
        "city": "new-taipei",
        "lineid": "220093",
        "linename": "C07路線晚上",
        "rank": "21",
        "village": "明翠里",
        "name": "民生路3段115號"
      }
    },
    {
      "type": "Feature",
      "geometry": {
        "type": "Point",
        "coordinates": [
          121.466576,
          25.025034
        ]
      },
      "properties": {
        "routeId": "new-taipei-220093",
        "city": "new-taipei",
        "lineid": "220093",
        "linename": "C07路線晚上",
        "rank": "22",
        "village": "明翠里",
        "name": "民生路3段101號"
      }
    },
    {
      "type": "Feature",
      "geometry": {
        "type": "Point",
        "coordinates": [
          121.466927,
          25.024426
        ]
      },
      "properties": {
        "routeId": "new-taipei-220093",
        "city": "new-taipei",
        "lineid": "220093",
        "linename": "C07路線晚上",
        "rank": "23",
        "village": "明翠里",
        "name": "民生路3段85號"
      }
    },
    {
      "type": "Feature",
      "geometry": {
        "type": "Point",
        "coordinates": [
          121.463387,
          25.018248
        ]
      },
      "properties": {
        "routeId": "new-taipei-220093",
        "city": "new-taipei",
        "lineid": "220093",
        "linename": "C07路線晚上",
        "rank": "24",
        "village": "公館里",
        "name": "漢生西路32號"
      }
    },
    {
      "type": "Feature",
      "geometry": {
        "type": "Point",
        "coordinates": [
          121.462982,
          25.018734
        ]
      },
      "properties": {
        "routeId": "new-taipei-220093",
        "city": "new-taipei",
        "lineid": "220093",
        "linename": "C07路線晚上",
        "rank": "25",
        "village": "公館里",
        "name": "漢生西路56號"
      }
    },
    {
      "type": "Feature",
      "geometry": {
        "type": "Point",
        "coordinates": [
          121.462739,
          25.019347
        ]
      },
      "properties": {
        "routeId": "new-taipei-220093",
        "city": "new-taipei",
        "lineid": "220093",
        "linename": "C07路線晚上",
        "rank": "26",
        "village": "公館里",
        "name": "漢生西路82號"
      }
    },
    {
      "type": "Feature",
      "geometry": {
        "type": "Point",
        "coordinates": [
          121.462669,
          25.019627
        ]
      },
      "properties": {
        "routeId": "new-taipei-220093",
        "city": "new-taipei",
        "lineid": "220093",
        "linename": "C07路線晚上",
        "rank": "27",
        "village": "公館里",
        "name": "漢生西路98號"
      }
    },
    {
      "type": "Feature",
      "geometry": {
        "type": "Point",
        "coordinates": [
          121.462646,
          25.020594
        ]
      },
      "properties": {
        "routeId": "new-taipei-220093",
        "city": "new-taipei",
        "lineid": "220093",
        "linename": "C07路線晚上",
        "rank": "28",
        "village": "幸福里",
        "name": "新海路1號"
      }
    },
    {
      "type": "Feature",
      "geometry": {
        "type": "Point",
        "coordinates": [
          121.462448,
          25.020868
        ]
      },
      "properties": {
        "routeId": "new-taipei-220093",
        "city": "new-taipei",
        "lineid": "220093",
        "linename": "C07路線晚上",
        "rank": "29",
        "village": "文德里",
        "name": "新海路10號"
      }
    },
    {
      "type": "Feature",
      "geometry": {
        "type": "Point",
        "coordinates": [
          121.46218,
          25.021255
        ]
      },
      "properties": {
        "routeId": "new-taipei-220093",
        "city": "new-taipei",
        "lineid": "220093",
        "linename": "C07路線晚上",
        "rank": "30",
        "village": "文德里",
        "name": "新海路32號"
      }
    },
    {
      "type": "Feature",
      "geometry": {
        "type": "Point",
        "coordinates": [
          121.461922,
          25.021635
        ]
      },
      "properties": {
        "routeId": "new-taipei-220093",
        "city": "new-taipei",
        "lineid": "220093",
        "linename": "C07路線晚上",
        "rank": "31",
        "village": "文德里",
        "name": "新海路64號"
      }
    },
    {
      "type": "Feature",
      "geometry": {
        "type": "Point",
        "coordinates": [
          121.461327,
          25.022491
        ]
      },
      "properties": {
        "routeId": "new-taipei-220093",
        "city": "new-taipei",
        "lineid": "220093",
        "linename": "C07路線晚上",
        "rank": "32",
        "village": "文德里",
        "name": "新海路112號"
      }
    },
    {
      "type": "Feature",
      "geometry": {
        "type": "Point",
        "coordinates": [
          121.460808,
          25.023306
        ]
      },
      "properties": {
        "routeId": "new-taipei-220093",
        "city": "new-taipei",
        "lineid": "220093",
        "linename": "C07路線晚上",
        "rank": "33",
        "village": "文德里",
        "name": "新海路138號"
      }
    },
    {
      "type": "Feature",
      "geometry": {
        "type": "Point",
        "coordinates": [
          121.461131,
          25.02472
        ]
      },
      "properties": {
        "routeId": "new-taipei-220093",
        "city": "new-taipei",
        "lineid": "220093",
        "linename": "C07路線晚上",
        "rank": "34",
        "village": "新翠里",
        "name": "英士路49號富臨極品"
      }
    },
    {
      "type": "Feature",
      "geometry": {
        "type": "Point",
        "coordinates": [
          121.459137,
          25.026009
        ]
      },
      "properties": {
        "routeId": "new-taipei-220093",
        "city": "new-taipei",
        "lineid": "220093",
        "linename": "C07路線晚上",
        "rank": "35",
        "village": "新海里",
        "name": "新海路380號"
      }
    },
    {
      "type": "Feature",
      "geometry": {
        "type": "Point",
        "coordinates": [
          121.458946,
          25.026304
        ]
      },
      "properties": {
        "routeId": "new-taipei-220093",
        "city": "new-taipei",
        "lineid": "220093",
        "linename": "C07路線晚上",
        "rank": "36",
        "village": "新海里",
        "name": "新海路390號"
      }
    },
    {
      "type": "Feature",
      "geometry": {
        "type": "Point",
        "coordinates": [
          121.458778,
          25.026562
        ]
      },
      "properties": {
        "routeId": "new-taipei-220093",
        "city": "new-taipei",
        "lineid": "220093",
        "linename": "C07路線晚上",
        "rank": "37",
        "village": "新海里",
        "name": "新海路396號"
      }
    },
    {
      "type": "Feature",
      "geometry": {
        "type": "Point",
        "coordinates": [
          121.458656,
          25.026764
        ]
      },
      "properties": {
        "routeId": "new-taipei-220093",
        "city": "new-taipei",
        "lineid": "220093",
        "linename": "C07路線晚上",
        "rank": "38",
        "village": "新海里",
        "name": "新海路402號"
      }
    },
    {
      "type": "Feature",
      "geometry": {
        "type": "Point",
        "coordinates": [
          121.458167,
          25.027584
        ]
      },
      "properties": {
        "routeId": "new-taipei-220093",
        "city": "new-taipei",
        "lineid": "220093",
        "linename": "C07路線晚上",
        "rank": "39",
        "village": "新海里",
        "name": "新海路430巷口"
      }
    },
    {
      "type": "Feature",
      "geometry": {
        "type": "Point",
        "coordinates": [
          121.457771,
          25.02858
        ]
      },
      "properties": {
        "routeId": "new-taipei-220093",
        "city": "new-taipei",
        "lineid": "220093",
        "linename": "C07路線晚上",
        "rank": "40",
        "village": "新海里",
        "name": "長江路1段8號"
      }
    },
    {
      "type": "Feature",
      "geometry": {
        "type": "Point",
        "coordinates": [
          121.458572,
          25.029034
        ]
      },
      "properties": {
        "routeId": "new-taipei-220093",
        "city": "new-taipei",
        "lineid": "220093",
        "linename": "C07路線晚上",
        "rank": "41",
        "village": "宏翠里",
        "name": "長江路1段44號"
      }
    },
    {
      "type": "Feature",
      "geometry": {
        "type": "Point",
        "coordinates": [
          121.459015,
          25.029299
        ]
      },
      "properties": {
        "routeId": "new-taipei-220093",
        "city": "new-taipei",
        "lineid": "220093",
        "linename": "C07路線晚上",
        "rank": "42",
        "village": "宏翠里",
        "name": "長江路1段68號"
      }
    },
    {
      "type": "Feature",
      "geometry": {
        "type": "Point",
        "coordinates": [
          121.459602,
          25.029629
        ]
      },
      "properties": {
        "routeId": "new-taipei-220093",
        "city": "new-taipei",
        "lineid": "220093",
        "linename": "C07路線晚上",
        "rank": "43",
        "village": "宏翠里",
        "name": "長江路1段108號"
      }
    },
    {
      "type": "Feature",
      "geometry": {
        "type": "Point",
        "coordinates": [
          121.459946,
          25.029819
        ]
      },
      "properties": {
        "routeId": "new-taipei-220093",
        "city": "new-taipei",
        "lineid": "220093",
        "linename": "C07路線晚上",
        "rank": "44",
        "village": "宏翠里",
        "name": "長江路1段120號"
      }
    },
    {
      "type": "Feature",
      "geometry": {
        "type": "Point",
        "coordinates": [
          121.460503,
          25.030081
        ]
      },
      "properties": {
        "routeId": "new-taipei-220093",
        "city": "new-taipei",
        "lineid": "220093",
        "linename": "C07路線晚上",
        "rank": "45",
        "village": "宏翠里",
        "name": "長江路1段138號"
      }
    },
    {
      "type": "Feature",
      "geometry": {
        "type": "Point",
        "coordinates": [
          121.461258,
          25.030401
        ]
      },
      "properties": {
        "routeId": "new-taipei-220093",
        "city": "new-taipei",
        "lineid": "220093",
        "linename": "C07路線晚上",
        "rank": "46",
        "village": "宏翠里",
        "name": "長江路1段164號"
      }
    },
    {
      "type": "Feature",
      "geometry": {
        "type": "Point",
        "coordinates": [
          121.461784,
          25.030565
        ]
      },
      "properties": {
        "routeId": "new-taipei-220093",
        "city": "new-taipei",
        "lineid": "220093",
        "linename": "C07路線晚上",
        "rank": "47",
        "village": "宏翠里",
        "name": "長江路1段180號"
      }
    },
    {
      "type": "Feature",
      "geometry": {
        "type": "Point",
        "coordinates": [
          121.462036,
          25.030643
        ]
      },
      "properties": {
        "routeId": "new-taipei-220093",
        "city": "new-taipei",
        "lineid": "220093",
        "linename": "C07路線晚上",
        "rank": "48",
        "village": "宏翠里",
        "name": "長江路1段188號"
      }
    },
    {
      "type": "Feature",
      "geometry": {
        "type": "Point",
        "coordinates": [
          121.462697,
          25.030789
        ]
      },
      "properties": {
        "routeId": "new-taipei-220093",
        "city": "new-taipei",
        "lineid": "220093",
        "linename": "C07路線晚上",
        "rank": "49",
        "village": "宏翠里",
        "name": "長江路1段206號"
      }
    },
    {
      "type": "Feature",
      "geometry": {
        "type": "Point",
        "coordinates": [
          121.465492,
          25.031597
        ]
      },
      "properties": {
        "routeId": "new-taipei-220093",
        "city": "new-taipei",
        "lineid": "220093",
        "linename": "C07路線晚上",
        "rank": "50",
        "village": "純翠里",
        "name": "長江路2段122號"
      }
    },
    {
      "type": "Feature",
      "geometry": {
        "type": "Point",
        "coordinates": [
          121.465836,
          25.031696
        ]
      },
      "properties": {
        "routeId": "new-taipei-220093",
        "city": "new-taipei",
        "lineid": "220093",
        "linename": "C07路線晚上",
        "rank": "51",
        "village": "純翠里",
        "name": "長江路2段142號"
      }
    },
    {
      "type": "Feature",
      "geometry": {
        "type": "Point",
        "coordinates": [
          121.467613,
          25.032219
        ]
      },
      "properties": {
        "routeId": "new-taipei-220093",
        "city": "new-taipei",
        "lineid": "220093",
        "linename": "C07路線晚上",
        "rank": "52",
        "village": "龍翠里",
        "name": "長江路2段210號"
      }
    },
    {
      "type": "Feature",
      "geometry": {
        "type": "Point",
        "coordinates": [
          121.468224,
          25.0324
        ]
      },
      "properties": {
        "routeId": "new-taipei-220093",
        "city": "new-taipei",
        "lineid": "220093",
        "linename": "C07路線晚上",
        "rank": "53",
        "village": "江翠里",
        "name": "長江路2段220號"
      }
    },
    {
      "type": "Feature",
      "geometry": {
        "type": "Point",
        "coordinates": [
          121.468613,
          25.032513
        ]
      },
      "properties": {
        "routeId": "new-taipei-220093",
        "city": "new-taipei",
        "lineid": "220093",
        "linename": "C07路線晚上",
        "rank": "54",
        "village": "江翠里",
        "name": "長江路2段234號"
      }
    },
    {
      "type": "Feature",
      "geometry": {
        "type": "Point",
        "coordinates": [
          121.468941,
          25.032619
        ]
      },
      "properties": {
        "routeId": "new-taipei-220093",
        "city": "new-taipei",
        "lineid": "220093",
        "linename": "C07路線晚上",
        "rank": "55",
        "village": "溪頭里",
        "name": "長江路2段250號"
      }
    },
    {
      "type": "Feature",
      "geometry": {
        "type": "Point",
        "coordinates": [
          121.469406,
          25.032755
        ]
      },
      "properties": {
        "routeId": "new-taipei-220093",
        "city": "new-taipei",
        "lineid": "220093",
        "linename": "C07路線晚上",
        "rank": "56",
        "village": "溪頭里",
        "name": "長江路2段266號"
      }
    },
    {
      "type": "Feature",
      "geometry": {
        "type": "Point",
        "coordinates": [
          121.470001,
          25.032934
        ]
      },
      "properties": {
        "routeId": "new-taipei-220093",
        "city": "new-taipei",
        "lineid": "220093",
        "linename": "C07路線晚上",
        "rank": "57",
        "village": "溪頭里",
        "name": "長江路2段282號"
      }
    },
    {
      "type": "Feature",
      "geometry": {
        "type": "Point",
        "coordinates": [
          121.471405,
          25.033339
        ]
      },
      "properties": {
        "routeId": "new-taipei-220093",
        "city": "new-taipei",
        "lineid": "220093",
        "linename": "C07路線晚上",
        "rank": "58",
        "village": "溪頭里",
        "name": "長江路2段320號"
      }
    },
    {
      "type": "Feature",
      "geometry": {
        "type": "Point",
        "coordinates": [
          121.472145,
          25.03356
        ]
      },
      "properties": {
        "routeId": "new-taipei-220093",
        "city": "new-taipei",
        "lineid": "220093",
        "linename": "C07路線晚上",
        "rank": "59",
        "village": "溪頭里",
        "name": "長江路3段16號"
      }
    },
    {
      "type": "Feature",
      "geometry": {
        "type": "Point",
        "coordinates": [
          121.473228,
          25.033871
        ]
      },
      "properties": {
        "routeId": "new-taipei-220093",
        "city": "new-taipei",
        "lineid": "220093",
        "linename": "C07路線晚上",
        "rank": "60",
        "village": "柏翠里",
        "name": "長江路3段52號"
      }
    },
    {
      "type": "Feature",
      "geometry": {
        "type": "Point",
        "coordinates": [
          121.473894,
          25.034059
        ]
      },
      "properties": {
        "routeId": "new-taipei-220093",
        "city": "new-taipei",
        "lineid": "220093",
        "linename": "C07路線晚上",
        "rank": "61",
        "village": "柏翠里",
        "name": "長江路3段72號"
      }
    },
    {
      "type": "Feature",
      "geometry": {
        "type": "Point",
        "coordinates": [
          121.474091,
          25.034113
        ]
      },
      "properties": {
        "routeId": "new-taipei-220093",
        "city": "new-taipei",
        "lineid": "220093",
        "linename": "C07路線晚上",
        "rank": "62",
        "village": "柏翠里",
        "name": "長江路3段78號(華江麗境)"
      }
    },
    {
      "type": "Feature",
      "geometry": {
        "type": "Point",
        "coordinates": [
          121.474595,
          25.034239
        ]
      },
      "properties": {
        "routeId": "new-taipei-220093",
        "city": "new-taipei",
        "lineid": "220093",
        "linename": "C07路線晚上",
        "rank": "63",
        "village": "柏翠里",
        "name": "長江路3段96號"
      }
    },
    {
      "type": "Feature",
      "geometry": {
        "type": "Point",
        "coordinates": [
          121.475304,
          25.034496
        ]
      },
      "properties": {
        "routeId": "new-taipei-220093",
        "city": "new-taipei",
        "lineid": "220093",
        "linename": "C07路線晚上",
        "rank": "64",
        "village": "柏翠里",
        "name": "長江路3段126號"
      }
    },
    {
      "type": "Feature",
      "geometry": {
        "type": "Point",
        "coordinates": [
          121.480402,
          25.035699
        ]
      },
      "properties": {
        "routeId": "new-taipei-220093",
        "city": "new-taipei",
        "lineid": "220093",
        "linename": "C07路線晚上",
        "rank": "65",
        "village": "文翠里",
        "name": "停整點:文化路2段654-10號"
      }
    },
    {
      "type": "Feature",
      "geometry": {
        "type": "Point",
        "coordinates": [
          121.476028,
          25.034733
        ]
      },
      "properties": {
        "routeId": "new-taipei-220093",
        "city": "new-taipei",
        "lineid": "220093",
        "linename": "C07路線晚上",
        "rank": "66",
        "village": "柏翠里",
        "name": "長江路3段145號"
      }
    },
    {
      "type": "Feature",
      "geometry": {
        "type": "Point",
        "coordinates": [
          121.475105,
          25.034464
        ]
      },
      "properties": {
        "routeId": "new-taipei-220093",
        "city": "new-taipei",
        "lineid": "220093",
        "linename": "C07路線晚上",
        "rank": "67",
        "village": "柏翠里",
        "name": "停整點:長江路3段115號"
      }
    },
    {
      "type": "Feature",
      "geometry": {
        "type": "Point",
        "coordinates": [
          121.473625,
          25.034016
        ]
      },
      "properties": {
        "routeId": "new-taipei-220093",
        "city": "new-taipei",
        "lineid": "220093",
        "linename": "C07路線晚上",
        "rank": "68",
        "village": "柏翠里",
        "name": "長江路3段49號"
      }
    },
    {
      "type": "Feature",
      "geometry": {
        "type": "Point",
        "coordinates": [
          121.472855,
          25.033796
        ]
      },
      "properties": {
        "routeId": "new-taipei-220093",
        "city": "new-taipei",
        "lineid": "220093",
        "linename": "C07路線晚上",
        "rank": "69",
        "village": "溪頭里",
        "name": "長江路3段35號"
      }
    },
    {
      "type": "Feature",
      "geometry": {
        "type": "Point",
        "coordinates": [
          121.47229,
          25.033632
        ]
      },
      "properties": {
        "routeId": "new-taipei-220093",
        "city": "new-taipei",
        "lineid": "220093",
        "linename": "C07路線晚上",
        "rank": "70",
        "village": "溪頭里",
        "name": "長江路3段15號"
      }
    },
    {
      "type": "Feature",
      "geometry": {
        "type": "Point",
        "coordinates": [
          121.471222,
          25.033327
        ]
      },
      "properties": {
        "routeId": "new-taipei-220093",
        "city": "new-taipei",
        "lineid": "220093",
        "linename": "C07路線晚上",
        "rank": "71",
        "village": "溪頭里",
        "name": "長江路2段321號"
      }
    },
    {
      "type": "Feature",
      "geometry": {
        "type": "Point",
        "coordinates": [
          121.470695,
          25.033171
        ]
      },
      "properties": {
        "routeId": "new-taipei-220093",
        "city": "new-taipei",
        "lineid": "220093",
        "linename": "C07路線晚上",
        "rank": "72",
        "village": "溪頭里",
        "name": "長江路2段295號"
      }
    },
    {
      "type": "Feature",
      "geometry": {
        "type": "Point",
        "coordinates": [
          121.469635,
          25.032858
        ]
      },
      "properties": {
        "routeId": "new-taipei-220093",
        "city": "new-taipei",
        "lineid": "220093",
        "linename": "C07路線晚上",
        "rank": "73",
        "village": "溪頭里",
        "name": "長江路2段265號"
      }
    },
    {
      "type": "Feature",
      "geometry": {
        "type": "Point",
        "coordinates": [
          121.468765,
          25.032595
        ]
      },
      "properties": {
        "routeId": "new-taipei-220093",
        "city": "new-taipei",
        "lineid": "220093",
        "linename": "C07路線晚上",
        "rank": "74",
        "village": "溪頭里",
        "name": "長江路2段239號"
      }
    },
    {
      "type": "Feature",
      "geometry": {
        "type": "Point",
        "coordinates": [
          121.467713498182,
          25.0323112406286
        ]
      },
      "properties": {
        "routeId": "new-taipei-220093",
        "city": "new-taipei",
        "lineid": "220093",
        "linename": "C07路線晚上",
        "rank": "75",
        "village": "溪頭里",
        "name": "長江路2段209號翠園豪景"
      }
    },
    {
      "type": "Feature",
      "geometry": {
        "type": "Point",
        "coordinates": [
          121.467545,
          25.032232
        ]
      },
      "properties": {
        "routeId": "new-taipei-220093",
        "city": "new-taipei",
        "lineid": "220093",
        "linename": "C07路線晚上",
        "rank": "76",
        "village": "溪頭里",
        "name": "長江路2段199號"
      }
    },
    {
      "type": "Feature",
      "geometry": {
        "type": "Point",
        "coordinates": [
          121.461906,
          25.030636
        ]
      },
      "properties": {
        "routeId": "new-taipei-220093",
        "city": "new-taipei",
        "lineid": "220093",
        "linename": "C07路線晚上",
        "rank": "77",
        "village": "宏翠里",
        "name": "長江路1段373號"
      }
    },
    {
      "type": "Feature",
      "geometry": {
        "type": "Point",
        "coordinates": [
          121.461151,
          25.030399
        ]
      },
      "properties": {
        "routeId": "new-taipei-220093",
        "city": "new-taipei",
        "lineid": "220093",
        "linename": "C07路線晚上",
        "rank": "78",
        "village": "宏翠里",
        "name": "長江路1段355號"
      }
    },
    {
      "type": "Feature",
      "geometry": {
        "type": "Point",
        "coordinates": [
          121.460976,
          25.030333
        ]
      },
      "properties": {
        "routeId": "new-taipei-220093",
        "city": "new-taipei",
        "lineid": "220093",
        "linename": "C07路線晚上",
        "rank": "79",
        "village": "宏翠里",
        "name": "長江路1段351號"
      }
    },
    {
      "type": "Feature",
      "geometry": {
        "type": "Point",
        "coordinates": [
          121.460693,
          25.030209
        ]
      },
      "properties": {
        "routeId": "new-taipei-220093",
        "city": "new-taipei",
        "lineid": "220093",
        "linename": "C07路線晚上",
        "rank": "80",
        "village": "宏翠里",
        "name": "長江路1段143號"
      }
    },
    {
      "type": "Feature",
      "geometry": {
        "type": "Point",
        "coordinates": [
          121.460548,
          25.030142
        ]
      },
      "properties": {
        "routeId": "new-taipei-220093",
        "city": "new-taipei",
        "lineid": "220093",
        "linename": "C07路線晚上",
        "rank": "81",
        "village": "宏翠里",
        "name": "長江路1段133號"
      }
    },
    {
      "type": "Feature",
      "geometry": {
        "type": "Point",
        "coordinates": [
          121.460129,
          25.029943
        ]
      },
      "properties": {
        "routeId": "new-taipei-220093",
        "city": "new-taipei",
        "lineid": "220093",
        "linename": "C07路線晚上",
        "rank": "82",
        "village": "宏翠里",
        "name": "長江路1段121號"
      }
    },
    {
      "type": "Feature",
      "geometry": {
        "type": "Point",
        "coordinates": [
          121.459229,
          25.029453
        ]
      },
      "properties": {
        "routeId": "new-taipei-220093",
        "city": "new-taipei",
        "lineid": "220093",
        "linename": "C07路線晚上",
        "rank": "83",
        "village": "吉翠里",
        "name": "長江路1段93號"
      }
    },
    {
      "type": "Feature",
      "geometry": {
        "type": "Point",
        "coordinates": [
          121.45874,
          25.029173
        ]
      },
      "properties": {
        "routeId": "new-taipei-220093",
        "city": "new-taipei",
        "lineid": "220093",
        "linename": "C07路線晚上",
        "rank": "84",
        "village": "吉翠里",
        "name": "長江路1段53號"
      }
    },
    {
      "type": "Feature",
      "geometry": {
        "type": "Point",
        "coordinates": [
          121.457901,
          25.028694
        ]
      },
      "properties": {
        "routeId": "new-taipei-220093",
        "city": "new-taipei",
        "lineid": "220093",
        "linename": "C07路線晚上",
        "rank": "85",
        "village": "吉翠里",
        "name": "長江路1段9號"
      }
    }
  ]
}