{
  "type": "FeatureCollection",
  "features": [
    {
      "type": "Feature",
      "geometry": {
        "type": "Point",
        "coordinates": [
          121.4991352,
          24.95434305
        ]
      },
      "properties": {
        "routeId": "new-taipei-231062",
        "city": "new-taipei",
        "lineid": "231062",
        "linename": "路線晚上23",
        "rank": "1",
        "village": "德安里",
        "name": "安豐路56號"
      }
    },
    {
      "type": "Feature",
      "geometry": {
        "type": "Point",
        "coordinates": [
          121.5184164,
          24.96879717
        ]
      },
      "properties": {
        "routeId": "new-taipei-231062",
        "city": "new-taipei",
        "lineid": "231062",
        "linename": "路線晚上23",
        "rank": "2",
        "village": "下城里",
        "name": "安平路雙側"
      }
    },
    {
      "type": "Feature",
      "geometry": {
        "type": "Point",
        "coordinates": [
          121.5239047,
          24.95940378
        ]
      },
      "properties": {
        "routeId": "new-taipei-231062",
        "city": "new-taipei",
        "lineid": "231062",
        "linename": "路線晚上23",
        "rank": "3",
        "village": "下城里",
        "name": "莒光路22巷口"
      }
    },
    {
      "type": "Feature",
      "geometry": {
        "type": "Point",
        "coordinates": [
          121.5233918,
          24.95887965
        ]
      },
      "properties": {
        "routeId": "new-taipei-231062",
        "city": "new-taipei",
        "lineid": "231062",
        "linename": "路線晚上23",
        "rank": "4",
        "village": "下城里",
        "name": "莒光路38巷"
      }
    },
    {
      "type": "Feature",
      "geometry": {
        "type": "Point",
        "coordinates": [
          121.5231956,
          24.95605897
        ]
      },
      "properties": {
        "routeId": "new-taipei-231062",
        "city": "new-taipei",
        "lineid": "231062",
        "linename": "路線晚上23",
        "rank": "5",
        "village": "下城里",
        "name": "莒光路87巷"
      }
    },
    {
      "type": "Feature",
      "geometry": {
        "type": "Point",
        "coordinates": [
          121.5219406,
          24.95342218
        ]
      },
      "properties": {
        "routeId": "new-taipei-231062",
        "city": "new-taipei",
        "lineid": "231062",
        "linename": "路線晚上23",
        "rank": "6",
        "village": "下城里",
        "name": "莒光路103號"
      }
    },
    {
      "type": "Feature",
      "geometry": {
        "type": "Point",
        "coordinates": [
          121.5225611,
          24.95392595
        ]
      },
      "properties": {
        "routeId": "new-taipei-231062",
        "city": "new-taipei",
        "lineid": "231062",
        "linename": "路線晚上23",
        "rank": "7",
        "village": "下城里",
        "name": "莒光路97號"
      }
    },
    {
      "type": "Feature",
      "geometry": {
        "type": "Point",
        "coordinates": [
          121.5319058,
          24.95943459
        ]
      },
      "properties": {
        "routeId": "new-taipei-231062",
        "city": "new-taipei",
        "lineid": "231062",
        "linename": "路線晚上23",
        "rank": "8",
        "village": "太平里",
        "name": "秀山路11巷"
      }
    },
    {
      "type": "Feature",
      "geometry": {
        "type": "Point",
        "coordinates": [
          121.5331955,
          24.95755185
        ]
      },
      "properties": {
        "routeId": "new-taipei-231062",
        "city": "new-taipei",
        "lineid": "231062",
        "linename": "路線晚上23",
        "rank": "9",
        "village": "太平里",
        "name": "合作路21號"
      }
    },
    {
      "type": "Feature",
      "geometry": {
        "type": "Point",
        "coordinates": [
          121.5333361,
          24.95766754
        ]
      },
      "properties": {
        "routeId": "new-taipei-231062",
        "city": "new-taipei",
        "lineid": "231062",
        "linename": "路線晚上23",
        "rank": "10",
        "village": "太平里",
        "name": "合作路19巷口"
      }
    },
    {
      "type": "Feature",
      "geometry": {
        "type": "Point",
        "coordinates": [
          121.5341279,
          24.95794518
        ]
      },
      "properties": {
        "routeId": "new-taipei-231062",
        "city": "new-taipei",
        "lineid": "231062",
        "linename": "路線晚上23",
        "rank": "11",
        "village": "太平里",
        "name": "太平路17巷口"
      }
    },
    {
      "type": "Feature",
      "geometry": {
        "type": "Point",
        "coordinates": [
          121.5343198,
          24.95675726
        ]
      },
      "properties": {
        "routeId": "new-taipei-231062",
        "city": "new-taipei",
        "lineid": "231062",
        "linename": "路線晚上23",
        "rank": "12",
        "village": "太平里",
        "name": "碧潭路69號"
      }
    },
    {
      "type": "Feature",
      "geometry": {
        "type": "Point",
        "coordinates": [
          121.5342756,
          24.9563581
        ]
      },
      "properties": {
        "routeId": "new-taipei-231062",
        "city": "new-taipei",
        "lineid": "231062",
        "linename": "路線晚上23",
        "rank": "13",
        "village": "太平里",
        "name": "碧潭路39號(碧潭商圈)"
      }
    },
    {
      "type": "Feature",
      "geometry": {
        "type": "Point",
        "coordinates": [
          121.5296565,
          24.95224585
        ]
      },
      "properties": {
        "routeId": "new-taipei-231062",
        "city": "new-taipei",
        "lineid": "231062",
        "linename": "路線晚上23",
        "rank": "14",
        "village": "美城里",
        "name": "華潭街12號"
      }
    },
    {
      "type": "Feature",
      "geometry": {
        "type": "Point",
        "coordinates": [
          121.5294858,
          24.9536879
        ]
      },
      "properties": {
        "routeId": "new-taipei-231062",
        "city": "new-taipei",
        "lineid": "231062",
        "linename": "路線晚上23",
        "rank": "15",
        "village": "美城里",
        "name": "華潭路26巷口"
      }
    },
    {
      "type": "Feature",
      "geometry": {
        "type": "Point",
        "coordinates": [
          121.5282526,
          24.95571023
        ]
      },
      "properties": {
        "routeId": "new-taipei-231062",
        "city": "new-taipei",
        "lineid": "231062",
        "linename": "路線晚上23",
        "rank": "16",
        "village": "下城里",
        "name": "華城路36巷內"
      }
    },
    {
      "type": "Feature",
      "geometry": {
        "type": "Point",
        "coordinates": [
          121.5288755,
          24.95781505
        ]
      },
      "properties": {
        "routeId": "new-taipei-231062",
        "city": "new-taipei",
        "lineid": "231062",
        "linename": "路線晚上23",
        "rank": "17",
        "village": "下城里",
        "name": "華城路10巷內"
      }
    },
    {
      "type": "Feature",
      "geometry": {
        "type": "Point",
        "coordinates": [
          121.484141,
          24.94683349
        ]
      },
      "properties": {
        "routeId": "new-taipei-231062",
        "city": "new-taipei",
        "lineid": "231062",
        "linename": "路線晚上23",
        "rank": "18",
        "village": "雙城里",
        "name": "安泰路60巷（頂好社區）"
      }
    },
    {
      "type": "Feature",
      "geometry": {
        "type": "Point",
        "coordinates": [
          121.4912699,
          24.9509446
        ]
      },
      "properties": {
        "routeId": "new-taipei-231062",
        "city": "new-taipei",
        "lineid": "231062",
        "linename": "路線晚上23",
        "rank": "19",
        "village": "雙城里",
        "name": "雙城路4巷"
      }
    },
    {
      "type": "Feature",
      "geometry": {
        "type": "Point",
        "coordinates": [
          121.4875453,
          24.94609303
        ]
      },
      "properties": {
        "routeId": "new-taipei-231062",
        "city": "new-taipei",
        "lineid": "231062",
        "linename": "路線晚上23",
        "rank": "20",
        "village": "雙城里",
        "name": "和成街(甜密密社區）"
      }
    },
    {
      "type": "Feature",
      "geometry": {
        "type": "Point",
        "coordinates": [
          121.4903056,
          24.9490049263685
        ]
      },
      "properties": {
        "routeId": "new-taipei-231062",
        "city": "new-taipei",
        "lineid": "231062",
        "linename": "路線晚上23",
        "rank": "21",
        "village": "雙城里",
        "name": "裕合街(喜洋洋社區)"
      }
    }
  ]
}