{
  "type": "FeatureCollection",
  "features": [
    {
      "type": "Feature",
      "geometry": {
        "type": "Point",
        "coordinates": [
          121.421295,
          25.025517
        ]
      },
      "properties": {
        "routeId": "new-taipei-242044",
        "city": "new-taipei",
        "lineid": "242044",
        "linename": "南6路線晚上",
        "rank": "1",
        "village": "富國里",
        "name": "富國路橋頭邊"
      }
    },
    {
      "type": "Feature",
      "geometry": {
        "type": "Point",
        "coordinates": [
          121.420341,
          25.025822
        ]
      },
      "properties": {
        "routeId": "new-taipei-242044",
        "city": "new-taipei",
        "lineid": "242044",
        "linename": "南6路線晚上",
        "rank": "2",
        "village": "富國里",
        "name": "富國路與福營路路口"
      }
    },
    {
      "type": "Feature",
      "geometry": {
        "type": "Point",
        "coordinates": [
          121.420105,
          25.025904
        ]
      },
      "properties": {
        "routeId": "new-taipei-242044",
        "city": "new-taipei",
        "lineid": "242044",
        "linename": "南6路線晚上",
        "rank": "3",
        "village": "富國里",
        "name": "富國路77巷口"
      }
    },
    {
      "type": "Feature",
      "geometry": {
        "type": "Point",
        "coordinates": [
          121.419739,
          25.026028
        ]
      },
      "properties": {
        "routeId": "new-taipei-242044",
        "city": "new-taipei",
        "lineid": "242044",
        "linename": "南6路線晚上",
        "rank": "4",
        "village": "富國里",
        "name": "富國路65巷口"
      }
    },
    {
      "type": "Feature",
      "geometry": {
        "type": "Point",
        "coordinates": [
          121.41909,
          25.026215
        ]
      },
      "properties": {
        "routeId": "new-taipei-242044",
        "city": "new-taipei",
        "lineid": "242044",
        "linename": "南6路線晚上",
        "rank": "5",
        "village": "富國里",
        "name": "富國路43號前"
      }
    },
    {
      "type": "Feature",
      "geometry": {
        "type": "Point",
        "coordinates": [
          121.418518,
          25.026377
        ]
      },
      "properties": {
        "routeId": "new-taipei-242044",
        "city": "new-taipei",
        "lineid": "242044",
        "linename": "南6路線晚上",
        "rank": "6",
        "village": "富國里",
        "name": "富國路19巷口"
      }
    },
    {
      "type": "Feature",
      "geometry": {
        "type": "Point",
        "coordinates": [
          121.4186142,
          25.02667328
        ]
      },
      "properties": {
        "routeId": "new-taipei-242044",
        "city": "new-taipei",
        "lineid": "242044",
        "linename": "南6路線晚上",
        "rank": "7",
        "village": "富國里",
        "name": "富國路19巷7號"
      }
    },
    {
      "type": "Feature",
      "geometry": {
        "type": "Point",
        "coordinates": [
          121.41909,
          25.026617
        ]
      },
      "properties": {
        "routeId": "new-taipei-242044",
        "city": "new-taipei",
        "lineid": "242044",
        "linename": "南6路線晚上",
        "rank": "8",
        "village": "富國里",
        "name": "中正路871巷17號"
      }
    },
    {
      "type": "Feature",
      "geometry": {
        "type": "Point",
        "coordinates": [
          121.419479,
          25.026497
        ]
      },
      "properties": {
        "routeId": "new-taipei-242044",
        "city": "new-taipei",
        "lineid": "242044",
        "linename": "南6路線晚上",
        "rank": "9",
        "village": "富國里",
        "name": "中正路871巷29號"
      }
    },
    {
      "type": "Feature",
      "geometry": {
        "type": "Point",
        "coordinates": [
          121.419914,
          25.026461
        ]
      },
      "properties": {
        "routeId": "new-taipei-242044",
        "city": "new-taipei",
        "lineid": "242044",
        "linename": "南6路線晚上",
        "rank": "10",
        "village": "富國里",
        "name": "富國路65巷5號"
      }
    },
    {
      "type": "Feature",
      "geometry": {
        "type": "Point",
        "coordinates": [
          121.41996,
          25.026636
        ]
      },
      "properties": {
        "routeId": "new-taipei-242044",
        "city": "new-taipei",
        "lineid": "242044",
        "linename": "南6路線晚上",
        "rank": "11",
        "village": "富國里",
        "name": "中正路871巷9弄45號"
      }
    },
    {
      "type": "Feature",
      "geometry": {
        "type": "Point",
        "coordinates": [
          121.419327,
          25.02693
        ]
      },
      "properties": {
        "routeId": "new-taipei-242044",
        "city": "new-taipei",
        "lineid": "242044",
        "linename": "南6路線晚上",
        "rank": "12",
        "village": "富國里",
        "name": "中正路871巷9弄29號"
      }
    },
    {
      "type": "Feature",
      "geometry": {
        "type": "Point",
        "coordinates": [
          121.418915,
          25.0271
        ]
      },
      "properties": {
        "routeId": "new-taipei-242044",
        "city": "new-taipei",
        "lineid": "242044",
        "linename": "南6路線晚上",
        "rank": "13",
        "village": "富國里",
        "name": "中正路871巷9弄13號"
      }
    },
    {
      "type": "Feature",
      "geometry": {
        "type": "Point",
        "coordinates": [
          121.420418,
          25.026392
        ]
      },
      "properties": {
        "routeId": "new-taipei-242044",
        "city": "new-taipei",
        "lineid": "242044",
        "linename": "南6路線晚上",
        "rank": "14",
        "village": "富國里",
        "name": "富國路77巷17號(富國公園)"
      }
    },
    {
      "type": "Feature",
      "geometry": {
        "type": "Point",
        "coordinates": [
          121.4204309,
          25.02684546
        ]
      },
      "properties": {
        "routeId": "new-taipei-242044",
        "city": "new-taipei",
        "lineid": "242044",
        "linename": "南6路線晚上",
        "rank": "15",
        "village": "富國里",
        "name": "中正路855巷21號"
      }
    },
    {
      "type": "Feature",
      "geometry": {
        "type": "Point",
        "coordinates": [
          121.4200684,
          25.02714291
        ]
      },
      "properties": {
        "routeId": "new-taipei-242044",
        "city": "new-taipei",
        "lineid": "242044",
        "linename": "南6路線晚上",
        "rank": "16",
        "village": "富國里",
        "name": "中正路855巷17號"
      }
    },
    {
      "type": "Feature",
      "geometry": {
        "type": "Point",
        "coordinates": [
          121.4198226,
          25.02738324
        ]
      },
      "properties": {
        "routeId": "new-taipei-242044",
        "city": "new-taipei",
        "lineid": "242044",
        "linename": "南6路線晚上",
        "rank": "17",
        "village": "富國里",
        "name": "中正路855巷12號"
      }
    },
    {
      "type": "Feature",
      "geometry": {
        "type": "Point",
        "coordinates": [
          121.417488,
          25.026711
        ]
      },
      "properties": {
        "routeId": "new-taipei-242044",
        "city": "new-taipei",
        "lineid": "242044",
        "linename": "南6路線晚上",
        "rank": "18",
        "village": "合鳳里",
        "name": "雙鳳路8號"
      }
    },
    {
      "type": "Feature",
      "geometry": {
        "type": "Point",
        "coordinates": [
          121.416908,
          25.026915
        ]
      },
      "properties": {
        "routeId": "new-taipei-242044",
        "city": "new-taipei",
        "lineid": "242044",
        "linename": "南6路線晚上",
        "rank": "19",
        "village": "合鳳里",
        "name": "雙鳳路18號"
      }
    },
    {
      "type": "Feature",
      "geometry": {
        "type": "Point",
        "coordinates": [
          121.416328,
          25.027115
        ]
      },
      "properties": {
        "routeId": "new-taipei-242044",
        "city": "new-taipei",
        "lineid": "242044",
        "linename": "南6路線晚上",
        "rank": "20",
        "village": "合鳳里",
        "name": "雙鳳路38號"
      }
    },
    {
      "type": "Feature",
      "geometry": {
        "type": "Point",
        "coordinates": [
          121.415642,
          25.027357
        ]
      },
      "properties": {
        "routeId": "new-taipei-242044",
        "city": "new-taipei",
        "lineid": "242044",
        "linename": "南6路線晚上",
        "rank": "21",
        "village": "合鳳里",
        "name": "雙鳳路60號"
      }
    },
    {
      "type": "Feature",
      "geometry": {
        "type": "Point",
        "coordinates": [
          121.414833,
          25.027819
        ]
      },
      "properties": {
        "routeId": "new-taipei-242044",
        "city": "new-taipei",
        "lineid": "242044",
        "linename": "南6路線晚上",
        "rank": "22",
        "village": "合鳳里",
        "name": "雙鳳路78號"
      }
    },
    {
      "type": "Feature",
      "geometry": {
        "type": "Point",
        "coordinates": [
          121.414497,
          25.028004
        ]
      },
      "properties": {
        "routeId": "new-taipei-242044",
        "city": "new-taipei",
        "lineid": "242044",
        "linename": "南6路線晚上",
        "rank": "23",
        "village": "合鳳里",
        "name": "雙鳳路94號"
      }
    },
    {
      "type": "Feature",
      "geometry": {
        "type": "Point",
        "coordinates": [
          121.413933,
          25.028145
        ]
      },
      "properties": {
        "routeId": "new-taipei-242044",
        "city": "new-taipei",
        "lineid": "242044",
        "linename": "南6路線晚上",
        "rank": "24",
        "village": "合鳳里",
        "name": "雙鳳路106號"
      }
    },
    {
      "type": "Feature",
      "geometry": {
        "type": "Point",
        "coordinates": [
          121.413246,
          25.028036
        ]
      },
      "properties": {
        "routeId": "new-taipei-242044",
        "city": "new-taipei",
        "lineid": "242044",
        "linename": "南6路線晚上",
        "rank": "25",
        "village": "祥鳳里",
        "name": "雙鳳路118號"
      }
    },
    {
      "type": "Feature",
      "geometry": {
        "type": "Point",
        "coordinates": [
          121.4128382,
          25.02738387
        ]
      },
      "properties": {
        "routeId": "new-taipei-242044",
        "city": "new-taipei",
        "lineid": "242044",
        "linename": "南6路線晚上",
        "rank": "26",
        "village": "雙鳳里",
        "name": "雙鳳路154號"
      }
    },
    {
      "type": "Feature",
      "geometry": {
        "type": "Point",
        "coordinates": [
          121.4128865,
          25.02678835
        ]
      },
      "properties": {
        "routeId": "new-taipei-242044",
        "city": "new-taipei",
        "lineid": "242044",
        "linename": "南6路線晚上",
        "rank": "27",
        "village": "雙鳳里",
        "name": "雙鳳路163巷口"
      }
    },
    {
      "type": "Feature",
      "geometry": {
        "type": "Point",
        "coordinates": [
          121.4129052,
          25.0272259
        ]
      },
      "properties": {
        "routeId": "new-taipei-242044",
        "city": "new-taipei",
        "lineid": "242044",
        "linename": "南6路線晚上",
        "rank": "28",
        "village": "雙鳳里",
        "name": "雙鳳路137號(龍鳳吉第社區)"
      }
    },
    {
      "type": "Feature",
      "geometry": {
        "type": "Point",
        "coordinates": [
          121.4162998,
          25.02663732
        ]
      },
      "properties": {
        "routeId": "new-taipei-242044",
        "city": "new-taipei",
        "lineid": "242044",
        "linename": "南6路線晚上",
        "rank": "29",
        "village": "雙鳳里",
        "name": "中正路力行巷34號"
      }
    },
    {
      "type": "Feature",
      "geometry": {
        "type": "Point",
        "coordinates": [
          121.4166997,
          25.02645099
        ]
      },
      "properties": {
        "routeId": "new-taipei-242044",
        "city": "new-taipei",
        "lineid": "242044",
        "linename": "南6路線晚上",
        "rank": "30",
        "village": "雙鳳里",
        "name": "中正路力行巷22號"
      }
    },
    {
      "type": "Feature",
      "geometry": {
        "type": "Point",
        "coordinates": [
          121.417099,
          25.026312
        ]
      },
      "properties": {
        "routeId": "new-taipei-242044",
        "city": "new-taipei",
        "lineid": "242044",
        "linename": "南6路線晚上",
        "rank": "31",
        "village": "雙鳳里",
        "name": "中正路力行巷6號"
      }
    },
    {
      "type": "Feature",
      "geometry": {
        "type": "Point",
        "coordinates": [
          121.4147833,
          25.02397418
        ]
      },
      "properties": {
        "routeId": "new-taipei-242044",
        "city": "new-taipei",
        "lineid": "242044",
        "linename": "南6路線晚上",
        "rank": "32",
        "village": "雙鳳里",
        "name": "中正路726-17號"
      }
    },
    {
      "type": "Feature",
      "geometry": {
        "type": "Point",
        "coordinates": [
          121.4152593,
          25.0245964
        ]
      },
      "properties": {
        "routeId": "new-taipei-242044",
        "city": "new-taipei",
        "lineid": "242044",
        "linename": "南6路線晚上",
        "rank": "33",
        "village": "雙鳳里",
        "name": "天泉二街1號"
      }
    },
    {
      "type": "Feature",
      "geometry": {
        "type": "Point",
        "coordinates": [
          121.4150541,
          25.02492207
        ]
      },
      "properties": {
        "routeId": "new-taipei-242044",
        "city": "new-taipei",
        "lineid": "242044",
        "linename": "南6路線晚上",
        "rank": "34",
        "village": "雙鳳里",
        "name": "天泉二街11號"
      }
    },
    {
      "type": "Feature",
      "geometry": {
        "type": "Point",
        "coordinates": [
          121.414886,
          25.025116
        ]
      },
      "properties": {
        "routeId": "new-taipei-242044",
        "city": "new-taipei",
        "lineid": "242044",
        "linename": "南6路線晚上",
        "rank": "35",
        "village": "雙鳳里",
        "name": "天泉二街22巷口"
      }
    },
    {
      "type": "Feature",
      "geometry": {
        "type": "Point",
        "coordinates": [
          121.414719,
          25.025389
        ]
      },
      "properties": {
        "routeId": "new-taipei-242044",
        "city": "new-taipei",
        "lineid": "242044",
        "linename": "南6路線晚上",
        "rank": "36",
        "village": "雙鳳里",
        "name": "天泉二街24巷口"
      }
    },
    {
      "type": "Feature",
      "geometry": {
        "type": "Point",
        "coordinates": [
          121.4145028,
          25.02573181
        ]
      },
      "properties": {
        "routeId": "new-taipei-242044",
        "city": "new-taipei",
        "lineid": "242044",
        "linename": "南6路線晚上",
        "rank": "37",
        "village": "雙鳳里",
        "name": "天泉二街26巷口"
      }
    },
    {
      "type": "Feature",
      "geometry": {
        "type": "Point",
        "coordinates": [
          121.414177,
          25.02566
        ]
      },
      "properties": {
        "routeId": "new-taipei-242044",
        "city": "new-taipei",
        "lineid": "242044",
        "linename": "南6路線晚上",
        "rank": "38",
        "village": "雙鳳里",
        "name": "鳳山街56巷口"
      }
    },
    {
      "type": "Feature",
      "geometry": {
        "type": "Point",
        "coordinates": [
          121.413818,
          25.026466
        ]
      },
      "properties": {
        "routeId": "new-taipei-242044",
        "city": "new-taipei",
        "lineid": "242044",
        "linename": "南6路線晚上",
        "rank": "39",
        "village": "雙鳳里",
        "name": "鳳山街56巷23號"
      }
    },
    {
      "type": "Feature",
      "geometry": {
        "type": "Point",
        "coordinates": [
          121.413567,
          25.026827
        ]
      },
      "properties": {
        "routeId": "new-taipei-242044",
        "city": "new-taipei",
        "lineid": "242044",
        "linename": "南6路線晚上",
        "rank": "40",
        "village": "雙鳳里",
        "name": "鳳山街56巷35號"
      }
    },
    {
      "type": "Feature",
      "geometry": {
        "type": "Point",
        "coordinates": [
          121.416328,
          25.022278
        ]
      },
      "properties": {
        "routeId": "new-taipei-242044",
        "city": "new-taipei",
        "lineid": "242044",
        "linename": "南6路線晚上",
        "rank": "41",
        "village": "龍鳳里",
        "name": "龍安路99號(文學院)"
      }
    },
    {
      "type": "Feature",
      "geometry": {
        "type": "Point",
        "coordinates": [
          121.4163808,
          25.022545
        ]
      },
      "properties": {
        "routeId": "new-taipei-242044",
        "city": "new-taipei",
        "lineid": "242044",
        "linename": "南6路線晚上",
        "rank": "42",
        "village": "龍鳳里",
        "name": "中正路新旺巷37弄43號"
      }
    },
    {
      "type": "Feature",
      "geometry": {
        "type": "Point",
        "coordinates": [
          121.41613,
          25.023014
        ]
      },
      "properties": {
        "routeId": "new-taipei-242044",
        "city": "new-taipei",
        "lineid": "242044",
        "linename": "南6路線晚上",
        "rank": "43",
        "village": "龍鳳里",
        "name": "中正路新旺巷37弄27號"
      }
    },
    {
      "type": "Feature",
      "geometry": {
        "type": "Point",
        "coordinates": [
          121.415634,
          25.023563
        ]
      },
      "properties": {
        "routeId": "new-taipei-242044",
        "city": "new-taipei",
        "lineid": "242044",
        "linename": "南6路線晚上",
        "rank": "44",
        "village": "龍鳳里",
        "name": "中正路新旺巷37弄5號"
      }
    },
    {
      "type": "Feature",
      "geometry": {
        "type": "Point",
        "coordinates": [
          121.4150375,
          25.02764827
        ]
      },
      "properties": {
        "routeId": "new-taipei-242044",
        "city": "new-taipei",
        "lineid": "242044",
        "linename": "南6路線晚上",
        "rank": "45",
        "village": "雙鳳里",
        "name": "鳳山街2號"
      }
    },
    {
      "type": "Feature",
      "geometry": {
        "type": "Point",
        "coordinates": [
          121.4123899,
          25.02613638
        ]
      },
      "properties": {
        "routeId": "new-taipei-242044",
        "city": "new-taipei",
        "lineid": "242044",
        "linename": "南6路線晚上",
        "rank": "46",
        "village": "雙鳳里",
        "name": "中正路746巷口(新北大道上)"
      }
    },
    {
      "type": "Feature",
      "geometry": {
        "type": "Point",
        "coordinates": [
          121.4108128,
          25.02483394
        ]
      },
      "properties": {
        "routeId": "new-taipei-242044",
        "city": "new-taipei",
        "lineid": "242044",
        "linename": "南6路線晚上",
        "rank": "47",
        "village": "雙鳳里",
        "name": "中正路746巷29號"
      }
    },
    {
      "type": "Feature",
      "geometry": {
        "type": "Point",
        "coordinates": [
          121.4104371,
          25.02416839
        ]
      },
      "properties": {
        "routeId": "new-taipei-242044",
        "city": "new-taipei",
        "lineid": "242044",
        "linename": "南6路線晚上",
        "rank": "48",
        "village": "雙鳳里",
        "name": "中正路746巷19號(捷運後門口)"
      }
    },
    {
      "type": "Feature",
      "geometry": {
        "type": "Point",
        "coordinates": [
          121.4119951,
          25.02429958
        ]
      },
      "properties": {
        "routeId": "new-taipei-242044",
        "city": "new-taipei",
        "lineid": "242044",
        "linename": "南6路線晚上",
        "rank": "49",
        "village": "雙鳳里",
        "name": "中正路746巷43-6號"
      }
    },
    {
      "type": "Feature",
      "geometry": {
        "type": "Point",
        "coordinates": [
          121.4108822,
          25.02054664
        ]
      },
      "properties": {
        "routeId": "new-taipei-242044",
        "city": "new-taipei",
        "lineid": "242044",
        "linename": "南6路線晚上",
        "rank": "50",
        "village": "龍福里",
        "name": "中正路929巷15號"
      }
    },
    {
      "type": "Feature",
      "geometry": {
        "type": "Point",
        "coordinates": [
          121.411117,
          25.02016262
        ]
      },
      "properties": {
        "routeId": "new-taipei-242044",
        "city": "new-taipei",
        "lineid": "242044",
        "linename": "南6路線晚上",
        "rank": "51",
        "village": "龍福里",
        "name": "中正路929巷23號"
      }
    },
    {
      "type": "Feature",
      "geometry": {
        "type": "Point",
        "coordinates": [
          121.411736,
          25.019831
        ]
      },
      "properties": {
        "routeId": "new-taipei-242044",
        "city": "new-taipei",
        "lineid": "242044",
        "linename": "南6路線晚上",
        "rank": "52",
        "village": "龍福里",
        "name": "中正路929巷7弄27號"
      }
    },
    {
      "type": "Feature",
      "geometry": {
        "type": "Point",
        "coordinates": [
          121.411537,
          25.020164
        ]
      },
      "properties": {
        "routeId": "new-taipei-242044",
        "city": "new-taipei",
        "lineid": "242044",
        "linename": "南6路線晚上",
        "rank": "53",
        "village": "龍福里",
        "name": "中正路929巷7弄13號"
      }
    },
    {
      "type": "Feature",
      "geometry": {
        "type": "Point",
        "coordinates": [
          121.411296,
          25.0204224
        ]
      },
      "properties": {
        "routeId": "new-taipei-242044",
        "city": "new-taipei",
        "lineid": "242044",
        "linename": "南6路線晚上",
        "rank": "54",
        "village": "龍福里",
        "name": "中正路929巷7弄9號"
      }
    },
    {
      "type": "Feature",
      "geometry": {
        "type": "Point",
        "coordinates": [
          121.4105557,
          25.02037174
        ]
      },
      "properties": {
        "routeId": "new-taipei-242044",
        "city": "new-taipei",
        "lineid": "242044",
        "linename": "南6路線晚上",
        "rank": "55",
        "village": "龍福里",
        "name": "萬壽路1段21巷15號"
      }
    },
    {
      "type": "Feature",
      "geometry": {
        "type": "Point",
        "coordinates": [
          121.412076,
          25.021679
        ]
      },
      "properties": {
        "routeId": "new-taipei-242044",
        "city": "new-taipei",
        "lineid": "242044",
        "linename": "南6路線晚上",
        "rank": "56",
        "village": "龍鳳里",
        "name": "中正路895-33號"
      }
    },
    {
      "type": "Feature",
      "geometry": {
        "type": "Point",
        "coordinates": [
          121.41232,
          25.02131728
        ]
      },
      "properties": {
        "routeId": "new-taipei-242044",
        "city": "new-taipei",
        "lineid": "242044",
        "linename": "南6路線晚上",
        "rank": "57",
        "village": "龍鳳里",
        "name": "中正路895-41號"
      }
    },
    {
      "type": "Feature",
      "geometry": {
        "type": "Point",
        "coordinates": [
          121.4127357,
          25.02103328
        ]
      },
      "properties": {
        "routeId": "new-taipei-242044",
        "city": "new-taipei",
        "lineid": "242044",
        "linename": "南6路線晚上",
        "rank": "58",
        "village": "龍鳳里",
        "name": "中正路895-13號"
      }
    },
    {
      "type": "Feature",
      "geometry": {
        "type": "Point",
        "coordinates": [
          121.4126426,
          25.02142871
        ]
      },
      "properties": {
        "routeId": "new-taipei-242044",
        "city": "new-taipei",
        "lineid": "242044",
        "linename": "南6路線晚上",
        "rank": "59",
        "village": "龍鳳里",
        "name": "中正路895-7號"
      }
    },
    {
      "type": "Feature",
      "geometry": {
        "type": "Point",
        "coordinates": [
          121.412522,
          25.02192971
        ]
      },
      "properties": {
        "routeId": "new-taipei-242044",
        "city": "new-taipei",
        "lineid": "242044",
        "linename": "南6路線晚上",
        "rank": "60",
        "village": "龍鳳里",
        "name": "中正路895-1號"
      }
    },
    {
      "type": "Feature",
      "geometry": {
        "type": "Point",
        "coordinates": [
          121.412834,
          25.02149
        ]
      },
      "properties": {
        "routeId": "new-taipei-242044",
        "city": "new-taipei",
        "lineid": "242044",
        "linename": "南6路線晚上",
        "rank": "61",
        "village": "龍鳳里",
        "name": "中正路893巷1-6號"
      }
    },
    {
      "type": "Feature",
      "geometry": {
        "type": "Point",
        "coordinates": [
          121.413147,
          25.021057
        ]
      },
      "properties": {
        "routeId": "new-taipei-242044",
        "city": "new-taipei",
        "lineid": "242044",
        "linename": "南6路線晚上",
        "rank": "62",
        "village": "龍鳳里",
        "name": "中正路893巷1-17號"
      }
    },
    {
      "type": "Feature",
      "geometry": {
        "type": "Point",
        "coordinates": [
          121.413887,
          25.02091
        ]
      },
      "properties": {
        "routeId": "new-taipei-242044",
        "city": "new-taipei",
        "lineid": "242044",
        "linename": "南6路線晚上",
        "rank": "63",
        "village": "龍鳳里",
        "name": "中正路新建巷28弄69號(捷運臻運)"
      }
    },
    {
      "type": "Feature",
      "geometry": {
        "type": "Point",
        "coordinates": [
          121.413574,
          25.021448
        ]
      },
      "properties": {
        "routeId": "new-taipei-242044",
        "city": "new-taipei",
        "lineid": "242044",
        "linename": "南6路線晚上",
        "rank": "64",
        "village": "龍鳳里",
        "name": "中正路新建巷28弄20號"
      }
    },
    {
      "type": "Feature",
      "geometry": {
        "type": "Point",
        "coordinates": [
          121.413795,
          25.02158
        ]
      },
      "properties": {
        "routeId": "new-taipei-242044",
        "city": "new-taipei",
        "lineid": "242044",
        "linename": "南6路線晚上",
        "rank": "65",
        "village": "龍鳳里",
        "name": "中正路新建巷28弄14號"
      }
    },
    {
      "type": "Feature",
      "geometry": {
        "type": "Point",
        "coordinates": [
          121.414047,
          25.021723
        ]
      },
      "properties": {
        "routeId": "new-taipei-242044",
        "city": "new-taipei",
        "lineid": "242044",
        "linename": "南6路線晚上",
        "rank": "66",
        "village": "龍鳳里",
        "name": "中正路新建巷28弄4號"
      }
    },
    {
      "type": "Feature",
      "geometry": {
        "type": "Point",
        "coordinates": [
          121.414337,
          25.021839
        ]
      },
      "properties": {
        "routeId": "new-taipei-242044",
        "city": "new-taipei",
        "lineid": "242044",
        "linename": "南6路線晚上",
        "rank": "67",
        "village": "龍鳳里",
        "name": "中正路新建巷30號"
      }
    },
    {
      "type": "Feature",
      "geometry": {
        "type": "Point",
        "coordinates": [
          121.4142633,
          25.02107418
        ]
      },
      "properties": {
        "routeId": "new-taipei-242044",
        "city": "new-taipei",
        "lineid": "242044",
        "linename": "南6路線晚上",
        "rank": "68",
        "village": "龍鳳里",
        "name": "龍安路66-31號(捷運吉境)"
      }
    },
    {
      "type": "Feature",
      "geometry": {
        "type": "Point",
        "coordinates": [
          121.4146938,
          25.02132452
        ]
      },
      "properties": {
        "routeId": "new-taipei-242044",
        "city": "new-taipei",
        "lineid": "242044",
        "linename": "南6路線晚上",
        "rank": "69",
        "village": "龍鳳里",
        "name": "龍安路66號（甲子園）"
      }
    },
    {
      "type": "Feature",
      "geometry": {
        "type": "Point",
        "coordinates": [
          121.4146066,
          25.0215463
        ]
      },
      "properties": {
        "routeId": "new-taipei-242044",
        "city": "new-taipei",
        "lineid": "242044",
        "linename": "南6路線晚上",
        "rank": "70",
        "village": "龍鳳里",
        "name": "中正路新建巷47號"
      }
    },
    {
      "type": "Feature",
      "geometry": {
        "type": "Point",
        "coordinates": [
          121.414169,
          25.022223
        ]
      },
      "properties": {
        "routeId": "new-taipei-242044",
        "city": "new-taipei",
        "lineid": "242044",
        "linename": "南6路線晚上",
        "rank": "71",
        "village": "龍鳳里",
        "name": "中正路新建巷25號"
      }
    },
    {
      "type": "Feature",
      "geometry": {
        "type": "Point",
        "coordinates": [
          121.414001,
          25.022486
        ]
      },
      "properties": {
        "routeId": "new-taipei-242044",
        "city": "new-taipei",
        "lineid": "242044",
        "linename": "南6路線晚上",
        "rank": "72",
        "village": "龍鳳里",
        "name": "中正路新建巷13號"
      }
    },
    {
      "type": "Feature",
      "geometry": {
        "type": "Point",
        "coordinates": [
          121.413895,
          25.022676
        ]
      },
      "properties": {
        "routeId": "new-taipei-242044",
        "city": "new-taipei",
        "lineid": "242044",
        "linename": "南6路線晚上",
        "rank": "73",
        "village": "龍鳳里",
        "name": "中正路新建巷3號"
      }
    },
    {
      "type": "Feature",
      "geometry": {
        "type": "Point",
        "coordinates": [
          121.414368,
          25.022411
        ]
      },
      "properties": {
        "routeId": "new-taipei-242044",
        "city": "new-taipei",
        "lineid": "242044",
        "linename": "南6路線晚上",
        "rank": "74",
        "village": "龍鳳里",
        "name": "中正路新建巷15巷2號"
      }
    },
    {
      "type": "Feature",
      "geometry": {
        "type": "Point",
        "coordinates": [
          121.414833,
          25.021799
        ]
      },
      "properties": {
        "routeId": "new-taipei-242044",
        "city": "new-taipei",
        "lineid": "242044",
        "linename": "南6路線晚上",
        "rank": "75",
        "village": "龍鳳里",
        "name": "中正路新建巷15巷38號"
      }
    },
    {
      "type": "Feature",
      "geometry": {
        "type": "Point",
        "coordinates": [
          121.4153143,
          25.02154596
        ]
      },
      "properties": {
        "routeId": "new-taipei-242044",
        "city": "new-taipei",
        "lineid": "242044",
        "linename": "南6路線晚上",
        "rank": "76",
        "village": "龍鳳里",
        "name": "龍安路68號"
      }
    },
    {
      "type": "Feature",
      "geometry": {
        "type": "Point",
        "coordinates": [
          121.417122,
          25.021811
        ]
      },
      "properties": {
        "routeId": "new-taipei-242044",
        "city": "new-taipei",
        "lineid": "242044",
        "linename": "南6路線晚上",
        "rank": "77",
        "village": "龍鳳里",
        "name": "中正路新生巷85弄1號"
      }
    },
    {
      "type": "Feature",
      "geometry": {
        "type": "Point",
        "coordinates": [
          121.41732,
          25.020859
        ]
      },
      "properties": {
        "routeId": "new-taipei-242044",
        "city": "new-taipei",
        "lineid": "242044",
        "linename": "南6路線晚上",
        "rank": "78",
        "village": "龍鳳里",
        "name": "龍安路78號(世紀名苑)"
      }
    }
  ]
}