{
  "type": "FeatureCollection",
  "features": [
    {
      "type": "Feature",
      "geometry": {
        "type": "Point",
        "coordinates": [
          121.423696096024,
          24.982128217064
        ]
      },
      "properties": {
        "routeId": "new-taipei-238022",
        "city": "new-taipei",
        "lineid": "238022",
        "linename": "路線9晚上",
        "rank": "1",
        "village": "和平里",
        "name": "忠孝街31號"
      }
    },
    {
      "type": "Feature",
      "geometry": {
        "type": "Point",
        "coordinates": [
          121.424514378556,
          24.982924407665
        ]
      },
      "properties": {
        "routeId": "new-taipei-238022",
        "city": "new-taipei",
        "lineid": "238022",
        "linename": "路線9晚上",
        "rank": "2",
        "village": "和平里",
        "name": "信義街61號"
      }
    },
    {
      "type": "Feature",
      "geometry": {
        "type": "Point",
        "coordinates": [
          121.424376956431,
          24.983209028861
        ]
      },
      "properties": {
        "routeId": "new-taipei-238022",
        "city": "new-taipei",
        "lineid": "238022",
        "linename": "路線9晚上",
        "rank": "3",
        "village": "和平里",
        "name": "仁愛街76號"
      }
    },
    {
      "type": "Feature",
      "geometry": {
        "type": "Point",
        "coordinates": [
          121.423379404351,
          24.982609608788
        ]
      },
      "properties": {
        "routeId": "new-taipei-238022",
        "city": "new-taipei",
        "lineid": "238022",
        "linename": "路線9晚上",
        "rank": "4",
        "village": "和平里",
        "name": "忠孝街14號"
      }
    },
    {
      "type": "Feature",
      "geometry": {
        "type": "Point",
        "coordinates": [
          121.423006699694,
          24.981809363209
        ]
      },
      "properties": {
        "routeId": "new-taipei-238022",
        "city": "new-taipei",
        "lineid": "238022",
        "linename": "路線9晚上",
        "rank": "5",
        "village": "和平里",
        "name": "和平街45號"
      }
    },
    {
      "type": "Feature",
      "geometry": {
        "type": "Point",
        "coordinates": [
          121.422121924231,
          24.98165628371
        ]
      },
      "properties": {
        "routeId": "new-taipei-238022",
        "city": "new-taipei",
        "lineid": "238022",
        "linename": "路線9晚上",
        "rank": "6",
        "village": "和平里",
        "name": "信義街1號"
      }
    },
    {
      "type": "Feature",
      "geometry": {
        "type": "Point",
        "coordinates": [
          121.422371618096,
          24.982100018828
        ]
      },
      "properties": {
        "routeId": "new-taipei-238022",
        "city": "new-taipei",
        "lineid": "238022",
        "linename": "路線9晚上",
        "rank": "7",
        "village": "和平里",
        "name": "仁愛街28號"
      }
    },
    {
      "type": "Feature",
      "geometry": {
        "type": "Point",
        "coordinates": [
          121.421289883432,
          24.981518195454
        ]
      },
      "properties": {
        "routeId": "new-taipei-238022",
        "city": "new-taipei",
        "lineid": "238022",
        "linename": "路線9晚上",
        "rank": "8",
        "village": "和平里",
        "name": "仁愛街6號"
      }
    },
    {
      "type": "Feature",
      "geometry": {
        "type": "Point",
        "coordinates": [
          121.420856941139,
          24.981434641956
        ]
      },
      "properties": {
        "routeId": "new-taipei-238022",
        "city": "new-taipei",
        "lineid": "238022",
        "linename": "路線9晚上",
        "rank": "9",
        "village": "彭福里",
        "name": "和平街2巷4號"
      }
    },
    {
      "type": "Feature",
      "geometry": {
        "type": "Point",
        "coordinates": [
          121.420946361359,
          24.980788775401
        ]
      },
      "properties": {
        "routeId": "new-taipei-238022",
        "city": "new-taipei",
        "lineid": "238022",
        "linename": "路線9晚上",
        "rank": "10",
        "village": "彭福里",
        "name": "中華路187巷21號"
      }
    },
    {
      "type": "Feature",
      "geometry": {
        "type": "Point",
        "coordinates": [
          121.417882101852,
          24.98057983881
        ]
      },
      "properties": {
        "routeId": "new-taipei-238022",
        "city": "new-taipei",
        "lineid": "238022",
        "linename": "路線9晚上",
        "rank": "11",
        "village": "中華里",
        "name": "太元街19號"
      }
    },
    {
      "type": "Feature",
      "geometry": {
        "type": "Point",
        "coordinates": [
          121.417973288649,
          24.979263548756
        ]
      },
      "properties": {
        "routeId": "new-taipei-238022",
        "city": "new-taipei",
        "lineid": "238022",
        "linename": "路線9晚上",
        "rank": "12",
        "village": "彭厝里",
        "name": "太順街41號"
      }
    },
    {
      "type": "Feature",
      "geometry": {
        "type": "Point",
        "coordinates": [
          121.417789411045,
          24.979497049162
        ]
      },
      "properties": {
        "routeId": "new-taipei-238022",
        "city": "new-taipei",
        "lineid": "238022",
        "linename": "路線9晚上",
        "rank": "13",
        "village": "太順里",
        "name": "太順街62巷口"
      }
    },
    {
      "type": "Feature",
      "geometry": {
        "type": "Point",
        "coordinates": [
          121.416368183449,
          24.979127992796
        ]
      },
      "properties": {
        "routeId": "new-taipei-238022",
        "city": "new-taipei",
        "lineid": "238022",
        "linename": "路線9晚上",
        "rank": "14",
        "village": "太順里",
        "name": "太順街96巷15號"
      }
    },
    {
      "type": "Feature",
      "geometry": {
        "type": "Point",
        "coordinates": [
          121.416443999999,
          24.978523921671
        ]
      },
      "properties": {
        "routeId": "new-taipei-238022",
        "city": "new-taipei",
        "lineid": "238022",
        "linename": "路線9晚上",
        "rank": "15",
        "village": "太順里",
        "name": "太順街86巷9號"
      }
    },
    {
      "type": "Feature",
      "geometry": {
        "type": "Point",
        "coordinates": [
          121.416817064112,
          24.97842291225
        ]
      },
      "properties": {
        "routeId": "new-taipei-238022",
        "city": "new-taipei",
        "lineid": "238022",
        "linename": "路線9晚上",
        "rank": "16",
        "village": "太順里",
        "name": "太順街94號"
      }
    },
    {
      "type": "Feature",
      "geometry": {
        "type": "Point",
        "coordinates": [
          121.417374399388,
          24.97892465631
        ]
      },
      "properties": {
        "routeId": "new-taipei-238022",
        "city": "new-taipei",
        "lineid": "238022",
        "linename": "路線9晚上",
        "rank": "17",
        "village": "彭厝里",
        "name": "太順街57巷口"
      }
    },
    {
      "type": "Feature",
      "geometry": {
        "type": "Point",
        "coordinates": [
          121.417019081597,
          24.977316382528
        ]
      },
      "properties": {
        "routeId": "new-taipei-238022",
        "city": "new-taipei",
        "lineid": "238022",
        "linename": "路線9晚上",
        "rank": "18",
        "village": "彭厝里",
        "name": "太平路150巷36號"
      }
    },
    {
      "type": "Feature",
      "geometry": {
        "type": "Point",
        "coordinates": [
          121.417150431588,
          24.97702671561
        ]
      },
      "properties": {
        "routeId": "new-taipei-238022",
        "city": "new-taipei",
        "lineid": "238022",
        "linename": "路線9晚上",
        "rank": "19",
        "village": "彭厝里",
        "name": "太平路150巷39弄4號"
      }
    },
    {
      "type": "Feature",
      "geometry": {
        "type": "Point",
        "coordinates": [
          121.417426364418,
          24.976502068623
        ]
      },
      "properties": {
        "routeId": "new-taipei-238022",
        "city": "new-taipei",
        "lineid": "238022",
        "linename": "路線9晚上",
        "rank": "20",
        "village": "彭厝里",
        "name": "太平路174巷28號"
      }
    },
    {
      "type": "Feature",
      "geometry": {
        "type": "Point",
        "coordinates": [
          121.414632527612,
          24.977055362798
        ]
      },
      "properties": {
        "routeId": "new-taipei-238022",
        "city": "new-taipei",
        "lineid": "238022",
        "linename": "路線9晚上",
        "rank": "21",
        "village": "太順里",
        "name": "太順街110巷口"
      }
    },
    {
      "type": "Feature",
      "geometry": {
        "type": "Point",
        "coordinates": [
          121.41265642853,
          24.979554597848
        ]
      },
      "properties": {
        "routeId": "new-taipei-238022",
        "city": "new-taipei",
        "lineid": "238022",
        "linename": "路線9晚上",
        "rank": "22",
        "village": "東山里",
        "name": "中華路379巷7號"
      }
    },
    {
      "type": "Feature",
      "geometry": {
        "type": "Point",
        "coordinates": [
          121.413032116567,
          24.97703783351
        ]
      },
      "properties": {
        "routeId": "new-taipei-238022",
        "city": "new-taipei",
        "lineid": "238022",
        "linename": "路線9晚上",
        "rank": "23",
        "village": "東山里",
        "name": "中華路379巷78弄口"
      }
    },
    {
      "type": "Feature",
      "geometry": {
        "type": "Point",
        "coordinates": [
          121.413123486814,
          24.976534539224
        ]
      },
      "properties": {
        "routeId": "new-taipei-238022",
        "city": "new-taipei",
        "lineid": "238022",
        "linename": "路線9晚上",
        "rank": "24",
        "village": "東山里",
        "name": "東大街24號"
      }
    },
    {
      "type": "Feature",
      "geometry": {
        "type": "Point",
        "coordinates": [
          121.410807740492,
          24.97790625522
        ]
      },
      "properties": {
        "routeId": "new-taipei-238022",
        "city": "new-taipei",
        "lineid": "238022",
        "linename": "路線9晚上",
        "rank": "25",
        "village": "東山里",
        "name": "東順街18巷口"
      }
    },
    {
      "type": "Feature",
      "geometry": {
        "type": "Point",
        "coordinates": [
          121.411585877604,
          24.977330029341
        ]
      },
      "properties": {
        "routeId": "new-taipei-238022",
        "city": "new-taipei",
        "lineid": "238022",
        "linename": "路線9晚上",
        "rank": "26",
        "village": "東山里",
        "name": "東興街22號"
      }
    },
    {
      "type": "Feature",
      "geometry": {
        "type": "Point",
        "coordinates": [
          121.41050528559,
          24.977913460637
        ]
      },
      "properties": {
        "routeId": "new-taipei-238022",
        "city": "new-taipei",
        "lineid": "238022",
        "linename": "路線9晚上",
        "rank": "27",
        "village": "東山里",
        "name": "東興街39號"
      }
    },
    {
      "type": "Feature",
      "geometry": {
        "type": "Point",
        "coordinates": [
          121.410081521784,
          24.97851826635
        ]
      },
      "properties": {
        "routeId": "new-taipei-238022",
        "city": "new-taipei",
        "lineid": "238022",
        "linename": "路線9晚上",
        "rank": "28",
        "village": "東山里",
        "name": "東興街15號"
      }
    },
    {
      "type": "Feature",
      "geometry": {
        "type": "Point",
        "coordinates": [
          121.409432658895,
          24.978256490321
        ]
      },
      "properties": {
        "routeId": "new-taipei-238022",
        "city": "new-taipei",
        "lineid": "238022",
        "linename": "路線9晚上",
        "rank": "29",
        "village": "東山里",
        "name": "東興街16巷2弄口"
      }
    },
    {
      "type": "Feature",
      "geometry": {
        "type": "Point",
        "coordinates": [
          121.40859,
          24.978076
        ]
      },
      "properties": {
        "routeId": "new-taipei-238022",
        "city": "new-taipei",
        "lineid": "238022",
        "linename": "路線9晚上",
        "rank": "30",
        "village": "東山里",
        "name": "中山路2段151巷39號"
      }
    },
    {
      "type": "Feature",
      "geometry": {
        "type": "Point",
        "coordinates": [
          121.408041847019,
          24.976278970511
        ]
      },
      "properties": {
        "routeId": "new-taipei-238022",
        "city": "new-taipei",
        "lineid": "238022",
        "linename": "路線9晚上",
        "rank": "31",
        "village": "東山里",
        "name": "東順街90巷3弄口"
      }
    },
    {
      "type": "Feature",
      "geometry": {
        "type": "Point",
        "coordinates": [
          121.40744906994,
          24.977914783964
        ]
      },
      "properties": {
        "routeId": "new-taipei-238022",
        "city": "new-taipei",
        "lineid": "238022",
        "linename": "路線9晚上",
        "rank": "32",
        "village": "東山里",
        "name": "中山路2段151巷12號"
      }
    },
    {
      "type": "Feature",
      "geometry": {
        "type": "Point",
        "coordinates": [
          121.40675376,
          24.978491975
        ]
      },
      "properties": {
        "routeId": "new-taipei-238022",
        "city": "new-taipei",
        "lineid": "238022",
        "linename": "路線9晚上",
        "rank": "33",
        "village": "東山里",
        "name": "中山路2段151巷6弄口"
      }
    },
    {
      "type": "Feature",
      "geometry": {
        "type": "Point",
        "coordinates": [
          121.40660166,
          24.978332502
        ]
      },
      "properties": {
        "routeId": "new-taipei-238022",
        "city": "new-taipei",
        "lineid": "238022",
        "linename": "路線9晚上",
        "rank": "34",
        "village": "東山里",
        "name": "中山路2段151巷8弄口"
      }
    },
    {
      "type": "Feature",
      "geometry": {
        "type": "Point",
        "coordinates": [
          121.420696,
          24.979104
        ]
      },
      "properties": {
        "routeId": "new-taipei-238022",
        "city": "new-taipei",
        "lineid": "238022",
        "linename": "路線9晚上",
        "rank": "35",
        "village": "彭興里",
        "name": "國凱街47巷口"
      }
    },
    {
      "type": "Feature",
      "geometry": {
        "type": "Point",
        "coordinates": [
          121.420341574239,
          24.978868392169
        ]
      },
      "properties": {
        "routeId": "new-taipei-238022",
        "city": "new-taipei",
        "lineid": "238022",
        "linename": "路線9晚上",
        "rank": "36",
        "village": "彭興里",
        "name": "國凱街50巷口"
      }
    },
    {
      "type": "Feature",
      "geometry": {
        "type": "Point",
        "coordinates": [
          121.419692387731,
          24.97868051958
        ]
      },
      "properties": {
        "routeId": "new-taipei-238022",
        "city": "new-taipei",
        "lineid": "238022",
        "linename": "路線9晚上",
        "rank": "37",
        "village": "彭興里",
        "name": "名園街46號"
      }
    },
    {
      "type": "Feature",
      "geometry": {
        "type": "Point",
        "coordinates": [
          121.419329769634,
          24.979280558719
        ]
      },
      "properties": {
        "routeId": "new-taipei-238022",
        "city": "new-taipei",
        "lineid": "238022",
        "linename": "路線9晚上",
        "rank": "38",
        "village": "彭興里",
        "name": "名園街20號"
      }
    },
    {
      "type": "Feature",
      "geometry": {
        "type": "Point",
        "coordinates": [
          121.419228521784,
          24.978373303437
        ]
      },
      "properties": {
        "routeId": "new-taipei-238022",
        "city": "new-taipei",
        "lineid": "238022",
        "linename": "路線9晚上",
        "rank": "39",
        "village": "彭興里",
        "name": "國凱街30號"
      }
    },
    {
      "type": "Feature",
      "geometry": {
        "type": "Point",
        "coordinates": [
          121.419500087425,
          24.977677676644
        ]
      },
      "properties": {
        "routeId": "new-taipei-238022",
        "city": "new-taipei",
        "lineid": "238022",
        "linename": "路線9晚上",
        "rank": "40",
        "village": "彭興里",
        "name": "太元街110巷口"
      }
    },
    {
      "type": "Feature",
      "geometry": {
        "type": "Point",
        "coordinates": [
          121.419856,
          24.977662
        ]
      },
      "properties": {
        "routeId": "new-taipei-238022",
        "city": "new-taipei",
        "lineid": "238022",
        "linename": "路線9晚上",
        "rank": "41",
        "village": "彭興里",
        "name": "名園街78巷16弄口"
      }
    },
    {
      "type": "Feature",
      "geometry": {
        "type": "Point",
        "coordinates": [
          121.419885,
          24.978338
        ]
      },
      "properties": {
        "routeId": "new-taipei-238022",
        "city": "new-taipei",
        "lineid": "238022",
        "linename": "路線9晚上",
        "rank": "42",
        "village": "彭興里",
        "name": "名園街51巷口"
      }
    },
    {
      "type": "Feature",
      "geometry": {
        "type": "Point",
        "coordinates": [
          121.420534349702,
          24.978602724785
        ]
      },
      "properties": {
        "routeId": "new-taipei-238022",
        "city": "new-taipei",
        "lineid": "238022",
        "linename": "路線9晚上",
        "rank": "43",
        "village": "彭興里",
        "name": "國凱街50巷1弄口"
      }
    },
    {
      "type": "Feature",
      "geometry": {
        "type": "Point",
        "coordinates": [
          121.420529,
          24.978435
        ]
      },
      "properties": {
        "routeId": "new-taipei-238022",
        "city": "new-taipei",
        "lineid": "238022",
        "linename": "路線9晚上",
        "rank": "44",
        "village": "彭興里",
        "name": "名園街51巷6弄27號"
      }
    },
    {
      "type": "Feature",
      "geometry": {
        "type": "Point",
        "coordinates": [
          121.420909265335,
          24.979140715999
        ]
      },
      "properties": {
        "routeId": "new-taipei-238022",
        "city": "new-taipei",
        "lineid": "238022",
        "linename": "路線9晚上",
        "rank": "45",
        "village": "彭興里",
        "name": "國凱街72巷1號"
      }
    }
  ]
}