{
  "type": "FeatureCollection",
  "features": [
    {
      "type": "Feature",
      "geometry": {
        "type": "Point",
        "coordinates": [
          121.470589,
          25.025904
        ]
      },
      "properties": {
        "routeId": "new-taipei-220101",
        "city": "new-taipei",
        "lineid": "220101",
        "linename": "C15路線晚上",
        "rank": "1",
        "village": "莒光里",
        "name": "文化路2段124巷12號"
      }
    },
    {
      "type": "Feature",
      "geometry": {
        "type": "Point",
        "coordinates": [
          121.470909,
          25.025822
        ]
      },
      "properties": {
        "routeId": "new-taipei-220101",
        "city": "new-taipei",
        "lineid": "220101",
        "linename": "C15路線晚上",
        "rank": "2",
        "village": "莒光里",
        "name": "文化路2段124巷26號"
      }
    },
    {
      "type": "Feature",
      "geometry": {
        "type": "Point",
        "coordinates": [
          121.470703,
          25.024307
        ]
      },
      "properties": {
        "routeId": "new-taipei-220101",
        "city": "new-taipei",
        "lineid": "220101",
        "linename": "C15路線晚上",
        "rank": "3",
        "village": "莒光里",
        "name": "莒光路49號"
      }
    },
    {
      "type": "Feature",
      "geometry": {
        "type": "Point",
        "coordinates": [
          121.47039,
          25.024479
        ]
      },
      "properties": {
        "routeId": "new-taipei-220101",
        "city": "new-taipei",
        "lineid": "220101",
        "linename": "C15路線晚上",
        "rank": "4",
        "village": "莒光里",
        "name": "莒光路35號"
      }
    },
    {
      "type": "Feature",
      "geometry": {
        "type": "Point",
        "coordinates": [
          121.469887,
          25.024734
        ]
      },
      "properties": {
        "routeId": "new-taipei-220101",
        "city": "new-taipei",
        "lineid": "220101",
        "linename": "C15路線晚上",
        "rank": "5",
        "village": "莒光里",
        "name": "莒光路15號"
      }
    },
    {
      "type": "Feature",
      "geometry": {
        "type": "Point",
        "coordinates": [
          121.471672,
          25.02697
        ]
      },
      "properties": {
        "routeId": "new-taipei-220101",
        "city": "new-taipei",
        "lineid": "220101",
        "linename": "C15路線晚上",
        "rank": "6",
        "village": "忠翠里",
        "name": "文化路2段182巷5弄2號"
      }
    },
    {
      "type": "Feature",
      "geometry": {
        "type": "Point",
        "coordinates": [
          121.471825,
          25.025187
        ]
      },
      "properties": {
        "routeId": "new-taipei-220101",
        "city": "new-taipei",
        "lineid": "220101",
        "linename": "C15路線晚上",
        "rank": "7",
        "village": "華翠里",
        "name": "莊敬路131號前"
      }
    },
    {
      "type": "Feature",
      "geometry": {
        "type": "Point",
        "coordinates": [
          121.471367,
          25.024563
        ]
      },
      "properties": {
        "routeId": "new-taipei-220101",
        "city": "new-taipei",
        "lineid": "220101",
        "linename": "C15路線晚上",
        "rank": "8",
        "village": "華翠里",
        "name": "莊敬路92號"
      }
    },
    {
      "type": "Feature",
      "geometry": {
        "type": "Point",
        "coordinates": [
          121.470934488429,
          25.0238568105986
        ]
      },
      "properties": {
        "routeId": "new-taipei-220101",
        "city": "new-taipei",
        "lineid": "220101",
        "linename": "C15路線晚上",
        "rank": "9",
        "village": "莒光里",
        "name": "莒光路40巷7弄12號"
      }
    },
    {
      "type": "Feature",
      "geometry": {
        "type": "Point",
        "coordinates": [
          121.47098,
          25.02354
        ]
      },
      "properties": {
        "routeId": "new-taipei-220101",
        "city": "new-taipei",
        "lineid": "220101",
        "linename": "C15路線晚上",
        "rank": "10",
        "village": "華江里",
        "name": "莊敬路134號"
      }
    },
    {
      "type": "Feature",
      "geometry": {
        "type": "Point",
        "coordinates": [
          121.471016,
          25.023432
        ]
      },
      "properties": {
        "routeId": "new-taipei-220101",
        "city": "new-taipei",
        "lineid": "220101",
        "linename": "C15路線晚上",
        "rank": "11",
        "village": "華江里",
        "name": "莊敬路138號"
      }
    },
    {
      "type": "Feature",
      "geometry": {
        "type": "Point",
        "coordinates": [
          121.471169,
          25.023092
        ]
      },
      "properties": {
        "routeId": "new-taipei-220101",
        "city": "new-taipei",
        "lineid": "220101",
        "linename": "C15路線晚上",
        "rank": "12",
        "village": "華江里",
        "name": "莊敬路152號"
      }
    },
    {
      "type": "Feature",
      "geometry": {
        "type": "Point",
        "coordinates": [
          121.471596,
          25.022352
        ]
      },
      "properties": {
        "routeId": "new-taipei-220101",
        "city": "new-taipei",
        "lineid": "220101",
        "linename": "C15路線晚上",
        "rank": "13",
        "village": "華江里",
        "name": "民生路2段226巷46號口"
      }
    },
    {
      "type": "Feature",
      "geometry": {
        "type": "Point",
        "coordinates": [
          121.471397,
          25.021429
        ]
      },
      "properties": {
        "routeId": "new-taipei-220101",
        "city": "new-taipei",
        "lineid": "220101",
        "linename": "C15路線晚上",
        "rank": "14",
        "village": "華江里",
        "name": "萬板路51號"
      }
    },
    {
      "type": "Feature",
      "geometry": {
        "type": "Point",
        "coordinates": [
          121.471207,
          25.021276
        ]
      },
      "properties": {
        "routeId": "new-taipei-220101",
        "city": "new-taipei",
        "lineid": "220101",
        "linename": "C15路線晚上",
        "rank": "15",
        "village": "華江里",
        "name": "萬板路35號"
      }
    },
    {
      "type": "Feature",
      "geometry": {
        "type": "Point",
        "coordinates": [
          121.47081,
          25.020994
        ]
      },
      "properties": {
        "routeId": "new-taipei-220101",
        "city": "new-taipei",
        "lineid": "220101",
        "linename": "C15路線晚上",
        "rank": "16",
        "village": "華江里",
        "name": "萬板路17號"
      }
    },
    {
      "type": "Feature",
      "geometry": {
        "type": "Point",
        "coordinates": [
          121.47252,
          25.02136
        ]
      },
      "properties": {
        "routeId": "new-taipei-220101",
        "city": "new-taipei",
        "lineid": "220101",
        "linename": "C15路線晚上",
        "rank": "17",
        "village": "莊敬里",
        "name": "莊敬路220巷2號"
      }
    },
    {
      "type": "Feature",
      "geometry": {
        "type": "Point",
        "coordinates": [
          121.47438,
          25.027401
        ]
      },
      "properties": {
        "routeId": "new-taipei-220101",
        "city": "new-taipei",
        "lineid": "220101",
        "linename": "C15路線晚上",
        "rank": "18",
        "village": "忠翠里",
        "name": "莊敬路25巷18號"
      }
    },
    {
      "type": "Feature",
      "geometry": {
        "type": "Point",
        "coordinates": [
          121.47375455837,
          25.0278831069135
        ]
      },
      "properties": {
        "routeId": "new-taipei-220101",
        "city": "new-taipei",
        "lineid": "220101",
        "linename": "C15路線晚上",
        "rank": "19",
        "village": "忠翠里",
        "name": "莊敬路25巷2號"
      }
    },
    {
      "type": "Feature",
      "geometry": {
        "type": "Point",
        "coordinates": [
          121.478035,
          25.023561
        ]
      },
      "properties": {
        "routeId": "new-taipei-220101",
        "city": "new-taipei",
        "lineid": "220101",
        "linename": "C15路線晚上",
        "rank": "20",
        "village": "永安里",
        "name": "縣民大道3段141號"
      }
    },
    {
      "type": "Feature",
      "geometry": {
        "type": "Point",
        "coordinates": [
          121.477325,
          25.023052
        ]
      },
      "properties": {
        "routeId": "new-taipei-220101",
        "city": "new-taipei",
        "lineid": "220101",
        "linename": "C15路線晚上",
        "rank": "21",
        "village": "永安里",
        "name": "縣民大道3段127巷口"
      }
    },
    {
      "type": "Feature",
      "geometry": {
        "type": "Point",
        "coordinates": [
          121.476715,
          25.023127
        ]
      },
      "properties": {
        "routeId": "new-taipei-220101",
        "city": "new-taipei",
        "lineid": "220101",
        "linename": "C15路線晚上",
        "rank": "22",
        "village": "永安里",
        "name": "縣民大道3段121巷12號"
      }
    },
    {
      "type": "Feature",
      "geometry": {
        "type": "Point",
        "coordinates": [
          121.476501,
          25.023386
        ]
      },
      "properties": {
        "routeId": "new-taipei-220101",
        "city": "new-taipei",
        "lineid": "220101",
        "linename": "C15路線晚上",
        "rank": "23",
        "village": "永安里",
        "name": "縣民大道3段121巷33號"
      }
    },
    {
      "type": "Feature",
      "geometry": {
        "type": "Point",
        "coordinates": [
          121.477499676439,
          25.0236388762277
        ]
      },
      "properties": {
        "routeId": "new-taipei-220101",
        "city": "new-taipei",
        "lineid": "220101",
        "linename": "C15路線晚上",
        "rank": "24",
        "village": "忠翠里",
        "name": "縣民大道3段133巷19號"
      }
    },
    {
      "type": "Feature",
      "geometry": {
        "type": "Point",
        "coordinates": [
          121.47738,
          25.02361
        ]
      },
      "properties": {
        "routeId": "new-taipei-220101",
        "city": "new-taipei",
        "lineid": "220101",
        "linename": "C15路線晚上",
        "rank": "25",
        "village": "永安里",
        "name": "縣民大道3段133巷11號"
      }
    },
    {
      "type": "Feature",
      "geometry": {
        "type": "Point",
        "coordinates": [
          121.477631,
          25.02331
        ]
      },
      "properties": {
        "routeId": "new-taipei-220101",
        "city": "new-taipei",
        "lineid": "220101",
        "linename": "C15路線晚上",
        "rank": "26",
        "village": "永安里",
        "name": "縣民大道3段133巷口"
      }
    },
    {
      "type": "Feature",
      "geometry": {
        "type": "Point",
        "coordinates": [
          121.47158,
          25.02095
        ]
      },
      "properties": {
        "routeId": "new-taipei-220101",
        "city": "new-taipei",
        "lineid": "220101",
        "linename": "C15路線晚上",
        "rank": "27",
        "village": "莊敬里",
        "name": "莊敬路208巷4弄1號公園世紀B區"
      }
    },
    {
      "type": "Feature",
      "geometry": {
        "type": "Point",
        "coordinates": [
          121.471424,
          25.020745
        ]
      },
      "properties": {
        "routeId": "new-taipei-220101",
        "city": "new-taipei",
        "lineid": "220101",
        "linename": "C15路線晚上",
        "rank": "28",
        "village": "莊敬里",
        "name": "莊敬路208巷8弄1號"
      }
    },
    {
      "type": "Feature",
      "geometry": {
        "type": "Point",
        "coordinates": [
          121.473679,
          25.020626
        ]
      },
      "properties": {
        "routeId": "new-taipei-220101",
        "city": "new-taipei",
        "lineid": "220101",
        "linename": "C15路線晚上",
        "rank": "29",
        "village": "莊敬里",
        "name": "縣民大道3段33巷1弄12號"
      }
    },
    {
      "type": "Feature",
      "geometry": {
        "type": "Point",
        "coordinates": [
          121.473907,
          25.020859
        ]
      },
      "properties": {
        "routeId": "new-taipei-220101",
        "city": "new-taipei",
        "lineid": "220101",
        "linename": "C15路線晚上",
        "rank": "30",
        "village": "莊敬里",
        "name": "縣民大道3段33巷7號"
      }
    },
    {
      "type": "Feature",
      "geometry": {
        "type": "Point",
        "coordinates": [
          121.47391,
          25.02135
        ]
      },
      "properties": {
        "routeId": "new-taipei-220101",
        "city": "new-taipei",
        "lineid": "220101",
        "linename": "C15路線晚上",
        "rank": "31",
        "village": "莊敬里",
        "name": "縣民大道3段33巷17號"
      }
    },
    {
      "type": "Feature",
      "geometry": {
        "type": "Point",
        "coordinates": [
          121.47198,
          25.02282
        ]
      },
      "properties": {
        "routeId": "new-taipei-220101",
        "city": "new-taipei",
        "lineid": "220101",
        "linename": "C15路線晚上",
        "rank": "32",
        "village": "埤墘里",
        "name": "停整點:萬板路46巷口"
      }
    },
    {
      "type": "Feature",
      "geometry": {
        "type": "Point",
        "coordinates": [
          121.472187095562,
          25.0227182246192
        ]
      },
      "properties": {
        "routeId": "new-taipei-220101",
        "city": "new-taipei",
        "lineid": "220101",
        "linename": "C15路線晚上",
        "rank": "33",
        "village": "埤墘里",
        "name": "萬板路46巷1號"
      }
    },
    {
      "type": "Feature",
      "geometry": {
        "type": "Point",
        "coordinates": [
          121.47265,
          25.02252
        ]
      },
      "properties": {
        "routeId": "new-taipei-220101",
        "city": "new-taipei",
        "lineid": "220101",
        "linename": "C15路線晚上",
        "rank": "34",
        "village": "埤墘里",
        "name": "莒光路196巷33號"
      }
    },
    {
      "type": "Feature",
      "geometry": {
        "type": "Point",
        "coordinates": [
          121.473091,
          25.022429
        ]
      },
      "properties": {
        "routeId": "new-taipei-220101",
        "city": "new-taipei",
        "lineid": "220101",
        "linename": "C15路線晚上",
        "rank": "35",
        "village": "埤墘里",
        "name": "莒光路196巷23號"
      }
    },
    {
      "type": "Feature",
      "geometry": {
        "type": "Point",
        "coordinates": [
          121.473114,
          25.022104
        ]
      },
      "properties": {
        "routeId": "new-taipei-220101",
        "city": "new-taipei",
        "lineid": "220101",
        "linename": "C15路線晚上",
        "rank": "36",
        "village": "埤墘里",
        "name": "莒光路200巷21號"
      }
    },
    {
      "type": "Feature",
      "geometry": {
        "type": "Point",
        "coordinates": [
          121.47305,
          25.021791
        ]
      },
      "properties": {
        "routeId": "new-taipei-220101",
        "city": "new-taipei",
        "lineid": "220101",
        "linename": "C15路線晚上",
        "rank": "37",
        "village": "埤墘里",
        "name": "莊敬路263巷17號"
      }
    },
    {
      "type": "Feature",
      "geometry": {
        "type": "Point",
        "coordinates": [
          121.473305,
          25.021444
        ]
      },
      "properties": {
        "routeId": "new-taipei-220101",
        "city": "new-taipei",
        "lineid": "220101",
        "linename": "C15路線晚上",
        "rank": "38",
        "village": "莊敬里",
        "name": "莊敬路234號"
      }
    },
    {
      "type": "Feature",
      "geometry": {
        "type": "Point",
        "coordinates": [
          121.47374,
          25.021507
        ]
      },
      "properties": {
        "routeId": "new-taipei-220101",
        "city": "new-taipei",
        "lineid": "220101",
        "linename": "C15路線晚上",
        "rank": "39",
        "village": "莊敬里",
        "name": "莊敬路248號"
      }
    },
    {
      "type": "Feature",
      "geometry": {
        "type": "Point",
        "coordinates": [
          121.47422,
          25.021852
        ]
      },
      "properties": {
        "routeId": "new-taipei-220101",
        "city": "new-taipei",
        "lineid": "220101",
        "linename": "C15路線晚上",
        "rank": "40",
        "village": "埤墘里",
        "name": "莒光路237號之9"
      }
    },
    {
      "type": "Feature",
      "geometry": {
        "type": "Point",
        "coordinates": [
          121.474228,
          25.022392
        ]
      },
      "properties": {
        "routeId": "new-taipei-220101",
        "city": "new-taipei",
        "lineid": "220101",
        "linename": "C15路線晚上",
        "rank": "41",
        "village": "埤墘里",
        "name": "莒光路299號巷口"
      }
    },
    {
      "type": "Feature",
      "geometry": {
        "type": "Point",
        "coordinates": [
          121.47493,
          25.022392
        ]
      },
      "properties": {
        "routeId": "new-taipei-220101",
        "city": "new-taipei",
        "lineid": "220101",
        "linename": "C15路線晚上",
        "rank": "42",
        "village": "埤墘里",
        "name": "縣民大道3段93巷34號"
      }
    },
    {
      "type": "Feature",
      "geometry": {
        "type": "Point",
        "coordinates": [
          121.47574,
          25.02203
        ]
      },
      "properties": {
        "routeId": "new-taipei-220101",
        "city": "new-taipei",
        "lineid": "220101",
        "linename": "C15路線晚上",
        "rank": "43",
        "village": "埤墘里",
        "name": "縣民大道3段93巷口"
      }
    },
    {
      "type": "Feature",
      "geometry": {
        "type": "Point",
        "coordinates": [
          121.475174,
          25.021936
        ]
      },
      "properties": {
        "routeId": "new-taipei-220101",
        "city": "new-taipei",
        "lineid": "220101",
        "linename": "C15路線晚上",
        "rank": "44",
        "village": "埤墘里",
        "name": "縣民大道3段79巷13號"
      }
    },
    {
      "type": "Feature",
      "geometry": {
        "type": "Point",
        "coordinates": [
          121.475464,
          25.022787
        ]
      },
      "properties": {
        "routeId": "new-taipei-220101",
        "city": "new-taipei",
        "lineid": "220101",
        "linename": "C15路線晚上",
        "rank": "45",
        "village": "永安里",
        "name": "縣民大道3段103巷22號"
      }
    },
    {
      "type": "Feature",
      "geometry": {
        "type": "Point",
        "coordinates": [
          121.475708,
          25.022835
        ]
      },
      "properties": {
        "routeId": "new-taipei-220101",
        "city": "new-taipei",
        "lineid": "220101",
        "linename": "C15路線晚上",
        "rank": "46",
        "village": "永安里",
        "name": "縣民大道3段103巷13號"
      }
    },
    {
      "type": "Feature",
      "geometry": {
        "type": "Point",
        "coordinates": [
          121.475792,
          25.022852
        ]
      },
      "properties": {
        "routeId": "new-taipei-220101",
        "city": "new-taipei",
        "lineid": "220101",
        "linename": "C15路線晚上",
        "rank": "47",
        "village": "永安里",
        "name": "縣民大道3段103巷10號"
      }
    },
    {
      "type": "Feature",
      "geometry": {
        "type": "Point",
        "coordinates": [
          121.475945,
          25.022875
        ]
      },
      "properties": {
        "routeId": "new-taipei-220101",
        "city": "new-taipei",
        "lineid": "220101",
        "linename": "C15路線晚上",
        "rank": "48",
        "village": "永安里",
        "name": "縣民大道3段103巷1號"
      }
    },
    {
      "type": "Feature",
      "geometry": {
        "type": "Point",
        "coordinates": [
          121.474854,
          25.021286
        ]
      },
      "properties": {
        "routeId": "new-taipei-220101",
        "city": "new-taipei",
        "lineid": "220101",
        "linename": "C15路線晚上",
        "rank": "49",
        "village": "埤墘里",
        "name": "縣民大道3段61號"
      }
    },
    {
      "type": "Feature",
      "geometry": {
        "type": "Point",
        "coordinates": [
          121.474129,
          25.020769
        ]
      },
      "properties": {
        "routeId": "new-taipei-220101",
        "city": "new-taipei",
        "lineid": "220101",
        "linename": "C15路線晚上",
        "rank": "50",
        "village": "埤墘里",
        "name": "縣民大道3段43號"
      }
    },
    {
      "type": "Feature",
      "geometry": {
        "type": "Point",
        "coordinates": [
          121.473251,
          25.022787
        ]
      },
      "properties": {
        "routeId": "new-taipei-220101",
        "city": "new-taipei",
        "lineid": "220101",
        "linename": "C15路線晚上",
        "rank": "51",
        "village": "埤墘里",
        "name": "莒光路180巷22號"
      }
    },
    {
      "type": "Feature",
      "geometry": {
        "type": "Point",
        "coordinates": [
          121.47393,
          25.02281
        ]
      },
      "properties": {
        "routeId": "new-taipei-220101",
        "city": "new-taipei",
        "lineid": "220101",
        "linename": "C15路線晚上",
        "rank": "52",
        "village": "埤墘里",
        "name": "莒光路180巷2號"
      }
    },
    {
      "type": "Feature",
      "geometry": {
        "type": "Point",
        "coordinates": [
          121.47492168,
          25.023418494
        ]
      },
      "properties": {
        "routeId": "new-taipei-220101",
        "city": "new-taipei",
        "lineid": "220101",
        "linename": "C15路線晚上",
        "rank": "53",
        "village": "永安里",
        "name": "萬板路122巷口"
      }
    },
    {
      "type": "Feature",
      "geometry": {
        "type": "Point",
        "coordinates": [
          121.475197,
          25.023521
        ]
      },
      "properties": {
        "routeId": "new-taipei-220101",
        "city": "new-taipei",
        "lineid": "220101",
        "linename": "C15路線晚上",
        "rank": "54",
        "village": "永安里",
        "name": "停整點:萬板路126號"
      }
    },
    {
      "type": "Feature",
      "geometry": {
        "type": "Point",
        "coordinates": [
          121.47789,
          25.025049
        ]
      },
      "properties": {
        "routeId": "new-taipei-220101",
        "city": "new-taipei",
        "lineid": "220101",
        "linename": "C15路線晚上",
        "rank": "55",
        "village": "港嘴里",
        "name": "萬板路318號"
      }
    },
    {
      "type": "Feature",
      "geometry": {
        "type": "Point",
        "coordinates": [
          121.4742786,
          25.023954787
        ]
      },
      "properties": {
        "routeId": "new-taipei-220101",
        "city": "new-taipei",
        "lineid": "220101",
        "linename": "C15路線晚上",
        "rank": "56",
        "village": "忠翠里",
        "name": "莒光路171巷8號"
      }
    },
    {
      "type": "Feature",
      "geometry": {
        "type": "Point",
        "coordinates": [
          121.474815,
          25.026533
        ]
      },
      "properties": {
        "routeId": "new-taipei-220101",
        "city": "new-taipei",
        "lineid": "220101",
        "linename": "C15路線晚上",
        "rank": "57",
        "village": "忠翠里",
        "name": "雙十路2段47巷4弄20號"
      }
    },
    {
      "type": "Feature",
      "geometry": {
        "type": "Point",
        "coordinates": [
          121.47496,
          25.026693
        ]
      },
      "properties": {
        "routeId": "new-taipei-220101",
        "city": "new-taipei",
        "lineid": "220101",
        "linename": "C15路線晚上",
        "rank": "58",
        "village": "龍翠里",
        "name": "雙十路2段47巷4弄31號"
      }
    },
    {
      "type": "Feature",
      "geometry": {
        "type": "Point",
        "coordinates": [
          121.4757,
          25.026527
        ]
      },
      "properties": {
        "routeId": "new-taipei-220101",
        "city": "new-taipei",
        "lineid": "220101",
        "linename": "C15路線晚上",
        "rank": "59",
        "village": "忠翠里",
        "name": "雙十路2段47巷4弄14號"
      }
    },
    {
      "type": "Feature",
      "geometry": {
        "type": "Point",
        "coordinates": [
          121.4759733,
          25.0261242
        ]
      },
      "properties": {
        "routeId": "new-taipei-220101",
        "city": "new-taipei",
        "lineid": "220101",
        "linename": "C15路線晚上",
        "rank": "60",
        "village": "忠翠里",
        "name": "雙十路2段47巷8弄14號"
      }
    },
    {
      "type": "Feature",
      "geometry": {
        "type": "Point",
        "coordinates": [
          121.473198,
          25.026674
        ]
      },
      "properties": {
        "routeId": "new-taipei-220101",
        "city": "new-taipei",
        "lineid": "220101",
        "linename": "C15路線晚上",
        "rank": "61",
        "village": "忠翠里",
        "name": "莊敬路75巷2號"
      }
    }
  ]
}