{
  "type": "FeatureCollection",
  "features": [
    {
      "type": "Feature",
      "geometry": {
        "type": "Point",
        "coordinates": [
          121.66696889872458,
          25.076395762723713
        ]
      },
      "properties": {
        "routeId": "new-taipei-221036",
        "city": "new-taipei",
        "lineid": "221036",
        "linename": "第14區路線 晚上",
        "rank": "1",
        "village": "長安里",
        "name": "大同路三段30號"
      }
    },
    {
      "type": "Feature",
      "geometry": {
        "type": "Point",
        "coordinates": [
          121.67343078711986,
          25.076016313343963
        ]
      },
      "properties": {
        "routeId": "new-taipei-221036",
        "city": "new-taipei",
        "lineid": "221036",
        "linename": "第14區路線 晚上",
        "rank": "2",
        "village": "保安里",
        "name": "大同路三段259號"
      }
    },
    {
      "type": "Feature",
      "geometry": {
        "type": "Point",
        "coordinates": [
          121.6693891,
          25.07775888
        ]
      },
      "properties": {
        "routeId": "new-taipei-221036",
        "city": "new-taipei",
        "lineid": "221036",
        "linename": "第14區路線 晚上",
        "rank": "3",
        "village": "長安里",
        "name": "大同路三段139巷口"
      }
    },
    {
      "type": "Feature",
      "geometry": {
        "type": "Point",
        "coordinates": [
          121.6683529,
          25.07761773
        ]
      },
      "properties": {
        "routeId": "new-taipei-221036",
        "city": "new-taipei",
        "lineid": "221036",
        "linename": "第14區路線 晚上",
        "rank": "4",
        "village": "長安里",
        "name": "大同路三段105巷口"
      }
    },
    {
      "type": "Feature",
      "geometry": {
        "type": "Point",
        "coordinates": [
          121.6677811,
          25.07738893
        ]
      },
      "properties": {
        "routeId": "new-taipei-221036",
        "city": "new-taipei",
        "lineid": "221036",
        "linename": "第14區路線 晚上",
        "rank": "5",
        "village": "長安里",
        "name": "長安路2號"
      }
    },
    {
      "type": "Feature",
      "geometry": {
        "type": "Point",
        "coordinates": [
          121.6696136,
          25.07863284
        ]
      },
      "properties": {
        "routeId": "new-taipei-221036",
        "city": "new-taipei",
        "lineid": "221036",
        "linename": "第14區路線 晚上",
        "rank": "6",
        "village": "保長里",
        "name": "長興街一段8巷口"
      }
    },
    {
      "type": "Feature",
      "geometry": {
        "type": "Point",
        "coordinates": [
          121.6705152,
          25.0791984
        ]
      },
      "properties": {
        "routeId": "new-taipei-221036",
        "city": "new-taipei",
        "lineid": "221036",
        "linename": "第14區路線 晚上",
        "rank": "7",
        "village": "保長里",
        "name": "長興街一段46號"
      }
    },
    {
      "type": "Feature",
      "geometry": {
        "type": "Point",
        "coordinates": [
          121.6703788,
          25.07826688
        ]
      },
      "properties": {
        "routeId": "new-taipei-221036",
        "city": "new-taipei",
        "lineid": "221036",
        "linename": "第14區路線 晚上",
        "rank": "8",
        "village": "保長里",
        "name": "長安路134號"
      }
    },
    {
      "type": "Feature",
      "geometry": {
        "type": "Point",
        "coordinates": [
          121.6675204,
          25.07720545
        ]
      },
      "properties": {
        "routeId": "new-taipei-221036",
        "city": "new-taipei",
        "lineid": "221036",
        "linename": "第14區路線 晚上",
        "rank": "9",
        "village": "保長里",
        "name": "大同路三段73號"
      }
    },
    {
      "type": "Feature",
      "geometry": {
        "type": "Point",
        "coordinates": [
          121.6631538,
          25.069128
        ]
      },
      "properties": {
        "routeId": "new-taipei-221036",
        "city": "new-taipei",
        "lineid": "221036",
        "linename": "第14區路線 晚上",
        "rank": "10",
        "village": "新昌里",
        "name": "汐科路31號"
      }
    },
    {
      "type": "Feature",
      "geometry": {
        "type": "Point",
        "coordinates": [
          121.664497,
          25.070141
        ]
      },
      "properties": {
        "routeId": "new-taipei-221036",
        "city": "new-taipei",
        "lineid": "221036",
        "linename": "第14區路線 晚上",
        "rank": "11",
        "village": "新昌里",
        "name": "忠孝東路339巷8號"
      }
    },
    {
      "type": "Feature",
      "geometry": {
        "type": "Point",
        "coordinates": [
          121.6650198,
          25.06860462
        ]
      },
      "properties": {
        "routeId": "new-taipei-221036",
        "city": "new-taipei",
        "lineid": "221036",
        "linename": "第14區路線 晚上",
        "rank": "12",
        "village": "新昌里",
        "name": "水碓街"
      }
    },
    {
      "type": "Feature",
      "geometry": {
        "type": "Point",
        "coordinates": [
          121.6650956,
          25.06961514
        ]
      },
      "properties": {
        "routeId": "new-taipei-221036",
        "city": "new-taipei",
        "lineid": "221036",
        "linename": "第14區路線 晚上",
        "rank": "13",
        "village": "新昌里",
        "name": "忠孝東路與水碓街口"
      }
    },
    {
      "type": "Feature",
      "geometry": {
        "type": "Point",
        "coordinates": [
          121.6646583,
          25.06967885
        ]
      },
      "properties": {
        "routeId": "new-taipei-221036",
        "city": "new-taipei",
        "lineid": "221036",
        "linename": "第14區路線 晚上",
        "rank": "14",
        "village": "新昌里",
        "name": "水碓街33號"
      }
    },
    {
      "type": "Feature",
      "geometry": {
        "type": "Point",
        "coordinates": [
          121.6629991,
          25.0683359
        ]
      },
      "properties": {
        "routeId": "new-taipei-221036",
        "city": "new-taipei",
        "lineid": "221036",
        "linename": "第14區路線 晚上",
        "rank": "15",
        "village": "新昌里",
        "name": "南昌街16號"
      }
    },
    {
      "type": "Feature",
      "geometry": {
        "type": "Point",
        "coordinates": [
          121.664436,
          25.06843
        ]
      },
      "properties": {
        "routeId": "new-taipei-221036",
        "city": "new-taipei",
        "lineid": "221036",
        "linename": "第14區路線 晚上",
        "rank": "16",
        "village": "新昌里",
        "name": "忠孝東路314巷8號"
      }
    },
    {
      "type": "Feature",
      "geometry": {
        "type": "Point",
        "coordinates": [
          121.664599,
          25.067038
        ]
      },
      "properties": {
        "routeId": "new-taipei-221036",
        "city": "new-taipei",
        "lineid": "221036",
        "linename": "第14區路線 晚上",
        "rank": "17",
        "village": "長安里",
        "name": "新台五路二段85巷2號"
      }
    },
    {
      "type": "Feature",
      "geometry": {
        "type": "Point",
        "coordinates": [
          121.664175,
          25.067414
        ]
      },
      "properties": {
        "routeId": "new-taipei-221036",
        "city": "new-taipei",
        "lineid": "221036",
        "linename": "第14區路線 晚上",
        "rank": "18",
        "village": "新昌里",
        "name": "忠孝東路258巷11弄16號"
      }
    },
    {
      "type": "Feature",
      "geometry": {
        "type": "Point",
        "coordinates": [
          121.663002,
          25.066974
        ]
      },
      "properties": {
        "routeId": "new-taipei-221036",
        "city": "new-taipei",
        "lineid": "221036",
        "linename": "第14區路線 晚上",
        "rank": "19",
        "village": "新昌里",
        "name": "新台五路二段41巷13號"
      }
    },
    {
      "type": "Feature",
      "geometry": {
        "type": "Point",
        "coordinates": [
          121.663159,
          25.066361
        ]
      },
      "properties": {
        "routeId": "new-taipei-221036",
        "city": "new-taipei",
        "lineid": "221036",
        "linename": "第14區路線 晚上",
        "rank": "20",
        "village": "福安里",
        "name": "新台五路二段37號"
      }
    },
    {
      "type": "Feature",
      "geometry": {
        "type": "Point",
        "coordinates": [
          121.663742,
          25.063932
        ]
      },
      "properties": {
        "routeId": "new-taipei-221036",
        "city": "new-taipei",
        "lineid": "221036",
        "linename": "第14區路線 晚上",
        "rank": "21",
        "village": "福安里",
        "name": "福安街55巷口處"
      }
    },
    {
      "type": "Feature",
      "geometry": {
        "type": "Point",
        "coordinates": [
          121.6642059,
          25.0635113
        ]
      },
      "properties": {
        "routeId": "new-taipei-221036",
        "city": "new-taipei",
        "lineid": "221036",
        "linename": "第14區路線 晚上",
        "rank": "22",
        "village": "福安里",
        "name": "福安街59巷2號"
      }
    },
    {
      "type": "Feature",
      "geometry": {
        "type": "Point",
        "coordinates": [
          121.6648257,
          25.0637537
        ]
      },
      "properties": {
        "routeId": "new-taipei-221036",
        "city": "new-taipei",
        "lineid": "221036",
        "linename": "第14區路線 晚上",
        "rank": "23",
        "village": "福安里",
        "name": "福安街61巷口"
      }
    },
    {
      "type": "Feature",
      "geometry": {
        "type": "Point",
        "coordinates": [
          121.664315,
          25.064209
        ]
      },
      "properties": {
        "routeId": "new-taipei-221036",
        "city": "new-taipei",
        "lineid": "221036",
        "linename": "第14區路線 晚上",
        "rank": "24",
        "village": "福安里",
        "name": "福安街57巷10號"
      }
    },
    {
      "type": "Feature",
      "geometry": {
        "type": "Point",
        "coordinates": [
          121.66314,
          25.06507
        ]
      },
      "properties": {
        "routeId": "new-taipei-221036",
        "city": "new-taipei",
        "lineid": "221036",
        "linename": "第14區路線 晚上",
        "rank": "25",
        "village": "福安里",
        "name": "福安街37巷6號"
      }
    },
    {
      "type": "Feature",
      "geometry": {
        "type": "Point",
        "coordinates": [
          121.663226,
          25.065604
        ]
      },
      "properties": {
        "routeId": "new-taipei-221036",
        "city": "new-taipei",
        "lineid": "221036",
        "linename": "第14區路線 晚上",
        "rank": "26",
        "village": "福安里",
        "name": "新台五路二段116巷16號"
      }
    },
    {
      "type": "Feature",
      "geometry": {
        "type": "Point",
        "coordinates": [
          121.66361,
          25.065992
        ]
      },
      "properties": {
        "routeId": "new-taipei-221036",
        "city": "new-taipei",
        "lineid": "221036",
        "linename": "第14區路線 晚上",
        "rank": "27",
        "village": "福安里",
        "name": "新台五路二段126巷11號"
      }
    },
    {
      "type": "Feature",
      "geometry": {
        "type": "Point",
        "coordinates": [
          121.663877,
          25.066642
        ]
      },
      "properties": {
        "routeId": "new-taipei-221036",
        "city": "new-taipei",
        "lineid": "221036",
        "linename": "第14區路線 晚上",
        "rank": "28",
        "village": "福安里",
        "name": "新台五路二段67號"
      }
    },
    {
      "type": "Feature",
      "geometry": {
        "type": "Point",
        "coordinates": [
          121.662284,
          25.067086
        ]
      },
      "properties": {
        "routeId": "new-taipei-221036",
        "city": "new-taipei",
        "lineid": "221036",
        "linename": "第14區路線 晚上",
        "rank": "29",
        "village": "新昌里",
        "name": "新昌路8號"
      }
    },
    {
      "type": "Feature",
      "geometry": {
        "type": "Point",
        "coordinates": [
          121.663547,
          25.068867
        ]
      },
      "properties": {
        "routeId": "new-taipei-221036",
        "city": "new-taipei",
        "lineid": "221036",
        "linename": "第14區路線 晚上",
        "rank": "30",
        "village": "新昌里",
        "name": "新昌路63號"
      }
    },
    {
      "type": "Feature",
      "geometry": {
        "type": "Point",
        "coordinates": [
          121.663994,
          25.068115
        ]
      },
      "properties": {
        "routeId": "new-taipei-221036",
        "city": "new-taipei",
        "lineid": "221036",
        "linename": "第14區路線 晚上",
        "rank": "31",
        "village": "新昌里",
        "name": "仁愛路333號"
      }
    }
  ]
}