{
  "type": "FeatureCollection",
  "features": [
    {
      "type": "Feature",
      "geometry": {
        "type": "LineString",
        "coordinates": [
          [
            120.726931,
            24.150245
          ],
          [
            120.726931,
            24.150245
          ],
          [
            120.726991,
            24.150374
          ],
          [
            120.727059,
            24.150616
          ],
          [
            120.727046,
            24.150823
          ],
          [
            120.727046,
            24.150823
          ],
          [
            120.727012,
            24.151348
          ],
          [
            120.727012,
            24.151348
          ],
          [
            120.72701,
            24.151381
          ],
          [
            120.72701,
            24.151413
          ],
          [
            120.727012,
            24.151808
          ],
          [
            120.72695,
            24.15194
          ],
          [
            120.72695,
            24.15194
          ],
          [
            120.72693,
            24.151982
          ],
          [
            120.726992,
            24.152008
          ],
          [
            120.727105,
            24.152534
          ],
          [
            120.727105,
            24.152534
          ],
          [
            120.726992,
            24.152008
          ],
          [
            120.727488,
            24.152137
          ],
          [
            120.727651,
            24.15217
          ],
          [
            120.727952,
            24.152209
          ],
          [
            120.72799,
            24.152218
          ],
          [
            120.728047,
            24.152447
          ],
          [
            120.728133,
            24.15258
          ],
          [
            120.728185,
            24.152649
          ],
          [
            120.728272,
            24.152755
          ],
          [
            120.728339,
            24.152824
          ],
          [
            120.72851,
            24.152962
          ],
          [
            120.728704,
            24.153118
          ],
          [
            120.730117,
            24.153109
          ],
          [
            120.730166,
            24.153103
          ],
          [
            120.730197,
            24.153117
          ],
          [
            120.730214,
            24.153138
          ],
          [
            120.730221,
            24.153163
          ],
          [
            120.73022,
            24.153169
          ],
          [
            120.73022,
            24.153169
          ],
          [
            120.730217,
            24.153185
          ],
          [
            120.730207,
            24.153203
          ],
          [
            120.73019,
            24.153217
          ],
          [
            120.730293,
            24.153339
          ],
          [
            120.730666,
            24.153723
          ],
          [
            120.730797,
            24.153867
          ],
          [
            120.730919,
            24.153963
          ],
          [
            120.731018,
            24.154025
          ],
          [
            120.731207,
            24.15409
          ],
          [
            120.731393,
            24.154101
          ],
          [
            120.731644,
            24.154089
          ],
          [
            120.731853,
            24.15413
          ],
          [
            120.732052,
            24.15422
          ],
          [
            120.732032,
            24.15395
          ],
          [
            120.733471,
            24.153856
          ],
          [
            120.733515,
            24.154389
          ],
          [
            120.733526,
            24.154619
          ],
          [
            120.733564,
            24.154968
          ],
          [
            120.733633,
            24.155497
          ],
          [
            120.733653,
            24.155634
          ],
          [
            120.733722,
            24.155752
          ],
          [
            120.73386,
            24.155907
          ],
          [
            120.734065,
            24.156111
          ],
          [
            120.734325,
            24.156167
          ],
          [
            120.735747,
            24.156544
          ],
          [
            120.735995,
            24.156616
          ],
          [
            120.736187,
            24.156668
          ],
          [
            120.736825,
            24.156847
          ],
          [
            120.73689,
            24.156865
          ],
          [
            120.737036,
            24.156905
          ],
          [
            120.737461,
            24.156984
          ],
          [
            120.737695,
            24.157016
          ],
          [
            120.738323,
            24.157089
          ],
          [
            120.739784,
            24.157207
          ],
          [
            120.740413,
            24.157277
          ],
          [
            120.74132,
            24.157377
          ],
          [
            120.741415,
            24.157388
          ],
          [
            120.742021,
            24.157451
          ],
          [
            120.742955,
            24.157514
          ],
          [
            120.743247,
            24.15754
          ],
          [
            120.743311,
            24.157559
          ],
          [
            120.743444,
            24.157615
          ],
          [
            120.743584,
            24.15767
          ],
          [
            120.743747,
            24.157817
          ],
          [
            120.743852,
            24.157991
          ],
          [
            120.744004,
            24.158249
          ],
          [
            120.744157,
            24.158546
          ],
          [
            120.74419,
            24.158612
          ],
          [
            120.74419,
            24.158612
          ],
          [
            120.744157,
            24.158546
          ],
          [
            120.744004,
            24.158249
          ],
          [
            120.743852,
            24.157991
          ],
          [
            120.743747,
            24.157817
          ],
          [
            120.743623,
            24.157705
          ],
          [
            120.743623,
            24.157705
          ],
          [
            120.743584,
            24.15767
          ],
          [
            120.743444,
            24.157615
          ],
          [
            120.743311,
            24.157559
          ],
          [
            120.743247,
            24.15754
          ],
          [
            120.743032,
            24.157521
          ],
          [
            120.743032,
            24.157521
          ],
          [
            120.742955,
            24.157514
          ],
          [
            120.742021,
            24.157451
          ],
          [
            120.741415,
            24.157388
          ],
          [
            120.74132,
            24.157377
          ],
          [
            120.740413,
            24.157277
          ],
          [
            120.739784,
            24.157207
          ],
          [
            120.738323,
            24.157089
          ],
          [
            120.738313,
            24.157357
          ],
          [
            120.738291,
            24.157789
          ],
          [
            120.738282,
            24.158139
          ],
          [
            120.738275,
            24.158445
          ],
          [
            120.738275,
            24.158445
          ],
          [
            120.738274,
            24.158502
          ],
          [
            120.738267,
            24.158854
          ],
          [
            120.739013,
            24.158872
          ],
          [
            120.739013,
            24.158872
          ],
          [
            120.738267,
            24.158854
          ],
          [
            120.738274,
            24.158502
          ],
          [
            120.738282,
            24.158139
          ],
          [
            120.738291,
            24.157789
          ],
          [
            120.738296,
            24.157692
          ],
          [
            120.738296,
            24.157692
          ],
          [
            120.738313,
            24.157357
          ],
          [
            120.738323,
            24.157089
          ],
          [
            120.738727,
            24.157276
          ],
          [
            120.739465,
            24.157679
          ],
          [
            120.739798,
            24.157821
          ],
          [
            120.739798,
            24.157821
          ],
          [
            120.739942,
            24.157882
          ],
          [
            120.740183,
            24.157939
          ],
          [
            120.740638,
            24.158082
          ],
          [
            120.741401,
            24.158319
          ],
          [
            120.741401,
            24.158319
          ],
          [
            120.740638,
            24.158082
          ],
          [
            120.740183,
            24.157939
          ],
          [
            120.739942,
            24.157882
          ],
          [
            120.739465,
            24.157679
          ],
          [
            120.738727,
            24.157276
          ],
          [
            120.738323,
            24.157089
          ],
          [
            120.739784,
            24.157207
          ],
          [
            120.740413,
            24.157277
          ],
          [
            120.741192,
            24.157363
          ],
          [
            120.741192,
            24.157363
          ],
          [
            120.740413,
            24.157277
          ],
          [
            120.739784,
            24.157207
          ],
          [
            120.738323,
            24.157089
          ],
          [
            120.737695,
            24.157016
          ],
          [
            120.737461,
            24.156984
          ],
          [
            120.737036,
            24.156905
          ],
          [
            120.73689,
            24.156865
          ],
          [
            120.736825,
            24.156847
          ],
          [
            120.736552,
            24.156771
          ],
          [
            120.736552,
            24.156771
          ],
          [
            120.736187,
            24.156668
          ],
          [
            120.735995,
            24.156616
          ],
          [
            120.735747,
            24.156544
          ],
          [
            120.734325,
            24.156167
          ],
          [
            120.734065,
            24.156111
          ],
          [
            120.733684,
            24.156087
          ],
          [
            120.733693,
            24.156132
          ],
          [
            120.733706,
            24.156653
          ],
          [
            120.733718,
            24.156941
          ],
          [
            120.733519,
            24.156937
          ],
          [
            120.733475,
            24.15693
          ],
          [
            120.733475,
            24.15693
          ],
          [
            120.733286,
            24.1569
          ],
          [
            120.732811,
            24.156758
          ],
          [
            120.732359,
            24.156647
          ],
          [
            120.73234,
            24.156708
          ],
          [
            120.73234,
            24.156708
          ],
          [
            120.732359,
            24.156647
          ],
          [
            120.731128,
            24.156361
          ],
          [
            120.730742,
            24.156248
          ],
          [
            120.730742,
            24.156248
          ],
          [
            120.730059,
            24.156048
          ],
          [
            120.730059,
            24.156048
          ],
          [
            120.729968,
            24.156021
          ],
          [
            120.729817,
            24.156413
          ],
          [
            120.729716,
            24.156743
          ],
          [
            120.729716,
            24.156743
          ],
          [
            120.729817,
            24.156413
          ],
          [
            120.730287,
            24.15654
          ],
          [
            120.730287,
            24.15654
          ],
          [
            120.731011,
            24.156735
          ],
          [
            120.731335,
            24.156815
          ],
          [
            120.731335,
            24.156815
          ],
          [
            120.732235,
            24.157039
          ],
          [
            120.732267,
            24.156937
          ],
          [
            120.732267,
            24.156937
          ],
          [
            120.732359,
            24.156647
          ],
          [
            120.731128,
            24.156361
          ],
          [
            120.729968,
            24.156021
          ],
          [
            120.729401,
            24.155865
          ],
          [
            120.729401,
            24.155865
          ],
          [
            120.728767,
            24.15569
          ],
          [
            120.728785,
            24.155459
          ],
          [
            120.728564,
            24.155176
          ],
          [
            120.728488,
            24.155233
          ],
          [
            120.728488,
            24.155233
          ],
          [
            120.727902,
            24.155673
          ],
          [
            120.727719,
            24.155359
          ],
          [
            120.727527,
            24.155005
          ],
          [
            120.727346,
            24.154696
          ],
          [
            120.727149,
            24.154372
          ],
          [
            120.726942,
            24.154042
          ],
          [
            120.727292,
            24.153784
          ],
          [
            120.727703,
            24.153459
          ],
          [
            120.727956,
            24.15346
          ],
          [
            120.727956,
            24.15346
          ],
          [
            120.727703,
            24.153459
          ],
          [
            120.727292,
            24.153784
          ],
          [
            120.726942,
            24.154042
          ],
          [
            120.726342,
            24.153149
          ],
          [
            120.726094,
            24.152768
          ],
          [
            120.725913,
            24.152498
          ],
          [
            120.725717,
            24.15221
          ],
          [
            120.725599,
            24.15202
          ],
          [
            120.725483,
            24.151808
          ],
          [
            120.725163,
            24.15117
          ],
          [
            120.724945,
            24.150671
          ],
          [
            120.724776,
            24.150264
          ],
          [
            120.724722,
            24.150127
          ],
          [
            120.724628,
            24.149828
          ],
          [
            120.724587,
            24.149632
          ],
          [
            120.72475,
            24.14965
          ],
          [
            120.724812,
            24.149658
          ],
          [
            120.724824,
            24.149774
          ],
          [
            120.724828,
            24.149825
          ],
          [
            120.725096,
            24.150248
          ],
          [
            120.725197,
            24.150417
          ],
          [
            120.725246,
            24.150515
          ],
          [
            120.725246,
            24.150515
          ],
          [
            120.725333,
            24.150691
          ],
          [
            120.725657,
            24.150597
          ],
          [
            120.725657,
            24.150597
          ],
          [
            120.725899,
            24.150527
          ],
          [
            120.726107,
            24.150836
          ],
          [
            120.726231,
            24.151051
          ],
          [
            120.725984,
            24.151279
          ],
          [
            120.725984,
            24.151279
          ],
          [
            120.725773,
            24.151474
          ],
          [
            120.726061,
            24.151731
          ],
          [
            120.726355,
            24.151988
          ],
          [
            120.72664,
            24.152236
          ],
          [
            120.72693,
            24.151982
          ],
          [
            120.726992,
            24.152008
          ],
          [
            120.727173,
            24.152055
          ],
          [
            120.727173,
            24.152055
          ],
          [
            120.727488,
            24.152137
          ],
          [
            120.727651,
            24.15217
          ],
          [
            120.727952,
            24.152209
          ],
          [
            120.72799,
            24.152218
          ],
          [
            120.728016,
            24.15232
          ],
          [
            120.728016,
            24.15232
          ],
          [
            120.728047,
            24.152447
          ],
          [
            120.728133,
            24.15258
          ],
          [
            120.728185,
            24.152649
          ],
          [
            120.728272,
            24.152755
          ],
          [
            120.728339,
            24.152824
          ],
          [
            120.72851,
            24.152962
          ],
          [
            120.728704,
            24.153118
          ],
          [
            120.728806,
            24.153229
          ],
          [
            120.729034,
            24.153477
          ],
          [
            120.729002,
            24.153551
          ],
          [
            120.728998,
            24.154378
          ],
          [
            120.728553,
            24.154715
          ],
          [
            120.728553,
            24.154715
          ],
          [
            120.728314,
            24.154895
          ],
          [
            120.728564,
            24.155176
          ],
          [
            120.729097,
            24.154782
          ],
          [
            120.729329,
            24.154773
          ],
          [
            120.729326,
            24.15467
          ],
          [
            120.729326,
            24.15467
          ],
          [
            120.729329,
            24.154773
          ],
          [
            120.729647,
            24.154815
          ],
          [
            120.73022,
            24.154848
          ],
          [
            120.730237,
            24.154546
          ],
          [
            120.730247,
            24.154168
          ],
          [
            120.730463,
            24.154244
          ],
          [
            120.730463,
            24.154244
          ],
          [
            120.731183,
            24.154499
          ],
          [
            120.732055,
            24.154828
          ],
          [
            120.732981,
            24.155181
          ],
          [
            120.732982,
            24.155216
          ],
          [
            120.732982,
            24.155216
          ],
          [
            120.732995,
            24.155517
          ],
          [
            120.732885,
            24.155514
          ],
          [
            120.731908,
            24.155153
          ],
          [
            120.73187,
            24.155141
          ],
          [
            120.73187,
            24.155141
          ],
          [
            120.730998,
            24.154851
          ],
          [
            120.730325,
            24.154581
          ],
          [
            120.730325,
            24.154581
          ],
          [
            120.730998,
            24.154851
          ],
          [
            120.731908,
            24.155153
          ],
          [
            120.732885,
            24.155514
          ],
          [
            120.732995,
            24.155517
          ],
          [
            120.733633,
            24.155497
          ],
          [
            120.733564,
            24.154968
          ],
          [
            120.733526,
            24.154619
          ],
          [
            120.732851,
            24.15469
          ],
          [
            120.732851,
            24.15469
          ],
          [
            120.733526,
            24.154619
          ],
          [
            120.733515,
            24.154389
          ],
          [
            120.733471,
            24.153856
          ],
          [
            120.733434,
            24.153407
          ],
          [
            120.733392,
            24.153064
          ],
          [
            120.733374,
            24.152861
          ],
          [
            120.733362,
            24.152716
          ],
          [
            120.733339,
            24.152354
          ],
          [
            120.732946,
            24.152389
          ],
          [
            120.732946,
            24.152389
          ],
          [
            120.732896,
            24.152394
          ],
          [
            120.731742,
            24.152458
          ],
          [
            120.731706,
            24.15246
          ],
          [
            120.731706,
            24.15246
          ],
          [
            120.731356,
            24.152475
          ],
          [
            120.731397,
            24.152855
          ],
          [
            120.731334,
            24.152859
          ],
          [
            120.731334,
            24.152859
          ],
          [
            120.731397,
            24.152855
          ],
          [
            120.732961,
            24.152744
          ],
          [
            120.732961,
            24.152744
          ],
          [
            120.733362,
            24.152716
          ],
          [
            120.733374,
            24.152861
          ],
          [
            120.733392,
            24.153064
          ],
          [
            120.733434,
            24.153407
          ],
          [
            120.733471,
            24.153856
          ],
          [
            120.732212,
            24.153938
          ],
          [
            120.732212,
            24.153938
          ],
          [
            120.732946,
            24.15389
          ],
          [
            120.732946,
            24.15389
          ]
        ]
      },
      "properties": {
        "routeId": "taichung-keg-7971-189ae4-d2",
        "city": "taichung",
        "source_file": "taichung/taichung-keg-7971-189ae4-d2.geojson",
        "distance_km": 11.503,
        "duration_min": 22.77443333333333,
        "valhalla_config": "valhalla.json"
      }
    }
  ]
}