{
  "type": "FeatureCollection",
  "features": [
    {
      "type": "Feature",
      "geometry": {
        "type": "LineString",
        "coordinates": [
          [
            120.701751,
            24.146557
          ],
          [
            120.701751,
            24.146557
          ],
          [
            120.701671,
            24.146733
          ],
          [
            120.701544,
            24.147021
          ],
          [
            120.701391,
            24.147368
          ],
          [
            120.701367,
            24.147526
          ],
          [
            120.70136,
            24.147669
          ],
          [
            120.701351,
            24.147996
          ],
          [
            120.701158,
            24.147982
          ],
          [
            120.701158,
            24.147982
          ],
          [
            120.700954,
            24.147967
          ],
          [
            120.700884,
            24.148169
          ],
          [
            120.700811,
            24.148314
          ],
          [
            120.700797,
            24.148667
          ],
          [
            120.700797,
            24.148671
          ],
          [
            120.700797,
            24.148671
          ],
          [
            120.700797,
            24.148667
          ],
          [
            120.700811,
            24.148314
          ],
          [
            120.700884,
            24.148169
          ],
          [
            120.700954,
            24.147967
          ],
          [
            120.701351,
            24.147996
          ],
          [
            120.701897,
            24.148055
          ],
          [
            120.701897,
            24.148055
          ],
          [
            120.702123,
            24.14808
          ],
          [
            120.702572,
            24.148116
          ],
          [
            120.703179,
            24.148151
          ],
          [
            120.703193,
            24.148663
          ],
          [
            120.703038,
            24.148652
          ],
          [
            120.703038,
            24.148652
          ],
          [
            120.702657,
            24.148626
          ],
          [
            120.702657,
            24.148626
          ],
          [
            120.702546,
            24.148618
          ],
          [
            120.702372,
            24.148605
          ],
          [
            120.702306,
            24.148592
          ],
          [
            120.702074,
            24.148583
          ],
          [
            120.702093,
            24.148385
          ],
          [
            120.702112,
            24.148187
          ],
          [
            120.702112,
            24.148187
          ],
          [
            120.702093,
            24.148385
          ],
          [
            120.702074,
            24.148583
          ],
          [
            120.702062,
            24.148782
          ],
          [
            120.702048,
            24.149008
          ],
          [
            120.702037,
            24.149143
          ],
          [
            120.702035,
            24.149172
          ],
          [
            120.702035,
            24.149172
          ],
          [
            120.702006,
            24.14954
          ],
          [
            120.7015,
            24.14952
          ],
          [
            120.701406,
            24.149183
          ],
          [
            120.701313,
            24.148969
          ],
          [
            120.701313,
            24.14889
          ],
          [
            120.701312,
            24.148867
          ],
          [
            120.701494,
            24.148872
          ],
          [
            120.701494,
            24.148872
          ],
          [
            120.701589,
            24.148875
          ],
          [
            120.701622,
            24.148391
          ],
          [
            120.701344,
            24.148368
          ],
          [
            120.701351,
            24.147996
          ],
          [
            120.700954,
            24.147967
          ],
          [
            120.700576,
            24.14796
          ],
          [
            120.700673,
            24.146961
          ],
          [
            120.700701,
            24.146772
          ],
          [
            120.700772,
            24.146296
          ],
          [
            120.700807,
            24.146111
          ],
          [
            120.700837,
            24.145926
          ],
          [
            120.701059,
            24.145966
          ],
          [
            120.701623,
            24.146133
          ],
          [
            120.701617,
            24.146185
          ],
          [
            120.701612,
            24.146199
          ],
          [
            120.701612,
            24.146199
          ],
          [
            120.70156,
            24.146334
          ],
          [
            120.701497,
            24.146451
          ],
          [
            120.701459,
            24.146497
          ],
          [
            120.700926,
            24.146341
          ],
          [
            120.700926,
            24.146341
          ],
          [
            120.700772,
            24.146296
          ],
          [
            120.700701,
            24.146772
          ],
          [
            120.701035,
            24.146815
          ],
          [
            120.701239,
            24.146897
          ],
          [
            120.701544,
            24.147021
          ],
          [
            120.701943,
            24.147172
          ],
          [
            120.702152,
            24.14671
          ],
          [
            120.702159,
            24.146695
          ],
          [
            120.702159,
            24.146695
          ],
          [
            120.702152,
            24.14671
          ],
          [
            120.701943,
            24.147172
          ],
          [
            120.701544,
            24.147021
          ],
          [
            120.701671,
            24.146733
          ],
          [
            120.701814,
            24.146418
          ],
          [
            120.701901,
            24.146232
          ],
          [
            120.702229,
            24.14631
          ],
          [
            120.702324,
            24.146339
          ],
          [
            120.702604,
            24.146358
          ],
          [
            120.702848,
            24.146375
          ],
          [
            120.703165,
            24.146472
          ],
          [
            120.703412,
            24.146569
          ],
          [
            120.703617,
            24.146664
          ],
          [
            120.703753,
            24.146746
          ],
          [
            120.703787,
            24.146832
          ],
          [
            120.703799,
            24.146906
          ],
          [
            120.70381,
            24.146947
          ],
          [
            120.703826,
            24.146976
          ],
          [
            120.703732,
            24.147014
          ],
          [
            120.703732,
            24.147014
          ],
          [
            120.703826,
            24.146976
          ],
          [
            120.703838,
            24.146999
          ],
          [
            120.70391,
            24.14705
          ],
          [
            120.703994,
            24.147126
          ],
          [
            120.704315,
            24.147387
          ],
          [
            120.704533,
            24.147579
          ],
          [
            120.704743,
            24.147765
          ],
          [
            120.704743,
            24.147765
          ],
          [
            120.704822,
            24.147836
          ],
          [
            120.704927,
            24.14799
          ],
          [
            120.705083,
            24.148282
          ],
          [
            120.703906,
            24.148189
          ],
          [
            120.703665,
            24.148179
          ],
          [
            120.703629,
            24.148178
          ],
          [
            120.703363,
            24.148164
          ],
          [
            120.703179,
            24.148151
          ],
          [
            120.70319,
            24.148563
          ],
          [
            120.70319,
            24.148563
          ],
          [
            120.703193,
            24.148663
          ],
          [
            120.703212,
            24.149116
          ],
          [
            120.703222,
            24.149351
          ],
          [
            120.703257,
            24.150014
          ],
          [
            120.703303,
            24.150836
          ],
          [
            120.703323,
            24.151537
          ],
          [
            120.703335,
            24.151738
          ],
          [
            120.703381,
            24.152453
          ],
          [
            120.703431,
            24.15269
          ],
          [
            120.703441,
            24.152718
          ],
          [
            120.703441,
            24.152718
          ],
          [
            120.703507,
            24.152911
          ],
          [
            120.703683,
            24.153266
          ],
          [
            120.703989,
            24.153974
          ],
          [
            120.703989,
            24.153974
          ],
          [
            120.703683,
            24.153266
          ],
          [
            120.704181,
            24.153058
          ],
          [
            120.704768,
            24.153089
          ],
          [
            120.705267,
            24.153102
          ],
          [
            120.705264,
            24.152609
          ],
          [
            120.704698,
            24.1526
          ],
          [
            120.704675,
            24.152599
          ],
          [
            120.704675,
            24.152599
          ],
          [
            120.704698,
            24.1526
          ],
          [
            120.705264,
            24.152609
          ],
          [
            120.705286,
            24.152203
          ],
          [
            120.705342,
            24.151759
          ],
          [
            120.705412,
            24.151339
          ],
          [
            120.704389,
            24.1513
          ],
          [
            120.704389,
            24.1513
          ],
          [
            120.705412,
            24.151339
          ],
          [
            120.705342,
            24.151759
          ],
          [
            120.704293,
            24.15175
          ],
          [
            120.704048,
            24.151747
          ],
          [
            120.704048,
            24.151747
          ],
          [
            120.703872,
            24.151744
          ],
          [
            120.703335,
            24.151738
          ],
          [
            120.703381,
            24.152453
          ],
          [
            120.703431,
            24.15269
          ],
          [
            120.703507,
            24.152911
          ],
          [
            120.703683,
            24.153266
          ],
          [
            120.704041,
            24.154093
          ],
          [
            120.704424,
            24.154975
          ],
          [
            120.70451,
            24.15515
          ],
          [
            120.70451,
            24.15515
          ],
          [
            120.70457,
            24.155272
          ],
          [
            120.704789,
            24.155693
          ],
          [
            120.705899,
            24.157085
          ],
          [
            120.705958,
            24.15715
          ],
          [
            120.706195,
            24.157446
          ],
          [
            120.706461,
            24.157851
          ],
          [
            120.706512,
            24.158043
          ],
          [
            120.706512,
            24.158043
          ],
          [
            120.706518,
            24.158065
          ],
          [
            120.706586,
            24.158455
          ],
          [
            120.707095,
            24.158404
          ],
          [
            120.707091,
            24.158371
          ],
          [
            120.707972,
            24.158305
          ],
          [
            120.708746,
            24.158249
          ],
          [
            120.708754,
            24.158683
          ],
          [
            120.708412,
            24.15871
          ],
          [
            120.708412,
            24.15871
          ],
          [
            120.708754,
            24.158683
          ],
          [
            120.708788,
            24.159181
          ],
          [
            120.708225,
            24.159236
          ],
          [
            120.707877,
            24.159264
          ],
          [
            120.707532,
            24.159291
          ],
          [
            120.707349,
            24.159306
          ],
          [
            120.707184,
            24.159319
          ],
          [
            120.707183,
            24.159012
          ],
          [
            120.707146,
            24.158806
          ],
          [
            120.707286,
            24.158796
          ],
          [
            120.707286,
            24.158796
          ],
          [
            120.707146,
            24.158806
          ],
          [
            120.707183,
            24.159012
          ],
          [
            120.707184,
            24.159319
          ],
          [
            120.707349,
            24.159306
          ],
          [
            120.707532,
            24.159291
          ],
          [
            120.707877,
            24.159264
          ],
          [
            120.708225,
            24.159236
          ],
          [
            120.708334,
            24.159225
          ],
          [
            120.708334,
            24.159225
          ],
          [
            120.708788,
            24.159181
          ],
          [
            120.709456,
            24.159165
          ],
          [
            120.710289,
            24.159133
          ],
          [
            120.711336,
            24.159086
          ],
          [
            120.71177,
            24.159063
          ],
          [
            120.711758,
            24.158937
          ],
          [
            120.711758,
            24.158937
          ],
          [
            120.71177,
            24.159063
          ],
          [
            120.711336,
            24.159086
          ],
          [
            120.710289,
            24.159133
          ],
          [
            120.709456,
            24.159165
          ],
          [
            120.708788,
            24.159181
          ],
          [
            120.708225,
            24.159236
          ],
          [
            120.707877,
            24.159264
          ],
          [
            120.707532,
            24.159291
          ],
          [
            120.707349,
            24.159306
          ],
          [
            120.707184,
            24.159319
          ],
          [
            120.706758,
            24.159331
          ],
          [
            120.706661,
            24.159344
          ],
          [
            120.706658,
            24.159252
          ],
          [
            120.706651,
            24.159175
          ],
          [
            120.706651,
            24.159175
          ],
          [
            120.706658,
            24.159252
          ],
          [
            120.706661,
            24.159344
          ],
          [
            120.706568,
            24.159353
          ],
          [
            120.705777,
            24.159435
          ],
          [
            120.705679,
            24.159442
          ],
          [
            120.705658,
            24.158937
          ],
          [
            120.705796,
            24.158927
          ],
          [
            120.705796,
            24.158927
          ],
          [
            120.705658,
            24.158937
          ],
          [
            120.70509,
            24.158996
          ],
          [
            120.705082,
            24.158646
          ],
          [
            120.705026,
            24.158021
          ],
          [
            120.704898,
            24.157121
          ],
          [
            120.704636,
            24.156142
          ],
          [
            120.704175,
            24.155066
          ],
          [
            120.703974,
            24.154714
          ],
          [
            120.703612,
            24.154149
          ],
          [
            120.703298,
            24.153713
          ],
          [
            120.703086,
            24.153441
          ],
          [
            120.702795,
            24.153032
          ],
          [
            120.702511,
            24.152681
          ],
          [
            120.70221,
            24.15233
          ],
          [
            120.701724,
            24.151751
          ],
          [
            120.70141,
            24.151198
          ],
          [
            120.701011,
            24.15028
          ],
          [
            120.700796,
            24.149679
          ],
          [
            120.70067,
            24.149286
          ],
          [
            120.700626,
            24.149044
          ],
          [
            120.70059,
            24.148765
          ],
          [
            120.700569,
            24.148572
          ],
          [
            120.700544,
            24.148304
          ],
          [
            120.700537,
            24.148073
          ],
          [
            120.700576,
            24.14796
          ],
          [
            120.700954,
            24.147967
          ],
          [
            120.701351,
            24.147996
          ],
          [
            120.702123,
            24.14808
          ],
          [
            120.702572,
            24.148116
          ],
          [
            120.702893,
            24.148134
          ],
          [
            120.702893,
            24.148134
          ],
          [
            120.702926,
            24.148136
          ],
          [
            120.702926,
            24.148136
          ],
          [
            120.703179,
            24.148151
          ],
          [
            120.703363,
            24.148164
          ],
          [
            120.703629,
            24.148178
          ],
          [
            120.703665,
            24.148179
          ],
          [
            120.703906,
            24.148189
          ],
          [
            120.705083,
            24.148282
          ],
          [
            120.705209,
            24.148448
          ],
          [
            120.70566,
            24.149042
          ],
          [
            120.705883,
            24.14935
          ],
          [
            120.706091,
            24.149615
          ],
          [
            120.706309,
            24.14989
          ],
          [
            120.7065,
            24.15017
          ],
          [
            120.706848,
            24.150692
          ],
          [
            120.707174,
            24.151243
          ],
          [
            120.707568,
            24.151915
          ],
          [
            120.708006,
            24.15268
          ],
          [
            120.707884,
            24.152745
          ],
          [
            120.707884,
            24.152745
          ],
          [
            120.707571,
            24.152913
          ],
          [
            120.707238,
            24.153065
          ],
          [
            120.707266,
            24.153131
          ],
          [
            120.707266,
            24.153131
          ],
          [
            120.707238,
            24.153065
          ],
          [
            120.707024,
            24.153156
          ],
          [
            120.706683,
            24.153146
          ],
          [
            120.706672,
            24.15325
          ],
          [
            120.706647,
            24.153515
          ],
          [
            120.706647,
            24.153515
          ],
          [
            120.706633,
            24.153669
          ],
          [
            120.706615,
            24.153946
          ],
          [
            120.706615,
            24.153946
          ],
          [
            120.706605,
            24.154103
          ],
          [
            120.707435,
            24.154168
          ],
          [
            120.708021,
            24.154173
          ],
          [
            120.70816,
            24.154174
          ],
          [
            120.708195,
            24.154175
          ],
          [
            120.708445,
            24.154216
          ],
          [
            120.708885,
            24.154247
          ],
          [
            120.708888,
            24.154145
          ],
          [
            120.708781,
            24.153981
          ],
          [
            120.708666,
            24.153794
          ],
          [
            120.708608,
            24.153693
          ],
          [
            120.708361,
            24.153267
          ],
          [
            120.70843,
            24.153233
          ],
          [
            120.70843,
            24.153233
          ],
          [
            120.708361,
            24.153267
          ],
          [
            120.708608,
            24.153693
          ],
          [
            120.708666,
            24.153794
          ],
          [
            120.708781,
            24.153981
          ],
          [
            120.708863,
            24.154106
          ],
          [
            120.708863,
            24.154106
          ],
          [
            120.708888,
            24.154145
          ],
          [
            120.708885,
            24.154247
          ],
          [
            120.708445,
            24.154216
          ],
          [
            120.708195,
            24.154175
          ],
          [
            120.70816,
            24.154174
          ],
          [
            120.708021,
            24.154173
          ],
          [
            120.707435,
            24.154168
          ],
          [
            120.707384,
            24.154164
          ],
          [
            120.707384,
            24.154164
          ],
          [
            120.706605,
            24.154103
          ],
          [
            120.70657,
            24.154402
          ],
          [
            120.70657,
            24.154402
          ],
          [
            120.706554,
            24.154533
          ],
          [
            120.706528,
            24.154849
          ],
          [
            120.706528,
            24.154849
          ],
          [
            120.706519,
            24.154956
          ],
          [
            120.705859,
            24.154891
          ],
          [
            120.705859,
            24.154891
          ],
          [
            120.706519,
            24.154956
          ],
          [
            120.706487,
            24.155359
          ],
          [
            120.706479,
            24.155473
          ],
          [
            120.706479,
            24.155473
          ],
          [
            120.706487,
            24.155359
          ],
          [
            120.706519,
            24.154956
          ],
          [
            120.70686,
            24.154974
          ],
          [
            120.70686,
            24.154974
          ],
          [
            120.707078,
            24.154986
          ],
          [
            120.707358,
            24.155153
          ],
          [
            120.707501,
            24.154981
          ],
          [
            120.707501,
            24.154981
          ],
          [
            120.707753,
            24.154678
          ],
          [
            120.70816,
            24.154174
          ],
          [
            120.708195,
            24.154175
          ],
          [
            120.708109,
            24.15436
          ],
          [
            120.707832,
            24.154701
          ],
          [
            120.707412,
            24.155191
          ],
          [
            120.707438,
            24.155211
          ],
          [
            120.707821,
            24.155478
          ],
          [
            120.707679,
            24.155645
          ],
          [
            120.707679,
            24.155645
          ],
          [
            120.707821,
            24.155478
          ],
          [
            120.708227,
            24.154983
          ],
          [
            120.708483,
            24.154693
          ],
          [
            120.70852,
            24.154638
          ],
          [
            120.708791,
            24.154678
          ],
          [
            120.708885,
            24.154247
          ],
          [
            120.709295,
            24.15439
          ],
          [
            120.709295,
            24.15439
          ],
          [
            120.709965,
            24.154623
          ],
          [
            120.710083,
            24.15466
          ],
          [
            120.710053,
            24.154778
          ],
          [
            120.710024,
            24.154892
          ],
          [
            120.710025,
            24.155136
          ],
          [
            120.710074,
            24.155283
          ],
          [
            120.710137,
            24.155526
          ],
          [
            120.710152,
            24.155621
          ],
          [
            120.710196,
            24.155905
          ],
          [
            120.709948,
            24.155746
          ],
          [
            120.709948,
            24.155746
          ],
          [
            120.70991,
            24.155722
          ],
          [
            120.709568,
            24.155889
          ],
          [
            120.709525,
            24.155905
          ],
          [
            120.709147,
            24.156041
          ],
          [
            120.70907,
            24.15607
          ],
          [
            120.708817,
            24.156185
          ],
          [
            120.708817,
            24.156185
          ],
          [
            120.70907,
            24.15607
          ],
          [
            120.709147,
            24.156041
          ],
          [
            120.709525,
            24.155905
          ],
          [
            120.709568,
            24.155889
          ],
          [
            120.70991,
            24.155722
          ],
          [
            120.709943,
            24.155604
          ],
          [
            120.709961,
            24.15548
          ],
          [
            120.709982,
            24.155412
          ],
          [
            120.710074,
            24.155283
          ],
          [
            120.710025,
            24.155136
          ],
          [
            120.710217,
            24.155009
          ],
          [
            120.710511,
            24.154815
          ],
          [
            120.710586,
            24.154872
          ],
          [
            120.710748,
            24.155097
          ],
          [
            120.710748,
            24.155097
          ],
          [
            120.710935,
            24.155357
          ],
          [
            120.710982,
            24.15543
          ],
          [
            120.711056,
            24.155541
          ],
          [
            120.71125,
            24.155884
          ],
          [
            120.710857,
            24.155931
          ],
          [
            120.710208,
            24.155979
          ],
          [
            120.710211,
            24.156106
          ],
          [
            120.710211,
            24.156106
          ],
          [
            120.71022,
            24.156526
          ],
          [
            120.710232,
            24.156976
          ],
          [
            120.710238,
            24.157216
          ],
          [
            120.710241,
            24.157358
          ],
          [
            120.710241,
            24.157358
          ],
          [
            120.710246,
            24.157604
          ],
          [
            120.71026,
            24.158111
          ],
          [
            120.71026,
            24.158111
          ],
          [
            120.710246,
            24.157604
          ],
          [
            120.710238,
            24.157216
          ],
          [
            120.710232,
            24.156976
          ],
          [
            120.710881,
            24.156905
          ],
          [
            120.711241,
            24.156865
          ],
          [
            120.711295,
            24.156939
          ],
          [
            120.71157,
            24.157415
          ],
          [
            120.711643,
            24.157601
          ],
          [
            120.711647,
            24.157732
          ],
          [
            120.711676,
            24.158049
          ],
          [
            120.711676,
            24.158049
          ],
          [
            120.711647,
            24.157732
          ],
          [
            120.71129,
            24.15779
          ],
          [
            120.71129,
            24.15779
          ],
          [
            120.711647,
            24.157732
          ],
          [
            120.712251,
            24.157669
          ],
          [
            120.712094,
            24.15739
          ],
          [
            120.712071,
            24.157355
          ],
          [
            120.711608,
            24.156518
          ],
          [
            120.711446,
            24.156231
          ],
          [
            120.711446,
            24.156231
          ],
          [
            120.711608,
            24.156518
          ],
          [
            120.712071,
            24.157355
          ],
          [
            120.712094,
            24.15739
          ],
          [
            120.712251,
            24.157669
          ],
          [
            120.71258,
            24.158235
          ],
          [
            120.712786,
            24.158173
          ],
          [
            120.712809,
            24.158253
          ],
          [
            120.712877,
            24.158494
          ],
          [
            120.71297,
            24.15882
          ],
          [
            120.71302,
            24.159
          ],
          [
            120.713252,
            24.159876
          ],
          [
            120.713469,
            24.160683
          ],
          [
            120.71352,
            24.16082
          ],
          [
            120.713697,
            24.161333
          ],
          [
            120.71378,
            24.161603
          ],
          [
            120.713882,
            24.162
          ],
          [
            120.713926,
            24.162147
          ],
          [
            120.714064,
            24.162545
          ],
          [
            120.714094,
            24.162629
          ],
          [
            120.714097,
            24.162639
          ],
          [
            120.714179,
            24.16288
          ],
          [
            120.714201,
            24.162918
          ],
          [
            120.714223,
            24.162957
          ],
          [
            120.714332,
            24.163121
          ],
          [
            120.714403,
            24.163241
          ],
          [
            120.714656,
            24.163568
          ],
          [
            120.714684,
            24.163604
          ],
          [
            120.715028,
            24.164113
          ],
          [
            120.717122,
            24.163571
          ],
          [
            120.719156,
            24.163073
          ],
          [
            120.719495,
            24.162978
          ],
          [
            120.719744,
            24.162912
          ],
          [
            120.720004,
            24.162842
          ],
          [
            120.721453,
            24.162455
          ],
          [
            120.721614,
            24.16239
          ],
          [
            120.72179,
            24.162339
          ],
          [
            120.722379,
            24.162197
          ],
          [
            120.723112,
            24.16201
          ],
          [
            120.724044,
            24.161772
          ],
          [
            120.724985,
            24.161532
          ],
          [
            120.727116,
            24.16099
          ],
          [
            120.72747,
            24.160899
          ],
          [
            120.727547,
            24.160879
          ],
          [
            120.72767,
            24.160855
          ],
          [
            120.727732,
            24.160829
          ],
          [
            120.72777,
            24.160814
          ],
          [
            120.728144,
            24.160771
          ],
          [
            120.728352,
            24.160757
          ],
          [
            120.728659,
            24.160754
          ],
          [
            120.728755,
            24.160759
          ],
          [
            120.728945,
            24.160765
          ],
          [
            120.731506,
            24.160877
          ],
          [
            120.733295,
            24.160992
          ],
          [
            120.733331,
            24.160887
          ],
          [
            120.733636,
            24.16
          ],
          [
            120.733655,
            24.159919
          ],
          [
            120.733722,
            24.159613
          ],
          [
            120.733755,
            24.159487
          ],
          [
            120.733765,
            24.159355
          ],
          [
            120.7337,
            24.158561
          ],
          [
            120.733706,
            24.158465
          ],
          [
            120.733772,
            24.158365
          ],
          [
            120.733736,
            24.15747
          ],
          [
            120.733727,
            24.157376
          ],
          [
            120.733718,
            24.156941
          ],
          [
            120.733706,
            24.156653
          ],
          [
            120.733693,
            24.156132
          ],
          [
            120.733684,
            24.156087
          ],
          [
            120.733653,
            24.155634
          ],
          [
            120.733633,
            24.155497
          ],
          [
            120.733564,
            24.154968
          ],
          [
            120.733526,
            24.154619
          ],
          [
            120.733515,
            24.154389
          ],
          [
            120.733471,
            24.153856
          ],
          [
            120.733434,
            24.153407
          ],
          [
            120.733392,
            24.153064
          ],
          [
            120.733374,
            24.152861
          ],
          [
            120.733362,
            24.152716
          ],
          [
            120.733339,
            24.152354
          ],
          [
            120.733327,
            24.152201
          ],
          [
            120.7333,
            24.151878
          ],
          [
            120.733265,
            24.151453
          ],
          [
            120.733233,
            24.151146
          ],
          [
            120.7332,
            24.150524
          ],
          [
            120.733633,
            24.150513
          ],
          [
            120.734037,
            24.150499
          ],
          [
            120.734119,
            24.150478
          ],
          [
            120.734232,
            24.150404
          ],
          [
            120.734315,
            24.15029
          ],
          [
            120.734325,
            24.149905
          ],
          [
            120.734327,
            24.149733
          ],
          [
            120.734319,
            24.149482
          ],
          [
            120.734302,
            24.149233
          ],
          [
            120.734274,
            24.14866
          ],
          [
            120.734271,
            24.148599
          ],
          [
            120.734176,
            24.148352
          ],
          [
            120.734001,
            24.147826
          ],
          [
            120.733687,
            24.146876
          ],
          [
            120.73352,
            24.146378
          ],
          [
            120.733513,
            24.146206
          ],
          [
            120.733565,
            24.146086
          ],
          [
            120.733613,
            24.146023
          ],
          [
            120.733679,
            24.14596
          ],
          [
            120.733984,
            24.145787
          ],
          [
            120.734099,
            24.145717
          ],
          [
            120.734298,
            24.14558
          ],
          [
            120.73434,
            24.145511
          ],
          [
            120.734359,
            24.145415
          ],
          [
            120.73439,
            24.145025
          ],
          [
            120.7344,
            24.144787
          ],
          [
            120.73439,
            24.144537
          ],
          [
            120.73436,
            24.144372
          ],
          [
            120.734279,
            24.144137
          ],
          [
            120.734138,
            24.143934
          ],
          [
            120.733766,
            24.143334
          ],
          [
            120.733675,
            24.143209
          ],
          [
            120.733287,
            24.142585
          ],
          [
            120.732915,
            24.142038
          ],
          [
            120.732851,
            24.141943
          ],
          [
            120.732653,
            24.141667
          ],
          [
            120.732636,
            24.141624
          ],
          [
            120.732375,
            24.141189
          ],
          [
            120.732156,
            24.140904
          ],
          [
            120.731998,
            24.140716
          ],
          [
            120.731937,
            24.140649
          ],
          [
            120.731776,
            24.140471
          ],
          [
            120.731606,
            24.140273
          ],
          [
            120.731604,
            24.140269
          ],
          [
            120.731536,
            24.140019
          ],
          [
            120.731521,
            24.139956
          ],
          [
            120.731528,
            24.139811
          ],
          [
            120.731543,
            24.139711
          ],
          [
            120.731574,
            24.13962
          ],
          [
            120.7316,
            24.139564
          ],
          [
            120.731631,
            24.139511
          ],
          [
            120.731671,
            24.139454
          ],
          [
            120.731707,
            24.139411
          ],
          [
            120.731834,
            24.139263
          ],
          [
            120.732189,
            24.1389
          ],
          [
            120.732358,
            24.138725
          ],
          [
            120.732418,
            24.138651
          ],
          [
            120.732444,
            24.138599
          ],
          [
            120.73246,
            24.138545
          ],
          [
            120.732461,
            24.138453
          ],
          [
            120.732455,
            24.137576
          ],
          [
            120.73244,
            24.137044
          ],
          [
            120.732446,
            24.136725
          ],
          [
            120.732542,
            24.135922
          ],
          [
            120.732603,
            24.135452
          ],
          [
            120.732683,
            24.134927
          ],
          [
            120.732732,
            24.134699
          ],
          [
            120.733242,
            24.13462
          ],
          [
            120.733568,
            24.134565
          ],
          [
            120.733644,
            24.134555
          ],
          [
            120.733706,
            24.134538
          ],
          [
            120.734018,
            24.134438
          ],
          [
            120.734424,
            24.134302
          ],
          [
            120.73479,
            24.134173
          ],
          [
            120.735068,
            24.134075
          ],
          [
            120.735142,
            24.134034
          ],
          [
            120.735201,
            24.133995
          ],
          [
            120.735294,
            24.133921
          ],
          [
            120.735492,
            24.133734
          ],
          [
            120.73555,
            24.13367
          ],
          [
            120.735913,
            24.133332
          ],
          [
            120.736141,
            24.133122
          ],
          [
            120.737694,
            24.131638
          ],
          [
            120.737771,
            24.131564
          ],
          [
            120.73789,
            24.13147
          ],
          [
            120.737957,
            24.131432
          ],
          [
            120.738045,
            24.131383
          ],
          [
            120.738566,
            24.131191
          ],
          [
            120.738866,
            24.131105
          ],
          [
            120.739059,
            24.131062
          ],
          [
            120.739446,
            24.131041
          ],
          [
            120.740925,
            24.131041
          ],
          [
            120.741098,
            24.131041
          ],
          [
            120.74127,
            24.131041
          ],
          [
            120.742063,
            24.131019
          ],
          [
            120.742836,
            24.131019
          ],
          [
            120.743222,
            24.130998
          ],
          [
            120.744252,
            24.130869
          ],
          [
            120.744445,
            24.130804
          ],
          [
            120.744638,
            24.13074
          ],
          [
            120.744746,
            24.130676
          ],
          [
            120.744896,
            24.130568
          ],
          [
            120.744982,
            24.130483
          ],
          [
            120.745153,
            24.130096
          ],
          [
            120.745304,
            24.129624
          ],
          [
            120.745346,
            24.129538
          ],
          [
            120.745389,
            24.129453
          ],
          [
            120.745583,
            24.129238
          ],
          [
            120.745754,
            24.129045
          ],
          [
            120.74672,
            24.127972
          ],
          [
            120.747483,
            24.126995
          ],
          [
            120.747943,
            24.126406
          ],
          [
            120.748501,
            24.125655
          ],
          [
            120.748694,
            24.125333
          ],
          [
            120.748866,
            24.124989
          ],
          [
            120.749145,
            24.124346
          ],
          [
            120.749209,
            24.124217
          ],
          [
            120.749819,
            24.123665
          ],
          [
            120.750039,
            24.123459
          ],
          [
            120.750493,
            24.123131
          ],
          [
            120.750732,
            24.122908
          ],
          [
            120.751387,
            24.122152
          ],
          [
            120.751735,
            24.121781
          ],
          [
            120.751784,
            24.121728
          ],
          [
            120.752106,
            24.121428
          ],
          [
            120.752385,
            24.121235
          ],
          [
            120.75275,
            24.121063
          ],
          [
            120.752986,
            24.120999
          ],
          [
            120.75373,
            24.120874
          ],
          [
            120.75395,
            24.120842
          ],
          [
            120.754146,
            24.120854
          ],
          [
            120.754422,
            24.120955
          ],
          [
            120.754543,
            24.121038
          ],
          [
            120.75481,
            24.121342
          ],
          [
            120.754917,
            24.121428
          ],
          [
            120.755003,
            24.121471
          ],
          [
            120.755175,
            24.121492
          ],
          [
            120.75539,
            24.121471
          ],
          [
            120.75614,
            24.121127
          ],
          [
            120.756269,
            24.12102
          ],
          [
            120.756634,
            24.120655
          ],
          [
            120.756741,
            24.120526
          ],
          [
            120.75687,
            24.120312
          ],
          [
            120.756955,
            24.120033
          ],
          [
            120.757127,
            24.119239
          ],
          [
            120.757149,
            24.119089
          ],
          [
            120.757149,
            24.11881
          ],
          [
            120.757127,
            24.11866
          ],
          [
            120.757041,
            24.118274
          ],
          [
            120.757041,
            24.11808
          ],
          [
            120.757063,
            24.117994
          ],
          [
            120.757127,
            24.117887
          ],
          [
            120.757191,
            24.117844
          ],
          [
            120.757225,
            24.117819
          ],
          [
            120.757277,
            24.11778
          ],
          [
            120.757385,
            24.117737
          ],
          [
            120.757621,
            24.117694
          ],
          [
            120.758286,
            24.117716
          ],
          [
            120.758436,
            24.117694
          ],
          [
            120.758608,
            24.117608
          ],
          [
            120.759037,
            24.117329
          ],
          [
            120.762363,
            24.115141
          ],
          [
            120.762693,
            24.114863
          ],
          [
            120.762824,
            24.114745
          ],
          [
            120.762846,
            24.114654
          ],
          [
            120.762824,
            24.114492
          ],
          [
            120.762729,
            24.114287
          ],
          [
            120.762582,
            24.114016
          ],
          [
            120.762333,
            24.113543
          ],
          [
            120.762324,
            24.113523
          ],
          [
            120.762318,
            24.113507
          ],
          [
            120.762318,
            24.113475
          ],
          [
            120.762338,
            24.113445
          ],
          [
            120.762368,
            24.113416
          ],
          [
            120.763049,
            24.112844
          ],
          [
            120.763607,
            24.112372
          ],
          [
            120.763736,
            24.112244
          ],
          [
            120.763779,
            24.112179
          ],
          [
            120.764251,
            24.11087
          ],
          [
            120.764358,
            24.110613
          ],
          [
            120.764916,
            24.109926
          ],
          [
            120.765045,
            24.109733
          ],
          [
            120.765384,
            24.10922
          ],
          [
            120.765458,
            24.109087
          ],
          [
            120.765839,
            24.108446
          ],
          [
            120.765903,
            24.108274
          ],
          [
            120.765946,
            24.108102
          ],
          [
            120.765939,
            24.107811
          ],
          [
            120.765932,
            24.107475
          ],
          [
            120.76601,
            24.107137
          ],
          [
            120.76602,
            24.107101
          ],
          [
            120.766071,
            24.106875
          ],
          [
            120.766147,
            24.106688
          ],
          [
            120.766847,
            24.105678
          ],
          [
            120.766954,
            24.105549
          ],
          [
            120.767126,
            24.10542
          ],
          [
            120.767362,
            24.105291
          ],
          [
            120.767834,
            24.105205
          ],
          [
            120.768027,
            24.105163
          ],
          [
            120.768462,
            24.104925
          ],
          [
            120.768499,
            24.104905
          ],
          [
            120.769068,
            24.10466
          ],
          [
            120.770559,
            24.103897
          ],
          [
            120.771627,
            24.103344
          ],
          [
            120.77166,
            24.103326
          ],
          [
            120.771906,
            24.10319
          ],
          [
            120.772135,
            24.103084
          ],
          [
            120.772303,
            24.103029
          ],
          [
            120.772426,
            24.103013
          ],
          [
            120.77253,
            24.103009
          ],
          [
            120.772764,
            24.103009
          ],
          [
            120.772808,
            24.103013
          ],
          [
            120.773025,
            24.103029
          ],
          [
            120.773222,
            24.103081
          ],
          [
            120.773427,
            24.10312
          ],
          [
            120.774057,
            24.103103
          ],
          [
            120.774241,
            24.103105
          ],
          [
            120.774376,
            24.103125
          ],
          [
            120.774486,
            24.103167
          ],
          [
            120.774593,
            24.103231
          ],
          [
            120.774679,
            24.103296
          ],
          [
            120.774722,
            24.103382
          ],
          [
            120.774787,
            24.103596
          ],
          [
            120.774808,
            24.103703
          ],
          [
            120.774829,
            24.103875
          ],
          [
            120.774808,
            24.104047
          ],
          [
            120.774642,
            24.104677
          ],
          [
            120.774603,
            24.104923
          ],
          [
            120.774618,
            24.105138
          ],
          [
            120.774626,
            24.105189
          ],
          [
            120.774658,
            24.105238
          ],
          [
            120.774702,
            24.105276
          ],
          [
            120.77475,
            24.105297
          ],
          [
            120.774799,
            24.105308
          ],
          [
            120.774874,
            24.105306
          ],
          [
            120.775105,
            24.105263
          ],
          [
            120.775202,
            24.105266
          ],
          [
            120.775248,
            24.105279
          ],
          [
            120.7753,
            24.105304
          ],
          [
            120.775368,
            24.105346
          ],
          [
            120.775795,
            24.105699
          ],
          [
            120.775967,
            24.10572
          ],
          [
            120.776342,
            24.105719
          ],
          [
            120.776492,
            24.105762
          ],
          [
            120.776621,
            24.105869
          ],
          [
            120.777469,
            24.106579
          ],
          [
            120.777876,
            24.106901
          ],
          [
            120.778177,
            24.107072
          ],
          [
            120.778285,
            24.10712
          ],
          [
            120.778713,
            24.107308
          ],
          [
            120.778949,
            24.107416
          ],
          [
            120.779014,
            24.107459
          ],
          [
            120.779486,
            24.107909
          ],
          [
            120.779958,
            24.108317
          ],
          [
            120.780044,
            24.108446
          ],
          [
            120.780065,
            24.108553
          ],
          [
            120.780065,
            24.108875
          ],
          [
            120.780086,
            24.108961
          ],
          [
            120.780129,
            24.109004
          ],
          [
            120.780194,
            24.109046
          ],
          [
            120.78028,
            24.109068
          ],
          [
            120.780376,
            24.109083
          ],
          [
            120.780511,
            24.109213
          ],
          [
            120.78084,
            24.109563
          ],
          [
            120.780945,
            24.109679
          ],
          [
            120.78131,
            24.110151
          ],
          [
            120.781546,
            24.11042
          ],
          [
            120.781653,
            24.110699
          ],
          [
            120.781696,
            24.111407
          ],
          [
            120.781674,
            24.111514
          ],
          [
            120.781546,
            24.111922
          ],
          [
            120.781567,
            24.111976
          ],
          [
            120.781589,
            24.112029
          ],
          [
            120.781878,
            24.112501
          ],
          [
            120.781996,
            24.112694
          ],
          [
            120.782125,
            24.112844
          ],
          [
            120.782275,
            24.112973
          ],
          [
            120.782468,
            24.113102
          ],
          [
            120.782919,
            24.113252
          ],
          [
            120.783096,
            24.113318
          ],
          [
            120.783182,
            24.113383
          ],
          [
            120.783353,
            24.113554
          ],
          [
            120.783648,
            24.113982
          ],
          [
            120.78382,
            24.114218
          ],
          [
            120.784008,
            24.114416
          ],
          [
            120.784308,
            24.114673
          ],
          [
            120.78466,
            24.114916
          ],
          [
            120.784882,
            24.11511
          ],
          [
            120.785311,
            24.115327
          ],
          [
            120.785623,
            24.115398
          ],
          [
            120.786202,
            24.115549
          ],
          [
            120.78661,
            24.115612
          ],
          [
            120.786889,
            24.115655
          ],
          [
            120.787189,
            24.115698
          ],
          [
            120.787532,
            24.115612
          ],
          [
            120.787661,
            24.115612
          ],
          [
            120.788219,
            24.115784
          ],
          [
            120.788391,
            24.115827
          ],
          [
            120.78867,
            24.115913
          ],
          [
            120.788873,
            24.115955
          ],
          [
            120.789119,
            24.115997
          ],
          [
            120.789261,
            24.116066
          ],
          [
            120.789335,
            24.116113
          ],
          [
            120.789616,
            24.116418
          ],
          [
            120.790764,
            24.117626
          ],
          [
            120.790937,
            24.117779
          ],
          [
            120.791073,
            24.11793
          ],
          [
            120.791266,
            24.118059
          ],
          [
            120.791513,
            24.118173
          ],
          [
            120.791892,
            24.118252
          ],
          [
            120.791995,
            24.118273
          ],
          [
            120.792317,
            24.118359
          ],
          [
            120.792403,
            24.118359
          ],
          [
            120.792575,
            24.118359
          ],
          [
            120.792983,
            24.118252
          ],
          [
            120.793197,
            24.118273
          ],
          [
            120.793369,
            24.118381
          ],
          [
            120.793605,
            24.118617
          ],
          [
            120.793648,
            24.118638
          ],
          [
            120.793691,
            24.118638
          ],
          [
            120.793798,
            24.118638
          ],
          [
            120.794098,
            24.118509
          ],
          [
            120.794163,
            24.118488
          ],
          [
            120.794313,
            24.118488
          ],
          [
            120.79457,
            24.118574
          ],
          [
            120.794635,
            24.118574
          ],
          [
            120.794892,
            24.118531
          ],
          [
            120.794927,
            24.118281
          ],
          [
            120.795013,
            24.117906
          ],
          [
            120.794885,
            24.117881
          ],
          [
            120.794873,
            24.117798
          ],
          [
            120.794846,
            24.117665
          ],
          [
            120.794824,
            24.117401
          ],
          [
            120.794996,
            24.11719
          ],
          [
            120.795129,
            24.1169
          ],
          [
            120.795251,
            24.116914
          ],
          [
            120.795445,
            24.117096
          ],
          [
            120.795651,
            24.11713
          ],
          [
            120.795651,
            24.11713
          ],
          [
            120.795818,
            24.117057
          ],
          [
            120.795991,
            24.117011
          ],
          [
            120.796175,
            24.117051
          ],
          [
            120.796354,
            24.117089
          ],
          [
            120.796341,
            24.117201
          ],
          [
            120.796351,
            24.117378
          ],
          [
            120.796437,
            24.117522
          ],
          [
            120.79603,
            24.117694
          ],
          [
            120.795879,
            24.117801
          ],
          [
            120.795729,
            24.117951
          ],
          [
            120.79545,
            24.118295
          ],
          [
            120.795322,
            24.118402
          ],
          [
            120.795128,
            24.118466
          ],
          [
            120.794892,
            24.118531
          ],
          [
            120.794635,
            24.118574
          ],
          [
            120.79457,
            24.118574
          ],
          [
            120.794313,
            24.118488
          ],
          [
            120.794163,
            24.118488
          ],
          [
            120.794098,
            24.118509
          ],
          [
            120.793798,
            24.118638
          ],
          [
            120.793691,
            24.118638
          ],
          [
            120.793648,
            24.118638
          ],
          [
            120.793605,
            24.118617
          ],
          [
            120.793369,
            24.118381
          ],
          [
            120.793197,
            24.118273
          ],
          [
            120.792983,
            24.118252
          ],
          [
            120.792575,
            24.118359
          ],
          [
            120.792403,
            24.118359
          ],
          [
            120.792317,
            24.118359
          ],
          [
            120.791995,
            24.118273
          ],
          [
            120.791892,
            24.118252
          ],
          [
            120.791513,
            24.118173
          ],
          [
            120.791266,
            24.118059
          ],
          [
            120.791073,
            24.11793
          ],
          [
            120.79098,
            24.117894
          ],
          [
            120.790803,
            24.117732
          ],
          [
            120.790365,
            24.117304
          ],
          [
            120.789797,
            24.116691
          ],
          [
            120.789278,
            24.116158
          ],
          [
            120.789045,
            24.116045
          ],
          [
            120.788873,
            24.115955
          ],
          [
            120.78867,
            24.115913
          ],
          [
            120.788391,
            24.115827
          ],
          [
            120.788219,
            24.115784
          ],
          [
            120.787661,
            24.115612
          ],
          [
            120.787532,
            24.115612
          ],
          [
            120.787189,
            24.115698
          ],
          [
            120.786889,
            24.115655
          ],
          [
            120.78661,
            24.115612
          ],
          [
            120.786202,
            24.115549
          ],
          [
            120.785623,
            24.115398
          ],
          [
            120.785311,
            24.115327
          ],
          [
            120.784882,
            24.11511
          ],
          [
            120.78466,
            24.114916
          ],
          [
            120.784308,
            24.114673
          ],
          [
            120.784008,
            24.114416
          ],
          [
            120.78382,
            24.114218
          ],
          [
            120.783648,
            24.113982
          ],
          [
            120.783353,
            24.113554
          ],
          [
            120.783182,
            24.113383
          ],
          [
            120.783096,
            24.113318
          ],
          [
            120.782919,
            24.113252
          ],
          [
            120.782468,
            24.113102
          ],
          [
            120.782275,
            24.112973
          ],
          [
            120.782125,
            24.112844
          ],
          [
            120.781996,
            24.112694
          ],
          [
            120.781878,
            24.112501
          ],
          [
            120.781589,
            24.112029
          ],
          [
            120.781567,
            24.111976
          ],
          [
            120.781546,
            24.111922
          ],
          [
            120.781674,
            24.111514
          ],
          [
            120.781696,
            24.111407
          ],
          [
            120.781653,
            24.110699
          ],
          [
            120.781546,
            24.11042
          ],
          [
            120.78131,
            24.110151
          ],
          [
            120.780945,
            24.109679
          ],
          [
            120.78084,
            24.109563
          ],
          [
            120.780511,
            24.109213
          ],
          [
            120.780376,
            24.109083
          ],
          [
            120.78028,
            24.109068
          ],
          [
            120.780194,
            24.109046
          ],
          [
            120.780129,
            24.109004
          ],
          [
            120.780086,
            24.108961
          ],
          [
            120.780065,
            24.108875
          ],
          [
            120.780065,
            24.108553
          ],
          [
            120.780044,
            24.108446
          ],
          [
            120.779958,
            24.108317
          ],
          [
            120.779486,
            24.107909
          ],
          [
            120.779014,
            24.107459
          ],
          [
            120.778949,
            24.107416
          ],
          [
            120.778713,
            24.107308
          ],
          [
            120.7783,
            24.107127
          ],
          [
            120.778285,
            24.10712
          ],
          [
            120.778177,
            24.107072
          ],
          [
            120.777876,
            24.106901
          ],
          [
            120.777469,
            24.106579
          ],
          [
            120.776621,
            24.105869
          ],
          [
            120.776492,
            24.105762
          ],
          [
            120.776342,
            24.105719
          ],
          [
            120.775967,
            24.10572
          ],
          [
            120.775795,
            24.105699
          ],
          [
            120.775368,
            24.105346
          ],
          [
            120.7753,
            24.105304
          ],
          [
            120.775248,
            24.105279
          ],
          [
            120.775202,
            24.105266
          ],
          [
            120.775105,
            24.105263
          ],
          [
            120.774874,
            24.105306
          ],
          [
            120.774799,
            24.105308
          ],
          [
            120.77475,
            24.105297
          ],
          [
            120.774702,
            24.105276
          ],
          [
            120.774658,
            24.105238
          ],
          [
            120.774626,
            24.105189
          ],
          [
            120.774618,
            24.105138
          ],
          [
            120.774603,
            24.104923
          ],
          [
            120.774642,
            24.104677
          ],
          [
            120.774808,
            24.104047
          ],
          [
            120.774829,
            24.103875
          ],
          [
            120.774808,
            24.103703
          ],
          [
            120.774787,
            24.103596
          ],
          [
            120.774722,
            24.103382
          ],
          [
            120.774679,
            24.103296
          ],
          [
            120.774593,
            24.103231
          ],
          [
            120.774486,
            24.103167
          ],
          [
            120.774376,
            24.103125
          ],
          [
            120.774241,
            24.103105
          ],
          [
            120.774057,
            24.103103
          ],
          [
            120.773427,
            24.10312
          ],
          [
            120.773222,
            24.103081
          ],
          [
            120.773025,
            24.103029
          ],
          [
            120.772808,
            24.103013
          ],
          [
            120.772764,
            24.103009
          ],
          [
            120.77253,
            24.103009
          ],
          [
            120.772426,
            24.103013
          ],
          [
            120.772303,
            24.103029
          ],
          [
            120.772135,
            24.103084
          ],
          [
            120.771906,
            24.10319
          ],
          [
            120.771799,
            24.103249
          ],
          [
            120.77166,
            24.103326
          ],
          [
            120.771627,
            24.103344
          ],
          [
            120.770559,
            24.103897
          ],
          [
            120.769068,
            24.10466
          ],
          [
            120.768499,
            24.104905
          ],
          [
            120.768462,
            24.104925
          ],
          [
            120.768027,
            24.105163
          ],
          [
            120.767834,
            24.105205
          ],
          [
            120.767362,
            24.105291
          ],
          [
            120.767126,
            24.10542
          ],
          [
            120.766954,
            24.105549
          ],
          [
            120.766847,
            24.105678
          ],
          [
            120.766147,
            24.106688
          ],
          [
            120.766071,
            24.106875
          ],
          [
            120.76602,
            24.107101
          ],
          [
            120.76601,
            24.107137
          ],
          [
            120.765932,
            24.107475
          ],
          [
            120.765939,
            24.107811
          ],
          [
            120.765946,
            24.108102
          ],
          [
            120.765903,
            24.108274
          ],
          [
            120.765839,
            24.108446
          ],
          [
            120.765458,
            24.109087
          ],
          [
            120.765384,
            24.10922
          ],
          [
            120.765045,
            24.109733
          ],
          [
            120.764916,
            24.109926
          ],
          [
            120.764358,
            24.110613
          ],
          [
            120.764251,
            24.11087
          ],
          [
            120.763779,
            24.112179
          ],
          [
            120.763736,
            24.112244
          ],
          [
            120.763607,
            24.112372
          ],
          [
            120.763049,
            24.112844
          ],
          [
            120.762368,
            24.113416
          ],
          [
            120.762338,
            24.113445
          ],
          [
            120.762318,
            24.113475
          ],
          [
            120.762318,
            24.113507
          ],
          [
            120.762324,
            24.113523
          ],
          [
            120.762333,
            24.113543
          ],
          [
            120.762582,
            24.114016
          ],
          [
            120.762729,
            24.114287
          ],
          [
            120.762824,
            24.114492
          ],
          [
            120.762846,
            24.114654
          ],
          [
            120.762824,
            24.114745
          ],
          [
            120.762693,
            24.114863
          ],
          [
            120.762363,
            24.115141
          ],
          [
            120.759037,
            24.117329
          ],
          [
            120.758608,
            24.117608
          ],
          [
            120.758436,
            24.117694
          ],
          [
            120.758286,
            24.117716
          ],
          [
            120.757621,
            24.117694
          ],
          [
            120.757385,
            24.117737
          ],
          [
            120.757277,
            24.11778
          ],
          [
            120.757225,
            24.117819
          ],
          [
            120.757191,
            24.117844
          ],
          [
            120.757127,
            24.117887
          ],
          [
            120.757063,
            24.117994
          ],
          [
            120.757041,
            24.11808
          ],
          [
            120.757041,
            24.118274
          ],
          [
            120.757127,
            24.11866
          ],
          [
            120.757149,
            24.11881
          ],
          [
            120.757149,
            24.119089
          ],
          [
            120.757127,
            24.119239
          ],
          [
            120.756955,
            24.120033
          ],
          [
            120.75687,
            24.120312
          ],
          [
            120.756741,
            24.120526
          ],
          [
            120.756634,
            24.120655
          ],
          [
            120.756269,
            24.12102
          ],
          [
            120.75614,
            24.121127
          ],
          [
            120.75539,
            24.121471
          ],
          [
            120.755175,
            24.121492
          ],
          [
            120.755003,
            24.121471
          ],
          [
            120.754917,
            24.121428
          ],
          [
            120.75481,
            24.121342
          ],
          [
            120.754543,
            24.121038
          ],
          [
            120.754422,
            24.120955
          ],
          [
            120.754146,
            24.120854
          ],
          [
            120.75395,
            24.120842
          ],
          [
            120.75373,
            24.120874
          ],
          [
            120.752986,
            24.120999
          ],
          [
            120.75275,
            24.121063
          ],
          [
            120.752385,
            24.121235
          ],
          [
            120.752106,
            24.121428
          ],
          [
            120.751784,
            24.121728
          ],
          [
            120.751735,
            24.121781
          ],
          [
            120.751387,
            24.122152
          ],
          [
            120.750732,
            24.122908
          ],
          [
            120.751269,
            24.12323
          ],
          [
            120.751462,
            24.123337
          ],
          [
            120.751634,
            24.123402
          ],
          [
            120.751827,
            24.123466
          ],
          [
            120.752213,
            24.123552
          ],
          [
            120.752664,
            24.123552
          ],
          [
            120.752731,
            24.122992
          ],
          [
            120.752739,
            24.122925
          ]
        ]
      },
      "properties": {
        "routeId": "taichung-048-q3-af5ba8-d2",
        "city": "taichung",
        "source_file": "taichung/taichung-048-q3-af5ba8-d2.geojson",
        "distance_km": 36.674,
        "duration_min": 69.43018333333333,
        "valhalla_config": "valhalla.json"
      }
    }
  ]
}