{
  "type": "FeatureCollection",
  "features": [
    {
      "type": "Feature",
      "geometry": {
        "type": "LineString",
        "coordinates": [
          [
            120.654172,
            24.156234
          ],
          [
            120.654172,
            24.156234
          ],
          [
            120.65459,
            24.156872
          ],
          [
            120.654762,
            24.156779
          ],
          [
            120.654762,
            24.156779
          ],
          [
            120.65459,
            24.156872
          ],
          [
            120.655146,
            24.15776
          ],
          [
            120.655146,
            24.15776
          ],
          [
            120.655348,
            24.158082
          ],
          [
            120.655482,
            24.158284
          ],
          [
            120.655482,
            24.158284
          ],
          [
            120.655709,
            24.158626
          ],
          [
            120.655709,
            24.158626
          ],
          [
            120.655348,
            24.158082
          ],
          [
            120.65459,
            24.156872
          ],
          [
            120.653853,
            24.157277
          ],
          [
            120.653697,
            24.157039
          ],
          [
            120.653697,
            24.157039
          ],
          [
            120.653362,
            24.156528
          ],
          [
            120.653362,
            24.156528
          ],
          [
            120.65313,
            24.156174
          ],
          [
            120.652519,
            24.156516
          ],
          [
            120.652118,
            24.156742
          ],
          [
            120.652206,
            24.156879
          ],
          [
            120.652206,
            24.156879
          ],
          [
            120.652118,
            24.156742
          ],
          [
            120.651725,
            24.156962
          ],
          [
            120.651545,
            24.15706
          ],
          [
            120.651545,
            24.15706
          ],
          [
            120.651386,
            24.157147
          ],
          [
            120.651245,
            24.157224
          ],
          [
            120.651245,
            24.157224
          ],
          [
            120.650945,
            24.157388
          ],
          [
            120.651194,
            24.157765
          ],
          [
            120.651194,
            24.157765
          ],
          [
            120.65132,
            24.157955
          ],
          [
            120.651561,
            24.158318
          ],
          [
            120.651561,
            24.158318
          ],
          [
            120.65165,
            24.158453
          ],
          [
            120.651667,
            24.158479
          ],
          [
            120.651727,
            24.158571
          ],
          [
            120.652079,
            24.159114
          ],
          [
            120.652222,
            24.159037
          ],
          [
            120.652222,
            24.159037
          ],
          [
            120.652513,
            24.15888
          ],
          [
            120.652595,
            24.158836
          ],
          [
            120.652595,
            24.158836
          ],
          [
            120.652752,
            24.158751
          ],
          [
            120.652752,
            24.158751
          ],
          [
            120.652875,
            24.158685
          ],
          [
            120.653308,
            24.158445
          ],
          [
            120.653308,
            24.158445
          ],
          [
            120.654271,
            24.157913
          ],
          [
            120.654394,
            24.158101
          ],
          [
            120.654394,
            24.158101
          ],
          [
            120.654639,
            24.158475
          ],
          [
            120.654598,
            24.158498
          ],
          [
            120.65325,
            24.159247
          ],
          [
            120.65278,
            24.159508
          ],
          [
            120.65278,
            24.159508
          ],
          [
            120.65257,
            24.159624
          ],
          [
            120.652452,
            24.159689
          ],
          [
            120.652499,
            24.159761
          ],
          [
            120.652734,
            24.160123
          ],
          [
            120.652892,
            24.160037
          ],
          [
            120.652892,
            24.160037
          ],
          [
            120.652734,
            24.160123
          ],
          [
            120.652976,
            24.160497
          ],
          [
            120.652997,
            24.160529
          ],
          [
            120.653086,
            24.160665
          ],
          [
            120.653146,
            24.160743
          ],
          [
            120.65307,
            24.160786
          ],
          [
            120.652226,
            24.161257
          ],
          [
            120.650332,
            24.162304
          ],
          [
            120.649901,
            24.162546
          ],
          [
            120.649854,
            24.162572
          ],
          [
            120.649696,
            24.162661
          ],
          [
            120.649763,
            24.162756
          ],
          [
            120.649813,
            24.162827
          ],
          [
            120.650055,
            24.163172
          ],
          [
            120.650167,
            24.163332
          ],
          [
            120.65078,
            24.164279
          ],
          [
            120.651556,
            24.165372
          ],
          [
            120.651909,
            24.165778
          ],
          [
            120.652004,
            24.165879
          ],
          [
            120.652598,
            24.166506
          ],
          [
            120.653121,
            24.166343
          ],
          [
            120.653121,
            24.166343
          ],
          [
            120.65339,
            24.16626
          ],
          [
            120.653679,
            24.166176
          ],
          [
            120.653679,
            24.166176
          ],
          [
            120.65402,
            24.166078
          ],
          [
            120.653971,
            24.165964
          ],
          [
            120.653971,
            24.165964
          ],
          [
            120.65402,
            24.166078
          ],
          [
            120.654614,
            24.165905
          ],
          [
            120.654827,
            24.165846
          ],
          [
            120.654827,
            24.165846
          ],
          [
            120.655012,
            24.165795
          ],
          [
            120.655396,
            24.165695
          ],
          [
            120.655532,
            24.165647
          ],
          [
            120.655532,
            24.165647
          ],
          [
            120.655956,
            24.165499
          ],
          [
            120.656306,
            24.165403
          ],
          [
            120.656306,
            24.165403
          ],
          [
            120.656467,
            24.165359
          ],
          [
            120.65698,
            24.165213
          ],
          [
            120.656881,
            24.165042
          ],
          [
            120.656881,
            24.165042
          ],
          [
            120.65698,
            24.165213
          ],
          [
            120.657146,
            24.165178
          ],
          [
            120.657507,
            24.165061
          ],
          [
            120.657451,
            24.164956
          ],
          [
            120.657451,
            24.164956
          ],
          [
            120.657507,
            24.165061
          ],
          [
            120.657818,
            24.164973
          ],
          [
            120.657818,
            24.164973
          ],
          [
            120.658313,
            24.164834
          ],
          [
            120.658221,
            24.164774
          ],
          [
            120.658202,
            24.164736
          ],
          [
            120.658202,
            24.164736
          ],
          [
            120.658221,
            24.164774
          ],
          [
            120.658313,
            24.164834
          ],
          [
            120.658656,
            24.164732
          ],
          [
            120.658656,
            24.164732
          ],
          [
            120.658822,
            24.164683
          ],
          [
            120.658763,
            24.164552
          ],
          [
            120.658763,
            24.164552
          ],
          [
            120.658822,
            24.164683
          ],
          [
            120.659311,
            24.164533
          ],
          [
            120.659441,
            24.164494
          ],
          [
            120.659441,
            24.164494
          ],
          [
            120.660119,
            24.164294
          ],
          [
            120.659468,
            24.16396
          ],
          [
            120.659468,
            24.16396
          ],
          [
            120.659156,
            24.1638
          ],
          [
            120.659156,
            24.1638
          ],
          [
            120.658841,
            24.163638
          ],
          [
            120.658613,
            24.163551
          ],
          [
            120.658572,
            24.163685
          ],
          [
            120.658572,
            24.163685
          ],
          [
            120.658613,
            24.163551
          ],
          [
            120.657902,
            24.163294
          ],
          [
            120.657902,
            24.163294
          ],
          [
            120.657696,
            24.16322
          ],
          [
            120.657665,
            24.16321
          ],
          [
            120.657513,
            24.163165
          ],
          [
            120.657444,
            24.163203
          ],
          [
            120.657398,
            24.163078
          ],
          [
            120.657386,
            24.163046
          ],
          [
            120.657235,
            24.162703
          ],
          [
            120.657235,
            24.162703
          ],
          [
            120.657207,
            24.16264
          ],
          [
            120.657068,
            24.162191
          ],
          [
            120.657068,
            24.162191
          ],
          [
            120.656956,
            24.161828
          ],
          [
            120.656956,
            24.161828
          ],
          [
            120.656886,
            24.1616
          ],
          [
            120.65687,
            24.161548
          ],
          [
            120.656854,
            24.161496
          ],
          [
            120.656746,
            24.161159
          ],
          [
            120.656746,
            24.161159
          ],
          [
            120.656687,
            24.160977
          ],
          [
            120.656616,
            24.160794
          ],
          [
            120.656616,
            24.160794
          ],
          [
            120.656441,
            24.160345
          ],
          [
            120.655879,
            24.160614
          ],
          [
            120.654905,
            24.161083
          ],
          [
            120.654815,
            24.161138
          ],
          [
            120.654759,
            24.161447
          ],
          [
            120.654688,
            24.161804
          ],
          [
            120.654634,
            24.161915
          ],
          [
            120.654548,
            24.162019
          ],
          [
            120.654394,
            24.162143
          ],
          [
            120.654363,
            24.162164
          ],
          [
            120.654363,
            24.162164
          ],
          [
            120.654094,
            24.162348
          ],
          [
            120.654093,
            24.162349
          ],
          [
            120.654093,
            24.162349
          ],
          [
            120.654094,
            24.162348
          ],
          [
            120.654394,
            24.162143
          ],
          [
            120.654548,
            24.162019
          ],
          [
            120.654634,
            24.161915
          ],
          [
            120.654688,
            24.161804
          ],
          [
            120.654759,
            24.161447
          ],
          [
            120.654815,
            24.161138
          ],
          [
            120.654905,
            24.161083
          ],
          [
            120.655604,
            24.160746
          ],
          [
            120.655604,
            24.160746
          ],
          [
            120.655879,
            24.160614
          ],
          [
            120.6558,
            24.160494
          ],
          [
            120.6558,
            24.160494
          ],
          [
            120.655879,
            24.160614
          ],
          [
            120.656441,
            24.160345
          ],
          [
            120.656516,
            24.160537
          ],
          [
            120.656516,
            24.160537
          ],
          [
            120.656687,
            24.160977
          ],
          [
            120.656854,
            24.161496
          ],
          [
            120.65687,
            24.161548
          ],
          [
            120.656886,
            24.1616
          ],
          [
            120.657207,
            24.16264
          ],
          [
            120.657386,
            24.163046
          ],
          [
            120.657398,
            24.163078
          ],
          [
            120.657444,
            24.163203
          ],
          [
            120.657513,
            24.163165
          ],
          [
            120.657587,
            24.16301
          ],
          [
            120.657587,
            24.16301
          ],
          [
            120.657513,
            24.163165
          ],
          [
            120.657665,
            24.16321
          ],
          [
            120.657696,
            24.16322
          ],
          [
            120.658427,
            24.163484
          ],
          [
            120.658427,
            24.163484
          ],
          [
            120.658613,
            24.163551
          ],
          [
            120.658841,
            24.163638
          ],
          [
            120.659142,
            24.163793
          ],
          [
            120.659142,
            24.163793
          ],
          [
            120.659916,
            24.16419
          ],
          [
            120.659916,
            24.16419
          ],
          [
            120.660119,
            24.164294
          ],
          [
            120.660645,
            24.164143
          ],
          [
            120.660567,
            24.164043
          ],
          [
            120.660522,
            24.163978
          ],
          [
            120.660522,
            24.163978
          ],
          [
            120.660567,
            24.164043
          ],
          [
            120.660645,
            24.164143
          ],
          [
            120.660869,
            24.164076
          ],
          [
            120.660817,
            24.163928
          ],
          [
            120.660817,
            24.163928
          ],
          [
            120.660869,
            24.164076
          ],
          [
            120.661364,
            24.163933
          ],
          [
            120.661507,
            24.16389
          ],
          [
            120.661957,
            24.163751
          ],
          [
            120.661957,
            24.163751
          ],
          [
            120.662036,
            24.163726
          ],
          [
            120.662611,
            24.163556
          ],
          [
            120.662164,
            24.163286
          ],
          [
            120.662097,
            24.163246
          ],
          [
            120.662097,
            24.163246
          ],
          [
            120.661801,
            24.163067
          ],
          [
            120.661801,
            24.163067
          ],
          [
            120.661527,
            24.162902
          ],
          [
            120.660903,
            24.162512
          ],
          [
            120.660797,
            24.162676
          ],
          [
            120.660797,
            24.162676
          ],
          [
            120.660903,
            24.162512
          ],
          [
            120.660657,
            24.162342
          ],
          [
            120.660433,
            24.162152
          ],
          [
            120.660246,
            24.161866
          ],
          [
            120.660246,
            24.161866
          ],
          [
            120.660168,
            24.161746
          ],
          [
            120.660084,
            24.161617
          ],
          [
            120.660084,
            24.161617
          ],
          [
            120.659824,
            24.16122
          ],
          [
            120.659381,
            24.160542
          ],
          [
            120.659381,
            24.160542
          ],
          [
            120.659223,
            24.160301
          ],
          [
            120.659223,
            24.160301
          ],
          [
            120.659142,
            24.160177
          ],
          [
            120.658853,
            24.159736
          ],
          [
            120.658681,
            24.159473
          ],
          [
            120.658681,
            24.159473
          ],
          [
            120.658263,
            24.158834
          ],
          [
            120.658065,
            24.158531
          ],
          [
            120.658065,
            24.158531
          ],
          [
            120.657962,
            24.158373
          ],
          [
            120.657914,
            24.1583
          ],
          [
            120.6578,
            24.158361
          ],
          [
            120.657457,
            24.158544
          ],
          [
            120.657457,
            24.158544
          ],
          [
            120.656508,
            24.15905
          ],
          [
            120.656508,
            24.15905
          ],
          [
            120.656243,
            24.159192
          ],
          [
            120.656094,
            24.159279
          ],
          [
            120.655966,
            24.159348
          ],
          [
            120.655649,
            24.159527
          ],
          [
            120.654803,
            24.160004
          ],
          [
            120.654906,
            24.160152
          ],
          [
            120.655112,
            24.160448
          ],
          [
            120.6556,
            24.160186
          ],
          [
            120.656142,
            24.159861
          ],
          [
            120.656291,
            24.159832
          ],
          [
            120.656264,
            24.15973
          ],
          [
            120.656151,
            24.159392
          ],
          [
            120.656094,
            24.159279
          ],
          [
            120.655966,
            24.159348
          ],
          [
            120.655649,
            24.159527
          ],
          [
            120.654803,
            24.160004
          ],
          [
            120.654906,
            24.160152
          ],
          [
            120.654803,
            24.160004
          ],
          [
            120.654249,
            24.160311
          ],
          [
            120.654104,
            24.16039
          ],
          [
            120.654104,
            24.16039
          ],
          [
            120.653854,
            24.160527
          ],
          [
            120.653709,
            24.160606
          ],
          [
            120.653709,
            24.160606
          ],
          [
            120.653354,
            24.1608
          ],
          [
            120.653286,
            24.160845
          ],
          [
            120.653169,
            24.16091
          ],
          [
            120.652402,
            24.161328
          ],
          [
            120.651918,
            24.161596
          ],
          [
            120.652017,
            24.161732
          ],
          [
            120.652017,
            24.161732
          ],
          [
            120.651918,
            24.161596
          ],
          [
            120.651265,
            24.161944
          ],
          [
            120.651265,
            24.161944
          ],
          [
            120.650631,
            24.162282
          ],
          [
            120.650202,
            24.162521
          ],
          [
            120.649954,
            24.162651
          ],
          [
            120.649917,
            24.162671
          ],
          [
            120.649763,
            24.162756
          ],
          [
            120.649813,
            24.162827
          ],
          [
            120.650055,
            24.163172
          ],
          [
            120.650167,
            24.163332
          ],
          [
            120.65078,
            24.164279
          ],
          [
            120.651399,
            24.163926
          ],
          [
            120.651875,
            24.163652
          ],
          [
            120.652138,
            24.163496
          ],
          [
            120.652138,
            24.163496
          ],
          [
            120.652387,
            24.163348
          ],
          [
            120.652907,
            24.163068
          ],
          [
            120.653402,
            24.162776
          ],
          [
            120.653532,
            24.162694
          ],
          [
            120.653606,
            24.162649
          ],
          [
            120.653925,
            24.162446
          ],
          [
            120.654094,
            24.162348
          ],
          [
            120.654394,
            24.162143
          ],
          [
            120.654548,
            24.162019
          ],
          [
            120.654634,
            24.161915
          ],
          [
            120.654688,
            24.161804
          ],
          [
            120.654759,
            24.161447
          ],
          [
            120.654815,
            24.161138
          ],
          [
            120.654905,
            24.161083
          ],
          [
            120.655879,
            24.160614
          ],
          [
            120.6556,
            24.160186
          ],
          [
            120.656128,
            24.159869
          ],
          [
            120.656128,
            24.159869
          ],
          [
            120.656142,
            24.159861
          ],
          [
            120.656291,
            24.159832
          ],
          [
            120.656264,
            24.15973
          ],
          [
            120.656151,
            24.159392
          ],
          [
            120.656094,
            24.159279
          ],
          [
            120.655966,
            24.159348
          ],
          [
            120.654803,
            24.160004
          ],
          [
            120.654249,
            24.160311
          ],
          [
            120.653854,
            24.160527
          ],
          [
            120.653354,
            24.1608
          ],
          [
            120.653286,
            24.160845
          ],
          [
            120.653146,
            24.160743
          ],
          [
            120.653086,
            24.160665
          ],
          [
            120.652997,
            24.160529
          ],
          [
            120.652976,
            24.160497
          ],
          [
            120.652734,
            24.160123
          ],
          [
            120.652499,
            24.159761
          ],
          [
            120.652452,
            24.159689
          ],
          [
            120.65243,
            24.159654
          ],
          [
            120.652079,
            24.159114
          ],
          [
            120.651727,
            24.158571
          ],
          [
            120.651667,
            24.158479
          ],
          [
            120.65165,
            24.158453
          ],
          [
            120.65132,
            24.157955
          ],
          [
            120.650945,
            24.157388
          ],
          [
            120.650319,
            24.15773
          ],
          [
            120.65003,
            24.157286
          ],
          [
            120.650012,
            24.157259
          ],
          [
            120.649403,
            24.157578
          ],
          [
            120.649402,
            24.157578
          ],
          [
            120.649402,
            24.157578
          ],
          [
            120.649403,
            24.157578
          ],
          [
            120.649605,
            24.157472
          ],
          [
            120.649605,
            24.157472
          ],
          [
            120.649896,
            24.15732
          ],
          [
            120.649896,
            24.15732
          ],
          [
            120.650012,
            24.157259
          ],
          [
            120.65003,
            24.157286
          ],
          [
            120.650214,
            24.157569
          ],
          [
            120.650214,
            24.157569
          ],
          [
            120.650319,
            24.15773
          ],
          [
            120.650945,
            24.157388
          ],
          [
            120.651386,
            24.157147
          ],
          [
            120.651725,
            24.156962
          ],
          [
            120.652108,
            24.157536
          ],
          [
            120.652198,
            24.15767
          ],
          [
            120.652315,
            24.157603
          ],
          [
            120.652315,
            24.157603
          ],
          [
            120.652198,
            24.15767
          ],
          [
            120.65245,
            24.158049
          ],
          [
            120.652617,
            24.157957
          ],
          [
            120.652617,
            24.157957
          ],
          [
            120.652998,
            24.157748
          ],
          [
            120.652919,
            24.157636
          ],
          [
            120.652919,
            24.157636
          ],
          [
            120.652695,
            24.157316
          ],
          [
            120.65269,
            24.15727
          ],
          [
            120.652703,
            24.157229
          ],
          [
            120.652738,
            24.157189
          ],
          [
            120.652906,
            24.157096
          ],
          [
            120.65305,
            24.157312
          ],
          [
            120.65305,
            24.157312
          ],
          [
            120.652906,
            24.157096
          ],
          [
            120.652786,
            24.157162
          ],
          [
            120.652786,
            24.157162
          ],
          [
            120.652906,
            24.157096
          ],
          [
            120.652519,
            24.156516
          ],
          [
            120.652118,
            24.156742
          ],
          [
            120.652207,
            24.15688
          ],
          [
            120.652207,
            24.15688
          ],
          [
            120.652118,
            24.156742
          ],
          [
            120.651725,
            24.156962
          ],
          [
            120.651386,
            24.157147
          ],
          [
            120.650945,
            24.157388
          ],
          [
            120.65132,
            24.157955
          ],
          [
            120.65165,
            24.158453
          ],
          [
            120.651667,
            24.158479
          ],
          [
            120.651727,
            24.158571
          ],
          [
            120.652079,
            24.159114
          ],
          [
            120.65243,
            24.159654
          ],
          [
            120.652452,
            24.159689
          ],
          [
            120.652384,
            24.159727
          ],
          [
            120.651819,
            24.160037
          ],
          [
            120.651895,
            24.160152
          ],
          [
            120.651895,
            24.160152
          ],
          [
            120.651819,
            24.160037
          ],
          [
            120.651202,
            24.160376
          ],
          [
            120.651145,
            24.160414
          ],
          [
            120.651201,
            24.160502
          ],
          [
            120.651201,
            24.160502
          ],
          [
            120.651375,
            24.160778
          ],
          [
            120.652101,
            24.160545
          ],
          [
            120.652062,
            24.16042
          ],
          [
            120.652014,
            24.160332
          ],
          [
            120.651819,
            24.160037
          ],
          [
            120.651202,
            24.160376
          ],
          [
            120.651145,
            24.160414
          ],
          [
            120.651045,
            24.160472
          ],
          [
            120.650985,
            24.160505
          ],
          [
            120.650297,
            24.160896
          ],
          [
            120.649787,
            24.160102
          ],
          [
            120.649787,
            24.160102
          ],
          [
            120.649509,
            24.159668
          ],
          [
            120.65019,
            24.159288
          ],
          [
            120.650406,
            24.159173
          ],
          [
            120.650579,
            24.159434
          ],
          [
            120.650579,
            24.159434
          ],
          [
            120.651202,
            24.160376
          ],
          [
            120.651819,
            24.160037
          ],
          [
            120.651569,
            24.159653
          ],
          [
            120.65135,
            24.159317
          ],
          [
            120.651012,
            24.159506
          ],
          [
            120.651012,
            24.159506
          ],
          [
            120.65135,
            24.159317
          ],
          [
            120.651569,
            24.159653
          ],
          [
            120.651183,
            24.159865
          ],
          [
            120.651183,
            24.159865
          ],
          [
            120.651569,
            24.159653
          ],
          [
            120.65135,
            24.159317
          ],
          [
            120.651033,
            24.158828
          ],
          [
            120.650319,
            24.15773
          ],
          [
            120.649702,
            24.158065
          ],
          [
            120.649471,
            24.158196
          ],
          [
            120.649146,
            24.158378
          ],
          [
            120.649146,
            24.158378
          ],
          [
            120.648768,
            24.158589
          ],
          [
            120.648931,
            24.158826
          ],
          [
            120.648931,
            24.158826
          ],
          [
            120.64926,
            24.159305
          ],
          [
            120.64926,
            24.159305
          ],
          [
            120.648768,
            24.158589
          ],
          [
            120.649471,
            24.158196
          ],
          [
            120.649702,
            24.158065
          ],
          [
            120.650094,
            24.157852
          ],
          [
            120.650094,
            24.157852
          ],
          [
            120.650319,
            24.15773
          ],
          [
            120.650638,
            24.158221
          ],
          [
            120.650638,
            24.158221
          ],
          [
            120.650881,
            24.158594
          ],
          [
            120.650881,
            24.158594
          ],
          [
            120.651033,
            24.158828
          ],
          [
            120.651131,
            24.158979
          ],
          [
            120.651131,
            24.158979
          ],
          [
            120.65135,
            24.159317
          ],
          [
            120.65136,
            24.159332
          ],
          [
            120.65136,
            24.159332
          ],
          [
            120.651569,
            24.159653
          ],
          [
            120.651615,
            24.159724
          ],
          [
            120.651615,
            24.159724
          ],
          [
            120.651569,
            24.159653
          ],
          [
            120.65135,
            24.159317
          ],
          [
            120.651033,
            24.158828
          ],
          [
            120.651561,
            24.158537
          ],
          [
            120.651667,
            24.158479
          ],
          [
            120.651727,
            24.158571
          ],
          [
            120.652079,
            24.159114
          ],
          [
            120.652172,
            24.159257
          ],
          [
            120.652172,
            24.159257
          ],
          [
            120.652079,
            24.159114
          ],
          [
            120.651727,
            24.158571
          ],
          [
            120.651667,
            24.158479
          ],
          [
            120.651561,
            24.158537
          ],
          [
            120.651033,
            24.158828
          ],
          [
            120.650874,
            24.158915
          ],
          [
            120.650874,
            24.158915
          ],
          [
            120.650621,
            24.159055
          ],
          [
            120.650621,
            24.159055
          ],
          [
            120.651033,
            24.158828
          ],
          [
            120.650319,
            24.15773
          ],
          [
            120.65003,
            24.157286
          ],
          [
            120.650012,
            24.157259
          ],
          [
            120.649769,
            24.156884
          ],
          [
            120.649123,
            24.157244
          ],
          [
            120.649035,
            24.157112
          ],
          [
            120.649035,
            24.157112
          ],
          [
            120.648887,
            24.156889
          ],
          [
            120.648887,
            24.156889
          ],
          [
            120.649123,
            24.157244
          ],
          [
            120.649769,
            24.156884
          ],
          [
            120.64998,
            24.156766
          ],
          [
            120.64998,
            24.156766
          ],
          [
            120.650383,
            24.156539
          ],
          [
            120.650192,
            24.156247
          ],
          [
            120.650192,
            24.156247
          ],
          [
            120.650043,
            24.156018
          ],
          [
            120.650043,
            24.156018
          ],
          [
            120.649777,
            24.155612
          ],
          [
            120.648791,
            24.155617
          ],
          [
            120.648716,
            24.155618
          ],
          [
            120.648663,
            24.155617
          ],
          [
            120.64866,
            24.155617
          ],
          [
            120.64866,
            24.155617
          ],
          [
            120.648338,
            24.15561
          ],
          [
            120.647775,
            24.155609
          ],
          [
            120.647777,
            24.156204
          ],
          [
            120.647778,
            24.156342
          ],
          [
            120.647779,
            24.156727
          ],
          [
            120.648084,
            24.157157
          ],
          [
            120.648084,
            24.157157
          ],
          [
            120.648426,
            24.15764
          ],
          [
            120.64822,
            24.157754
          ],
          [
            120.647543,
            24.158119
          ],
          [
            120.646974,
            24.158433
          ],
          [
            120.647005,
            24.158513
          ],
          [
            120.647442,
            24.159207
          ],
          [
            120.647499,
            24.159297
          ],
          [
            120.647568,
            24.159409
          ],
          [
            120.648177,
            24.160399
          ],
          [
            120.648862,
            24.160011
          ],
          [
            120.649333,
            24.160682
          ],
          [
            120.649333,
            24.160682
          ],
          [
            120.649697,
            24.161201
          ],
          [
            120.648998,
            24.161586
          ],
          [
            120.649267,
            24.162018
          ],
          [
            120.649492,
            24.162358
          ],
          [
            120.649518,
            24.162397
          ],
          [
            120.649541,
            24.162431
          ],
          [
            120.649708,
            24.162339
          ],
          [
            120.6516,
            24.161298
          ],
          [
            120.651715,
            24.161235
          ],
          [
            120.652713,
            24.160686
          ],
          [
            120.652906,
            24.160579
          ],
          [
            120.652997,
            24.160529
          ],
          [
            120.653139,
            24.16045
          ],
          [
            120.653216,
            24.160408
          ],
          [
            120.653216,
            24.160408
          ],
          [
            120.653693,
            24.160147
          ],
          [
            120.65414,
            24.159901
          ],
          [
            120.654066,
            24.159777
          ],
          [
            120.654066,
            24.159777
          ],
          [
            120.65414,
            24.159901
          ],
          [
            120.65523,
            24.159301
          ],
          [
            120.65515,
            24.159185
          ],
          [
            120.65515,
            24.159185
          ]
        ]
      },
      "properties": {
        "routeId": "taichung-ker-3370-89d0a6-d2",
        "city": "taichung",
        "source_file": "taichung/taichung-ker-3370-89d0a6-d2.geojson",
        "distance_km": 17.758,
        "duration_min": 40.729166666666664,
        "valhalla_config": "valhalla.json"
      }
    }
  ]
}