{
  "type": "FeatureCollection",
  "features": [
    {
      "type": "Feature",
      "geometry": {
        "type": "LineString",
        "coordinates": [
          [
            120.565331,
            24.208504
          ],
          [
            120.565331,
            24.208504
          ],
          [
            120.565354,
            24.208503
          ],
          [
            120.565418,
            24.208503
          ],
          [
            120.565727,
            24.208498
          ],
          [
            120.566568,
            24.208595
          ],
          [
            120.566779,
            24.208679
          ],
          [
            120.567206,
            24.20879
          ],
          [
            120.568184,
            24.209009
          ],
          [
            120.568286,
            24.209028
          ],
          [
            120.568609,
            24.209108
          ],
          [
            120.568739,
            24.209132
          ],
          [
            120.568839,
            24.209336
          ],
          [
            120.569019,
            24.209648
          ],
          [
            120.569478,
            24.21031
          ],
          [
            120.56964,
            24.210545
          ],
          [
            120.569912,
            24.210964
          ],
          [
            120.57005,
            24.211281
          ],
          [
            120.570173,
            24.211609
          ],
          [
            120.570242,
            24.21191
          ],
          [
            120.571043,
            24.211565
          ],
          [
            120.571613,
            24.211334
          ],
          [
            120.572338,
            24.211003
          ],
          [
            120.572021,
            24.210295
          ],
          [
            120.571948,
            24.210151
          ],
          [
            120.571948,
            24.210151
          ],
          [
            120.572021,
            24.210295
          ],
          [
            120.572338,
            24.211003
          ],
          [
            120.57291,
            24.210731
          ],
          [
            120.573581,
            24.21044
          ],
          [
            120.574072,
            24.210271
          ],
          [
            120.574811,
            24.210031
          ],
          [
            120.57508,
            24.209945
          ],
          [
            120.575176,
            24.209919
          ],
          [
            120.575459,
            24.209831
          ],
          [
            120.575818,
            24.209768
          ],
          [
            120.576391,
            24.209671
          ],
          [
            120.577605,
            24.209558
          ],
          [
            120.577706,
            24.209552
          ],
          [
            120.578392,
            24.209511
          ],
          [
            120.57908,
            24.209485
          ],
          [
            120.579719,
            24.209514
          ],
          [
            120.580443,
            24.209587
          ],
          [
            120.580489,
            24.209583
          ],
          [
            120.581172,
            24.209656
          ],
          [
            120.581247,
            24.209663
          ],
          [
            120.581332,
            24.209671
          ],
          [
            120.581414,
            24.209682
          ],
          [
            120.581399,
            24.209803
          ],
          [
            120.58126,
            24.211078
          ],
          [
            120.581131,
            24.212151
          ],
          [
            120.581024,
            24.213052
          ],
          [
            120.580895,
            24.214168
          ],
          [
            120.580833,
            24.214592
          ],
          [
            120.580637,
            24.216163
          ],
          [
            120.580499,
            24.217155
          ],
          [
            120.580385,
            24.218141
          ],
          [
            120.580259,
            24.219175
          ],
          [
            120.580221,
            24.219458
          ],
          [
            120.5802,
            24.219606
          ],
          [
            120.580171,
            24.219745
          ],
          [
            120.580103,
            24.220008
          ],
          [
            120.580031,
            24.220228
          ],
          [
            120.579825,
            24.220811
          ],
          [
            120.579571,
            24.221391
          ],
          [
            120.579483,
            24.221355
          ],
          [
            120.579434,
            24.221337
          ],
          [
            120.579352,
            24.221307
          ],
          [
            120.579266,
            24.221291
          ],
          [
            120.579194,
            24.221286
          ],
          [
            120.579045,
            24.221282
          ],
          [
            120.578642,
            24.221285
          ],
          [
            120.578924,
            24.220708
          ],
          [
            120.579129,
            24.220178
          ],
          [
            120.579194,
            24.219894
          ],
          [
            120.579356,
            24.219224
          ],
          [
            120.579463,
            24.218554
          ],
          [
            120.578742,
            24.218548
          ],
          [
            120.578,
            24.218572
          ],
          [
            120.577891,
            24.218084
          ],
          [
            120.577891,
            24.218084
          ],
          [
            120.578,
            24.218572
          ],
          [
            120.57733,
            24.218615
          ],
          [
            120.577035,
            24.217439
          ],
          [
            120.577035,
            24.217439
          ],
          [
            120.577035,
            24.217439
          ],
          [
            120.576993,
            24.217391
          ],
          [
            120.576912,
            24.217378
          ],
          [
            120.576373,
            24.217426
          ],
          [
            120.576333,
            24.217451
          ],
          [
            120.576324,
            24.217503
          ],
          [
            120.576633,
            24.218661
          ],
          [
            120.576033,
            24.218709
          ],
          [
            120.575878,
            24.218113
          ],
          [
            120.575878,
            24.218113
          ],
          [
            120.57577,
            24.217695
          ],
          [
            120.575742,
            24.217656
          ],
          [
            120.575684,
            24.217638
          ],
          [
            120.575586,
            24.217642
          ],
          [
            120.575224,
            24.217706
          ],
          [
            120.574985,
            24.217804
          ],
          [
            120.575197,
            24.218284
          ],
          [
            120.575197,
            24.218284
          ],
          [
            120.575404,
            24.218754
          ],
          [
            120.574648,
            24.218848
          ],
          [
            120.575038,
            24.220009
          ],
          [
            120.575034,
            24.220087
          ],
          [
            120.574993,
            24.220132
          ],
          [
            120.574568,
            24.220239
          ],
          [
            120.574508,
            24.220241
          ],
          [
            120.574457,
            24.220205
          ],
          [
            120.574526,
            24.220349
          ],
          [
            120.574526,
            24.220349
          ],
          [
            120.574457,
            24.220205
          ],
          [
            120.573982,
            24.219066
          ],
          [
            120.573319,
            24.219305
          ],
          [
            120.572679,
            24.219567
          ],
          [
            120.572512,
            24.219618
          ],
          [
            120.572062,
            24.219745
          ],
          [
            120.572312,
            24.220871
          ],
          [
            120.572312,
            24.220871
          ],
          [
            120.572312,
            24.220871
          ],
          [
            120.572312,
            24.220871
          ],
          [
            120.572306,
            24.220916
          ],
          [
            120.572277,
            24.220943
          ],
          [
            120.571789,
            24.221055
          ],
          [
            120.571735,
            24.221049
          ],
          [
            120.571697,
            24.221019
          ],
          [
            120.571404,
            24.219806
          ],
          [
            120.571153,
            24.219809
          ],
          [
            120.570475,
            24.219772
          ],
          [
            120.570607,
            24.219374
          ],
          [
            120.570607,
            24.219374
          ],
          [
            120.57074,
            24.218976
          ],
          [
            120.571054,
            24.218029
          ],
          [
            120.571095,
            24.217906
          ],
          [
            120.571863,
            24.217656
          ],
          [
            120.572056,
            24.218063
          ],
          [
            120.572056,
            24.218063
          ],
          [
            120.571863,
            24.217656
          ],
          [
            120.572571,
            24.217401
          ],
          [
            120.572873,
            24.2181
          ],
          [
            120.572873,
            24.2181
          ],
          [
            120.572571,
            24.217401
          ],
          [
            120.573366,
            24.217127
          ],
          [
            120.573416,
            24.217254
          ],
          [
            120.57381,
            24.21827
          ],
          [
            120.57381,
            24.21827
          ],
          [
            120.573416,
            24.217254
          ],
          [
            120.573366,
            24.217127
          ],
          [
            120.573954,
            24.216926
          ],
          [
            120.57454,
            24.216772
          ],
          [
            120.574005,
            24.215449
          ],
          [
            120.574673,
            24.215222
          ],
          [
            120.575341,
            24.214983
          ],
          [
            120.575693,
            24.214875
          ],
          [
            120.57585,
            24.21482
          ],
          [
            120.576232,
            24.214732
          ],
          [
            120.576532,
            24.214689
          ],
          [
            120.576952,
            24.214702
          ],
          [
            120.577258,
            24.214729
          ],
          [
            120.577922,
            24.214805
          ],
          [
            120.578057,
            24.213469
          ],
          [
            120.57807,
            24.213164
          ],
          [
            120.577989,
            24.212855
          ],
          [
            120.577804,
            24.212391
          ],
          [
            120.577769,
            24.212192
          ],
          [
            120.577752,
            24.211942
          ],
          [
            120.5782,
            24.211951
          ],
          [
            120.578547,
            24.211997
          ],
          [
            120.578518,
            24.212276
          ],
          [
            120.578519,
            24.212313
          ],
          [
            120.578519,
            24.212313
          ],
          [
            120.578518,
            24.212276
          ],
          [
            120.578547,
            24.211997
          ],
          [
            120.5782,
            24.211951
          ],
          [
            120.577752,
            24.211942
          ],
          [
            120.577769,
            24.212192
          ],
          [
            120.577804,
            24.212391
          ],
          [
            120.577989,
            24.212855
          ],
          [
            120.57807,
            24.213164
          ],
          [
            120.578057,
            24.213469
          ],
          [
            120.578038,
            24.213655
          ],
          [
            120.578057,
            24.213469
          ],
          [
            120.57807,
            24.213164
          ],
          [
            120.577989,
            24.212855
          ],
          [
            120.577804,
            24.212391
          ],
          [
            120.577769,
            24.212192
          ],
          [
            120.577752,
            24.211942
          ],
          [
            120.5782,
            24.211951
          ],
          [
            120.578547,
            24.211997
          ],
          [
            120.579485,
            24.212197
          ],
          [
            120.57943,
            24.212725
          ],
          [
            120.57943,
            24.212725
          ],
          [
            120.579485,
            24.212197
          ],
          [
            120.578547,
            24.211997
          ],
          [
            120.5782,
            24.211951
          ],
          [
            120.577752,
            24.211942
          ],
          [
            120.577769,
            24.212192
          ],
          [
            120.577804,
            24.212391
          ],
          [
            120.577989,
            24.212855
          ],
          [
            120.57807,
            24.213164
          ],
          [
            120.578057,
            24.213469
          ],
          [
            120.578038,
            24.213655
          ],
          [
            120.577922,
            24.214805
          ],
          [
            120.577258,
            24.214729
          ],
          [
            120.577394,
            24.213509
          ],
          [
            120.577386,
            24.213274
          ],
          [
            120.577356,
            24.213124
          ],
          [
            120.577296,
            24.212918
          ],
          [
            120.577051,
            24.212493
          ],
          [
            120.577051,
            24.212493
          ],
          [
            120.577296,
            24.212918
          ],
          [
            120.577356,
            24.213124
          ],
          [
            120.577386,
            24.213274
          ],
          [
            120.577394,
            24.213509
          ],
          [
            120.577258,
            24.214729
          ],
          [
            120.576952,
            24.214702
          ],
          [
            120.576532,
            24.214689
          ],
          [
            120.576642,
            24.214061
          ],
          [
            120.576689,
            24.213653
          ],
          [
            120.576643,
            24.213362
          ],
          [
            120.576611,
            24.213273
          ],
          [
            120.576611,
            24.213273
          ],
          [
            120.576643,
            24.213362
          ],
          [
            120.576689,
            24.213653
          ],
          [
            120.576642,
            24.214061
          ],
          [
            120.576532,
            24.214689
          ],
          [
            120.576434,
            24.215853
          ],
          [
            120.576462,
            24.21599
          ],
          [
            120.576567,
            24.216241
          ],
          [
            120.576567,
            24.216241
          ],
          [
            120.576462,
            24.21599
          ],
          [
            120.576434,
            24.215853
          ],
          [
            120.576532,
            24.214689
          ],
          [
            120.576952,
            24.214702
          ],
          [
            120.577258,
            24.214729
          ],
          [
            120.57719,
            24.215197
          ],
          [
            120.577329,
            24.215196
          ],
          [
            120.57719,
            24.215197
          ],
          [
            120.577128,
            24.215769
          ],
          [
            120.577411,
            24.216498
          ],
          [
            120.577432,
            24.216553
          ],
          [
            120.577411,
            24.216498
          ],
          [
            120.577128,
            24.215769
          ],
          [
            120.57719,
            24.215197
          ],
          [
            120.577329,
            24.215196
          ],
          [
            120.57719,
            24.215197
          ],
          [
            120.577128,
            24.215769
          ],
          [
            120.577411,
            24.216498
          ],
          [
            120.577432,
            24.216553
          ],
          [
            120.57744,
            24.216573
          ],
          [
            120.577501,
            24.216603
          ],
          [
            120.578044,
            24.216596
          ],
          [
            120.578133,
            24.21651
          ],
          [
            120.578035,
            24.216241
          ],
          [
            120.577853,
            24.215741
          ],
          [
            120.577922,
            24.214805
          ],
          [
            120.577258,
            24.214729
          ],
          [
            120.576952,
            24.214702
          ],
          [
            120.576532,
            24.214689
          ],
          [
            120.576232,
            24.214732
          ],
          [
            120.57585,
            24.21482
          ],
          [
            120.575693,
            24.214875
          ],
          [
            120.575341,
            24.214983
          ],
          [
            120.574978,
            24.214143
          ],
          [
            120.574978,
            24.214143
          ],
          [
            120.574914,
            24.213996
          ],
          [
            120.574292,
            24.214296
          ],
          [
            120.574214,
            24.214162
          ],
          [
            120.574214,
            24.214162
          ],
          [
            120.573743,
            24.213351
          ],
          [
            120.573031,
            24.213834
          ],
          [
            120.572816,
            24.213987
          ],
          [
            120.572816,
            24.213987
          ],
          [
            120.572441,
            24.214252
          ],
          [
            120.571674,
            24.214722
          ],
          [
            120.571921,
            24.214934
          ],
          [
            120.571921,
            24.214934
          ],
          [
            120.571961,
            24.214969
          ],
          [
            120.572122,
            24.21515
          ],
          [
            120.572841,
            24.214729
          ],
          [
            120.573215,
            24.21517
          ],
          [
            120.57325,
            24.215246
          ],
          [
            120.57325,
            24.215246
          ],
          [
            120.573353,
            24.21547
          ],
          [
            120.573413,
            24.215643
          ],
          [
            120.574005,
            24.215449
          ],
          [
            120.574673,
            24.215222
          ],
          [
            120.575372,
            24.216826
          ],
          [
            120.575372,
            24.216826
          ],
          [
            120.574673,
            24.215222
          ],
          [
            120.574005,
            24.215449
          ],
          [
            120.573413,
            24.215643
          ],
          [
            120.572464,
            24.215983
          ],
          [
            120.571884,
            24.216185
          ],
          [
            120.571512,
            24.216317
          ],
          [
            120.571363,
            24.216367
          ],
          [
            120.571308,
            24.216383
          ],
          [
            120.571251,
            24.21639
          ],
          [
            120.571364,
            24.216597
          ],
          [
            120.571394,
            24.216782
          ],
          [
            120.571389,
            24.216882
          ],
          [
            120.571389,
            24.216882
          ],
          [
            120.571394,
            24.216782
          ],
          [
            120.571364,
            24.216597
          ],
          [
            120.571251,
            24.21639
          ],
          [
            120.571209,
            24.216389
          ],
          [
            120.571164,
            24.216392
          ],
          [
            120.571063,
            24.216404
          ],
          [
            120.570845,
            24.216419
          ],
          [
            120.570704,
            24.216526
          ],
          [
            120.570792,
            24.21623
          ],
          [
            120.570863,
            24.215973
          ],
          [
            120.570909,
            24.215601
          ],
          [
            120.570895,
            24.215384
          ],
          [
            120.570877,
            24.215254
          ],
          [
            120.570853,
            24.215119
          ],
          [
            120.57082,
            24.215012
          ],
          [
            120.570761,
            24.214795
          ],
          [
            120.570692,
            24.214467
          ],
          [
            120.57066,
            24.214308
          ],
          [
            120.570563,
            24.213882
          ],
          [
            120.570437,
            24.21392
          ],
          [
            120.570437,
            24.21392
          ],
          [
            120.570563,
            24.213882
          ],
          [
            120.570492,
            24.213508
          ],
          [
            120.570431,
            24.213216
          ],
          [
            120.570351,
            24.212821
          ],
          [
            120.57027,
            24.212469
          ],
          [
            120.570179,
            24.212048
          ],
          [
            120.57015,
            24.211933
          ],
          [
            120.570099,
            24.211717
          ],
          [
            120.569975,
            24.211351
          ],
          [
            120.569801,
            24.211013
          ],
          [
            120.569391,
            24.210361
          ],
          [
            120.569113,
            24.209955
          ],
          [
            120.568911,
            24.209667
          ],
          [
            120.568743,
            24.20938
          ],
          [
            120.568839,
            24.209336
          ],
          [
            120.569716,
            24.208928
          ],
          [
            120.570073,
            24.208725
          ],
          [
            120.570441,
            24.208427
          ],
          [
            120.570915,
            24.207997
          ],
          [
            120.571102,
            24.207792
          ],
          [
            120.571032,
            24.207695
          ],
          [
            120.571032,
            24.207695
          ],
          [
            120.571102,
            24.207792
          ],
          [
            120.571411,
            24.207522
          ],
          [
            120.571887,
            24.207074
          ],
          [
            120.572356,
            24.206623
          ],
          [
            120.571657,
            24.205988
          ],
          [
            120.571639,
            24.205956
          ],
          [
            120.571661,
            24.205911
          ],
          [
            120.571813,
            24.205777
          ],
          [
            120.571813,
            24.205777
          ],
          [
            120.571661,
            24.205911
          ],
          [
            120.571639,
            24.205956
          ],
          [
            120.571657,
            24.205988
          ],
          [
            120.572356,
            24.206623
          ],
          [
            120.571887,
            24.207074
          ],
          [
            120.571222,
            24.20643
          ],
          [
            120.571116,
            24.206448
          ],
          [
            120.570663,
            24.206863
          ],
          [
            120.570412,
            24.206658
          ],
          [
            120.569347,
            24.205752
          ],
          [
            120.568943,
            24.206222
          ],
          [
            120.56934,
            24.206529
          ],
          [
            120.56934,
            24.206529
          ],
          [
            120.568943,
            24.206222
          ],
          [
            120.569347,
            24.205752
          ],
          [
            120.56881,
            24.205315
          ],
          [
            120.568785,
            24.205266
          ],
          [
            120.568803,
            24.205206
          ],
          [
            120.568803,
            24.205206
          ],
          [
            120.568803,
            24.205206
          ],
          [
            120.568803,
            24.205206
          ],
          [
            120.569079,
            24.204831
          ],
          [
            120.569132,
            24.204814
          ],
          [
            120.569183,
            24.204806
          ],
          [
            120.569248,
            24.204861
          ],
          [
            120.569778,
            24.205274
          ],
          [
            120.570425,
            24.204612
          ],
          [
            120.570655,
            24.204356
          ],
          [
            120.57034,
            24.20412
          ],
          [
            120.57034,
            24.20412
          ],
          [
            120.570655,
            24.204356
          ],
          [
            120.570425,
            24.204612
          ],
          [
            120.570843,
            24.204947
          ],
          [
            120.570917,
            24.20498
          ],
          [
            120.571011,
            24.20497
          ],
          [
            120.571439,
            24.204477
          ],
          [
            120.571439,
            24.204477
          ],
          [
            120.571606,
            24.204285
          ],
          [
            120.571083,
            24.203886
          ],
          [
            120.571578,
            24.20332
          ],
          [
            120.572067,
            24.202815
          ],
          [
            120.571696,
            24.202417
          ],
          [
            120.571588,
            24.202249
          ],
          [
            120.571588,
            24.202249
          ],
          [
            120.571417,
            24.201984
          ],
          [
            120.571496,
            24.201749
          ],
          [
            120.571668,
            24.201524
          ],
          [
            120.571706,
            24.201505
          ],
          [
            120.57183,
            24.201358
          ],
          [
            120.571852,
            24.201443
          ],
          [
            120.572352,
            24.20202
          ],
          [
            120.572352,
            24.20202
          ],
          [
            120.571852,
            24.201443
          ],
          [
            120.57183,
            24.201358
          ],
          [
            120.57216,
            24.200912
          ],
          [
            120.572206,
            24.200903
          ],
          [
            120.572276,
            24.200917
          ],
          [
            120.572483,
            24.201132
          ],
          [
            120.572725,
            24.201384
          ],
          [
            120.573069,
            24.201761
          ],
          [
            120.573464,
            24.202376
          ],
          [
            120.573069,
            24.201761
          ],
          [
            120.572725,
            24.201384
          ],
          [
            120.572483,
            24.201132
          ],
          [
            120.572725,
            24.201384
          ],
          [
            120.573069,
            24.201761
          ],
          [
            120.573464,
            24.202376
          ],
          [
            120.573069,
            24.201761
          ],
          [
            120.57278,
            24.202068
          ],
          [
            120.57278,
            24.202068
          ],
          [
            120.573069,
            24.201761
          ],
          [
            120.573546,
            24.201234
          ],
          [
            120.573114,
            24.200758
          ],
          [
            120.573114,
            24.200758
          ],
          [
            120.573546,
            24.201234
          ],
          [
            120.574001,
            24.200759
          ],
          [
            120.574469,
            24.200302
          ],
          [
            120.574995,
            24.199839
          ],
          [
            120.575449,
            24.200424
          ],
          [
            120.575449,
            24.200424
          ],
          [
            120.575718,
            24.200772
          ],
          [
            120.575738,
            24.200844
          ],
          [
            120.57572,
            24.200901
          ],
          [
            120.575328,
            24.201207
          ],
          [
            120.575328,
            24.201207
          ],
          [
            120.575328,
            24.201207
          ],
          [
            120.575328,
            24.201207
          ],
          [
            120.575271,
            24.20121
          ],
          [
            120.575243,
            24.201205
          ],
          [
            120.575205,
            24.201189
          ],
          [
            120.574469,
            24.200302
          ],
          [
            120.574001,
            24.200759
          ],
          [
            120.573546,
            24.201234
          ],
          [
            120.573855,
            24.20164
          ],
          [
            120.574173,
            24.202067
          ],
          [
            120.574464,
            24.202486
          ],
          [
            120.574534,
            24.20263
          ],
          [
            120.574534,
            24.20263
          ],
          [
            120.574675,
            24.202919
          ],
          [
            120.574764,
            24.20324
          ],
          [
            120.574773,
            24.203565
          ],
          [
            120.574721,
            24.20395
          ],
          [
            120.574644,
            24.204183
          ],
          [
            120.57424,
            24.20384
          ],
          [
            120.57424,
            24.20384
          ],
          [
            120.573779,
            24.203449
          ],
          [
            120.573327,
            24.203916
          ],
          [
            120.57382,
            24.204337
          ],
          [
            120.574316,
            24.20476
          ],
          [
            120.573984,
            24.205096
          ],
          [
            120.573372,
            24.205692
          ],
          [
            120.57382,
            24.206233
          ],
          [
            120.573972,
            24.206463
          ],
          [
            120.574241,
            24.206889
          ],
          [
            120.574461,
            24.20689
          ],
          [
            120.574998,
            24.207066
          ],
          [
            120.575452,
            24.207051
          ],
          [
            120.575616,
            24.207044
          ],
          [
            120.57508,
            24.207878
          ],
          [
            120.574723,
            24.208319
          ],
          [
            120.574362,
            24.208772
          ],
          [
            120.57413,
            24.209062
          ],
          [
            120.573902,
            24.209361
          ],
          [
            120.573602,
            24.20974
          ],
          [
            120.573143,
            24.210344
          ],
          [
            120.57291,
            24.210731
          ],
          [
            120.572746,
            24.210951
          ],
          [
            120.572384,
            24.211088
          ],
          [
            120.57166,
            24.211407
          ],
          [
            120.571108,
            24.211663
          ],
          [
            120.57027,
            24.212008
          ],
          [
            120.570179,
            24.212048
          ],
          [
            120.57015,
            24.211933
          ],
          [
            120.570099,
            24.211717
          ],
          [
            120.569975,
            24.211351
          ],
          [
            120.569801,
            24.211013
          ],
          [
            120.569391,
            24.210361
          ],
          [
            120.569113,
            24.209955
          ],
          [
            120.568911,
            24.209667
          ],
          [
            120.568743,
            24.20938
          ],
          [
            120.568609,
            24.209108
          ],
          [
            120.568453,
            24.208673
          ],
          [
            120.568336,
            24.208327
          ],
          [
            120.568245,
            24.207957
          ],
          [
            120.568131,
            24.207509
          ],
          [
            120.567953,
            24.206817
          ],
          [
            120.567842,
            24.206424
          ],
          [
            120.56782,
            24.206319
          ],
          [
            120.56774,
            24.206016
          ],
          [
            120.567685,
            24.205816
          ],
          [
            120.567528,
            24.205296
          ],
          [
            120.567424,
            24.205044
          ],
          [
            120.567288,
            24.204812
          ],
          [
            120.567069,
            24.204571
          ],
          [
            120.566698,
            24.204253
          ],
          [
            120.566549,
            24.204125
          ],
          [
            120.566637,
            24.204054
          ],
          [
            120.567273,
            24.20352
          ],
          [
            120.567398,
            24.203417
          ],
          [
            120.567492,
            24.203174
          ],
          [
            120.567819,
            24.202428
          ],
          [
            120.568011,
            24.201945
          ],
          [
            120.568084,
            24.201777
          ],
          [
            120.568373,
            24.2011
          ],
          [
            120.568582,
            24.200569
          ],
          [
            120.568814,
            24.200027
          ],
          [
            120.568915,
            24.19971
          ],
          [
            120.568936,
            24.199561
          ],
          [
            120.568922,
            24.199062
          ],
          [
            120.568944,
            24.198714
          ],
          [
            120.56903,
            24.198444
          ],
          [
            120.568832,
            24.198411
          ],
          [
            120.568585,
            24.198385
          ],
          [
            120.568304,
            24.198399
          ],
          [
            120.567951,
            24.198414
          ],
          [
            120.567272,
            24.198441
          ],
          [
            120.567238,
            24.197956
          ],
          [
            120.567691,
            24.197949
          ],
          [
            120.567238,
            24.197956
          ],
          [
            120.567272,
            24.198441
          ],
          [
            120.567951,
            24.198414
          ],
          [
            120.568304,
            24.198399
          ],
          [
            120.568585,
            24.198385
          ],
          [
            120.568832,
            24.198411
          ],
          [
            120.56903,
            24.198444
          ],
          [
            120.568944,
            24.198714
          ],
          [
            120.568922,
            24.199062
          ],
          [
            120.568936,
            24.199561
          ],
          [
            120.568915,
            24.19971
          ],
          [
            120.568814,
            24.200027
          ],
          [
            120.568582,
            24.200569
          ],
          [
            120.568373,
            24.2011
          ],
          [
            120.568084,
            24.201777
          ],
          [
            120.568011,
            24.201945
          ],
          [
            120.567819,
            24.202428
          ],
          [
            120.567492,
            24.203174
          ],
          [
            120.567398,
            24.203417
          ],
          [
            120.567321,
            24.203732
          ],
          [
            120.566772,
            24.204196
          ],
          [
            120.56721,
            24.20458
          ],
          [
            120.567381,
            24.204781
          ],
          [
            120.567512,
            24.204965
          ],
          [
            120.5676,
            24.205163
          ],
          [
            120.567716,
            24.205536
          ],
          [
            120.567838,
            24.206001
          ],
          [
            120.567893,
            24.206216
          ],
          [
            120.567927,
            24.206349
          ],
          [
            120.568056,
            24.206792
          ],
          [
            120.568335,
            24.207946
          ],
          [
            120.568446,
            24.208376
          ],
          [
            120.568603,
            24.208819
          ],
          [
            120.568739,
            24.209132
          ],
          [
            120.568839,
            24.209336
          ],
          [
            120.569019,
            24.209648
          ],
          [
            120.569478,
            24.21031
          ],
          [
            120.56964,
            24.210545
          ],
          [
            120.569912,
            24.210964
          ],
          [
            120.57005,
            24.211281
          ],
          [
            120.570173,
            24.211609
          ],
          [
            120.570242,
            24.21191
          ],
          [
            120.571043,
            24.211565
          ],
          [
            120.571613,
            24.211334
          ],
          [
            120.572338,
            24.211003
          ],
          [
            120.57291,
            24.210731
          ],
          [
            120.573143,
            24.210344
          ],
          [
            120.573602,
            24.20974
          ],
          [
            120.573902,
            24.209361
          ],
          [
            120.57413,
            24.209062
          ],
          [
            120.574362,
            24.208772
          ],
          [
            120.574723,
            24.208319
          ],
          [
            120.57508,
            24.207878
          ],
          [
            120.575616,
            24.207044
          ],
          [
            120.575452,
            24.207051
          ],
          [
            120.574998,
            24.207066
          ],
          [
            120.574461,
            24.20689
          ],
          [
            120.574241,
            24.206889
          ],
          [
            120.573972,
            24.206463
          ],
          [
            120.57382,
            24.206233
          ],
          [
            120.573372,
            24.205692
          ],
          [
            120.573984,
            24.205096
          ],
          [
            120.574316,
            24.20476
          ],
          [
            120.57382,
            24.204337
          ],
          [
            120.574316,
            24.20476
          ],
          [
            120.573984,
            24.205096
          ],
          [
            120.573372,
            24.205692
          ],
          [
            120.57382,
            24.206233
          ],
          [
            120.573972,
            24.206463
          ],
          [
            120.574241,
            24.206889
          ],
          [
            120.574461,
            24.20689
          ],
          [
            120.574998,
            24.207066
          ],
          [
            120.575452,
            24.207051
          ],
          [
            120.575616,
            24.207044
          ],
          [
            120.57508,
            24.207878
          ],
          [
            120.574723,
            24.208319
          ],
          [
            120.574362,
            24.208772
          ],
          [
            120.57413,
            24.209062
          ],
          [
            120.573902,
            24.209361
          ],
          [
            120.573602,
            24.20974
          ],
          [
            120.573143,
            24.210344
          ],
          [
            120.57291,
            24.210731
          ],
          [
            120.572746,
            24.210951
          ],
          [
            120.572384,
            24.211088
          ],
          [
            120.57166,
            24.211407
          ],
          [
            120.571108,
            24.211663
          ],
          [
            120.57027,
            24.212008
          ],
          [
            120.570179,
            24.212048
          ],
          [
            120.57015,
            24.211933
          ],
          [
            120.570099,
            24.211717
          ],
          [
            120.569975,
            24.211351
          ],
          [
            120.569801,
            24.211013
          ],
          [
            120.569391,
            24.210361
          ],
          [
            120.569113,
            24.209955
          ],
          [
            120.568911,
            24.209667
          ],
          [
            120.568743,
            24.20938
          ],
          [
            120.568609,
            24.209108
          ],
          [
            120.568453,
            24.208673
          ],
          [
            120.568336,
            24.208327
          ],
          [
            120.568245,
            24.207957
          ],
          [
            120.568131,
            24.207509
          ],
          [
            120.567953,
            24.206817
          ],
          [
            120.567842,
            24.206424
          ],
          [
            120.56782,
            24.206319
          ],
          [
            120.56774,
            24.206016
          ],
          [
            120.567685,
            24.205816
          ],
          [
            120.567528,
            24.205296
          ],
          [
            120.567424,
            24.205044
          ],
          [
            120.567288,
            24.204812
          ],
          [
            120.567069,
            24.204571
          ],
          [
            120.566698,
            24.204253
          ],
          [
            120.566549,
            24.204125
          ],
          [
            120.566637,
            24.204054
          ],
          [
            120.567273,
            24.20352
          ],
          [
            120.567398,
            24.203417
          ],
          [
            120.567492,
            24.203174
          ],
          [
            120.567819,
            24.202428
          ],
          [
            120.568011,
            24.201945
          ],
          [
            120.568084,
            24.201777
          ],
          [
            120.568373,
            24.2011
          ],
          [
            120.568582,
            24.200569
          ],
          [
            120.568814,
            24.200027
          ],
          [
            120.568915,
            24.19971
          ],
          [
            120.568936,
            24.199561
          ],
          [
            120.568922,
            24.199062
          ],
          [
            120.568944,
            24.198714
          ],
          [
            120.56903,
            24.198444
          ],
          [
            120.568832,
            24.198411
          ],
          [
            120.568585,
            24.198385
          ],
          [
            120.568304,
            24.198399
          ],
          [
            120.567951,
            24.198414
          ],
          [
            120.567272,
            24.198441
          ],
          [
            120.567238,
            24.197956
          ],
          [
            120.567691,
            24.197949
          ],
          [
            120.567238,
            24.197956
          ],
          [
            120.567272,
            24.198441
          ],
          [
            120.567951,
            24.198414
          ],
          [
            120.568304,
            24.198399
          ],
          [
            120.568585,
            24.198385
          ],
          [
            120.568832,
            24.198411
          ],
          [
            120.56903,
            24.198444
          ],
          [
            120.568944,
            24.198714
          ],
          [
            120.568922,
            24.199062
          ],
          [
            120.568936,
            24.199561
          ],
          [
            120.568915,
            24.19971
          ],
          [
            120.568814,
            24.200027
          ],
          [
            120.568582,
            24.200569
          ],
          [
            120.568373,
            24.2011
          ],
          [
            120.568084,
            24.201777
          ],
          [
            120.568011,
            24.201945
          ],
          [
            120.567819,
            24.202428
          ],
          [
            120.567492,
            24.203174
          ],
          [
            120.567398,
            24.203417
          ],
          [
            120.567321,
            24.203732
          ],
          [
            120.566772,
            24.204196
          ],
          [
            120.56721,
            24.20458
          ],
          [
            120.567381,
            24.204781
          ],
          [
            120.567512,
            24.204965
          ],
          [
            120.5676,
            24.205163
          ],
          [
            120.567716,
            24.205536
          ],
          [
            120.567838,
            24.206001
          ],
          [
            120.567893,
            24.206216
          ],
          [
            120.567927,
            24.206349
          ],
          [
            120.568056,
            24.206792
          ],
          [
            120.568335,
            24.207946
          ],
          [
            120.568446,
            24.208376
          ],
          [
            120.568603,
            24.208819
          ],
          [
            120.568739,
            24.209132
          ],
          [
            120.568609,
            24.209108
          ],
          [
            120.568453,
            24.208673
          ],
          [
            120.568336,
            24.208327
          ],
          [
            120.568283,
            24.208112
          ],
          [
            120.568245,
            24.207957
          ],
          [
            120.568131,
            24.207509
          ],
          [
            120.567953,
            24.206817
          ],
          [
            120.567842,
            24.206424
          ],
          [
            120.56782,
            24.206319
          ],
          [
            120.56774,
            24.206016
          ],
          [
            120.567685,
            24.205816
          ],
          [
            120.567528,
            24.205296
          ],
          [
            120.567469,
            24.205153
          ],
          [
            120.567424,
            24.205044
          ],
          [
            120.567288,
            24.204812
          ],
          [
            120.567069,
            24.204571
          ],
          [
            120.566698,
            24.204253
          ],
          [
            120.566549,
            24.204125
          ],
          [
            120.566637,
            24.204054
          ],
          [
            120.566999,
            24.20375
          ],
          [
            120.567273,
            24.20352
          ],
          [
            120.567398,
            24.203417
          ],
          [
            120.567321,
            24.203732
          ],
          [
            120.566772,
            24.204196
          ],
          [
            120.56721,
            24.20458
          ],
          [
            120.567381,
            24.204781
          ],
          [
            120.567512,
            24.204965
          ],
          [
            120.5676,
            24.205163
          ],
          [
            120.567716,
            24.205536
          ],
          [
            120.567838,
            24.206001
          ],
          [
            120.567893,
            24.206216
          ],
          [
            120.567927,
            24.206349
          ],
          [
            120.568056,
            24.206792
          ],
          [
            120.568335,
            24.207946
          ],
          [
            120.568446,
            24.208376
          ],
          [
            120.568603,
            24.208819
          ],
          [
            120.568739,
            24.209132
          ],
          [
            120.568609,
            24.209108
          ],
          [
            120.568453,
            24.208673
          ],
          [
            120.568336,
            24.208327
          ],
          [
            120.568283,
            24.208112
          ],
          [
            120.568245,
            24.207957
          ],
          [
            120.568131,
            24.207509
          ],
          [
            120.567953,
            24.206817
          ],
          [
            120.567842,
            24.206424
          ],
          [
            120.56782,
            24.206319
          ],
          [
            120.56774,
            24.206016
          ],
          [
            120.567685,
            24.205816
          ],
          [
            120.567528,
            24.205296
          ],
          [
            120.567469,
            24.205153
          ],
          [
            120.567424,
            24.205044
          ],
          [
            120.567288,
            24.204812
          ],
          [
            120.567069,
            24.204571
          ],
          [
            120.566698,
            24.204253
          ],
          [
            120.566549,
            24.204125
          ],
          [
            120.566637,
            24.204054
          ],
          [
            120.566999,
            24.20375
          ],
          [
            120.567273,
            24.20352
          ],
          [
            120.567398,
            24.203417
          ],
          [
            120.568192,
            24.202752
          ],
          [
            120.568707,
            24.20228
          ],
          [
            120.569222,
            24.201744
          ],
          [
            120.569651,
            24.201229
          ],
          [
            120.569715,
            24.201057
          ],
          [
            120.569737,
            24.200993
          ],
          [
            120.570209,
            24.20037
          ],
          [
            120.570381,
            24.200048
          ],
          [
            120.570695,
            24.199041
          ],
          [
            120.571389,
            24.199254
          ],
          [
            120.571196,
            24.199555
          ],
          [
            120.570209,
            24.200885
          ],
          [
            120.570145,
            24.20095
          ],
          [
            120.57008,
            24.200993
          ],
          [
            120.569903,
            24.201128
          ],
          [
            120.569608,
            24.201529
          ],
          [
            120.569338,
            24.201842
          ],
          [
            120.568803,
            24.202422
          ],
          [
            120.568761,
            24.202462
          ],
          [
            120.568515,
            24.202698
          ],
          [
            120.567321,
            24.203732
          ],
          [
            120.567339,
            24.204102
          ],
          [
            120.567321,
            24.203732
          ],
          [
            120.567398,
            24.203417
          ],
          [
            120.568192,
            24.202752
          ],
          [
            120.568707,
            24.20228
          ],
          [
            120.569222,
            24.201744
          ],
          [
            120.569651,
            24.201229
          ],
          [
            120.569715,
            24.201057
          ],
          [
            120.569737,
            24.200993
          ],
          [
            120.570209,
            24.20037
          ],
          [
            120.570381,
            24.200048
          ],
          [
            120.570695,
            24.199041
          ],
          [
            120.571389,
            24.199254
          ],
          [
            120.571196,
            24.199555
          ],
          [
            120.570209,
            24.200885
          ],
          [
            120.570145,
            24.20095
          ],
          [
            120.57008,
            24.200993
          ],
          [
            120.569903,
            24.201128
          ],
          [
            120.569608,
            24.201529
          ],
          [
            120.569338,
            24.201842
          ],
          [
            120.568803,
            24.202422
          ],
          [
            120.568761,
            24.202462
          ],
          [
            120.568515,
            24.202698
          ],
          [
            120.567321,
            24.203732
          ],
          [
            120.566772,
            24.204196
          ],
          [
            120.56721,
            24.20458
          ],
          [
            120.567381,
            24.204781
          ],
          [
            120.567512,
            24.204965
          ],
          [
            120.5676,
            24.205163
          ],
          [
            120.567716,
            24.205536
          ],
          [
            120.567838,
            24.206001
          ],
          [
            120.567893,
            24.206216
          ],
          [
            120.567927,
            24.206349
          ],
          [
            120.568056,
            24.206792
          ],
          [
            120.568335,
            24.207946
          ],
          [
            120.568562,
            24.20791
          ],
          [
            120.568335,
            24.207946
          ],
          [
            120.568446,
            24.208376
          ],
          [
            120.568603,
            24.208819
          ],
          [
            120.568739,
            24.209132
          ],
          [
            120.568609,
            24.209108
          ],
          [
            120.568453,
            24.208673
          ],
          [
            120.568336,
            24.208327
          ],
          [
            120.568245,
            24.207957
          ],
          [
            120.568131,
            24.207509
          ],
          [
            120.567953,
            24.206817
          ],
          [
            120.567842,
            24.206424
          ],
          [
            120.56782,
            24.206319
          ],
          [
            120.56774,
            24.206016
          ],
          [
            120.567685,
            24.205816
          ],
          [
            120.567528,
            24.205296
          ],
          [
            120.567424,
            24.205044
          ],
          [
            120.567288,
            24.204812
          ],
          [
            120.567069,
            24.204571
          ],
          [
            120.566698,
            24.204253
          ],
          [
            120.566549,
            24.204125
          ],
          [
            120.566637,
            24.204054
          ],
          [
            120.567273,
            24.20352
          ],
          [
            120.567398,
            24.203417
          ],
          [
            120.567321,
            24.203732
          ],
          [
            120.567339,
            24.204102
          ],
          [
            120.567342,
            24.204159
          ],
          [
            120.567414,
            24.204578
          ],
          [
            120.567512,
            24.204965
          ],
          [
            120.5676,
            24.205163
          ],
          [
            120.567716,
            24.205536
          ],
          [
            120.567838,
            24.206001
          ],
          [
            120.567893,
            24.206216
          ],
          [
            120.567927,
            24.206349
          ],
          [
            120.568056,
            24.206792
          ],
          [
            120.568335,
            24.207946
          ],
          [
            120.568446,
            24.208376
          ],
          [
            120.568603,
            24.208819
          ],
          [
            120.568739,
            24.209132
          ],
          [
            120.568839,
            24.209336
          ],
          [
            120.569019,
            24.209648
          ],
          [
            120.569072,
            24.209725
          ],
          [
            120.569478,
            24.21031
          ],
          [
            120.569391,
            24.210361
          ],
          [
            120.569113,
            24.209955
          ],
          [
            120.568911,
            24.209667
          ],
          [
            120.568743,
            24.20938
          ],
          [
            120.568609,
            24.209108
          ],
          [
            120.568453,
            24.208673
          ],
          [
            120.568336,
            24.208327
          ],
          [
            120.568245,
            24.207957
          ],
          [
            120.568131,
            24.207509
          ],
          [
            120.567953,
            24.206817
          ],
          [
            120.568056,
            24.206792
          ],
          [
            120.568335,
            24.207946
          ],
          [
            120.568562,
            24.20791
          ],
          [
            120.568335,
            24.207946
          ],
          [
            120.568446,
            24.208376
          ],
          [
            120.568603,
            24.208819
          ],
          [
            120.568739,
            24.209132
          ],
          [
            120.568839,
            24.209336
          ],
          [
            120.569019,
            24.209648
          ],
          [
            120.569072,
            24.209725
          ]
        ]
      },
      "properties": {
        "routeId": "taichung-keb-0281-2c7242-d5",
        "city": "taichung",
        "source_file": "taichung/taichung-keb-0281-2c7242-d5.geojson",
        "distance_km": 39.11300000000001,
        "duration_min": 80.87076666666667,
        "valhalla_config": "valhalla.json"
      }
    }
  ]
}