{
  "type": "FeatureCollection",
  "features": [
    {
      "type": "Feature",
      "geometry": {
        "type": "LineString",
        "coordinates": [
          [
            120.695159,
            24.188811
          ],
          [
            120.695159,
            24.188811
          ],
          [
            120.694555,
            24.188814
          ],
          [
            120.694506,
            24.188815
          ],
          [
            120.694506,
            24.188753
          ],
          [
            120.694509,
            24.188312
          ],
          [
            120.694499,
            24.188207
          ],
          [
            120.694585,
            24.188206
          ],
          [
            120.696384,
            24.188193
          ],
          [
            120.69648,
            24.18819
          ],
          [
            120.696576,
            24.18819
          ],
          [
            120.697229,
            24.188189
          ],
          [
            120.697329,
            24.18819
          ],
          [
            120.697516,
            24.188163
          ],
          [
            120.697518,
            24.188197
          ],
          [
            120.697527,
            24.188293
          ],
          [
            120.697519,
            24.188317
          ],
          [
            120.697519,
            24.188374
          ],
          [
            120.697606,
            24.18844
          ],
          [
            120.697634,
            24.188461
          ],
          [
            120.697759,
            24.188528
          ],
          [
            120.697902,
            24.188621
          ],
          [
            120.698041,
            24.188714
          ],
          [
            120.698143,
            24.188741
          ],
          [
            120.698143,
            24.188741
          ],
          [
            120.698041,
            24.188714
          ],
          [
            120.697902,
            24.188621
          ],
          [
            120.697759,
            24.188528
          ],
          [
            120.697634,
            24.188461
          ],
          [
            120.697606,
            24.18844
          ],
          [
            120.697519,
            24.188374
          ],
          [
            120.697537,
            24.189623
          ],
          [
            120.697618,
            24.189622
          ],
          [
            120.697836,
            24.18973
          ],
          [
            120.698139,
            24.189996
          ],
          [
            120.698434,
            24.190263
          ],
          [
            120.698605,
            24.190418
          ],
          [
            120.698605,
            24.190418
          ],
          [
            120.698807,
            24.1906
          ],
          [
            120.698847,
            24.19059
          ],
          [
            120.698927,
            24.190527
          ],
          [
            120.699013,
            24.190453
          ],
          [
            120.699102,
            24.190414
          ],
          [
            120.699185,
            24.190407
          ],
          [
            120.699196,
            24.190412
          ],
          [
            120.699196,
            24.190412
          ],
          [
            120.699185,
            24.190407
          ],
          [
            120.699102,
            24.190414
          ],
          [
            120.699013,
            24.190453
          ],
          [
            120.698927,
            24.190527
          ],
          [
            120.698847,
            24.19059
          ],
          [
            120.698807,
            24.1906
          ],
          [
            120.698434,
            24.190263
          ],
          [
            120.697747,
            24.190832
          ],
          [
            120.697736,
            24.190906
          ],
          [
            120.697531,
            24.19115
          ],
          [
            120.697456,
            24.191173
          ],
          [
            120.697491,
            24.191384
          ],
          [
            120.697491,
            24.191384
          ],
          [
            120.697529,
            24.191611
          ],
          [
            120.697721,
            24.191579
          ],
          [
            120.697866,
            24.192418
          ],
          [
            120.697934,
            24.192815
          ],
          [
            120.697949,
            24.192835
          ],
          [
            120.698085,
            24.193025
          ],
          [
            120.698353,
            24.193398
          ],
          [
            120.698569,
            24.193704
          ],
          [
            120.698745,
            24.193843
          ],
          [
            120.698884,
            24.193922
          ],
          [
            120.698945,
            24.193987
          ],
          [
            120.699005,
            24.194329
          ],
          [
            120.699034,
            24.19453
          ],
          [
            120.699544,
            24.194459
          ],
          [
            120.699701,
            24.194445
          ],
          [
            120.700071,
            24.194403
          ],
          [
            120.700312,
            24.194382
          ],
          [
            120.700432,
            24.194375
          ],
          [
            120.701205,
            24.19439
          ],
          [
            120.701825,
            24.194414
          ],
          [
            120.70242,
            24.194449
          ],
          [
            120.702418,
            24.194365
          ],
          [
            120.702416,
            24.194076
          ],
          [
            120.702416,
            24.193934
          ],
          [
            120.702419,
            24.193686
          ],
          [
            120.702429,
            24.193349
          ],
          [
            120.702437,
            24.192904
          ],
          [
            120.702453,
            24.192067
          ],
          [
            120.70244,
            24.19083
          ],
          [
            120.702445,
            24.189518
          ],
          [
            120.702404,
            24.188276
          ],
          [
            120.702424,
            24.187156
          ],
          [
            120.702422,
            24.187099
          ],
          [
            120.702412,
            24.186957
          ],
          [
            120.702408,
            24.186568
          ],
          [
            120.702408,
            24.186501
          ],
          [
            120.702351,
            24.186506
          ],
          [
            120.70233,
            24.186505
          ],
          [
            120.702134,
            24.186501
          ],
          [
            120.702134,
            24.186332
          ],
          [
            120.702134,
            24.186332
          ],
          [
            120.702134,
            24.186066
          ],
          [
            120.702134,
            24.186066
          ],
          [
            120.702134,
            24.186501
          ],
          [
            120.701748,
            24.186507
          ],
          [
            120.70173,
            24.185855
          ],
          [
            120.702165,
            24.185839
          ],
          [
            120.702165,
            24.185839
          ],
          [
            120.702372,
            24.185831
          ],
          [
            120.702275,
            24.185155
          ],
          [
            120.702275,
            24.185155
          ],
          [
            120.702261,
            24.18506
          ],
          [
            120.70198,
            24.184916
          ],
          [
            120.70198,
            24.184916
          ],
          [
            120.701703,
            24.184773
          ],
          [
            120.701705,
            24.184854
          ],
          [
            120.701705,
            24.184854
          ],
          [
            120.701713,
            24.185219
          ],
          [
            120.701195,
            24.185229
          ],
          [
            120.701189,
            24.18469
          ],
          [
            120.701189,
            24.18469
          ],
          [
            120.701187,
            24.184469
          ],
          [
            120.701017,
            24.184369
          ],
          [
            120.701017,
            24.184369
          ],
          [
            120.70056,
            24.184101
          ],
          [
            120.700478,
            24.184053
          ],
          [
            120.700478,
            24.184053
          ],
          [
            120.70056,
            24.184101
          ],
          [
            120.700663,
            24.184162
          ],
          [
            120.700663,
            24.184162
          ],
          [
            120.70056,
            24.184101
          ],
          [
            120.699948,
            24.183742
          ],
          [
            120.699948,
            24.183733
          ],
          [
            120.699948,
            24.18372
          ],
          [
            120.700241,
            24.183381
          ],
          [
            120.700311,
            24.183298
          ],
          [
            120.699653,
            24.182826
          ],
          [
            120.699576,
            24.182916
          ],
          [
            120.699576,
            24.182955
          ],
          [
            120.700119,
            24.183303
          ],
          [
            120.700119,
            24.183303
          ],
          [
            120.700241,
            24.183381
          ],
          [
            120.700311,
            24.183298
          ],
          [
            120.699653,
            24.182826
          ],
          [
            120.69957,
            24.182792
          ],
          [
            120.699454,
            24.182712
          ],
          [
            120.699345,
            24.182733
          ],
          [
            120.699175,
            24.182771
          ],
          [
            120.698742,
            24.182873
          ],
          [
            120.698335,
            24.182962
          ],
          [
            120.698247,
            24.182982
          ],
          [
            120.698175,
            24.182998
          ],
          [
            120.697381,
            24.18316
          ],
          [
            120.69717,
            24.183195
          ],
          [
            120.696881,
            24.183229
          ],
          [
            120.696425,
            24.183272
          ],
          [
            120.696305,
            24.183278
          ],
          [
            120.696228,
            24.183285
          ],
          [
            120.696144,
            24.183288
          ],
          [
            120.695782,
            24.183292
          ],
          [
            120.695491,
            24.183294
          ],
          [
            120.695304,
            24.18329
          ],
          [
            120.695182,
            24.183287
          ],
          [
            120.695085,
            24.183284
          ],
          [
            120.694995,
            24.183279
          ],
          [
            120.694893,
            24.183271
          ],
          [
            120.694626,
            24.183252
          ],
          [
            120.694458,
            24.183231
          ],
          [
            120.694178,
            24.183193
          ],
          [
            120.693835,
            24.183139
          ],
          [
            120.693592,
            24.183094
          ],
          [
            120.693313,
            24.183036
          ],
          [
            120.693256,
            24.183023
          ],
          [
            120.693196,
            24.183009
          ],
          [
            120.692896,
            24.182934
          ],
          [
            120.692572,
            24.182846
          ],
          [
            120.692412,
            24.182804
          ],
          [
            120.692111,
            24.182719
          ],
          [
            120.692048,
            24.182702
          ],
          [
            120.69195,
            24.182675
          ],
          [
            120.69183,
            24.182643
          ],
          [
            120.691361,
            24.182533
          ],
          [
            120.691157,
            24.182492
          ],
          [
            120.690879,
            24.182432
          ],
          [
            120.690807,
            24.182419
          ],
          [
            120.690749,
            24.182406
          ],
          [
            120.689978,
            24.182251
          ],
          [
            120.689627,
            24.182191
          ],
          [
            120.689176,
            24.182117
          ],
          [
            120.688916,
            24.18208
          ],
          [
            120.688916,
            24.18208
          ],
          [
            120.688592,
            24.182033
          ],
          [
            120.688479,
            24.182017
          ],
          [
            120.688402,
            24.18212
          ],
          [
            120.688397,
            24.182126
          ],
          [
            120.688397,
            24.182126
          ],
          [
            120.688402,
            24.18212
          ],
          [
            120.688479,
            24.182017
          ],
          [
            120.68854,
            24.181939
          ],
          [
            120.688644,
            24.181954
          ],
          [
            120.689012,
            24.182008
          ],
          [
            120.689234,
            24.182039
          ],
          [
            120.689665,
            24.182103
          ],
          [
            120.690023,
            24.182167
          ],
          [
            120.690778,
            24.18232
          ],
          [
            120.690839,
            24.182331
          ],
          [
            120.690901,
            24.182346
          ],
          [
            120.69128,
            24.182427
          ],
          [
            120.691633,
            24.182507
          ],
          [
            120.691794,
            24.182543
          ],
          [
            120.691972,
            24.182588
          ],
          [
            120.692049,
            24.182609
          ],
          [
            120.692048,
            24.182702
          ],
          [
            120.69195,
            24.182675
          ],
          [
            120.69183,
            24.182643
          ],
          [
            120.691361,
            24.182533
          ],
          [
            120.691157,
            24.182492
          ],
          [
            120.691245,
            24.182696
          ],
          [
            120.691276,
            24.18276
          ],
          [
            120.69133,
            24.182836
          ],
          [
            120.691349,
            24.182855
          ],
          [
            120.691349,
            24.182855
          ],
          [
            120.691442,
            24.182952
          ],
          [
            120.691565,
            24.183058
          ],
          [
            120.691566,
            24.183156
          ],
          [
            120.691566,
            24.183156
          ],
          [
            120.691565,
            24.183058
          ],
          [
            120.691873,
            24.183065
          ],
          [
            120.692048,
            24.183034
          ],
          [
            120.692163,
            24.182948
          ],
          [
            120.692216,
            24.18302
          ],
          [
            120.69224,
            24.183347
          ],
          [
            120.692482,
            24.183347
          ],
          [
            120.692482,
            24.183347
          ],
          [
            120.69224,
            24.183347
          ],
          [
            120.692247,
            24.183547
          ],
          [
            120.691991,
            24.18349
          ],
          [
            120.691915,
            24.183498
          ],
          [
            120.691862,
            24.18352
          ],
          [
            120.691812,
            24.183903
          ],
          [
            120.691812,
            24.183903
          ],
          [
            120.691862,
            24.18352
          ],
          [
            120.691915,
            24.183498
          ],
          [
            120.691991,
            24.18349
          ],
          [
            120.692247,
            24.183547
          ],
          [
            120.69224,
            24.183753
          ],
          [
            120.692355,
            24.183783
          ],
          [
            120.692355,
            24.183783
          ],
          [
            120.69224,
            24.183753
          ],
          [
            120.692247,
            24.183547
          ],
          [
            120.692725,
            24.183667
          ],
          [
            120.692725,
            24.183667
          ],
          [
            120.692827,
            24.183692
          ],
          [
            120.692827,
            24.183692
          ],
          [
            120.69311,
            24.183763
          ],
          [
            120.6933,
            24.183818
          ],
          [
            120.6933,
            24.183818
          ],
          [
            120.693631,
            24.183914
          ],
          [
            120.693752,
            24.183949
          ],
          [
            120.693752,
            24.183949
          ],
          [
            120.694017,
            24.184026
          ],
          [
            120.695092,
            24.184268
          ],
          [
            120.695101,
            24.184775
          ],
          [
            120.695102,
            24.184829
          ],
          [
            120.695102,
            24.184829
          ],
          [
            120.695108,
            24.185168
          ],
          [
            120.695108,
            24.185168
          ],
          [
            120.695101,
            24.184775
          ],
          [
            120.695092,
            24.184268
          ],
          [
            120.695088,
            24.183383
          ],
          [
            120.695085,
            24.183284
          ],
          [
            120.695083,
            24.183194
          ],
          [
            120.695185,
            24.183197
          ],
          [
            120.69529,
            24.183199
          ],
          [
            120.69529,
            24.183199
          ],
          [
            120.695497,
            24.183204
          ],
          [
            120.696141,
            24.183195
          ],
          [
            120.696225,
            24.183196
          ],
          [
            120.696228,
            24.183285
          ],
          [
            120.696144,
            24.183288
          ],
          [
            120.695782,
            24.183292
          ],
          [
            120.695491,
            24.183294
          ],
          [
            120.695304,
            24.18329
          ],
          [
            120.695182,
            24.183287
          ],
          [
            120.695085,
            24.183284
          ],
          [
            120.694995,
            24.183279
          ],
          [
            120.694893,
            24.183271
          ],
          [
            120.694626,
            24.183252
          ],
          [
            120.694458,
            24.183231
          ],
          [
            120.694178,
            24.183193
          ],
          [
            120.693835,
            24.183139
          ],
          [
            120.693592,
            24.183094
          ],
          [
            120.693313,
            24.183036
          ],
          [
            120.693256,
            24.183023
          ],
          [
            120.693237,
            24.183123
          ],
          [
            120.693225,
            24.183263
          ],
          [
            120.693167,
            24.18346
          ],
          [
            120.69311,
            24.183763
          ],
          [
            120.693079,
            24.183968
          ],
          [
            120.693037,
            24.184174
          ],
          [
            120.692954,
            24.184517
          ],
          [
            120.693085,
            24.184565
          ],
          [
            120.693085,
            24.184565
          ],
          [
            120.692954,
            24.184517
          ],
          [
            120.692465,
            24.184337
          ],
          [
            120.692465,
            24.184337
          ],
          [
            120.692232,
            24.184251
          ],
          [
            120.692235,
            24.184128
          ],
          [
            120.692235,
            24.184128
          ],
          [
            120.692232,
            24.184251
          ],
          [
            120.691789,
            24.184082
          ],
          [
            120.691802,
            24.183985
          ],
          [
            120.691802,
            24.183985
          ],
          [
            120.691789,
            24.184082
          ],
          [
            120.692232,
            24.184251
          ],
          [
            120.692954,
            24.184517
          ],
          [
            120.693337,
            24.184658
          ],
          [
            120.693838,
            24.184862
          ],
          [
            120.695094,
            24.185395
          ],
          [
            120.695211,
            24.185363
          ],
          [
            120.695768,
            24.185351
          ],
          [
            120.696339,
            24.185339
          ],
          [
            120.696375,
            24.185986
          ],
          [
            120.696402,
            24.186503
          ],
          [
            120.696442,
            24.186556
          ],
          [
            120.696442,
            24.186556
          ],
          [
            120.696402,
            24.186503
          ],
          [
            120.696375,
            24.185986
          ],
          [
            120.696339,
            24.185339
          ],
          [
            120.69633,
            24.185187
          ],
          [
            120.696311,
            24.184832
          ],
          [
            120.696284,
            24.184284
          ],
          [
            120.696279,
            24.184238
          ],
          [
            120.696256,
            24.183815
          ],
          [
            120.696256,
            24.183815
          ],
          [
            120.696279,
            24.184238
          ],
          [
            120.697344,
            24.184
          ],
          [
            120.697323,
            24.183878
          ],
          [
            120.697323,
            24.183878
          ],
          [
            120.697344,
            24.184
          ],
          [
            120.697346,
            24.184984
          ],
          [
            120.697346,
            24.185065
          ],
          [
            120.697346,
            24.185065
          ],
          [
            120.697346,
            24.18532
          ],
          [
            120.69835,
            24.1853
          ],
          [
            120.699201,
            24.185279
          ],
          [
            120.699965,
            24.18526
          ],
          [
            120.700579,
            24.185245
          ],
          [
            120.700583,
            24.185409
          ],
          [
            120.700583,
            24.185409
          ],
          [
            120.700594,
            24.185882
          ],
          [
            120.699972,
            24.185898
          ],
          [
            120.699967,
            24.185414
          ],
          [
            120.699967,
            24.185414
          ],
          [
            120.699965,
            24.18526
          ],
          [
            120.699689,
            24.185267
          ],
          [
            120.699689,
            24.185267
          ],
          [
            120.699201,
            24.185279
          ],
          [
            120.699027,
            24.185283
          ],
          [
            120.699027,
            24.185283
          ],
          [
            120.69881,
            24.185289
          ],
          [
            120.69881,
            24.185289
          ],
          [
            120.69835,
            24.1853
          ],
          [
            120.698355,
            24.185419
          ],
          [
            120.698355,
            24.185419
          ],
          [
            120.69835,
            24.1853
          ],
          [
            120.697925,
            24.185308
          ],
          [
            120.697925,
            24.185308
          ],
          [
            120.69758,
            24.185315
          ],
          [
            120.69758,
            24.185315
          ],
          [
            120.697346,
            24.18532
          ],
          [
            120.697318,
            24.185321
          ],
          [
            120.697315,
            24.185437
          ],
          [
            120.697315,
            24.185437
          ],
          [
            120.697309,
            24.185652
          ],
          [
            120.6971,
            24.185657
          ],
          [
            120.697015,
            24.18597
          ],
          [
            120.69676,
            24.185976
          ],
          [
            120.696726,
            24.185977
          ],
          [
            120.696726,
            24.185524
          ],
          [
            120.696726,
            24.185524
          ],
          [
            120.696726,
            24.185977
          ],
          [
            120.696375,
            24.185986
          ],
          [
            120.696339,
            24.185339
          ],
          [
            120.69633,
            24.185187
          ],
          [
            120.696311,
            24.184832
          ],
          [
            120.696284,
            24.184284
          ],
          [
            120.696279,
            24.184238
          ],
          [
            120.69625,
            24.183713
          ],
          [
            120.696238,
            24.183513
          ],
          [
            120.696228,
            24.183382
          ],
          [
            120.696228,
            24.183285
          ],
          [
            120.696144,
            24.183288
          ],
          [
            120.695782,
            24.183292
          ],
          [
            120.695491,
            24.183294
          ],
          [
            120.695304,
            24.18329
          ],
          [
            120.695182,
            24.183287
          ],
          [
            120.695085,
            24.183284
          ],
          [
            120.694995,
            24.183279
          ],
          [
            120.694893,
            24.183271
          ],
          [
            120.694626,
            24.183252
          ],
          [
            120.694458,
            24.183231
          ],
          [
            120.694178,
            24.183193
          ],
          [
            120.693835,
            24.183139
          ],
          [
            120.693592,
            24.183094
          ],
          [
            120.693313,
            24.183036
          ],
          [
            120.693256,
            24.183023
          ],
          [
            120.693196,
            24.183009
          ],
          [
            120.692896,
            24.182934
          ],
          [
            120.692572,
            24.182846
          ],
          [
            120.692412,
            24.182804
          ],
          [
            120.692111,
            24.182719
          ],
          [
            120.692048,
            24.182702
          ],
          [
            120.69195,
            24.182675
          ],
          [
            120.69183,
            24.182643
          ],
          [
            120.691361,
            24.182533
          ],
          [
            120.691157,
            24.182492
          ],
          [
            120.690879,
            24.182432
          ],
          [
            120.690807,
            24.182419
          ],
          [
            120.690749,
            24.182406
          ],
          [
            120.689978,
            24.182251
          ],
          [
            120.689627,
            24.182191
          ],
          [
            120.689176,
            24.182117
          ],
          [
            120.688592,
            24.182033
          ],
          [
            120.688479,
            24.182017
          ],
          [
            120.688402,
            24.18212
          ],
          [
            120.688204,
            24.18236
          ],
          [
            120.68816,
            24.182415
          ],
          [
            120.688101,
            24.182498
          ],
          [
            120.688065,
            24.182548
          ],
          [
            120.688156,
            24.182594
          ],
          [
            120.688913,
            24.182974
          ],
          [
            120.688913,
            24.182974
          ],
          [
            120.688156,
            24.182594
          ],
          [
            120.688065,
            24.182548
          ],
          [
            120.688101,
            24.182498
          ],
          [
            120.68816,
            24.182415
          ],
          [
            120.688204,
            24.18236
          ],
          [
            120.688402,
            24.18212
          ],
          [
            120.688479,
            24.182017
          ],
          [
            120.68854,
            24.181939
          ],
          [
            120.688644,
            24.181954
          ],
          [
            120.689012,
            24.182008
          ],
          [
            120.689234,
            24.182039
          ],
          [
            120.689665,
            24.182103
          ],
          [
            120.690023,
            24.182167
          ],
          [
            120.690778,
            24.18232
          ],
          [
            120.690839,
            24.182331
          ],
          [
            120.690901,
            24.182346
          ],
          [
            120.69128,
            24.182427
          ],
          [
            120.691633,
            24.182507
          ],
          [
            120.691794,
            24.182543
          ],
          [
            120.691972,
            24.182588
          ],
          [
            120.692049,
            24.182609
          ],
          [
            120.692126,
            24.18263
          ],
          [
            120.692246,
            24.182665
          ],
          [
            120.692678,
            24.182782
          ],
          [
            120.693218,
            24.18292
          ],
          [
            120.693272,
            24.182932
          ],
          [
            120.693256,
            24.183023
          ],
          [
            120.693237,
            24.183123
          ],
          [
            120.693225,
            24.183263
          ],
          [
            120.693167,
            24.18346
          ],
          [
            120.69311,
            24.183763
          ],
          [
            120.693087,
            24.183916
          ],
          [
            120.693087,
            24.183916
          ],
          [
            120.69311,
            24.183763
          ],
          [
            120.693167,
            24.18346
          ],
          [
            120.693225,
            24.183263
          ],
          [
            120.693237,
            24.183123
          ],
          [
            120.693256,
            24.183023
          ],
          [
            120.693272,
            24.182932
          ],
          [
            120.693335,
            24.182949
          ],
          [
            120.693639,
            24.18301
          ],
          [
            120.693905,
            24.183057
          ],
          [
            120.694081,
            24.183088
          ],
          [
            120.694241,
            24.183109
          ],
          [
            120.694394,
            24.183131
          ],
          [
            120.694592,
            24.183159
          ],
          [
            120.6948,
            24.183174
          ],
          [
            120.694999,
            24.18319
          ],
          [
            120.695083,
            24.183194
          ],
          [
            120.695185,
            24.183197
          ],
          [
            120.695497,
            24.183204
          ],
          [
            120.696141,
            24.183195
          ],
          [
            120.696225,
            24.183196
          ],
          [
            120.696296,
            24.18319
          ],
          [
            120.696492,
            24.183177
          ],
          [
            120.696874,
            24.18314
          ],
          [
            120.697126,
            24.18311
          ],
          [
            120.697362,
            24.18307
          ],
          [
            120.698168,
            24.182907
          ],
          [
            120.698241,
            24.182892
          ],
          [
            120.698247,
            24.182982
          ],
          [
            120.698251,
            24.183072
          ],
          [
            120.698267,
            24.183382
          ],
          [
            120.69836,
            24.183376
          ],
          [
            120.69836,
            24.183376
          ],
          [
            120.698267,
            24.183382
          ],
          [
            120.698284,
            24.183791
          ],
          [
            120.698882,
            24.18376
          ],
          [
            120.698882,
            24.18376
          ],
          [
            120.698718,
            24.183768
          ],
          [
            120.698718,
            24.183768
          ],
          [
            120.698546,
            24.183777
          ],
          [
            120.698546,
            24.183777
          ],
          [
            120.699183,
            24.183744
          ],
          [
            120.699948,
            24.183733
          ],
          [
            120.699948,
            24.183742
          ],
          [
            120.70056,
            24.184101
          ],
          [
            120.701187,
            24.184469
          ],
          [
            120.701703,
            24.184773
          ],
          [
            120.701713,
            24.185219
          ],
          [
            120.701729,
            24.185791
          ],
          [
            120.70173,
            24.185855
          ],
          [
            120.701748,
            24.186507
          ],
          [
            120.701929,
            24.186504
          ],
          [
            120.701929,
            24.186504
          ],
          [
            120.701748,
            24.186507
          ],
          [
            120.70154,
            24.186511
          ],
          [
            120.70154,
            24.186511
          ],
          [
            120.701217,
            24.186516
          ],
          [
            120.70122,
            24.186679
          ],
          [
            120.70122,
            24.186679
          ],
          [
            120.701217,
            24.186516
          ],
          [
            120.700967,
            24.18652
          ],
          [
            120.700967,
            24.18652
          ],
          [
            120.700622,
            24.186526
          ],
          [
            120.700622,
            24.186526
          ],
          [
            120.700609,
            24.186526
          ],
          [
            120.700172,
            24.186534
          ],
          [
            120.700172,
            24.186534
          ],
          [
            120.69998,
            24.186537
          ],
          [
            120.699681,
            24.186542
          ],
          [
            120.699681,
            24.186542
          ],
          [
            120.699216,
            24.18655
          ],
          [
            120.699108,
            24.186552
          ],
          [
            120.699108,
            24.186552
          ],
          [
            120.698645,
            24.186559
          ],
          [
            120.698645,
            24.186559
          ],
          [
            120.698421,
            24.186563
          ],
          [
            120.698433,
            24.186944
          ],
          [
            120.698567,
            24.186942
          ],
          [
            120.698567,
            24.186942
          ],
          [
            120.699312,
            24.186932
          ],
          [
            120.69927,
            24.187259
          ],
          [
            120.698579,
            24.187272
          ],
          [
            120.698579,
            24.187272
          ],
          [
            120.69927,
            24.187259
          ],
          [
            120.699205,
            24.187575
          ],
          [
            120.698605,
            24.187597
          ],
          [
            120.698453,
            24.187603
          ],
          [
            120.698443,
            24.187274
          ],
          [
            120.698025,
            24.187282
          ],
          [
            120.698025,
            24.187282
          ],
          [
            120.697788,
            24.187287
          ],
          [
            120.697788,
            24.187287
          ],
          [
            120.697521,
            24.187292
          ],
          [
            120.697521,
            24.187292
          ],
          [
            120.697386,
            24.187295
          ],
          [
            120.697386,
            24.187295
          ],
          [
            120.697068,
            24.187301
          ],
          [
            120.697201,
            24.187448
          ],
          [
            120.697201,
            24.187448
          ],
          [
            120.697068,
            24.187301
          ],
          [
            120.696787,
            24.186986
          ],
          [
            120.697136,
            24.186977
          ],
          [
            120.697136,
            24.186977
          ],
          [
            120.697406,
            24.18697
          ],
          [
            120.697406,
            24.18697
          ],
          [
            120.697786,
            24.18696
          ],
          [
            120.697786,
            24.18696
          ],
          [
            120.698146,
            24.186951
          ],
          [
            120.698146,
            24.186951
          ],
          [
            120.698433,
            24.186944
          ],
          [
            120.698421,
            24.186563
          ],
          [
            120.698144,
            24.186568
          ],
          [
            120.698144,
            24.186568
          ],
          [
            120.697803,
            24.186573
          ],
          [
            120.697803,
            24.186573
          ],
          [
            120.697421,
            24.18658
          ],
          [
            120.697421,
            24.18658
          ],
          [
            120.696473,
            24.186596
          ],
          [
            120.696402,
            24.186503
          ],
          [
            120.696375,
            24.185986
          ],
          [
            120.696726,
            24.185977
          ],
          [
            120.69676,
            24.185976
          ],
          [
            120.697015,
            24.18597
          ],
          [
            120.697149,
            24.185967
          ],
          [
            120.697155,
            24.186377
          ],
          [
            120.697155,
            24.186377
          ],
          [
            120.697155,
            24.186377
          ],
          [
            120.697155,
            24.186377
          ],
          [
            120.697149,
            24.185967
          ],
          [
            120.697015,
            24.18597
          ],
          [
            120.69676,
            24.185976
          ],
          [
            120.696726,
            24.185977
          ],
          [
            120.696375,
            24.185986
          ],
          [
            120.696402,
            24.186503
          ],
          [
            120.696473,
            24.186596
          ],
          [
            120.696781,
            24.186591
          ],
          [
            120.696781,
            24.186591
          ],
          [
            120.696473,
            24.186596
          ],
          [
            120.696402,
            24.186503
          ],
          [
            120.696392,
            24.186307
          ],
          [
            120.696392,
            24.186307
          ],
          [
            120.696375,
            24.185986
          ],
          [
            120.696512,
            24.185982
          ],
          [
            120.696512,
            24.185982
          ],
          [
            120.696726,
            24.185977
          ],
          [
            120.696726,
            24.185851
          ],
          [
            120.696726,
            24.185851
          ],
          [
            120.696726,
            24.185977
          ],
          [
            120.69676,
            24.185976
          ],
          [
            120.697015,
            24.18597
          ],
          [
            120.69705,
            24.185842
          ],
          [
            120.69705,
            24.185842
          ],
          [
            120.697015,
            24.18597
          ],
          [
            120.697149,
            24.185967
          ],
          [
            120.697406,
            24.18596
          ],
          [
            120.697601,
            24.185955
          ],
          [
            120.697601,
            24.185955
          ],
          [
            120.697817,
            24.18595
          ],
          [
            120.697817,
            24.18595
          ],
          [
            120.698102,
            24.185943
          ],
          [
            120.698102,
            24.185943
          ],
          [
            120.698106,
            24.185943
          ],
          [
            120.698377,
            24.185937
          ],
          [
            120.699208,
            24.185916
          ],
          [
            120.699206,
            24.185773
          ],
          [
            120.699206,
            24.185773
          ],
          [
            120.699208,
            24.185916
          ],
          [
            120.699746,
            24.185903
          ],
          [
            120.699746,
            24.185903
          ],
          [
            120.699972,
            24.185898
          ],
          [
            120.700243,
            24.185891
          ],
          [
            120.700243,
            24.185891
          ],
          [
            120.700594,
            24.185882
          ],
          [
            120.70059,
            24.185729
          ],
          [
            120.70059,
            24.185729
          ],
          [
            120.700594,
            24.185882
          ],
          [
            120.701206,
            24.185867
          ],
          [
            120.701204,
            24.185723
          ],
          [
            120.701204,
            24.185723
          ],
          [
            120.701206,
            24.185867
          ],
          [
            120.701556,
            24.185859
          ],
          [
            120.701556,
            24.185859
          ],
          [
            120.701206,
            24.185867
          ],
          [
            120.701201,
            24.185562
          ],
          [
            120.701198,
            24.185393
          ],
          [
            120.701198,
            24.185393
          ],
          [
            120.701195,
            24.185229
          ],
          [
            120.700579,
            24.185245
          ],
          [
            120.699965,
            24.18526
          ],
          [
            120.699962,
            24.184934
          ],
          [
            120.699858,
            24.184936
          ],
          [
            120.699858,
            24.184936
          ],
          [
            120.699962,
            24.184934
          ],
          [
            120.699958,
            24.184646
          ],
          [
            120.699852,
            24.184646
          ],
          [
            120.699852,
            24.184646
          ],
          [
            120.699958,
            24.184646
          ],
          [
            120.699955,
            24.184346
          ],
          [
            120.699952,
            24.184094
          ],
          [
            120.699824,
            24.184093
          ],
          [
            120.699824,
            24.184093
          ],
          [
            120.699952,
            24.184094
          ],
          [
            120.699948,
            24.183742
          ],
          [
            120.699948,
            24.183733
          ],
          [
            120.699948,
            24.18372
          ],
          [
            120.69986,
            24.183632
          ],
          [
            120.69986,
            24.183632
          ],
          [
            120.699948,
            24.18372
          ],
          [
            120.699948,
            24.183733
          ],
          [
            120.699183,
            24.183744
          ],
          [
            120.699178,
            24.18316
          ],
          [
            120.699178,
            24.18316
          ],
          [
            120.699183,
            24.183744
          ],
          [
            120.699187,
            24.184088
          ],
          [
            120.69919,
            24.18434
          ],
          [
            120.699193,
            24.184645
          ],
          [
            120.699197,
            24.184945
          ],
          [
            120.699201,
            24.185279
          ],
          [
            120.699205,
            24.185665
          ],
          [
            120.699205,
            24.185665
          ],
          [
            120.699201,
            24.185279
          ],
          [
            120.699197,
            24.184945
          ],
          [
            120.699193,
            24.184645
          ],
          [
            120.69919,
            24.18434
          ],
          [
            120.699293,
            24.184341
          ],
          [
            120.699293,
            24.184341
          ],
          [
            120.69919,
            24.18434
          ],
          [
            120.699193,
            24.184645
          ],
          [
            120.699197,
            24.184945
          ],
          [
            120.699281,
            24.184944
          ],
          [
            120.699281,
            24.184944
          ],
          [
            120.699197,
            24.184945
          ],
          [
            120.699201,
            24.185279
          ],
          [
            120.69835,
            24.1853
          ],
          [
            120.697832,
            24.18531
          ],
          [
            120.697832,
            24.18531
          ],
          [
            120.697346,
            24.18532
          ],
          [
            120.697318,
            24.185321
          ],
          [
            120.696548,
            24.185335
          ],
          [
            120.696548,
            24.185335
          ],
          [
            120.696339,
            24.185339
          ],
          [
            120.695768,
            24.185351
          ],
          [
            120.695841,
            24.184982
          ],
          [
            120.695979,
            24.184286
          ],
          [
            120.696036,
            24.184062
          ],
          [
            120.696123,
            24.183825
          ],
          [
            120.696123,
            24.183825
          ]
        ]
      },
      "properties": {
        "routeId": "taichung-kee-6287-9675d6-d1",
        "city": "taichung",
        "source_file": "taichung/taichung-kee-6287-9675d6-d1.geojson",
        "distance_km": 17.904999999999998,
        "duration_min": 42.22926666666667,
        "valhalla_config": "valhalla.json"
      }
    }
  ]
}