{
  "type": "FeatureCollection",
  "features": [
    {
      "type": "Feature",
      "geometry": {
        "type": "LineString",
        "coordinates": [
          [
            120.683861,
            24.245596
          ],
          [
            120.683861,
            24.245596
          ],
          [
            120.683861,
            24.245596
          ],
          [
            120.683861,
            24.245596
          ],
          [
            120.684193,
            24.245377
          ],
          [
            120.684,
            24.245146
          ],
          [
            120.683892,
            24.245016
          ],
          [
            120.683544,
            24.2446
          ],
          [
            120.683318,
            24.24432
          ],
          [
            120.68319,
            24.244182
          ],
          [
            120.682876,
            24.243815
          ],
          [
            120.682604,
            24.243493
          ],
          [
            120.682527,
            24.243388
          ],
          [
            120.683164,
            24.243202
          ],
          [
            120.683797,
            24.242986
          ],
          [
            120.6841,
            24.242893
          ],
          [
            120.684305,
            24.242809
          ],
          [
            120.68438,
            24.242756
          ],
          [
            120.684542,
            24.242519
          ],
          [
            120.684646,
            24.242416
          ],
          [
            120.684831,
            24.242242
          ],
          [
            120.684861,
            24.242213
          ],
          [
            120.685146,
            24.241942
          ],
          [
            120.685438,
            24.241665
          ],
          [
            120.685602,
            24.241521
          ],
          [
            120.685729,
            24.241439
          ],
          [
            120.685968,
            24.241386
          ],
          [
            120.686286,
            24.241379
          ],
          [
            120.686668,
            24.241373
          ],
          [
            120.686808,
            24.241368
          ],
          [
            120.686906,
            24.241336
          ],
          [
            120.687032,
            24.241228
          ],
          [
            120.687279,
            24.240968
          ],
          [
            120.687293,
            24.240953
          ],
          [
            120.687709,
            24.240539
          ],
          [
            120.688285,
            24.239971
          ],
          [
            120.688656,
            24.239625
          ],
          [
            120.689079,
            24.239218
          ],
          [
            120.689145,
            24.239158
          ],
          [
            120.689251,
            24.239071
          ],
          [
            120.689776,
            24.238583
          ],
          [
            120.689814,
            24.238549
          ],
          [
            120.69003,
            24.238384
          ],
          [
            120.69003,
            24.238384
          ],
          [
            120.689814,
            24.238549
          ],
          [
            120.689776,
            24.238583
          ],
          [
            120.689251,
            24.239071
          ],
          [
            120.689145,
            24.239158
          ],
          [
            120.689079,
            24.239218
          ],
          [
            120.688656,
            24.239625
          ],
          [
            120.688285,
            24.239971
          ],
          [
            120.687709,
            24.240539
          ],
          [
            120.687293,
            24.240953
          ],
          [
            120.687279,
            24.240968
          ],
          [
            120.687032,
            24.241228
          ],
          [
            120.686794,
            24.241212
          ],
          [
            120.686566,
            24.241156
          ],
          [
            120.68614,
            24.241043
          ],
          [
            120.686114,
            24.240594
          ],
          [
            120.686022,
            24.240234
          ],
          [
            120.686022,
            24.240234
          ],
          [
            120.686114,
            24.240594
          ],
          [
            120.68614,
            24.241043
          ],
          [
            120.685804,
            24.241041
          ],
          [
            120.685568,
            24.240957
          ],
          [
            120.685335,
            24.240923
          ],
          [
            120.685327,
            24.240922
          ],
          [
            120.685327,
            24.240922
          ],
          [
            120.685335,
            24.240923
          ],
          [
            120.685568,
            24.240957
          ],
          [
            120.685804,
            24.241041
          ],
          [
            120.68614,
            24.241043
          ],
          [
            120.686566,
            24.241156
          ],
          [
            120.686794,
            24.241212
          ],
          [
            120.687032,
            24.241228
          ],
          [
            120.686906,
            24.241336
          ],
          [
            120.686808,
            24.241368
          ],
          [
            120.686668,
            24.241373
          ],
          [
            120.686286,
            24.241379
          ],
          [
            120.685968,
            24.241386
          ],
          [
            120.685729,
            24.241439
          ],
          [
            120.685602,
            24.241521
          ],
          [
            120.685438,
            24.241665
          ],
          [
            120.685146,
            24.241942
          ],
          [
            120.684861,
            24.242213
          ],
          [
            120.684831,
            24.242242
          ],
          [
            120.684646,
            24.242416
          ],
          [
            120.684542,
            24.242519
          ],
          [
            120.68438,
            24.242756
          ],
          [
            120.684305,
            24.242809
          ],
          [
            120.6841,
            24.242893
          ],
          [
            120.684151,
            24.243167
          ],
          [
            120.684167,
            24.243202
          ],
          [
            120.683815,
            24.243438
          ],
          [
            120.683815,
            24.243438
          ],
          [
            120.684167,
            24.243202
          ],
          [
            120.684151,
            24.243167
          ],
          [
            120.6841,
            24.242893
          ],
          [
            120.683797,
            24.242986
          ],
          [
            120.683164,
            24.243202
          ],
          [
            120.682527,
            24.243388
          ],
          [
            120.682333,
            24.243123
          ],
          [
            120.682277,
            24.243047
          ],
          [
            120.682151,
            24.242877
          ],
          [
            120.681763,
            24.242376
          ],
          [
            120.681583,
            24.242125
          ],
          [
            120.680943,
            24.241227
          ],
          [
            120.680735,
            24.241021
          ],
          [
            120.680479,
            24.240736
          ],
          [
            120.679966,
            24.240176
          ],
          [
            120.679809,
            24.240047
          ],
          [
            120.680277,
            24.240015
          ],
          [
            120.68054,
            24.240008
          ],
          [
            120.680882,
            24.240037
          ],
          [
            120.680882,
            24.240037
          ],
          [
            120.68054,
            24.240008
          ],
          [
            120.680277,
            24.240015
          ],
          [
            120.679809,
            24.240047
          ],
          [
            120.679553,
            24.239854
          ],
          [
            120.679429,
            24.239745
          ],
          [
            120.679321,
            24.239619
          ],
          [
            120.678955,
            24.239141
          ],
          [
            120.679688,
            24.2387
          ],
          [
            120.679749,
            24.238633
          ],
          [
            120.679763,
            24.238571
          ],
          [
            120.679821,
            24.238502
          ],
          [
            120.679963,
            24.238383
          ],
          [
            120.680121,
            24.238281
          ],
          [
            120.680161,
            24.238262
          ],
          [
            120.680184,
            24.238257
          ],
          [
            120.680627,
            24.238161
          ],
          [
            120.680636,
            24.238116
          ],
          [
            120.680652,
            24.23801
          ],
          [
            120.680772,
            24.237938
          ],
          [
            120.681061,
            24.237946
          ],
          [
            120.681149,
            24.237929
          ],
          [
            120.681283,
            24.237873
          ],
          [
            120.681363,
            24.23785
          ],
          [
            120.681454,
            24.237766
          ],
          [
            120.68177,
            24.237702
          ],
          [
            120.681828,
            24.237639
          ],
          [
            120.682009,
            24.237476
          ],
          [
            120.682009,
            24.237476
          ],
          [
            120.681828,
            24.237639
          ],
          [
            120.68177,
            24.237702
          ],
          [
            120.681454,
            24.237766
          ],
          [
            120.681363,
            24.23785
          ],
          [
            120.681283,
            24.237873
          ],
          [
            120.681199,
            24.23778
          ],
          [
            120.681151,
            24.237658
          ],
          [
            120.681008,
            24.23693
          ],
          [
            120.681049,
            24.236857
          ],
          [
            120.681437,
            24.236805
          ],
          [
            120.681678,
            24.236748
          ],
          [
            120.682087,
            24.236559
          ],
          [
            120.682285,
            24.236512
          ],
          [
            120.682353,
            24.236496
          ],
          [
            120.682547,
            24.236463
          ],
          [
            120.682689,
            24.236435
          ],
          [
            120.682763,
            24.236424
          ],
          [
            120.682931,
            24.236343
          ],
          [
            120.683006,
            24.23626
          ],
          [
            120.682922,
            24.236066
          ],
          [
            120.682815,
            24.236018
          ],
          [
            120.682668,
            24.236072
          ],
          [
            120.682668,
            24.236072
          ],
          [
            120.682815,
            24.236018
          ],
          [
            120.682922,
            24.236066
          ],
          [
            120.683006,
            24.23626
          ],
          [
            120.683226,
            24.23644
          ],
          [
            120.683281,
            24.236517
          ],
          [
            120.683326,
            24.236893
          ],
          [
            120.683927,
            24.236842
          ],
          [
            120.684238,
            24.236808
          ],
          [
            120.684566,
            24.2368
          ],
          [
            120.684825,
            24.236788
          ],
          [
            120.685238,
            24.23679
          ],
          [
            120.685269,
            24.236876
          ],
          [
            120.684916,
            24.236919
          ],
          [
            120.684959,
            24.237249
          ],
          [
            120.685147,
            24.237836
          ],
          [
            120.685179,
            24.23789
          ],
          [
            120.68519,
            24.237959
          ],
          [
            120.685694,
            24.239187
          ],
          [
            120.685694,
            24.239221
          ],
          [
            120.68593,
            24.239871
          ],
          [
            120.686114,
            24.240594
          ],
          [
            120.68614,
            24.241043
          ],
          [
            120.686566,
            24.241156
          ],
          [
            120.686794,
            24.241212
          ],
          [
            120.687032,
            24.241228
          ],
          [
            120.687279,
            24.240968
          ],
          [
            120.687293,
            24.240953
          ],
          [
            120.687709,
            24.240539
          ],
          [
            120.688285,
            24.239971
          ],
          [
            120.688354,
            24.240029
          ],
          [
            120.688429,
            24.240161
          ],
          [
            120.688547,
            24.240381
          ],
          [
            120.688642,
            24.240516
          ],
          [
            120.68879,
            24.240653
          ],
          [
            120.688822,
            24.240768
          ],
          [
            120.688914,
            24.241536
          ],
          [
            120.688925,
            24.241605
          ],
          [
            120.688912,
            24.241694
          ],
          [
            120.688916,
            24.241871
          ],
          [
            120.689039,
            24.242539
          ],
          [
            120.689039,
            24.242539
          ],
          [
            120.689132,
            24.243049
          ],
          [
            120.689255,
            24.24381
          ],
          [
            120.689276,
            24.244214
          ],
          [
            120.689364,
            24.244879
          ],
          [
            120.689402,
            24.245067
          ],
          [
            120.689386,
            24.245138
          ],
          [
            120.689119,
            24.245257
          ],
          [
            120.689029,
            24.245356
          ],
          [
            120.688951,
            24.245467
          ],
          [
            120.688538,
            24.245733
          ],
          [
            120.688398,
            24.245814
          ],
          [
            120.688326,
            24.245877
          ],
          [
            120.688183,
            24.246088
          ],
          [
            120.688109,
            24.246127
          ],
          [
            120.687684,
            24.246141
          ],
          [
            120.687501,
            24.246113
          ],
          [
            120.687296,
            24.245997
          ],
          [
            120.687225,
            24.246216
          ],
          [
            120.687225,
            24.246216
          ],
          [
            120.687057,
            24.246738
          ],
          [
            120.686969,
            24.246381
          ],
          [
            120.68689,
            24.246111
          ],
          [
            120.68681,
            24.245909
          ],
          [
            120.68681,
            24.245909
          ],
          [
            120.686744,
            24.245742
          ],
          [
            120.686347,
            24.24514
          ],
          [
            120.686055,
            24.244871
          ],
          [
            120.685521,
            24.244375
          ],
          [
            120.684951,
            24.244882
          ],
          [
            120.68487,
            24.244898
          ],
          [
            120.684813,
            24.244836
          ],
          [
            120.684813,
            24.244836
          ],
          [
            120.68487,
            24.244898
          ],
          [
            120.684951,
            24.244976
          ],
          [
            120.684794,
            24.245073
          ],
          [
            120.684712,
            24.245101
          ],
          [
            120.684654,
            24.245108
          ],
          [
            120.684594,
            24.245114
          ],
          [
            120.684,
            24.245146
          ],
          [
            120.683892,
            24.245016
          ],
          [
            120.684066,
            24.244894
          ],
          [
            120.684066,
            24.244894
          ],
          [
            120.683892,
            24.245016
          ],
          [
            120.683544,
            24.2446
          ],
          [
            120.683448,
            24.244481
          ],
          [
            120.683448,
            24.244481
          ],
          [
            120.683318,
            24.24432
          ],
          [
            120.68319,
            24.244182
          ],
          [
            120.683073,
            24.244267
          ],
          [
            120.682654,
            24.244409
          ],
          [
            120.682682,
            24.244486
          ],
          [
            120.682682,
            24.244486
          ],
          [
            120.682654,
            24.244409
          ],
          [
            120.683073,
            24.244267
          ],
          [
            120.683066,
            24.244204
          ],
          [
            120.682876,
            24.243815
          ],
          [
            120.682714,
            24.243623
          ],
          [
            120.682714,
            24.243623
          ],
          [
            120.682876,
            24.243815
          ],
          [
            120.68319,
            24.244182
          ],
          [
            120.683318,
            24.24432
          ],
          [
            120.683717,
            24.244034
          ],
          [
            120.683947,
            24.243865
          ],
          [
            120.683947,
            24.243865
          ],
          [
            120.684465,
            24.243485
          ],
          [
            120.684824,
            24.2438
          ],
          [
            120.684571,
            24.243981
          ],
          [
            120.684571,
            24.243981
          ],
          [
            120.684016,
            24.244379
          ],
          [
            120.684125,
            24.244504
          ],
          [
            120.683544,
            24.2446
          ],
          [
            120.683892,
            24.245016
          ],
          [
            120.684,
            24.245146
          ],
          [
            120.684193,
            24.245377
          ],
          [
            120.684408,
            24.245634
          ],
          [
            120.68446,
            24.245696
          ],
          [
            120.68461,
            24.245876
          ],
          [
            120.684876,
            24.24615
          ],
          [
            120.684919,
            24.24621
          ],
          [
            120.684963,
            24.246268
          ],
          [
            120.684976,
            24.246324
          ],
          [
            120.684972,
            24.246442
          ],
          [
            120.685267,
            24.246537
          ],
          [
            120.685371,
            24.246568
          ],
          [
            120.685444,
            24.246588
          ],
          [
            120.685667,
            24.246659
          ],
          [
            120.686127,
            24.246745
          ],
          [
            120.68637,
            24.246815
          ],
          [
            120.686461,
            24.246844
          ],
          [
            120.686414,
            24.246956
          ],
          [
            120.686249,
            24.247561
          ],
          [
            120.685877,
            24.247587
          ],
          [
            120.685591,
            24.247608
          ],
          [
            120.685591,
            24.247608
          ],
          [
            120.685877,
            24.247587
          ],
          [
            120.685897,
            24.247816
          ],
          [
            120.685919,
            24.247855
          ],
          [
            120.685918,
            24.247903
          ],
          [
            120.685918,
            24.247903
          ],
          [
            120.685919,
            24.247855
          ],
          [
            120.685897,
            24.247816
          ],
          [
            120.685877,
            24.247587
          ],
          [
            120.686249,
            24.247561
          ],
          [
            120.686339,
            24.24723
          ],
          [
            120.686339,
            24.24723
          ],
          [
            120.686414,
            24.246956
          ],
          [
            120.686078,
            24.246854
          ],
          [
            120.685295,
            24.246669
          ],
          [
            120.684986,
            24.246569
          ],
          [
            120.684836,
            24.246547
          ],
          [
            120.684566,
            24.246576
          ],
          [
            120.684497,
            24.246586
          ],
          [
            120.684237,
            24.246624
          ],
          [
            120.683858,
            24.246687
          ],
          [
            120.683628,
            24.246704
          ],
          [
            120.683421,
            24.246712
          ],
          [
            120.683156,
            24.246673
          ],
          [
            120.683067,
            24.246662
          ],
          [
            120.682859,
            24.246739
          ],
          [
            120.682701,
            24.246786
          ],
          [
            120.682413,
            24.2469
          ],
          [
            120.68192,
            24.247145
          ],
          [
            120.6819,
            24.247155
          ],
          [
            120.680915,
            24.247676
          ],
          [
            120.680783,
            24.247735
          ],
          [
            120.680695,
            24.247792
          ],
          [
            120.680603,
            24.247849
          ],
          [
            120.680433,
            24.248018
          ],
          [
            120.680272,
            24.248247
          ],
          [
            120.680135,
            24.248435
          ],
          [
            120.67995,
            24.248678
          ],
          [
            120.679827,
            24.248793
          ],
          [
            120.679494,
            24.249007
          ],
          [
            120.679166,
            24.249218
          ],
          [
            120.678841,
            24.249424
          ],
          [
            120.678325,
            24.249762
          ],
          [
            120.677374,
            24.250355
          ],
          [
            120.677315,
            24.250392
          ],
          [
            120.676639,
            24.250817
          ],
          [
            120.675995,
            24.251225
          ],
          [
            120.675416,
            24.25159
          ],
          [
            120.675073,
            24.251804
          ],
          [
            120.675003,
            24.251837
          ],
          [
            120.674922,
            24.251847
          ],
          [
            120.674686,
            24.251773
          ],
          [
            120.674686,
            24.251773
          ],
          [
            120.674922,
            24.251847
          ],
          [
            120.674944,
            24.251804
          ],
          [
            120.675008,
            24.251718
          ],
          [
            120.675352,
            24.251504
          ],
          [
            120.675952,
            24.251139
          ],
          [
            120.676296,
            24.250925
          ],
          [
            120.676596,
            24.250732
          ],
          [
            120.677347,
            24.250259
          ],
          [
            120.678266,
            24.249677
          ],
          [
            120.678325,
            24.249762
          ],
          [
            120.677374,
            24.250355
          ],
          [
            120.677315,
            24.250392
          ],
          [
            120.676639,
            24.250817
          ],
          [
            120.675995,
            24.251225
          ],
          [
            120.675847,
            24.251318
          ],
          [
            120.675847,
            24.251318
          ],
          [
            120.675416,
            24.25159
          ],
          [
            120.675073,
            24.251804
          ],
          [
            120.675003,
            24.251837
          ],
          [
            120.674922,
            24.251847
          ],
          [
            120.674665,
            24.252062
          ],
          [
            120.674407,
            24.252341
          ],
          [
            120.674171,
            24.252617
          ],
          [
            120.67415,
            24.252641
          ],
          [
            120.673999,
            24.252815
          ],
          [
            120.673871,
            24.252963
          ],
          [
            120.673351,
            24.252665
          ],
          [
            120.673245,
            24.252657
          ],
          [
            120.673245,
            24.252657
          ],
          [
            120.673351,
            24.252665
          ],
          [
            120.673871,
            24.252963
          ],
          [
            120.673999,
            24.252815
          ],
          [
            120.67415,
            24.252641
          ],
          [
            120.674171,
            24.252617
          ],
          [
            120.674407,
            24.252341
          ],
          [
            120.674665,
            24.252062
          ],
          [
            120.674922,
            24.251847
          ],
          [
            120.674213,
            24.251625
          ],
          [
            120.673226,
            24.251251
          ],
          [
            120.673137,
            24.251227
          ],
          [
            120.673137,
            24.251227
          ],
          [
            120.672537,
            24.251068
          ],
          [
            120.672462,
            24.251029
          ],
          [
            120.672492,
            24.250968
          ],
          [
            120.67271,
            24.250813
          ],
          [
            120.673303,
            24.250422
          ],
          [
            120.673438,
            24.250342
          ],
          [
            120.673438,
            24.250342
          ],
          [
            120.673303,
            24.250422
          ],
          [
            120.67271,
            24.250813
          ],
          [
            120.672492,
            24.250968
          ],
          [
            120.672462,
            24.251029
          ],
          [
            120.672537,
            24.251068
          ],
          [
            120.673043,
            24.251202
          ],
          [
            120.673043,
            24.251202
          ],
          [
            120.673226,
            24.251251
          ],
          [
            120.674213,
            24.251625
          ],
          [
            120.674922,
            24.251847
          ],
          [
            120.674665,
            24.252062
          ],
          [
            120.674407,
            24.252341
          ],
          [
            120.674171,
            24.252617
          ],
          [
            120.67415,
            24.252641
          ],
          [
            120.673999,
            24.252815
          ],
          [
            120.673871,
            24.252963
          ],
          [
            120.67354,
            24.253326
          ],
          [
            120.673192,
            24.253861
          ],
          [
            120.672783,
            24.254427
          ],
          [
            120.672341,
            24.255095
          ],
          [
            120.671994,
            24.255604
          ],
          [
            120.671833,
            24.255817
          ],
          [
            120.671682,
            24.255967
          ],
          [
            120.671588,
            24.256042
          ],
          [
            120.671423,
            24.256139
          ],
          [
            120.67133,
            24.25619
          ],
          [
            120.671309,
            24.256203
          ],
          [
            120.67116,
            24.255577
          ],
          [
            120.671163,
            24.255532
          ],
          [
            120.671189,
            24.255504
          ],
          [
            120.671216,
            24.255484
          ],
          [
            120.671254,
            24.255342
          ],
          [
            120.671258,
            24.255167
          ],
          [
            120.67124,
            24.255045
          ],
          [
            120.671197,
            24.254939
          ],
          [
            120.671119,
            24.254809
          ],
          [
            120.671023,
            24.254748
          ],
          [
            120.670933,
            24.254602
          ],
          [
            120.670894,
            24.254569
          ],
          [
            120.670573,
            24.25463
          ],
          [
            120.670573,
            24.25463
          ],
          [
            120.670894,
            24.254569
          ],
          [
            120.670933,
            24.254602
          ],
          [
            120.671023,
            24.254748
          ],
          [
            120.671119,
            24.254809
          ],
          [
            120.671197,
            24.254939
          ],
          [
            120.67124,
            24.255045
          ],
          [
            120.671258,
            24.255167
          ],
          [
            120.671254,
            24.255342
          ],
          [
            120.671216,
            24.255484
          ],
          [
            120.671189,
            24.255504
          ],
          [
            120.671163,
            24.255532
          ],
          [
            120.67116,
            24.255577
          ],
          [
            120.671309,
            24.256203
          ],
          [
            120.67133,
            24.25619
          ],
          [
            120.671423,
            24.256139
          ],
          [
            120.671588,
            24.256042
          ],
          [
            120.671682,
            24.255967
          ],
          [
            120.671833,
            24.255817
          ],
          [
            120.671994,
            24.255604
          ],
          [
            120.672341,
            24.255095
          ],
          [
            120.672107,
            24.254544
          ],
          [
            120.671966,
            24.254271
          ],
          [
            120.671645,
            24.253536
          ],
          [
            120.671534,
            24.253326
          ],
          [
            120.671534,
            24.253326
          ],
          [
            120.671369,
            24.253013
          ],
          [
            120.671159,
            24.252787
          ],
          [
            120.670879,
            24.252424
          ],
          [
            120.670699,
            24.252197
          ],
          [
            120.670581,
            24.252029
          ],
          [
            120.670567,
            24.251952
          ],
          [
            120.670016,
            24.250728
          ],
          [
            120.670101,
            24.250726
          ],
          [
            120.670101,
            24.250726
          ],
          [
            120.670016,
            24.250728
          ],
          [
            120.670567,
            24.251952
          ],
          [
            120.670581,
            24.252029
          ],
          [
            120.670699,
            24.252197
          ],
          [
            120.670879,
            24.252424
          ],
          [
            120.671159,
            24.252787
          ],
          [
            120.671369,
            24.253013
          ],
          [
            120.671645,
            24.253536
          ],
          [
            120.671966,
            24.254271
          ],
          [
            120.672107,
            24.254544
          ],
          [
            120.672341,
            24.255095
          ],
          [
            120.671994,
            24.255604
          ],
          [
            120.671833,
            24.255817
          ],
          [
            120.671682,
            24.255967
          ],
          [
            120.671588,
            24.256042
          ],
          [
            120.671423,
            24.256139
          ],
          [
            120.67133,
            24.25619
          ],
          [
            120.671309,
            24.256203
          ],
          [
            120.671089,
            24.256296
          ],
          [
            120.671359,
            24.257063
          ],
          [
            120.671411,
            24.257129
          ],
          [
            120.671466,
            24.257197
          ],
          [
            120.672124,
            24.258246
          ],
          [
            120.672765,
            24.259303
          ],
          [
            120.67304,
            24.259747
          ],
          [
            120.673195,
            24.260001
          ],
          [
            120.673956,
            24.261225
          ],
          [
            120.674543,
            24.262154
          ],
          [
            120.674768,
            24.262526
          ],
          [
            120.674853,
            24.262629
          ],
          [
            120.675136,
            24.262879
          ],
          [
            120.675136,
            24.262879
          ],
          [
            120.675183,
            24.262921
          ],
          [
            120.675783,
            24.262767
          ],
          [
            120.676031,
            24.262652
          ],
          [
            120.677079,
            24.262383
          ],
          [
            120.677461,
            24.262266
          ],
          [
            120.677763,
            24.262177
          ],
          [
            120.677907,
            24.262105
          ],
          [
            120.678447,
            24.261978
          ],
          [
            120.67899,
            24.261942
          ],
          [
            120.679148,
            24.261906
          ],
          [
            120.679551,
            24.261741
          ],
          [
            120.679551,
            24.261741
          ],
          [
            120.679148,
            24.261906
          ],
          [
            120.67899,
            24.261942
          ],
          [
            120.678447,
            24.261978
          ],
          [
            120.677907,
            24.262105
          ],
          [
            120.677763,
            24.262177
          ],
          [
            120.677461,
            24.262266
          ],
          [
            120.677429,
            24.262276
          ],
          [
            120.677429,
            24.262276
          ],
          [
            120.677079,
            24.262383
          ],
          [
            120.676031,
            24.262652
          ],
          [
            120.675783,
            24.262767
          ],
          [
            120.675183,
            24.262921
          ],
          [
            120.676107,
            24.263682
          ],
          [
            120.676649,
            24.264127
          ],
          [
            120.676464,
            24.264191
          ],
          [
            120.676464,
            24.264191
          ],
          [
            120.67544,
            24.264543
          ],
          [
            120.675313,
            24.264596
          ],
          [
            120.675126,
            24.264691
          ],
          [
            120.673899,
            24.2651
          ],
          [
            120.673286,
            24.265271
          ],
          [
            120.671989,
            24.265623
          ],
          [
            120.671896,
            24.265629
          ],
          [
            120.67169,
            24.265687
          ],
          [
            120.67169,
            24.265687
          ],
          [
            120.670947,
            24.265897
          ],
          [
            120.669195,
            24.26641
          ],
          [
            120.666682,
            24.267032
          ],
          [
            120.666373,
            24.267108
          ],
          [
            120.666162,
            24.267142
          ],
          [
            120.665987,
            24.267104
          ],
          [
            120.665761,
            24.267049
          ],
          [
            120.665424,
            24.266815
          ],
          [
            120.665487,
            24.266545
          ],
          [
            120.665479,
            24.266392
          ],
          [
            120.665424,
            24.266205
          ],
          [
            120.665163,
            24.265679
          ],
          [
            120.665197,
            24.265593
          ],
          [
            120.665159,
            24.265384
          ],
          [
            120.665113,
            24.265251
          ],
          [
            120.665108,
            24.265148
          ],
          [
            120.665129,
            24.264896
          ],
          [
            120.665122,
            24.264216
          ],
          [
            120.665466,
            24.264154
          ],
          [
            120.665658,
            24.264117
          ],
          [
            120.666291,
            24.263929
          ],
          [
            120.666291,
            24.263929
          ],
          [
            120.665658,
            24.264117
          ],
          [
            120.665466,
            24.264154
          ],
          [
            120.665122,
            24.264216
          ],
          [
            120.665129,
            24.264896
          ],
          [
            120.666202,
            24.264561
          ],
          [
            120.667176,
            24.264295
          ],
          [
            120.66754,
            24.264221
          ],
          [
            120.66774,
            24.264163
          ],
          [
            120.667958,
            24.264089
          ],
          [
            120.668139,
            24.264015
          ],
          [
            120.66845,
            24.263916
          ],
          [
            120.668948,
            24.263801
          ],
          [
            120.668948,
            24.263801
          ],
          [
            120.669002,
            24.263789
          ],
          [
            120.669109,
            24.263707
          ],
          [
            120.669225,
            24.263656
          ],
          [
            120.669938,
            24.26346
          ],
          [
            120.670048,
            24.26347
          ],
          [
            120.670138,
            24.263442
          ],
          [
            120.671995,
            24.262879
          ],
          [
            120.672049,
            24.263747
          ],
          [
            120.672071,
            24.264057
          ],
          [
            120.672073,
            24.264469
          ],
          [
            120.67207,
            24.264808
          ],
          [
            120.672056,
            24.265006
          ],
          [
            120.672038,
            24.265064
          ],
          [
            120.672016,
            24.265121
          ],
          [
            120.671988,
            24.265181
          ],
          [
            120.671881,
            24.26541
          ],
          [
            120.671877,
            24.265469
          ],
          [
            120.671878,
            24.265528
          ],
          [
            120.671885,
            24.265579
          ],
          [
            120.671896,
            24.265629
          ],
          [
            120.671935,
            24.265703
          ],
          [
            120.672169,
            24.265975
          ],
          [
            120.672235,
            24.266059
          ],
          [
            120.672235,
            24.266059
          ],
          [
            120.67231,
            24.266154
          ],
          [
            120.672685,
            24.266627
          ],
          [
            120.673117,
            24.267112
          ],
          [
            120.674075,
            24.266783
          ],
          [
            120.674592,
            24.26658
          ],
          [
            120.675222,
            24.266304
          ],
          [
            120.676345,
            24.265791
          ],
          [
            120.676477,
            24.265746
          ],
          [
            120.676535,
            24.26575
          ],
          [
            120.676565,
            24.26576
          ],
          [
            120.676924,
            24.26541
          ],
          [
            120.676924,
            24.26541
          ],
          [
            120.676993,
            24.265343
          ],
          [
            120.677411,
            24.264942
          ],
          [
            120.677533,
            24.264883
          ],
          [
            120.676649,
            24.264127
          ],
          [
            120.676107,
            24.263682
          ],
          [
            120.675183,
            24.262921
          ],
          [
            120.674853,
            24.262629
          ],
          [
            120.674768,
            24.262526
          ],
          [
            120.674543,
            24.262154
          ],
          [
            120.673956,
            24.261225
          ],
          [
            120.673195,
            24.260001
          ],
          [
            120.67304,
            24.259747
          ],
          [
            120.672765,
            24.259303
          ],
          [
            120.672124,
            24.258246
          ],
          [
            120.671466,
            24.257197
          ],
          [
            120.671411,
            24.257129
          ],
          [
            120.671359,
            24.257063
          ],
          [
            120.671089,
            24.256296
          ],
          [
            120.671309,
            24.256203
          ],
          [
            120.67133,
            24.25619
          ],
          [
            120.671423,
            24.256139
          ],
          [
            120.671588,
            24.256042
          ],
          [
            120.671682,
            24.255967
          ],
          [
            120.671833,
            24.255817
          ],
          [
            120.671994,
            24.255604
          ],
          [
            120.672269,
            24.255755
          ],
          [
            120.672887,
            24.256048
          ],
          [
            120.673263,
            24.256232
          ],
          [
            120.673623,
            24.256415
          ],
          [
            120.673774,
            24.256527
          ],
          [
            120.673901,
            24.256602
          ],
          [
            120.673901,
            24.256602
          ],
          [
            120.673901,
            24.256602
          ],
          [
            120.674036,
            24.256671
          ],
          [
            120.674221,
            24.256776
          ],
          [
            120.674265,
            24.2568
          ],
          [
            120.674311,
            24.25682
          ],
          [
            120.674355,
            24.256836
          ],
          [
            120.674399,
            24.256849
          ],
          [
            120.67472,
            24.25695
          ],
          [
            120.674748,
            24.256959
          ],
          [
            120.674777,
            24.256961
          ],
          [
            120.674806,
            24.256957
          ],
          [
            120.674835,
            24.256945
          ],
          [
            120.674944,
            24.256858
          ],
          [
            120.675308,
            24.256637
          ],
          [
            120.675348,
            24.256619
          ],
          [
            120.67539,
            24.256608
          ],
          [
            120.675434,
            24.256605
          ],
          [
            120.675478,
            24.256609
          ],
          [
            120.675514,
            24.256618
          ],
          [
            120.675548,
            24.256633
          ],
          [
            120.675579,
            24.256652
          ],
          [
            120.675606,
            24.256676
          ],
          [
            120.676112,
            24.257069
          ],
          [
            120.676274,
            24.257188
          ],
          [
            120.676492,
            24.257338
          ],
          [
            120.676821,
            24.257571
          ],
          [
            120.676889,
            24.25763
          ],
          [
            120.677244,
            24.25771
          ],
          [
            120.67779,
            24.257835
          ],
          [
            120.678152,
            24.257913
          ],
          [
            120.678456,
            24.257983
          ],
          [
            120.678487,
            24.257988
          ],
          [
            120.678516,
            24.257999
          ],
          [
            120.67854,
            24.258018
          ],
          [
            120.678557,
            24.258037
          ],
          [
            120.678568,
            24.258059
          ],
          [
            120.678588,
            24.25812
          ],
          [
            120.678637,
            24.258182
          ],
          [
            120.678651,
            24.258195
          ],
          [
            120.678668,
            24.258206
          ],
          [
            120.678687,
            24.258213
          ],
          [
            120.678708,
            24.258217
          ],
          [
            120.679085,
            24.25822
          ],
          [
            120.679127,
            24.258216
          ],
          [
            120.679169,
            24.258216
          ],
          [
            120.679203,
            24.25822
          ],
          [
            120.679236,
            24.258226
          ],
          [
            120.679328,
            24.258246
          ],
          [
            120.679493,
            24.258274
          ],
          [
            120.679542,
            24.258285
          ],
          [
            120.679593,
            24.25829
          ],
          [
            120.679644,
            24.25829
          ],
          [
            120.679683,
            24.258287
          ],
          [
            120.679722,
            24.258281
          ],
          [
            120.679786,
            24.258252
          ],
          [
            120.679942,
            24.25825
          ],
          [
            120.680071,
            24.258261
          ],
          [
            120.680185,
            24.258353
          ],
          [
            120.680244,
            24.258383
          ],
          [
            120.680298,
            24.258419
          ],
          [
            120.680334,
            24.258449
          ],
          [
            120.680366,
            24.258482
          ],
          [
            120.680421,
            24.258513
          ],
          [
            120.681055,
            24.258728
          ],
          [
            120.681216,
            24.258782
          ],
          [
            120.681242,
            24.258788
          ],
          [
            120.681268,
            24.258789
          ],
          [
            120.681295,
            24.258787
          ],
          [
            120.681331,
            24.258775
          ],
          [
            120.681364,
            24.258756
          ],
          [
            120.681384,
            24.258729
          ],
          [
            120.681409,
            24.258705
          ],
          [
            120.681439,
            24.258686
          ],
          [
            120.681469,
            24.258673
          ],
          [
            120.681518,
            24.258665
          ],
          [
            120.682144,
            24.258636
          ],
          [
            120.682177,
            24.258639
          ],
          [
            120.682209,
            24.258649
          ],
          [
            120.682209,
            24.258649
          ],
          [
            120.682209,
            24.258649
          ],
          [
            120.682209,
            24.258649
          ],
          [
            120.682209,
            24.258649
          ],
          [
            120.682177,
            24.258639
          ],
          [
            120.682144,
            24.258636
          ],
          [
            120.681518,
            24.258665
          ],
          [
            120.681469,
            24.258673
          ],
          [
            120.681439,
            24.258686
          ],
          [
            120.681409,
            24.258705
          ],
          [
            120.681384,
            24.258729
          ],
          [
            120.681364,
            24.258756
          ],
          [
            120.681331,
            24.258775
          ],
          [
            120.681295,
            24.258787
          ],
          [
            120.681268,
            24.258789
          ],
          [
            120.681242,
            24.258788
          ],
          [
            120.681216,
            24.258782
          ],
          [
            120.681055,
            24.258728
          ],
          [
            120.680421,
            24.258513
          ],
          [
            120.680366,
            24.258482
          ],
          [
            120.680334,
            24.258449
          ],
          [
            120.680298,
            24.258419
          ],
          [
            120.680244,
            24.258383
          ],
          [
            120.680185,
            24.258353
          ],
          [
            120.680071,
            24.258261
          ],
          [
            120.679942,
            24.25825
          ],
          [
            120.679786,
            24.258252
          ],
          [
            120.679722,
            24.258281
          ],
          [
            120.679683,
            24.258287
          ],
          [
            120.679644,
            24.25829
          ],
          [
            120.679593,
            24.25829
          ],
          [
            120.679542,
            24.258285
          ],
          [
            120.679493,
            24.258274
          ],
          [
            120.679328,
            24.258246
          ],
          [
            120.679236,
            24.258226
          ],
          [
            120.679203,
            24.25822
          ],
          [
            120.679169,
            24.258216
          ],
          [
            120.679127,
            24.258216
          ],
          [
            120.679085,
            24.25822
          ],
          [
            120.678708,
            24.258217
          ],
          [
            120.678687,
            24.258213
          ],
          [
            120.678668,
            24.258206
          ],
          [
            120.678651,
            24.258195
          ],
          [
            120.678637,
            24.258182
          ],
          [
            120.678588,
            24.25812
          ],
          [
            120.678568,
            24.258059
          ],
          [
            120.678557,
            24.258037
          ],
          [
            120.67854,
            24.258018
          ],
          [
            120.678516,
            24.257999
          ],
          [
            120.678487,
            24.257988
          ],
          [
            120.678456,
            24.257983
          ],
          [
            120.678152,
            24.257913
          ],
          [
            120.67779,
            24.257835
          ],
          [
            120.677244,
            24.25771
          ],
          [
            120.676889,
            24.25763
          ],
          [
            120.676821,
            24.257571
          ],
          [
            120.676492,
            24.257338
          ],
          [
            120.676342,
            24.257235
          ],
          [
            120.676342,
            24.257235
          ],
          [
            120.676492,
            24.257338
          ],
          [
            120.676821,
            24.257571
          ],
          [
            120.676889,
            24.25763
          ],
          [
            120.677244,
            24.25771
          ],
          [
            120.67779,
            24.257835
          ],
          [
            120.677744,
            24.257622
          ],
          [
            120.67774,
            24.257601
          ],
          [
            120.677742,
            24.257579
          ],
          [
            120.67775,
            24.257561
          ],
          [
            120.677764,
            24.257545
          ],
          [
            120.677907,
            24.257441
          ],
          [
            120.677936,
            24.257421
          ],
          [
            120.677936,
            24.257421
          ],
          [
            120.677907,
            24.257441
          ],
          [
            120.677764,
            24.257545
          ],
          [
            120.67775,
            24.257561
          ],
          [
            120.677742,
            24.257579
          ],
          [
            120.67774,
            24.257601
          ],
          [
            120.677744,
            24.257622
          ],
          [
            120.67779,
            24.257835
          ],
          [
            120.677244,
            24.25771
          ],
          [
            120.676889,
            24.25763
          ],
          [
            120.676821,
            24.257571
          ],
          [
            120.676492,
            24.257338
          ],
          [
            120.676274,
            24.257188
          ],
          [
            120.676112,
            24.257069
          ],
          [
            120.675606,
            24.256676
          ],
          [
            120.675579,
            24.256652
          ],
          [
            120.675548,
            24.256633
          ],
          [
            120.675657,
            24.25658
          ],
          [
            120.676032,
            24.256439
          ],
          [
            120.67637,
            24.256283
          ],
          [
            120.676506,
            24.256173
          ],
          [
            120.676742,
            24.256073
          ],
          [
            120.676941,
            24.255987
          ],
          [
            120.677217,
            24.255902
          ],
          [
            120.677619,
            24.255811
          ],
          [
            120.677748,
            24.255784
          ],
          [
            120.678778,
            24.255963
          ],
          [
            120.678778,
            24.255963
          ],
          [
            120.677748,
            24.255784
          ],
          [
            120.677619,
            24.255811
          ],
          [
            120.677217,
            24.255902
          ],
          [
            120.676941,
            24.255987
          ],
          [
            120.676742,
            24.256073
          ],
          [
            120.676506,
            24.256173
          ],
          [
            120.67637,
            24.256283
          ],
          [
            120.676032,
            24.256439
          ],
          [
            120.675657,
            24.25658
          ],
          [
            120.675548,
            24.256633
          ],
          [
            120.675579,
            24.256652
          ],
          [
            120.675606,
            24.256676
          ],
          [
            120.676112,
            24.257069
          ],
          [
            120.676274,
            24.257188
          ],
          [
            120.676492,
            24.257338
          ],
          [
            120.676821,
            24.257571
          ],
          [
            120.676889,
            24.25763
          ],
          [
            120.677244,
            24.25771
          ],
          [
            120.67779,
            24.257835
          ],
          [
            120.678152,
            24.257913
          ],
          [
            120.678456,
            24.257983
          ],
          [
            120.678487,
            24.257988
          ],
          [
            120.678516,
            24.257999
          ],
          [
            120.67854,
            24.258018
          ],
          [
            120.678557,
            24.258037
          ],
          [
            120.678568,
            24.258059
          ],
          [
            120.678588,
            24.25812
          ],
          [
            120.678637,
            24.258182
          ],
          [
            120.678651,
            24.258195
          ],
          [
            120.678668,
            24.258206
          ],
          [
            120.678687,
            24.258213
          ],
          [
            120.678708,
            24.258217
          ],
          [
            120.679085,
            24.25822
          ],
          [
            120.679127,
            24.258216
          ],
          [
            120.679169,
            24.258216
          ],
          [
            120.679203,
            24.25822
          ],
          [
            120.679236,
            24.258226
          ],
          [
            120.679328,
            24.258246
          ],
          [
            120.679493,
            24.258274
          ],
          [
            120.679542,
            24.258285
          ],
          [
            120.679593,
            24.25829
          ],
          [
            120.679644,
            24.25829
          ],
          [
            120.679683,
            24.258287
          ],
          [
            120.679722,
            24.258281
          ],
          [
            120.679786,
            24.258252
          ],
          [
            120.679942,
            24.25825
          ],
          [
            120.680071,
            24.258261
          ],
          [
            120.680185,
            24.258353
          ],
          [
            120.680244,
            24.258383
          ],
          [
            120.680298,
            24.258419
          ],
          [
            120.680334,
            24.258449
          ],
          [
            120.680366,
            24.258482
          ],
          [
            120.680421,
            24.258513
          ],
          [
            120.681055,
            24.258728
          ],
          [
            120.681216,
            24.258782
          ],
          [
            120.681242,
            24.258788
          ],
          [
            120.681268,
            24.258789
          ],
          [
            120.681295,
            24.258787
          ],
          [
            120.681331,
            24.258775
          ],
          [
            120.681364,
            24.258756
          ],
          [
            120.681384,
            24.258729
          ],
          [
            120.681409,
            24.258705
          ],
          [
            120.681439,
            24.258686
          ],
          [
            120.681469,
            24.258673
          ],
          [
            120.681518,
            24.258665
          ],
          [
            120.682045,
            24.258641
          ],
          [
            120.682045,
            24.258641
          ],
          [
            120.682144,
            24.258636
          ],
          [
            120.682177,
            24.258639
          ],
          [
            120.682209,
            24.258649
          ],
          [
            120.68224,
            24.258665
          ],
          [
            120.682266,
            24.258688
          ],
          [
            120.683036,
            24.259416
          ],
          [
            120.683747,
            24.259244
          ],
          [
            120.684845,
            24.258977
          ],
          [
            120.685123,
            24.25891
          ],
          [
            120.685624,
            24.258788
          ],
          [
            120.685917,
            24.258721
          ],
          [
            120.686942,
            24.258499
          ],
          [
            120.687036,
            24.258477
          ],
          [
            120.687072,
            24.258468
          ],
          [
            120.6877,
            24.258296
          ],
          [
            120.687939,
            24.258211
          ],
          [
            120.688263,
            24.258075
          ],
          [
            120.688312,
            24.258051
          ],
          [
            120.688526,
            24.257949
          ],
          [
            120.689194,
            24.257628
          ],
          [
            120.689292,
            24.257652
          ],
          [
            120.689723,
            24.25728
          ],
          [
            120.690728,
            24.256068
          ],
          [
            120.691273,
            24.255349
          ],
          [
            120.691886,
            24.254581
          ],
          [
            120.69209,
            24.254339
          ],
          [
            120.69218,
            24.254281
          ],
          [
            120.692295,
            24.25421
          ],
          [
            120.692563,
            24.254118
          ],
          [
            120.69258,
            24.2541
          ],
          [
            120.693261,
            24.253937
          ],
          [
            120.693445,
            24.253885
          ],
          [
            120.693531,
            24.253849
          ],
          [
            120.693715,
            24.253753
          ],
          [
            120.69404,
            24.253385
          ],
          [
            120.694546,
            24.252818
          ],
          [
            120.694675,
            24.252671
          ],
          [
            120.694848,
            24.252512
          ],
          [
            120.695075,
            24.252334
          ],
          [
            120.695235,
            24.252242
          ],
          [
            120.695413,
            24.252154
          ],
          [
            120.695757,
            24.252029
          ],
          [
            120.696153,
            24.25192
          ],
          [
            120.696274,
            24.252328
          ],
          [
            120.696337,
            24.252554
          ],
          [
            120.696567,
            24.253163
          ],
          [
            120.696593,
            24.253581
          ],
          [
            120.696668,
            24.254168
          ],
          [
            120.696638,
            24.254337
          ],
          [
            120.696627,
            24.254484
          ],
          [
            120.696637,
            24.254554
          ],
          [
            120.696644,
            24.254604
          ],
          [
            120.69666,
            24.254715
          ],
          [
            120.696812,
            24.255467
          ],
          [
            120.69695,
            24.255888
          ],
          [
            120.696974,
            24.256023
          ],
          [
            120.696976,
            24.256175
          ],
          [
            120.696925,
            24.256662
          ],
          [
            120.696947,
            24.256867
          ],
          [
            120.697001,
            24.256994
          ],
          [
            120.697204,
            24.257592
          ],
          [
            120.697311,
            24.257839
          ],
          [
            120.697415,
            24.258089
          ],
          [
            120.697556,
            24.258331
          ],
          [
            120.697619,
            24.258449
          ],
          [
            120.697712,
            24.258621
          ],
          [
            120.697738,
            24.258656
          ],
          [
            120.697796,
            24.258736
          ],
          [
            120.698113,
            24.258966
          ],
          [
            120.698182,
            24.259049
          ],
          [
            120.69835,
            24.259466
          ],
          [
            120.698476,
            24.260003
          ],
          [
            120.698497,
            24.260134
          ],
          [
            120.69849,
            24.26044
          ],
          [
            120.698488,
            24.260861
          ],
          [
            120.698496,
            24.261022
          ],
          [
            120.698515,
            24.261193
          ],
          [
            120.698693,
            24.261871
          ],
          [
            120.698814,
            24.262244
          ],
          [
            120.698959,
            24.262697
          ],
          [
            120.698968,
            24.262763
          ],
          [
            120.698968,
            24.262829
          ],
          [
            120.698959,
            24.262888
          ],
          [
            120.698944,
            24.262946
          ],
          [
            120.698917,
            24.262999
          ],
          [
            120.698899,
            24.263056
          ],
          [
            120.698889,
            24.263115
          ],
          [
            120.698887,
            24.263174
          ],
          [
            120.698644,
            24.263175
          ],
          [
            120.6985,
            24.263211
          ],
          [
            120.698388,
            24.263261
          ],
          [
            120.697953,
            24.263357
          ],
          [
            120.697803,
            24.263557
          ],
          [
            120.69768,
            24.263659
          ],
          [
            120.697542,
            24.263632
          ],
          [
            120.697261,
            24.263619
          ],
          [
            120.697247,
            24.263605
          ],
          [
            120.697195,
            24.263569
          ],
          [
            120.697106,
            24.263523
          ],
          [
            120.69705,
            24.263511
          ],
          [
            120.696851,
            24.263505
          ],
          [
            120.696514,
            24.26349
          ],
          [
            120.696397,
            24.263491
          ],
          [
            120.696281,
            24.263498
          ],
          [
            120.695925,
            24.26354
          ],
          [
            120.695902,
            24.263464
          ],
          [
            120.695816,
            24.263281
          ],
          [
            120.695785,
            24.263244
          ],
          [
            120.695728,
            24.263216
          ],
          [
            120.695645,
            24.263223
          ],
          [
            120.695378,
            24.263215
          ],
          [
            120.695097,
            24.263119
          ],
          [
            120.695026,
            24.263176
          ],
          [
            120.695002,
            24.263244
          ],
          [
            120.694986,
            24.263383
          ],
          [
            120.69497,
            24.263414
          ],
          [
            120.694917,
            24.263426
          ],
          [
            120.694808,
            24.263443
          ],
          [
            120.694728,
            24.263513
          ],
          [
            120.694697,
            24.263582
          ],
          [
            120.694672,
            24.263651
          ],
          [
            120.694635,
            24.263771
          ],
          [
            120.694634,
            24.263789
          ],
          [
            120.694634,
            24.263789
          ],
          [
            120.694635,
            24.263771
          ],
          [
            120.694672,
            24.263651
          ],
          [
            120.694697,
            24.263582
          ],
          [
            120.694728,
            24.263513
          ],
          [
            120.694808,
            24.263443
          ],
          [
            120.694917,
            24.263426
          ],
          [
            120.69497,
            24.263414
          ],
          [
            120.694986,
            24.263383
          ],
          [
            120.695002,
            24.263244
          ],
          [
            120.695026,
            24.263176
          ],
          [
            120.695097,
            24.263119
          ],
          [
            120.695378,
            24.263215
          ],
          [
            120.695645,
            24.263223
          ],
          [
            120.695728,
            24.263216
          ],
          [
            120.695785,
            24.263244
          ],
          [
            120.695816,
            24.263281
          ],
          [
            120.695902,
            24.263464
          ],
          [
            120.695925,
            24.26354
          ],
          [
            120.696281,
            24.263498
          ],
          [
            120.696397,
            24.263491
          ],
          [
            120.696514,
            24.26349
          ],
          [
            120.696851,
            24.263505
          ],
          [
            120.69705,
            24.263511
          ],
          [
            120.697106,
            24.263523
          ],
          [
            120.697195,
            24.263569
          ],
          [
            120.697247,
            24.263605
          ],
          [
            120.697261,
            24.263619
          ],
          [
            120.697442,
            24.263627
          ],
          [
            120.697442,
            24.263627
          ],
          [
            120.697542,
            24.263632
          ],
          [
            120.69768,
            24.263659
          ],
          [
            120.697803,
            24.263557
          ],
          [
            120.697953,
            24.263357
          ],
          [
            120.698388,
            24.263261
          ],
          [
            120.6985,
            24.263211
          ],
          [
            120.698644,
            24.263175
          ],
          [
            120.698887,
            24.263174
          ],
          [
            120.698889,
            24.263115
          ],
          [
            120.698899,
            24.263056
          ],
          [
            120.698917,
            24.262999
          ],
          [
            120.698944,
            24.262946
          ],
          [
            120.698959,
            24.262888
          ],
          [
            120.698968,
            24.262829
          ],
          [
            120.698968,
            24.262763
          ],
          [
            120.698959,
            24.262697
          ],
          [
            120.698814,
            24.262244
          ],
          [
            120.698693,
            24.261871
          ],
          [
            120.698515,
            24.261193
          ],
          [
            120.698496,
            24.261022
          ],
          [
            120.698488,
            24.260861
          ],
          [
            120.69849,
            24.26044
          ],
          [
            120.698497,
            24.260134
          ],
          [
            120.698476,
            24.260003
          ],
          [
            120.69835,
            24.259466
          ],
          [
            120.698182,
            24.259049
          ],
          [
            120.698113,
            24.258966
          ],
          [
            120.697796,
            24.258736
          ],
          [
            120.697738,
            24.258656
          ],
          [
            120.697712,
            24.258621
          ],
          [
            120.697619,
            24.258449
          ],
          [
            120.697556,
            24.258331
          ],
          [
            120.697415,
            24.258089
          ],
          [
            120.697311,
            24.257839
          ],
          [
            120.697204,
            24.257592
          ],
          [
            120.697001,
            24.256994
          ],
          [
            120.697053,
            24.256871
          ],
          [
            120.69754,
            24.256531
          ],
          [
            120.698256,
            24.256151
          ],
          [
            120.698326,
            24.256115
          ],
          [
            120.698326,
            24.256115
          ],
          [
            120.698747,
            24.255896
          ],
          [
            120.699355,
            24.255586
          ],
          [
            120.700295,
            24.255076
          ],
          [
            120.700295,
            24.255076
          ],
          [
            120.700747,
            24.254831
          ],
          [
            120.701568,
            24.254198
          ],
          [
            120.701665,
            24.25395
          ],
          [
            120.701741,
            24.253878
          ],
          [
            120.701545,
            24.253963
          ],
          [
            120.700996,
            24.25398
          ],
          [
            120.700996,
            24.25398
          ],
          [
            120.700933,
            24.253982
          ],
          [
            120.700618,
            24.254028
          ],
          [
            120.70018,
            24.254178
          ],
          [
            120.699657,
            24.254365
          ],
          [
            120.699567,
            24.254398
          ],
          [
            120.699474,
            24.254426
          ],
          [
            120.69938,
            24.25445
          ],
          [
            120.699275,
            24.25447
          ],
          [
            120.699168,
            24.254483
          ],
          [
            120.698178,
            24.254561
          ],
          [
            120.698178,
            24.254561
          ]
        ]
      },
      "properties": {
        "routeId": "taichung-kel-2310-234caf-d1",
        "city": "taichung",
        "source_file": "taichung/taichung-kel-2310-234caf-d1.geojson",
        "distance_km": 31.502999999999997,
        "duration_min": 60.38316666666667,
        "valhalla_config": "valhalla.json"
      }
    }
  ]
}