{
  "type": "FeatureCollection",
  "features": [
    {
      "type": "Feature",
      "geometry": {
        "type": "LineString",
        "coordinates": [
          [
            120.709384,
            24.305421
          ],
          [
            120.709384,
            24.305421
          ],
          [
            120.708908,
            24.305637
          ],
          [
            120.708655,
            24.305143
          ],
          [
            120.708508,
            24.304856
          ],
          [
            120.708508,
            24.304856
          ],
          [
            120.708346,
            24.304542
          ],
          [
            120.708703,
            24.30439
          ],
          [
            120.709528,
            24.304018
          ],
          [
            120.709398,
            24.303765
          ],
          [
            120.709398,
            24.303765
          ],
          [
            120.709528,
            24.304018
          ],
          [
            120.709746,
            24.303928
          ],
          [
            120.70985,
            24.303885
          ],
          [
            120.709887,
            24.303945
          ],
          [
            120.710045,
            24.304249
          ],
          [
            120.710222,
            24.304579
          ],
          [
            120.71042,
            24.30487
          ],
          [
            120.710461,
            24.304947
          ],
          [
            120.710379,
            24.304994
          ],
          [
            120.709785,
            24.305246
          ],
          [
            120.70975,
            24.305261
          ],
          [
            120.709655,
            24.305301
          ],
          [
            120.709592,
            24.305327
          ],
          [
            120.708908,
            24.305637
          ],
          [
            120.708568,
            24.305796
          ],
          [
            120.708522,
            24.305813
          ],
          [
            120.708301,
            24.305914
          ],
          [
            120.708089,
            24.306005
          ],
          [
            120.707989,
            24.306049
          ],
          [
            120.707726,
            24.306151
          ],
          [
            120.707774,
            24.306236
          ],
          [
            120.707774,
            24.306236
          ],
          [
            120.707726,
            24.306151
          ],
          [
            120.707109,
            24.305075
          ],
          [
            120.707035,
            24.304815
          ],
          [
            120.706967,
            24.30467
          ],
          [
            120.706853,
            24.304481
          ],
          [
            120.706687,
            24.304197
          ],
          [
            120.706568,
            24.303943
          ],
          [
            120.706997,
            24.303763
          ],
          [
            120.707345,
            24.303606
          ],
          [
            120.707345,
            24.303606
          ],
          [
            120.706997,
            24.303763
          ],
          [
            120.706568,
            24.303943
          ],
          [
            120.706687,
            24.304197
          ],
          [
            120.706853,
            24.304481
          ],
          [
            120.706967,
            24.30467
          ],
          [
            120.707035,
            24.304815
          ],
          [
            120.707109,
            24.305075
          ],
          [
            120.707726,
            24.306151
          ],
          [
            120.707242,
            24.306376
          ],
          [
            120.706436,
            24.306734
          ],
          [
            120.706422,
            24.306887
          ],
          [
            120.706695,
            24.307344
          ],
          [
            120.706747,
            24.307319
          ],
          [
            120.706747,
            24.307319
          ],
          [
            120.706695,
            24.307344
          ],
          [
            120.706422,
            24.306887
          ],
          [
            120.706436,
            24.306734
          ],
          [
            120.704501,
            24.307538
          ],
          [
            120.703187,
            24.308018
          ],
          [
            120.702603,
            24.308195
          ],
          [
            120.702345,
            24.308281
          ],
          [
            120.701981,
            24.308453
          ],
          [
            120.701693,
            24.308641
          ],
          [
            120.701538,
            24.308803
          ],
          [
            120.701207,
            24.309207
          ],
          [
            120.700932,
            24.309435
          ],
          [
            120.700675,
            24.309616
          ],
          [
            120.700394,
            24.309788
          ],
          [
            120.700099,
            24.309954
          ],
          [
            120.699808,
            24.310097
          ],
          [
            120.699534,
            24.310216
          ],
          [
            120.69928,
            24.310309
          ],
          [
            120.699,
            24.310375
          ],
          [
            120.698683,
            24.310398
          ],
          [
            120.698434,
            24.310396
          ],
          [
            120.698291,
            24.310376
          ],
          [
            120.697925,
            24.310405
          ],
          [
            120.697573,
            24.310548
          ],
          [
            120.697161,
            24.310685
          ],
          [
            120.697161,
            24.310685
          ],
          [
            120.697151,
            24.310688
          ],
          [
            120.696957,
            24.310744
          ],
          [
            120.696767,
            24.310807
          ],
          [
            120.696608,
            24.310887
          ],
          [
            120.696101,
            24.311242
          ],
          [
            120.695885,
            24.311404
          ],
          [
            120.694706,
            24.312057
          ],
          [
            120.693259,
            24.312932
          ],
          [
            120.692483,
            24.313366
          ],
          [
            120.692434,
            24.313416
          ],
          [
            120.692436,
            24.313485
          ],
          [
            120.692477,
            24.313696
          ],
          [
            120.692477,
            24.313696
          ],
          [
            120.692514,
            24.313885
          ],
          [
            120.691925,
            24.313986
          ],
          [
            120.691835,
            24.314004
          ],
          [
            120.691835,
            24.314004
          ],
          [
            120.691643,
            24.314041
          ],
          [
            120.691493,
            24.314065
          ],
          [
            120.691274,
            24.314106
          ],
          [
            120.689221,
            24.314441
          ],
          [
            120.688287,
            24.314605
          ],
          [
            120.687751,
            24.314693
          ],
          [
            120.687133,
            24.314801
          ],
          [
            120.687133,
            24.314801
          ],
          [
            120.687034,
            24.314818
          ],
          [
            120.685616,
            24.315068
          ],
          [
            120.685783,
            24.315213
          ],
          [
            120.686644,
            24.315538
          ],
          [
            120.686604,
            24.315617
          ],
          [
            120.686604,
            24.315617
          ],
          [
            120.686644,
            24.315538
          ],
          [
            120.685783,
            24.315213
          ],
          [
            120.685616,
            24.315068
          ],
          [
            120.683163,
            24.315475
          ],
          [
            120.682459,
            24.315591
          ],
          [
            120.682065,
            24.315659
          ],
          [
            120.68185,
            24.315686
          ],
          [
            120.68111,
            24.315823
          ],
          [
            120.681015,
            24.315842
          ],
          [
            120.679994,
            24.316015
          ],
          [
            120.678018,
            24.316341
          ],
          [
            120.677232,
            24.316475
          ],
          [
            120.677244,
            24.316704
          ],
          [
            120.677244,
            24.316704
          ],
          [
            120.677232,
            24.316475
          ],
          [
            120.675272,
            24.316785
          ],
          [
            120.673786,
            24.317041
          ],
          [
            120.673779,
            24.316948
          ],
          [
            120.673412,
            24.316947
          ],
          [
            120.673414,
            24.316882
          ],
          [
            120.673414,
            24.316882
          ],
          [
            120.673412,
            24.316947
          ],
          [
            120.673779,
            24.316948
          ],
          [
            120.673786,
            24.317041
          ],
          [
            120.675272,
            24.316785
          ],
          [
            120.677232,
            24.316475
          ],
          [
            120.678018,
            24.316341
          ],
          [
            120.679994,
            24.316015
          ],
          [
            120.681015,
            24.315842
          ],
          [
            120.68111,
            24.315823
          ],
          [
            120.68185,
            24.315686
          ],
          [
            120.682065,
            24.315659
          ],
          [
            120.682459,
            24.315591
          ],
          [
            120.683163,
            24.315475
          ],
          [
            120.685616,
            24.315068
          ],
          [
            120.687034,
            24.314818
          ],
          [
            120.687751,
            24.314693
          ],
          [
            120.688287,
            24.314605
          ],
          [
            120.689221,
            24.314441
          ],
          [
            120.691274,
            24.314106
          ],
          [
            120.691493,
            24.314065
          ],
          [
            120.691643,
            24.314041
          ],
          [
            120.691925,
            24.313986
          ],
          [
            120.692514,
            24.313885
          ],
          [
            120.692789,
            24.313828
          ],
          [
            120.693039,
            24.314182
          ],
          [
            120.693039,
            24.314182
          ],
          [
            120.693123,
            24.314301
          ],
          [
            120.693609,
            24.314703
          ],
          [
            120.69369,
            24.314794
          ],
          [
            120.693743,
            24.314864
          ],
          [
            120.69382,
            24.314919
          ],
          [
            120.693971,
            24.315017
          ],
          [
            120.694969,
            24.315895
          ],
          [
            120.695559,
            24.316297
          ],
          [
            120.695663,
            24.316394
          ],
          [
            120.695984,
            24.316633
          ],
          [
            120.696365,
            24.316876
          ],
          [
            120.696365,
            24.316876
          ],
          [
            120.695984,
            24.316633
          ],
          [
            120.695663,
            24.316394
          ],
          [
            120.695384,
            24.316647
          ],
          [
            120.694706,
            24.317379
          ],
          [
            120.694361,
            24.317677
          ],
          [
            120.694574,
            24.317762
          ],
          [
            120.694787,
            24.317868
          ],
          [
            120.696185,
            24.31856
          ],
          [
            120.696716,
            24.318824
          ],
          [
            120.698156,
            24.31972
          ],
          [
            120.699062,
            24.32029
          ],
          [
            120.6995,
            24.320568
          ],
          [
            120.698897,
            24.320812
          ],
          [
            120.698929,
            24.320887
          ],
          [
            120.699033,
            24.321031
          ],
          [
            120.699128,
            24.32115
          ],
          [
            120.699128,
            24.32115
          ],
          [
            120.699033,
            24.321031
          ],
          [
            120.698929,
            24.320887
          ],
          [
            120.698897,
            24.320812
          ],
          [
            120.6995,
            24.320568
          ],
          [
            120.699804,
            24.320766
          ],
          [
            120.700191,
            24.321033
          ],
          [
            120.700493,
            24.321214
          ],
          [
            120.700852,
            24.321422
          ],
          [
            120.701002,
            24.321545
          ],
          [
            120.701318,
            24.321738
          ],
          [
            120.701801,
            24.321988
          ],
          [
            120.701847,
            24.322012
          ],
          [
            120.701847,
            24.322012
          ],
          [
            120.701801,
            24.321988
          ],
          [
            120.701318,
            24.321738
          ],
          [
            120.701002,
            24.321545
          ],
          [
            120.700852,
            24.321422
          ],
          [
            120.700493,
            24.321214
          ],
          [
            120.700191,
            24.321033
          ],
          [
            120.699804,
            24.320766
          ],
          [
            120.699937,
            24.320623
          ],
          [
            120.700032,
            24.32054
          ],
          [
            120.700032,
            24.32054
          ],
          [
            120.699937,
            24.320623
          ],
          [
            120.699804,
            24.320766
          ],
          [
            120.700191,
            24.321033
          ],
          [
            120.700493,
            24.321214
          ],
          [
            120.700852,
            24.321422
          ],
          [
            120.701002,
            24.321545
          ],
          [
            120.701318,
            24.321738
          ],
          [
            120.701801,
            24.321988
          ],
          [
            120.70205,
            24.322119
          ],
          [
            120.702623,
            24.322466
          ],
          [
            120.702935,
            24.322658
          ],
          [
            120.703237,
            24.322832
          ],
          [
            120.703808,
            24.323206
          ],
          [
            120.704439,
            24.323674
          ],
          [
            120.705773,
            24.324602
          ],
          [
            120.706576,
            24.325151
          ],
          [
            120.707737,
            24.325934
          ],
          [
            120.708162,
            24.326222
          ],
          [
            120.708415,
            24.326465
          ],
          [
            120.709445,
            24.327246
          ],
          [
            120.709941,
            24.327786
          ],
          [
            120.709973,
            24.327812
          ],
          [
            120.710325,
            24.328101
          ],
          [
            120.710815,
            24.328507
          ],
          [
            120.711153,
            24.32876
          ],
          [
            120.711422,
            24.328933
          ],
          [
            120.71179,
            24.329181
          ],
          [
            120.712114,
            24.329413
          ],
          [
            120.712452,
            24.329352
          ],
          [
            120.712581,
            24.329288
          ],
          [
            120.713458,
            24.328764
          ],
          [
            120.713589,
            24.328897
          ],
          [
            120.71399,
            24.329366
          ],
          [
            120.71412,
            24.329634
          ],
          [
            120.714372,
            24.330093
          ],
          [
            120.714403,
            24.33018
          ],
          [
            120.71441,
            24.330278
          ],
          [
            120.714414,
            24.330521
          ],
          [
            120.714426,
            24.330668
          ],
          [
            120.71449,
            24.330769
          ],
          [
            120.714674,
            24.330951
          ],
          [
            120.714701,
            24.33101
          ],
          [
            120.71471,
            24.33107
          ],
          [
            120.714714,
            24.331162
          ],
          [
            120.714706,
            24.331467
          ],
          [
            120.714711,
            24.331711
          ],
          [
            120.714711,
            24.331916
          ],
          [
            120.71471,
            24.332114
          ],
          [
            120.714697,
            24.332513
          ],
          [
            120.714695,
            24.332649
          ],
          [
            120.714758,
            24.332705
          ],
          [
            120.714986,
            24.332947
          ],
          [
            120.715075,
            24.333055
          ],
          [
            120.715151,
            24.333094
          ],
          [
            120.715215,
            24.333113
          ],
          [
            120.715236,
            24.333119
          ],
          [
            120.715509,
            24.333082
          ],
          [
            120.715613,
            24.333086
          ],
          [
            120.715735,
            24.333121
          ],
          [
            120.716165,
            24.333423
          ],
          [
            120.716323,
            24.333556
          ],
          [
            120.716754,
            24.333886
          ],
          [
            120.71697,
            24.334001
          ],
          [
            120.717088,
            24.33399
          ],
          [
            120.717518,
            24.333895
          ],
          [
            120.718101,
            24.333746
          ],
          [
            120.718146,
            24.333728
          ],
          [
            120.718294,
            24.3337
          ],
          [
            120.718394,
            24.333692
          ],
          [
            120.718545,
            24.333708
          ],
          [
            120.718654,
            24.333749
          ],
          [
            120.71875,
            24.3338
          ],
          [
            120.718911,
            24.333864
          ],
          [
            120.719031,
            24.333888
          ],
          [
            120.719163,
            24.333901
          ],
          [
            120.719262,
            24.333887
          ],
          [
            120.719372,
            24.333857
          ],
          [
            120.719552,
            24.333761
          ],
          [
            120.719967,
            24.333545
          ],
          [
            120.720386,
            24.3334
          ],
          [
            120.720734,
            24.333276
          ],
          [
            120.720996,
            24.333192
          ],
          [
            120.721255,
            24.333102
          ],
          [
            120.721512,
            24.333016
          ],
          [
            120.72176,
            24.332985
          ],
          [
            120.722008,
            24.332979
          ],
          [
            120.722251,
            24.332986
          ],
          [
            120.722501,
            24.333036
          ],
          [
            120.722571,
            24.33306
          ],
          [
            120.722823,
            24.333145
          ],
          [
            120.723073,
            24.333217
          ],
          [
            120.72335,
            24.333319
          ],
          [
            120.723425,
            24.333335
          ],
          [
            120.723437,
            24.333793
          ],
          [
            120.723451,
            24.333847
          ],
          [
            120.723451,
            24.333847
          ],
          [
            120.723574,
            24.334331
          ],
          [
            120.72355,
            24.334624
          ],
          [
            120.723571,
            24.334705
          ],
          [
            120.723639,
            24.334855
          ],
          [
            120.723733,
            24.335081
          ],
          [
            120.723921,
            24.335549
          ],
          [
            120.724076,
            24.335935
          ],
          [
            120.724097,
            24.336007
          ],
          [
            120.724106,
            24.3361
          ],
          [
            120.72408,
            24.336239
          ],
          [
            120.724037,
            24.336561
          ],
          [
            120.724013,
            24.33666
          ],
          [
            120.724025,
            24.336724
          ],
          [
            120.724072,
            24.336896
          ],
          [
            120.724319,
            24.337507
          ],
          [
            120.7247,
            24.338355
          ],
          [
            120.724188,
            24.338607
          ],
          [
            120.723354,
            24.338922
          ],
          [
            120.722736,
            24.339127
          ],
          [
            120.722648,
            24.339159
          ],
          [
            120.722603,
            24.339174
          ],
          [
            120.72204,
            24.339328
          ],
          [
            120.721407,
            24.339463
          ],
          [
            120.720819,
            24.339559
          ],
          [
            120.720196,
            24.339687
          ],
          [
            120.719842,
            24.339726
          ],
          [
            120.71945,
            24.339742
          ],
          [
            120.719127,
            24.339776
          ],
          [
            120.719194,
            24.339858
          ],
          [
            120.7196,
            24.3399
          ],
          [
            120.719509,
            24.341256
          ],
          [
            120.719336,
            24.341319
          ],
          [
            120.719254,
            24.341345
          ],
          [
            120.719254,
            24.341345
          ],
          [
            120.719336,
            24.341319
          ],
          [
            120.719509,
            24.341256
          ],
          [
            120.7196,
            24.3399
          ],
          [
            120.719194,
            24.339858
          ],
          [
            120.719127,
            24.339776
          ],
          [
            120.71945,
            24.339742
          ],
          [
            120.719842,
            24.339726
          ],
          [
            120.720196,
            24.339687
          ],
          [
            120.720819,
            24.339559
          ],
          [
            120.721407,
            24.339463
          ],
          [
            120.72204,
            24.339328
          ],
          [
            120.722603,
            24.339174
          ],
          [
            120.722648,
            24.339159
          ],
          [
            120.722736,
            24.339127
          ],
          [
            120.723354,
            24.338922
          ],
          [
            120.724188,
            24.338607
          ],
          [
            120.7247,
            24.338355
          ],
          [
            120.727739,
            24.337096
          ],
          [
            120.727739,
            24.337096
          ],
          [
            120.728874,
            24.336625
          ],
          [
            120.730734,
            24.335833
          ],
          [
            120.730849,
            24.335865
          ],
          [
            120.73112,
            24.337034
          ],
          [
            120.731773,
            24.339481
          ],
          [
            120.731683,
            24.339484
          ],
          [
            120.731467,
            24.338758
          ],
          [
            120.731304,
            24.338116
          ],
          [
            120.731304,
            24.338116
          ],
          [
            120.731095,
            24.337293
          ],
          [
            120.731034,
            24.337056
          ],
          [
            120.730734,
            24.335833
          ],
          [
            120.730613,
            24.335332
          ],
          [
            120.730455,
            24.334674
          ],
          [
            120.730391,
            24.334395
          ],
          [
            120.730283,
            24.334009
          ],
          [
            120.73009,
            24.333215
          ],
          [
            120.72979,
            24.331992
          ],
          [
            120.729089,
            24.332217
          ],
          [
            120.728596,
            24.332339
          ],
          [
            120.728331,
            24.33244
          ],
          [
            120.728205,
            24.332505
          ],
          [
            120.728005,
            24.332638
          ],
          [
            120.72782,
            24.332753
          ],
          [
            120.727302,
            24.333019
          ],
          [
            120.727088,
            24.333099
          ],
          [
            120.726854,
            24.333149
          ],
          [
            120.726784,
            24.333159
          ],
          [
            120.726784,
            24.333159
          ],
          [
            120.726854,
            24.333149
          ],
          [
            120.727088,
            24.333099
          ],
          [
            120.727302,
            24.333019
          ],
          [
            120.72782,
            24.332753
          ],
          [
            120.728005,
            24.332638
          ],
          [
            120.728205,
            24.332505
          ],
          [
            120.728331,
            24.33244
          ],
          [
            120.728596,
            24.332339
          ],
          [
            120.729089,
            24.332217
          ],
          [
            120.72979,
            24.331992
          ],
          [
            120.729749,
            24.331822
          ],
          [
            120.729749,
            24.331822
          ],
          [
            120.729382,
            24.330296
          ],
          [
            120.729232,
            24.329696
          ],
          [
            120.729103,
            24.329224
          ],
          [
            120.728931,
            24.328515
          ],
          [
            120.72876,
            24.327807
          ],
          [
            120.728631,
            24.327292
          ],
          [
            120.728433,
            24.326596
          ],
          [
            120.72833,
            24.326232
          ],
          [
            120.728286,
            24.326076
          ],
          [
            120.728222,
            24.325958
          ],
          [
            120.728152,
            24.325857
          ],
          [
            120.728242,
            24.325815
          ],
          [
            120.728301,
            24.325921
          ],
          [
            120.728362,
            24.326058
          ],
          [
            120.728403,
            24.326217
          ],
          [
            120.728487,
            24.326584
          ],
          [
            120.728593,
            24.326544
          ],
          [
            120.728828,
            24.326429
          ],
          [
            120.728925,
            24.32641
          ],
          [
            120.728925,
            24.32641
          ],
          [
            120.728925,
            24.32641
          ],
          [
            120.728925,
            24.32641
          ],
          [
            120.728925,
            24.32641
          ],
          [
            120.728828,
            24.326429
          ],
          [
            120.728593,
            24.326544
          ],
          [
            120.728487,
            24.326584
          ],
          [
            120.728695,
            24.327271
          ],
          [
            120.728631,
            24.327292
          ],
          [
            120.728433,
            24.326596
          ],
          [
            120.72833,
            24.326232
          ],
          [
            120.728286,
            24.326076
          ],
          [
            120.728222,
            24.325958
          ],
          [
            120.728152,
            24.325857
          ],
          [
            120.728242,
            24.325815
          ],
          [
            120.728835,
            24.325743
          ],
          [
            120.729202,
            24.325703
          ],
          [
            120.729575,
            24.325694
          ],
          [
            120.73013,
            24.325748
          ],
          [
            120.73042,
            24.325741
          ],
          [
            120.730723,
            24.325698
          ],
          [
            120.73097,
            24.325619
          ],
          [
            120.731455,
            24.325414
          ],
          [
            120.731793,
            24.325269
          ],
          [
            120.731962,
            24.325199
          ],
          [
            120.732145,
            24.325154
          ],
          [
            120.732416,
            24.325123
          ],
          [
            120.732738,
            24.325127
          ],
          [
            120.732738,
            24.325127
          ],
          [
            120.732775,
            24.325128
          ],
          [
            120.733722,
            24.32505
          ],
          [
            120.733758,
            24.325047
          ],
          [
            120.733977,
            24.32503
          ],
          [
            120.734298,
            24.325083
          ],
          [
            120.734789,
            24.325211
          ],
          [
            120.734807,
            24.325216
          ],
          [
            120.735111,
            24.325297
          ],
          [
            120.735261,
            24.325318
          ],
          [
            120.73539,
            24.325318
          ],
          [
            120.735862,
            24.325254
          ],
          [
            120.736021,
            24.325218
          ],
          [
            120.736552,
            24.325035
          ],
          [
            120.736804,
            24.324952
          ],
          [
            120.736957,
            24.324911
          ],
          [
            120.737088,
            24.324909
          ],
          [
            120.737238,
            24.324937
          ],
          [
            120.737367,
            24.324993
          ],
          [
            120.737684,
            24.32514
          ],
          [
            120.737877,
            24.325204
          ],
          [
            120.738158,
            24.325211
          ],
          [
            120.738656,
            24.325311
          ],
          [
            120.738657,
            24.324961
          ],
          [
            120.738716,
            24.32476
          ],
          [
            120.73878,
            24.324653
          ],
          [
            120.738948,
            24.324451
          ],
          [
            120.738995,
            24.324396
          ],
          [
            120.739102,
            24.324288
          ],
          [
            120.739231,
            24.324117
          ],
          [
            120.739332,
            24.324013
          ],
          [
            120.739386,
            24.323968
          ],
          [
            120.739423,
            24.323939
          ],
          [
            120.739461,
            24.32391
          ],
          [
            120.739574,
            24.323838
          ],
          [
            120.739659,
            24.323801
          ],
          [
            120.739726,
            24.323509
          ],
          [
            120.73971,
            24.323309
          ],
          [
            120.739682,
            24.322906
          ],
          [
            120.739624,
            24.322795
          ],
          [
            120.7396,
            24.3227
          ],
          [
            120.7396,
            24.3227
          ],
          [
            120.739624,
            24.322795
          ],
          [
            120.739682,
            24.322906
          ],
          [
            120.73971,
            24.323309
          ],
          [
            120.739726,
            24.323509
          ],
          [
            120.739659,
            24.323801
          ],
          [
            120.739772,
            24.323754
          ],
          [
            120.740234,
            24.323622
          ],
          [
            120.740376,
            24.323566
          ],
          [
            120.740602,
            24.323452
          ],
          [
            120.740709,
            24.323364
          ],
          [
            120.740902,
            24.323165
          ],
          [
            120.741424,
            24.322554
          ],
          [
            120.741543,
            24.322415
          ],
          [
            120.741693,
            24.322286
          ],
          [
            120.741801,
            24.322243
          ],
          [
            120.742511,
            24.322224
          ],
          [
            120.742662,
            24.322203
          ],
          [
            120.742748,
            24.32216
          ],
          [
            120.743001,
            24.322044
          ],
          [
            120.743087,
            24.322001
          ],
          [
            120.743173,
            24.322001
          ],
          [
            120.743387,
            24.322023
          ],
          [
            120.743705,
            24.322109
          ],
          [
            120.744252,
            24.322224
          ],
          [
            120.744576,
            24.322299
          ],
          [
            120.744753,
            24.322315
          ],
          [
            120.745581,
            24.322311
          ],
          [
            120.746037,
            24.322332
          ],
          [
            120.746401,
            24.322384
          ],
          [
            120.746401,
            24.322384
          ],
          [
            120.74644,
            24.32239
          ],
          [
            120.746757,
            24.32247
          ],
          [
            120.747149,
            24.322555
          ],
          [
            120.748268,
            24.322699
          ],
          [
            120.749065,
            24.322897
          ],
          [
            120.749091,
            24.322903
          ],
          [
            120.749113,
            24.322908
          ],
          [
            120.749381,
            24.322971
          ],
          [
            120.749395,
            24.322976
          ],
          [
            120.749617,
            24.323057
          ],
          [
            120.749973,
            24.323172
          ],
          [
            120.750014,
            24.323185
          ],
          [
            120.750614,
            24.323336
          ],
          [
            120.750962,
            24.323369
          ],
          [
            120.75129,
            24.323387
          ],
          [
            120.751364,
            24.323421
          ],
          [
            120.751478,
            24.323522
          ],
          [
            120.751795,
            24.32395
          ],
          [
            120.751505,
            24.324074
          ],
          [
            120.751383,
            24.324123
          ],
          [
            120.750928,
            24.324305
          ],
          [
            120.750159,
            24.324538
          ],
          [
            120.749834,
            24.324649
          ],
          [
            120.749684,
            24.324713
          ],
          [
            120.74963,
            24.324785
          ],
          [
            120.749569,
            24.324924
          ],
          [
            120.749402,
            24.325469
          ],
          [
            120.749321,
            24.32565
          ],
          [
            120.749188,
            24.325855
          ],
          [
            120.74908,
            24.325962
          ],
          [
            120.749023,
            24.325998
          ],
          [
            120.74879,
            24.326174
          ],
          [
            120.748423,
            24.326375
          ],
          [
            120.7467,
            24.327147
          ],
          [
            120.745887,
            24.327537
          ],
          [
            120.745029,
            24.327935
          ],
          [
            120.743717,
            24.328584
          ],
          [
            120.74323,
            24.328801
          ],
          [
            120.742774,
            24.328994
          ],
          [
            120.742195,
            24.329244
          ],
          [
            120.742164,
            24.329258
          ],
          [
            120.741623,
            24.329504
          ],
          [
            120.741299,
            24.329625
          ],
          [
            120.741063,
            24.329677
          ],
          [
            120.740674,
            24.329772
          ],
          [
            120.740144,
            24.329834
          ],
          [
            120.739582,
            24.329888
          ],
          [
            120.739582,
            24.329888
          ],
          [
            120.739574,
            24.329889
          ],
          [
            120.739044,
            24.329967
          ],
          [
            120.739022,
            24.329971
          ],
          [
            120.738071,
            24.330258
          ],
          [
            120.737632,
            24.330347
          ],
          [
            120.737009,
            24.33045
          ],
          [
            120.73612,
            24.330468
          ],
          [
            120.735756,
            24.330503
          ],
          [
            120.735387,
            24.330576
          ],
          [
            120.734897,
            24.330685
          ],
          [
            120.734194,
            24.330786
          ],
          [
            120.733973,
            24.330818
          ],
          [
            120.733589,
            24.330891
          ],
          [
            120.733203,
            24.330972
          ],
          [
            120.732518,
            24.331141
          ],
          [
            120.732247,
            24.331217
          ],
          [
            120.731077,
            24.331584
          ],
          [
            120.730225,
            24.331858
          ],
          [
            120.730225,
            24.331858
          ]
        ]
      },
      "properties": {
        "routeId": "taichung-ker-3365-cf7f7d-d6",
        "city": "taichung",
        "source_file": "taichung/taichung-ker-3365-cf7f7d-d6.geojson",
        "distance_km": 24.686,
        "duration_min": 37.9906,
        "valhalla_config": "valhalla.json"
      }
    }
  ]
}