{
  "type": "FeatureCollection",
  "features": [
    {
      "type": "Feature",
      "geometry": {
        "type": "LineString",
        "coordinates": [
          [
            120.685352,
            24.167335
          ],
          [
            120.685352,
            24.167335
          ],
          [
            120.685205,
            24.167347
          ],
          [
            120.685236,
            24.167954
          ],
          [
            120.685246,
            24.168195
          ],
          [
            120.685251,
            24.168331
          ],
          [
            120.685259,
            24.168405
          ],
          [
            120.685261,
            24.168478
          ],
          [
            120.685332,
            24.169382
          ],
          [
            120.685338,
            24.169457
          ],
          [
            120.685336,
            24.169523
          ],
          [
            120.68535,
            24.169696
          ],
          [
            120.685407,
            24.170777
          ],
          [
            120.685412,
            24.170848
          ],
          [
            120.685416,
            24.170948
          ],
          [
            120.685528,
            24.171951
          ],
          [
            120.685526,
            24.172015
          ],
          [
            120.685533,
            24.172075
          ],
          [
            120.685643,
            24.172065
          ],
          [
            120.687578,
            24.171867
          ],
          [
            120.687688,
            24.171854
          ],
          [
            120.687786,
            24.171843
          ],
          [
            120.688289,
            24.171783
          ],
          [
            120.689724,
            24.171614
          ],
          [
            120.689872,
            24.171596
          ],
          [
            120.690403,
            24.171534
          ],
          [
            120.690385,
            24.171432
          ],
          [
            120.690297,
            24.170872
          ],
          [
            120.690261,
            24.170623
          ],
          [
            120.690254,
            24.170599
          ],
          [
            120.690205,
            24.170419
          ],
          [
            120.690196,
            24.170394
          ],
          [
            120.690196,
            24.170394
          ],
          [
            120.690186,
            24.170368
          ],
          [
            120.690167,
            24.170319
          ],
          [
            120.690151,
            24.170249
          ],
          [
            120.690097,
            24.170085
          ],
          [
            120.689984,
            24.169861
          ],
          [
            120.68995,
            24.169812
          ],
          [
            120.68995,
            24.169812
          ],
          [
            120.68986,
            24.169679
          ],
          [
            120.688788,
            24.169861
          ],
          [
            120.688788,
            24.169861
          ],
          [
            120.688473,
            24.169914
          ],
          [
            120.688511,
            24.170125
          ],
          [
            120.688511,
            24.170125
          ],
          [
            120.688582,
            24.170518
          ],
          [
            120.68859,
            24.170576
          ],
          [
            120.688658,
            24.170566
          ],
          [
            120.69011,
            24.170324
          ],
          [
            120.690167,
            24.170319
          ],
          [
            120.690186,
            24.170368
          ],
          [
            120.690205,
            24.170419
          ],
          [
            120.690254,
            24.170599
          ],
          [
            120.690261,
            24.170623
          ],
          [
            120.690297,
            24.170872
          ],
          [
            120.690385,
            24.171432
          ],
          [
            120.690403,
            24.171534
          ],
          [
            120.690616,
            24.171506
          ],
          [
            120.690827,
            24.171482
          ],
          [
            120.691039,
            24.171459
          ],
          [
            120.691064,
            24.171329
          ],
          [
            120.691136,
            24.171023
          ],
          [
            120.691159,
            24.170954
          ],
          [
            120.691259,
            24.170612
          ],
          [
            120.691288,
            24.170527
          ],
          [
            120.691342,
            24.170439
          ],
          [
            120.691359,
            24.170407
          ],
          [
            120.691393,
            24.17034
          ],
          [
            120.691439,
            24.170252
          ],
          [
            120.691644,
            24.169854
          ],
          [
            120.691744,
            24.169709
          ],
          [
            120.692072,
            24.169219
          ],
          [
            120.692146,
            24.16909
          ],
          [
            120.692196,
            24.169021
          ],
          [
            120.692287,
            24.169072
          ],
          [
            120.692654,
            24.169346
          ],
          [
            120.692842,
            24.169483
          ],
          [
            120.692842,
            24.169483
          ],
          [
            120.692654,
            24.169346
          ],
          [
            120.692287,
            24.169072
          ],
          [
            120.692196,
            24.169021
          ],
          [
            120.692146,
            24.16909
          ],
          [
            120.692072,
            24.169219
          ],
          [
            120.691744,
            24.169709
          ],
          [
            120.691644,
            24.169854
          ],
          [
            120.691439,
            24.170252
          ],
          [
            120.691393,
            24.17034
          ],
          [
            120.691359,
            24.170407
          ],
          [
            120.691342,
            24.170439
          ],
          [
            120.691288,
            24.170527
          ],
          [
            120.691259,
            24.170612
          ],
          [
            120.691159,
            24.170954
          ],
          [
            120.691136,
            24.171023
          ],
          [
            120.691064,
            24.171329
          ],
          [
            120.691039,
            24.171459
          ],
          [
            120.690966,
            24.171592
          ],
          [
            120.690806,
            24.171611
          ],
          [
            120.690558,
            24.171642
          ],
          [
            120.690449,
            24.171657
          ],
          [
            120.688184,
            24.171924
          ],
          [
            120.688059,
            24.171937
          ],
          [
            120.687802,
            24.171967
          ],
          [
            120.687702,
            24.171977
          ],
          [
            120.687592,
            24.171989
          ],
          [
            120.68597,
            24.172176
          ],
          [
            120.685655,
            24.172209
          ],
          [
            120.685547,
            24.17222
          ],
          [
            120.685445,
            24.172234
          ],
          [
            120.685432,
            24.172087
          ],
          [
            120.685426,
            24.172005
          ],
          [
            120.685425,
            24.171963
          ],
          [
            120.685377,
            24.171472
          ],
          [
            120.685317,
            24.170964
          ],
          [
            120.685307,
            24.170856
          ],
          [
            120.685308,
            24.170783
          ],
          [
            120.685231,
            24.169536
          ],
          [
            120.68523,
            24.169463
          ],
          [
            120.685223,
            24.169381
          ],
          [
            120.685205,
            24.169086
          ],
          [
            120.685191,
            24.168876
          ],
          [
            120.685169,
            24.168482
          ],
          [
            120.68516,
            24.16841
          ],
          [
            120.685259,
            24.168405
          ],
          [
            120.685363,
            24.168392
          ],
          [
            120.685701,
            24.168354
          ],
          [
            120.685701,
            24.168354
          ],
          [
            120.685363,
            24.168392
          ],
          [
            120.685259,
            24.168405
          ],
          [
            120.685261,
            24.168478
          ],
          [
            120.685275,
            24.168662
          ],
          [
            120.685275,
            24.168662
          ],
          [
            120.685332,
            24.169382
          ],
          [
            120.685338,
            24.169457
          ],
          [
            120.685336,
            24.169523
          ],
          [
            120.68535,
            24.169696
          ],
          [
            120.685407,
            24.170777
          ],
          [
            120.685412,
            24.170848
          ],
          [
            120.685416,
            24.170948
          ],
          [
            120.685528,
            24.171951
          ],
          [
            120.685526,
            24.172015
          ],
          [
            120.685533,
            24.172075
          ],
          [
            120.685643,
            24.172065
          ],
          [
            120.686958,
            24.17193
          ],
          [
            120.686958,
            24.17193
          ],
          [
            120.687578,
            24.171867
          ],
          [
            120.687688,
            24.171854
          ],
          [
            120.687786,
            24.171843
          ],
          [
            120.688289,
            24.171783
          ],
          [
            120.689369,
            24.171656
          ],
          [
            120.689369,
            24.171656
          ],
          [
            120.689724,
            24.171614
          ],
          [
            120.689872,
            24.171596
          ],
          [
            120.690403,
            24.171534
          ],
          [
            120.690385,
            24.171432
          ],
          [
            120.690369,
            24.171328
          ],
          [
            120.690369,
            24.171328
          ],
          [
            120.690385,
            24.171432
          ],
          [
            120.690403,
            24.171534
          ],
          [
            120.690616,
            24.171506
          ],
          [
            120.690788,
            24.171486
          ],
          [
            120.690788,
            24.171486
          ],
          [
            120.690827,
            24.171482
          ],
          [
            120.691039,
            24.171459
          ],
          [
            120.691139,
            24.171448
          ],
          [
            120.692628,
            24.171273
          ],
          [
            120.693162,
            24.171213
          ],
          [
            120.693818,
            24.171139
          ],
          [
            120.693922,
            24.171123
          ],
          [
            120.694137,
            24.171099
          ],
          [
            120.694232,
            24.171088
          ],
          [
            120.694319,
            24.171076
          ],
          [
            120.694563,
            24.171045
          ],
          [
            120.694784,
            24.171017
          ],
          [
            120.695916,
            24.170903
          ],
          [
            120.696187,
            24.170871
          ],
          [
            120.696279,
            24.170857
          ],
          [
            120.696422,
            24.170823
          ],
          [
            120.696599,
            24.170774
          ],
          [
            120.696808,
            24.170697
          ],
          [
            120.697441,
            24.170437
          ],
          [
            120.697529,
            24.170404
          ],
          [
            120.697706,
            24.170427
          ],
          [
            120.697604,
            24.170536
          ],
          [
            120.697305,
            24.170654
          ],
          [
            120.697318,
            24.170698
          ],
          [
            120.697338,
            24.170766
          ],
          [
            120.697149,
            24.171506
          ],
          [
            120.697128,
            24.171643
          ],
          [
            120.697128,
            24.171643
          ],
          [
            120.697061,
            24.172072
          ],
          [
            120.697008,
            24.172115
          ],
          [
            120.696735,
            24.172139
          ],
          [
            120.696653,
            24.172146
          ],
          [
            120.696558,
            24.172155
          ],
          [
            120.696348,
            24.172175
          ],
          [
            120.696057,
            24.172211
          ],
          [
            120.696057,
            24.172211
          ],
          [
            120.695444,
            24.172288
          ],
          [
            120.695378,
            24.172296
          ],
          [
            120.695385,
            24.172359
          ],
          [
            120.69539,
            24.172407
          ],
          [
            120.69539,
            24.172407
          ],
          [
            120.695385,
            24.172359
          ],
          [
            120.695378,
            24.172296
          ],
          [
            120.695325,
            24.172301
          ],
          [
            120.694683,
            24.172369
          ],
          [
            120.694683,
            24.172369
          ],
          [
            120.694441,
            24.172394
          ],
          [
            120.694348,
            24.172403
          ],
          [
            120.694274,
            24.172412
          ],
          [
            120.69386,
            24.17246
          ],
          [
            120.69386,
            24.17246
          ],
          [
            120.693549,
            24.172496
          ],
          [
            120.693549,
            24.172496
          ],
          [
            120.693523,
            24.172499
          ],
          [
            120.693128,
            24.17254
          ],
          [
            120.69303,
            24.172548
          ],
          [
            120.692944,
            24.172556
          ],
          [
            120.692879,
            24.172563
          ],
          [
            120.692545,
            24.172604
          ],
          [
            120.692545,
            24.172604
          ],
          [
            120.692341,
            24.172629
          ],
          [
            120.692341,
            24.172629
          ],
          [
            120.692269,
            24.172638
          ],
          [
            120.691832,
            24.172689
          ],
          [
            120.691759,
            24.172697
          ],
          [
            120.691798,
            24.172753
          ],
          [
            120.691957,
            24.172942
          ],
          [
            120.692237,
            24.173225
          ],
          [
            120.692335,
            24.173329
          ],
          [
            120.692495,
            24.173503
          ],
          [
            120.69272,
            24.173764
          ],
          [
            120.692823,
            24.173872
          ],
          [
            120.692855,
            24.173906
          ],
          [
            120.692855,
            24.173906
          ],
          [
            120.692996,
            24.174054
          ],
          [
            120.693127,
            24.174214
          ],
          [
            120.693178,
            24.174308
          ],
          [
            120.694543,
            24.174084
          ],
          [
            120.694541,
            24.174068
          ],
          [
            120.694506,
            24.173689
          ],
          [
            120.694498,
            24.173604
          ],
          [
            120.694404,
            24.173612
          ],
          [
            120.69341,
            24.173697
          ],
          [
            120.693278,
            24.17371
          ],
          [
            120.693278,
            24.17371
          ],
          [
            120.69341,
            24.173697
          ],
          [
            120.694034,
            24.173644
          ],
          [
            120.694034,
            24.173644
          ],
          [
            120.694404,
            24.173612
          ],
          [
            120.694498,
            24.173604
          ],
          [
            120.694506,
            24.173689
          ],
          [
            120.694508,
            24.17371
          ],
          [
            120.694508,
            24.17371
          ],
          [
            120.694541,
            24.174068
          ],
          [
            120.694543,
            24.174084
          ],
          [
            120.695486,
            24.173945
          ],
          [
            120.695466,
            24.17359
          ],
          [
            120.695461,
            24.173499
          ],
          [
            120.695531,
            24.173491
          ],
          [
            120.695786,
            24.173459
          ],
          [
            120.695786,
            24.173459
          ],
          [
            120.696361,
            24.173387
          ],
          [
            120.696361,
            24.173387
          ],
          [
            120.696682,
            24.173347
          ],
          [
            120.696758,
            24.173337
          ],
          [
            120.696842,
            24.173272
          ],
          [
            120.696908,
            24.173222
          ],
          [
            120.69703,
            24.173159
          ],
          [
            120.69715,
            24.17311
          ],
          [
            120.697332,
            24.173055
          ],
          [
            120.697666,
            24.17297
          ],
          [
            120.697909,
            24.172915
          ],
          [
            120.697992,
            24.172919
          ],
          [
            120.698084,
            24.172935
          ],
          [
            120.698162,
            24.172941
          ],
          [
            120.698223,
            24.17294
          ],
          [
            120.698224,
            24.172786
          ],
          [
            120.698225,
            24.172769
          ],
          [
            120.698265,
            24.172037
          ],
          [
            120.698258,
            24.171852
          ],
          [
            120.698241,
            24.171582
          ],
          [
            120.698174,
            24.171358
          ],
          [
            120.698126,
            24.171235
          ],
          [
            120.698042,
            24.171027
          ],
          [
            120.697952,
            24.170867
          ],
          [
            120.697786,
            24.170572
          ],
          [
            120.697706,
            24.170427
          ],
          [
            120.697604,
            24.170536
          ],
          [
            120.697305,
            24.170654
          ],
          [
            120.696822,
            24.170832
          ],
          [
            120.696743,
            24.170858
          ],
          [
            120.696663,
            24.170881
          ],
          [
            120.696401,
            24.170956
          ],
          [
            120.696193,
            24.170995
          ],
          [
            120.696184,
            24.170996
          ],
          [
            120.696184,
            24.170996
          ],
          [
            120.695153,
            24.171113
          ],
          [
            120.694332,
            24.171201
          ],
          [
            120.69425,
            24.171211
          ],
          [
            120.694152,
            24.171222
          ],
          [
            120.693126,
            24.171342
          ],
          [
            120.69293,
            24.171365
          ],
          [
            120.691075,
            24.171581
          ],
          [
            120.690966,
            24.171592
          ],
          [
            120.690999,
            24.171664
          ],
          [
            120.69101,
            24.17173
          ],
          [
            120.691048,
            24.1718
          ],
          [
            120.691048,
            24.1718
          ],
          [
            120.691071,
            24.171843
          ],
          [
            120.691325,
            24.172129
          ],
          [
            120.691353,
            24.172166
          ],
          [
            120.691394,
            24.172143
          ],
          [
            120.692716,
            24.172003
          ],
          [
            120.694306,
            24.171827
          ],
          [
            120.69425,
            24.171347
          ],
          [
            120.694247,
            24.171282
          ],
          [
            120.69425,
            24.171211
          ],
          [
            120.694152,
            24.171222
          ],
          [
            120.693126,
            24.171342
          ],
          [
            120.69293,
            24.171365
          ],
          [
            120.691075,
            24.171581
          ],
          [
            120.690966,
            24.171592
          ],
          [
            120.691039,
            24.171459
          ],
          [
            120.691064,
            24.171329
          ],
          [
            120.691136,
            24.171023
          ],
          [
            120.691159,
            24.170954
          ],
          [
            120.691259,
            24.170612
          ],
          [
            120.691288,
            24.170527
          ],
          [
            120.691342,
            24.170439
          ],
          [
            120.691359,
            24.170407
          ],
          [
            120.691393,
            24.17034
          ],
          [
            120.691439,
            24.170252
          ],
          [
            120.691644,
            24.169854
          ],
          [
            120.691889,
            24.169988
          ],
          [
            120.692255,
            24.16994
          ],
          [
            120.692404,
            24.169718
          ],
          [
            120.692404,
            24.169718
          ],
          [
            120.692654,
            24.169346
          ],
          [
            120.693092,
            24.168797
          ],
          [
            120.693092,
            24.168797
          ],
          [
            120.692654,
            24.169346
          ],
          [
            120.692929,
            24.169546
          ],
          [
            120.693139,
            24.169457
          ],
          [
            120.693139,
            24.169457
          ],
          [
            120.692929,
            24.169546
          ],
          [
            120.692972,
            24.16985
          ],
          [
            120.692988,
            24.169945
          ],
          [
            120.692988,
            24.169945
          ],
          [
            120.693046,
            24.170299
          ],
          [
            120.693057,
            24.170375
          ],
          [
            120.693126,
            24.170365
          ],
          [
            120.693423,
            24.170335
          ],
          [
            120.693423,
            24.170335
          ],
          [
            120.693858,
            24.170291
          ],
          [
            120.693858,
            24.170291
          ],
          [
            120.693126,
            24.170365
          ],
          [
            120.693057,
            24.170375
          ],
          [
            120.692978,
            24.170382
          ],
          [
            120.69139,
            24.17055
          ],
          [
            120.691288,
            24.170527
          ],
          [
            120.691342,
            24.170439
          ],
          [
            120.691359,
            24.170407
          ],
          [
            120.691393,
            24.17034
          ],
          [
            120.691439,
            24.170252
          ],
          [
            120.691514,
            24.170107
          ],
          [
            120.691514,
            24.170107
          ],
          [
            120.691439,
            24.170252
          ],
          [
            120.691393,
            24.17034
          ],
          [
            120.691359,
            24.170407
          ],
          [
            120.691342,
            24.170439
          ],
          [
            120.691288,
            24.170527
          ],
          [
            120.691259,
            24.170612
          ],
          [
            120.691159,
            24.170954
          ],
          [
            120.691136,
            24.171023
          ],
          [
            120.691064,
            24.171329
          ],
          [
            120.691039,
            24.171459
          ],
          [
            120.691139,
            24.171448
          ],
          [
            120.692628,
            24.171273
          ],
          [
            120.693162,
            24.171213
          ],
          [
            120.693818,
            24.171139
          ],
          [
            120.693922,
            24.171123
          ],
          [
            120.694137,
            24.171099
          ],
          [
            120.694232,
            24.171088
          ],
          [
            120.694219,
            24.170962
          ],
          [
            120.69419,
            24.17066
          ],
          [
            120.69419,
            24.17066
          ],
          [
            120.694157,
            24.170312
          ],
          [
            120.694154,
            24.170259
          ],
          [
            120.694046,
            24.170272
          ],
          [
            120.693126,
            24.170365
          ],
          [
            120.693057,
            24.170375
          ],
          [
            120.692978,
            24.170382
          ],
          [
            120.691867,
            24.1705
          ],
          [
            120.691867,
            24.1705
          ],
          [
            120.69139,
            24.17055
          ],
          [
            120.691288,
            24.170527
          ],
          [
            120.691259,
            24.170612
          ],
          [
            120.691159,
            24.170954
          ],
          [
            120.691136,
            24.171023
          ],
          [
            120.691064,
            24.171329
          ],
          [
            120.691039,
            24.171459
          ],
          [
            120.691139,
            24.171448
          ],
          [
            120.692628,
            24.171273
          ],
          [
            120.693162,
            24.171213
          ],
          [
            120.693818,
            24.171139
          ],
          [
            120.693922,
            24.171123
          ],
          [
            120.694137,
            24.171099
          ],
          [
            120.694232,
            24.171088
          ],
          [
            120.694319,
            24.171076
          ],
          [
            120.694563,
            24.171045
          ],
          [
            120.694784,
            24.171017
          ],
          [
            120.69478,
            24.170926
          ],
          [
            120.694721,
            24.170518
          ],
          [
            120.694721,
            24.170518
          ],
          [
            120.694687,
            24.170285
          ],
          [
            120.694677,
            24.170203
          ],
          [
            120.69462,
            24.170208
          ],
          [
            120.694442,
            24.170228
          ],
          [
            120.694442,
            24.170228
          ],
          [
            120.69422,
            24.170252
          ],
          [
            120.694154,
            24.170259
          ],
          [
            120.694139,
            24.170164
          ],
          [
            120.694025,
            24.169176
          ],
          [
            120.694013,
            24.169076
          ],
          [
            120.693881,
            24.16899
          ],
          [
            120.693322,
            24.16851
          ],
          [
            120.692998,
            24.168258
          ],
          [
            120.692998,
            24.168258
          ],
          [
            120.693322,
            24.16851
          ],
          [
            120.692654,
            24.169346
          ],
          [
            120.692368,
            24.169132
          ],
          [
            120.692368,
            24.169132
          ],
          [
            120.692654,
            24.169346
          ],
          [
            120.692255,
            24.16994
          ],
          [
            120.691889,
            24.169988
          ],
          [
            120.691815,
            24.169948
          ],
          [
            120.691815,
            24.169948
          ],
          [
            120.691644,
            24.169854
          ],
          [
            120.691439,
            24.170252
          ],
          [
            120.691393,
            24.17034
          ],
          [
            120.691359,
            24.170407
          ],
          [
            120.691342,
            24.170439
          ],
          [
            120.691288,
            24.170527
          ],
          [
            120.69139,
            24.17055
          ],
          [
            120.691443,
            24.170544
          ],
          [
            120.691443,
            24.170544
          ],
          [
            120.69139,
            24.17055
          ],
          [
            120.691288,
            24.170527
          ],
          [
            120.691259,
            24.170612
          ],
          [
            120.691159,
            24.170954
          ],
          [
            120.691136,
            24.171023
          ],
          [
            120.691133,
            24.171034
          ],
          [
            120.691133,
            24.171034
          ],
          [
            120.691136,
            24.171023
          ],
          [
            120.691159,
            24.170954
          ],
          [
            120.691259,
            24.170612
          ],
          [
            120.691288,
            24.170527
          ],
          [
            120.69139,
            24.17055
          ],
          [
            120.692948,
            24.170385
          ],
          [
            120.692948,
            24.170385
          ],
          [
            120.692567,
            24.170425
          ],
          [
            120.692567,
            24.170425
          ],
          [
            120.692169,
            24.170468
          ],
          [
            120.692169,
            24.170468
          ],
          [
            120.691537,
            24.170534
          ],
          [
            120.691537,
            24.170534
          ],
          [
            120.69139,
            24.17055
          ],
          [
            120.691288,
            24.170527
          ],
          [
            120.691342,
            24.170439
          ],
          [
            120.691359,
            24.170407
          ],
          [
            120.691393,
            24.17034
          ],
          [
            120.691439,
            24.170252
          ],
          [
            120.691591,
            24.169957
          ],
          [
            120.691591,
            24.169957
          ],
          [
            120.691644,
            24.169854
          ],
          [
            120.691744,
            24.169709
          ],
          [
            120.691949,
            24.169403
          ],
          [
            120.691949,
            24.169403
          ],
          [
            120.692072,
            24.169219
          ],
          [
            120.692146,
            24.16909
          ],
          [
            120.692196,
            24.169021
          ],
          [
            120.692236,
            24.168961
          ],
          [
            120.692812,
            24.168209
          ],
          [
            120.692863,
            24.168122
          ],
          [
            120.69291,
            24.168053
          ],
          [
            120.693381,
            24.16737
          ],
          [
            120.693415,
            24.167322
          ],
          [
            120.693326,
            24.16725
          ],
          [
            120.692722,
            24.166866
          ],
          [
            120.692254,
            24.166104
          ],
          [
            120.691488,
            24.166837
          ],
          [
            120.691347,
            24.166929
          ],
          [
            120.691251,
            24.166932
          ],
          [
            120.690372,
            24.166924
          ],
          [
            120.689995,
            24.166916
          ],
          [
            120.689936,
            24.166912
          ],
          [
            120.689811,
            24.167043
          ],
          [
            120.689803,
            24.16719
          ],
          [
            120.689803,
            24.16719
          ],
          [
            120.689811,
            24.167043
          ],
          [
            120.689936,
            24.166912
          ],
          [
            120.689936,
            24.166808
          ],
          [
            120.68993,
            24.16646
          ],
          [
            120.689911,
            24.165978
          ],
          [
            120.689912,
            24.165906
          ],
          [
            120.689832,
            24.165909
          ],
          [
            120.689229,
            24.165907
          ],
          [
            120.688753,
            24.16592
          ],
          [
            120.688753,
            24.16592
          ],
          [
            120.689229,
            24.165907
          ],
          [
            120.689225,
            24.165783
          ],
          [
            120.689225,
            24.165783
          ],
          [
            120.689214,
            24.16546
          ],
          [
            120.689194,
            24.164999
          ],
          [
            120.689428,
            24.164997
          ],
          [
            120.689428,
            24.164997
          ],
          [
            120.689194,
            24.164999
          ],
          [
            120.689102,
            24.165002
          ],
          [
            120.688779,
            24.165004
          ],
          [
            120.688733,
            24.165099
          ],
          [
            120.688712,
            24.165137
          ],
          [
            120.688528,
            24.16545
          ],
          [
            120.688528,
            24.16545
          ],
          [
            120.688328,
            24.165791
          ],
          [
            120.688318,
            24.165846
          ],
          [
            120.688407,
            24.165931
          ],
          [
            120.688481,
            24.165997
          ],
          [
            120.688606,
            24.166162
          ],
          [
            120.68871,
            24.16631
          ],
          [
            120.6889,
            24.166307
          ],
          [
            120.6889,
            24.166307
          ],
          [
            120.68871,
            24.16631
          ],
          [
            120.688821,
            24.166531
          ],
          [
            120.688866,
            24.166619
          ],
          [
            120.688998,
            24.166497
          ],
          [
            120.688998,
            24.166497
          ],
          [
            120.688866,
            24.166619
          ],
          [
            120.688914,
            24.166798
          ],
          [
            120.688932,
            24.166887
          ],
          [
            120.688966,
            24.166993
          ],
          [
            120.689019,
            24.167262
          ],
          [
            120.689019,
            24.167262
          ],
          [
            120.689041,
            24.167376
          ],
          [
            120.689089,
            24.167535
          ],
          [
            120.689089,
            24.167535
          ],
          [
            120.689177,
            24.167828
          ],
          [
            120.689199,
            24.167899
          ],
          [
            120.689145,
            24.167904
          ],
          [
            120.68901,
            24.167931
          ],
          [
            120.688946,
            24.167938
          ],
          [
            120.688917,
            24.167865
          ],
          [
            120.688828,
            24.167505
          ],
          [
            120.688801,
            24.167403
          ],
          [
            120.688801,
            24.167403
          ],
          [
            120.688769,
            24.167285
          ],
          [
            120.688738,
            24.167302
          ],
          [
            120.687767,
            24.167343
          ],
          [
            120.687844,
            24.167564
          ],
          [
            120.688694,
            24.167523
          ],
          [
            120.688694,
            24.167523
          ],
          [
            120.687844,
            24.167564
          ],
          [
            120.687767,
            24.167343
          ],
          [
            120.687673,
            24.167013
          ],
          [
            120.687673,
            24.166914
          ],
          [
            120.687727,
            24.166916
          ],
          [
            120.688349,
            24.166893
          ],
          [
            120.688349,
            24.166893
          ],
          [
            120.68792,
            24.166909
          ],
          [
            120.68792,
            24.166909
          ],
          [
            120.687727,
            24.166916
          ],
          [
            120.687673,
            24.166914
          ],
          [
            120.687601,
            24.166915
          ],
          [
            120.687237,
            24.166929
          ],
          [
            120.687237,
            24.166929
          ],
          [
            120.687601,
            24.166915
          ],
          [
            120.687673,
            24.166914
          ],
          [
            120.687673,
            24.167013
          ],
          [
            120.687767,
            24.167343
          ],
          [
            120.687606,
            24.16735
          ],
          [
            120.687606,
            24.16735
          ],
          [
            120.687767,
            24.167343
          ],
          [
            120.687844,
            24.167564
          ],
          [
            120.687995,
            24.168007
          ],
          [
            120.688016,
            24.16807
          ],
          [
            120.688038,
            24.168138
          ],
          [
            120.688144,
            24.168517
          ],
          [
            120.688171,
            24.168588
          ],
          [
            120.688221,
            24.168778
          ],
          [
            120.688344,
            24.169177
          ],
          [
            120.688363,
            24.169238
          ],
          [
            120.688376,
            24.169317
          ],
          [
            120.688436,
            24.169685
          ],
          [
            120.688436,
            24.169685
          ],
          [
            120.688376,
            24.169317
          ],
          [
            120.688363,
            24.169238
          ],
          [
            120.688344,
            24.169177
          ],
          [
            120.688221,
            24.168778
          ],
          [
            120.688066,
            24.168795
          ],
          [
            120.688066,
            24.168795
          ],
          [
            120.688221,
            24.168778
          ],
          [
            120.688171,
            24.168588
          ],
          [
            120.688293,
            24.168555
          ],
          [
            120.688293,
            24.168555
          ],
          [
            120.688171,
            24.168588
          ],
          [
            120.688144,
            24.168517
          ],
          [
            120.688038,
            24.168138
          ],
          [
            120.688016,
            24.16807
          ],
          [
            120.687952,
            24.168078
          ],
          [
            120.687638,
            24.168116
          ],
          [
            120.687638,
            24.168116
          ],
          [
            120.687112,
            24.168179
          ],
          [
            120.687047,
            24.168184
          ],
          [
            120.686984,
            24.168193
          ],
          [
            120.686686,
            24.16823
          ],
          [
            120.686264,
            24.168287
          ],
          [
            120.686206,
            24.168296
          ],
          [
            120.68621,
            24.16837
          ],
          [
            120.686231,
            24.168715
          ],
          [
            120.686331,
            24.168707
          ],
          [
            120.686331,
            24.168707
          ],
          [
            120.686231,
            24.168715
          ],
          [
            120.686238,
            24.168912
          ],
          [
            120.686246,
            24.169331
          ],
          [
            120.686249,
            24.169389
          ],
          [
            120.686319,
            24.169386
          ],
          [
            120.686411,
            24.169384
          ],
          [
            120.686411,
            24.169384
          ],
          [
            120.686319,
            24.169386
          ],
          [
            120.686249,
            24.169389
          ],
          [
            120.686255,
            24.169454
          ],
          [
            120.686266,
            24.169652
          ],
          [
            120.686316,
            24.17001
          ],
          [
            120.68619,
            24.170018
          ],
          [
            120.68619,
            24.170018
          ],
          [
            120.686316,
            24.17001
          ],
          [
            120.686335,
            24.170386
          ],
          [
            120.686339,
            24.170461
          ],
          [
            120.686367,
            24.170645
          ],
          [
            120.686367,
            24.170645
          ],
          [
            120.686381,
            24.170738
          ],
          [
            120.686386,
            24.170784
          ],
          [
            120.686449,
            24.170776
          ],
          [
            120.686696,
            24.170752
          ],
          [
            120.686976,
            24.170725
          ],
          [
            120.686958,
            24.170575
          ],
          [
            120.686958,
            24.170575
          ],
          [
            120.686976,
            24.170725
          ],
          [
            120.687395,
            24.170685
          ],
          [
            120.687479,
            24.170673
          ],
          [
            120.687468,
            24.17061
          ],
          [
            120.687431,
            24.170398
          ],
          [
            120.687431,
            24.170398
          ],
          [
            120.687373,
            24.170069
          ],
          [
            120.687373,
            24.170069
          ],
          [
            120.687324,
            24.169788
          ],
          [
            120.687444,
            24.16977
          ],
          [
            120.687444,
            24.16977
          ],
          [
            120.687324,
            24.169788
          ],
          [
            120.687254,
            24.169389
          ],
          [
            120.687241,
            24.16932
          ],
          [
            120.687233,
            24.169258
          ],
          [
            120.68719,
            24.169008
          ],
          [
            120.68719,
            24.169008
          ],
          [
            120.68712,
            24.168599
          ],
          [
            120.68712,
            24.168599
          ],
          [
            120.687062,
            24.168257
          ],
          [
            120.687047,
            24.168184
          ],
          [
            120.687042,
            24.168116
          ],
          [
            120.686957,
            24.167664
          ],
          [
            120.686957,
            24.167664
          ],
          [
            120.686895,
            24.167336
          ],
          [
            120.686895,
            24.167336
          ],
          [
            120.686841,
            24.167049
          ],
          [
            120.686831,
            24.166942
          ],
          [
            120.686727,
            24.166948
          ],
          [
            120.686633,
            24.166951
          ],
          [
            120.686633,
            24.166951
          ],
          [
            120.686227,
            24.166964
          ],
          [
            120.686125,
            24.166967
          ],
          [
            120.686131,
            24.167086
          ],
          [
            120.686153,
            24.167519
          ],
          [
            120.686153,
            24.167519
          ],
          [
            120.686159,
            24.167641
          ],
          [
            120.686178,
            24.167916
          ],
          [
            120.686178,
            24.167916
          ],
          [
            120.6862,
            24.168224
          ],
          [
            120.686206,
            24.168296
          ],
          [
            120.686264,
            24.168287
          ],
          [
            120.686686,
            24.16823
          ],
          [
            120.686984,
            24.168193
          ],
          [
            120.687047,
            24.168184
          ],
          [
            120.687112,
            24.168179
          ],
          [
            120.687952,
            24.168078
          ],
          [
            120.688016,
            24.16807
          ],
          [
            120.688085,
            24.168061
          ],
          [
            120.688288,
            24.168032
          ],
          [
            120.688288,
            24.168032
          ],
          [
            120.688683,
            24.167976
          ],
          [
            120.688683,
            24.167976
          ],
          [
            120.688768,
            24.167964
          ],
          [
            120.688768,
            24.167964
          ],
          [
            120.688903,
            24.167945
          ],
          [
            120.688946,
            24.167938
          ],
          [
            120.68901,
            24.167931
          ],
          [
            120.689145,
            24.167904
          ],
          [
            120.689199,
            24.167899
          ],
          [
            120.68924,
            24.167891
          ],
          [
            120.689458,
            24.16784
          ],
          [
            120.689943,
            24.167749
          ],
          [
            120.689943,
            24.167502
          ],
          [
            120.689713,
            24.167547
          ],
          [
            120.689713,
            24.167547
          ],
          [
            120.689943,
            24.167502
          ],
          [
            120.689943,
            24.167749
          ],
          [
            120.690022,
            24.167731
          ],
          [
            120.690155,
            24.16771
          ],
          [
            120.690227,
            24.167694
          ],
          [
            120.690313,
            24.167683
          ],
          [
            120.690331,
            24.167735
          ],
          [
            120.690453,
            24.168079
          ],
          [
            120.690573,
            24.168038
          ],
          [
            120.690678,
            24.168013
          ],
          [
            120.690831,
            24.168314
          ],
          [
            120.690831,
            24.168314
          ],
          [
            120.690831,
            24.168314
          ],
          [
            120.690678,
            24.168013
          ],
          [
            120.690573,
            24.168038
          ],
          [
            120.690453,
            24.168079
          ],
          [
            120.690331,
            24.167735
          ],
          [
            120.690313,
            24.167683
          ],
          [
            120.690824,
            24.167583
          ],
          [
            120.691209,
            24.168154
          ],
          [
            120.691209,
            24.168154
          ],
          [
            120.690824,
            24.167583
          ],
          [
            120.690313,
            24.167683
          ],
          [
            120.690331,
            24.167735
          ],
          [
            120.690453,
            24.168079
          ],
          [
            120.690573,
            24.168038
          ],
          [
            120.690678,
            24.168013
          ],
          [
            120.690696,
            24.168049
          ],
          [
            120.690696,
            24.168049
          ],
          [
            120.690678,
            24.168013
          ],
          [
            120.690573,
            24.168038
          ],
          [
            120.690453,
            24.168079
          ],
          [
            120.690331,
            24.167735
          ],
          [
            120.690313,
            24.167683
          ],
          [
            120.690542,
            24.167638
          ],
          [
            120.690542,
            24.167638
          ],
          [
            120.690313,
            24.167683
          ],
          [
            120.690331,
            24.167735
          ],
          [
            120.690453,
            24.168079
          ],
          [
            120.690515,
            24.168257
          ],
          [
            120.690567,
            24.168404
          ],
          [
            120.690685,
            24.168711
          ],
          [
            120.690703,
            24.168781
          ],
          [
            120.690722,
            24.168844
          ],
          [
            120.690727,
            24.168887
          ],
          [
            120.690727,
            24.168887
          ],
          [
            120.690776,
            24.16935
          ],
          [
            120.690776,
            24.16935
          ],
          [
            120.690797,
            24.169551
          ],
          [
            120.691084,
            24.16951
          ],
          [
            120.691084,
            24.16951
          ],
          [
            120.690797,
            24.169551
          ],
          [
            120.690815,
            24.169724
          ],
          [
            120.690878,
            24.1697
          ],
          [
            120.69114,
            24.169586
          ],
          [
            120.69127,
            24.169503
          ],
          [
            120.691381,
            24.169389
          ],
          [
            120.691543,
            24.169246
          ],
          [
            120.691661,
            24.169144
          ],
          [
            120.691661,
            24.169144
          ],
          [
            120.691543,
            24.169246
          ],
          [
            120.691381,
            24.169389
          ],
          [
            120.69127,
            24.169503
          ],
          [
            120.69114,
            24.169586
          ],
          [
            120.690878,
            24.1697
          ],
          [
            120.690815,
            24.169724
          ],
          [
            120.690797,
            24.169551
          ],
          [
            120.690722,
            24.168844
          ],
          [
            120.690703,
            24.168781
          ],
          [
            120.690625,
            24.168814
          ],
          [
            120.690181,
            24.168965
          ],
          [
            120.690181,
            24.168965
          ],
          [
            120.689809,
            24.169091
          ],
          [
            120.689751,
            24.169106
          ],
          [
            120.689666,
            24.169128
          ],
          [
            120.689539,
            24.16915
          ],
          [
            120.689452,
            24.169154
          ],
          [
            120.689394,
            24.169163
          ],
          [
            120.689174,
            24.169181
          ],
          [
            120.689187,
            24.169295
          ],
          [
            120.689187,
            24.169295
          ],
          [
            120.689174,
            24.169181
          ],
          [
            120.688678,
            24.169216
          ],
          [
            120.688678,
            24.169216
          ],
          [
            120.688444,
            24.169232
          ],
          [
            120.688363,
            24.169238
          ],
          [
            120.688295,
            24.169244
          ],
          [
            120.687899,
            24.169272
          ],
          [
            120.687914,
            24.169378
          ],
          [
            120.687914,
            24.169378
          ],
          [
            120.687899,
            24.169272
          ],
          [
            120.687347,
            24.169311
          ],
          [
            120.687241,
            24.16932
          ],
          [
            120.687156,
            24.169326
          ],
          [
            120.686577,
            24.169379
          ],
          [
            120.686675,
            24.17044
          ],
          [
            120.686696,
            24.170752
          ],
          [
            120.686449,
            24.170776
          ],
          [
            120.686386,
            24.170784
          ],
          [
            120.686391,
            24.17084
          ],
          [
            120.686396,
            24.170911
          ],
          [
            120.686396,
            24.170911
          ],
          [
            120.686426,
            24.171357
          ],
          [
            120.687497,
            24.171269
          ],
          [
            120.687583,
            24.171257
          ],
          [
            120.687651,
            24.171251
          ],
          [
            120.688082,
            24.171189
          ],
          [
            120.688082,
            24.171189
          ],
          [
            120.688514,
            24.171127
          ],
          [
            120.688514,
            24.171127
          ],
          [
            120.689453,
            24.170993
          ],
          [
            120.689453,
            24.170993
          ],
          [
            120.69004,
            24.170909
          ],
          [
            120.69004,
            24.170909
          ],
          [
            120.687651,
            24.171251
          ],
          [
            120.687583,
            24.171257
          ],
          [
            120.687574,
            24.171201
          ],
          [
            120.68752,
            24.170906
          ],
          [
            120.68757,
            24.170898
          ],
          [
            120.687694,
            24.17088
          ],
          [
            120.687674,
            24.170704
          ],
          [
            120.687669,
            24.170656
          ],
          [
            120.688415,
            24.170594
          ],
          [
            120.688415,
            24.170594
          ],
          [
            120.688207,
            24.170611
          ],
          [
            120.688207,
            24.170611
          ],
          [
            120.687853,
            24.170641
          ],
          [
            120.687853,
            24.170641
          ]
        ]
      },
      "properties": {
        "routeId": "taichung-kel-0275-71e45c-d1",
        "city": "taichung",
        "source_file": "taichung/taichung-kel-0275-71e45c-d1.geojson",
        "distance_km": 20.818,
        "duration_min": 50.78183333333333,
        "valhalla_config": "valhalla.json"
      }
    }
  ]
}