{
  "type": "FeatureCollection",
  "features": [
    {
      "type": "Feature",
      "geometry": {
        "type": "LineString",
        "coordinates": [
          [
            120.724645,
            24.307623
          ],
          [
            120.724645,
            24.307623
          ],
          [
            120.724603,
            24.308034
          ],
          [
            120.724564,
            24.308443
          ],
          [
            120.724334,
            24.308407
          ],
          [
            120.723376,
            24.308496
          ],
          [
            120.723353,
            24.308422
          ],
          [
            120.723353,
            24.308422
          ],
          [
            120.723376,
            24.308496
          ],
          [
            120.724334,
            24.308407
          ],
          [
            120.724564,
            24.308443
          ],
          [
            120.725162,
            24.308485
          ],
          [
            120.725145,
            24.308689
          ],
          [
            120.725145,
            24.308689
          ],
          [
            120.725114,
            24.309046
          ],
          [
            120.725289,
            24.309056
          ],
          [
            120.725867,
            24.309078
          ],
          [
            120.725891,
            24.308744
          ],
          [
            120.725911,
            24.308372
          ],
          [
            120.725914,
            24.308328
          ],
          [
            120.725905,
            24.308186
          ],
          [
            120.725902,
            24.308172
          ],
          [
            120.725902,
            24.308172
          ],
          [
            120.725854,
            24.307944
          ],
          [
            120.725916,
            24.307002
          ],
          [
            120.725971,
            24.306141
          ],
          [
            120.725218,
            24.306102
          ],
          [
            120.725224,
            24.306011
          ],
          [
            120.725224,
            24.306011
          ],
          [
            120.725218,
            24.306102
          ],
          [
            120.725971,
            24.306141
          ],
          [
            120.725935,
            24.306707
          ],
          [
            120.725935,
            24.306707
          ],
          [
            120.725916,
            24.307002
          ],
          [
            120.725854,
            24.307944
          ],
          [
            120.725905,
            24.308186
          ],
          [
            120.725914,
            24.308328
          ],
          [
            120.725911,
            24.308372
          ],
          [
            120.725891,
            24.308744
          ],
          [
            120.72588,
            24.308894
          ],
          [
            120.72588,
            24.308894
          ],
          [
            120.725891,
            24.308744
          ],
          [
            120.725911,
            24.308372
          ],
          [
            120.725914,
            24.308328
          ],
          [
            120.725905,
            24.308186
          ],
          [
            120.725854,
            24.307944
          ],
          [
            120.725916,
            24.307002
          ],
          [
            120.726885,
            24.30705
          ],
          [
            120.726898,
            24.306706
          ],
          [
            120.72667,
            24.306695
          ],
          [
            120.726697,
            24.306287
          ],
          [
            120.726697,
            24.306287
          ],
          [
            120.72667,
            24.306695
          ],
          [
            120.726898,
            24.306706
          ],
          [
            120.726926,
            24.306425
          ],
          [
            120.72705,
            24.306238
          ],
          [
            120.727516,
            24.306491
          ],
          [
            120.728473,
            24.30694
          ],
          [
            120.729365,
            24.30736
          ],
          [
            120.729546,
            24.307437
          ],
          [
            120.729546,
            24.307437
          ],
          [
            120.729841,
            24.307564
          ],
          [
            120.730104,
            24.307718
          ],
          [
            120.73046,
            24.307914
          ],
          [
            120.730755,
            24.308066
          ],
          [
            120.730997,
            24.308102
          ],
          [
            120.73108,
            24.308098
          ],
          [
            120.7312,
            24.308092
          ],
          [
            120.731257,
            24.308091
          ],
          [
            120.731413,
            24.307621
          ],
          [
            120.731434,
            24.30757
          ],
          [
            120.731434,
            24.30757
          ],
          [
            120.731413,
            24.307621
          ],
          [
            120.731257,
            24.308091
          ],
          [
            120.7312,
            24.308092
          ],
          [
            120.73108,
            24.308098
          ],
          [
            120.730997,
            24.308102
          ],
          [
            120.730755,
            24.308066
          ],
          [
            120.730734,
            24.308388
          ],
          [
            120.730691,
            24.308581
          ],
          [
            120.730615,
            24.308835
          ],
          [
            120.730538,
            24.309118
          ],
          [
            120.730462,
            24.309397
          ],
          [
            120.729975,
            24.309373
          ],
          [
            120.72851,
            24.309279
          ],
          [
            120.728094,
            24.309243
          ],
          [
            120.727847,
            24.309231
          ],
          [
            120.727522,
            24.309209
          ],
          [
            120.727552,
            24.308746
          ],
          [
            120.727718,
            24.308748
          ],
          [
            120.727761,
            24.307631
          ],
          [
            120.727765,
            24.307521
          ],
          [
            120.727782,
            24.307097
          ],
          [
            120.727799,
            24.306782
          ],
          [
            120.727799,
            24.306782
          ],
          [
            120.727782,
            24.307097
          ],
          [
            120.727765,
            24.307521
          ],
          [
            120.727761,
            24.307631
          ],
          [
            120.727718,
            24.308748
          ],
          [
            120.727552,
            24.308746
          ],
          [
            120.727522,
            24.309209
          ],
          [
            120.727847,
            24.309231
          ],
          [
            120.728094,
            24.309243
          ],
          [
            120.72851,
            24.309279
          ],
          [
            120.729975,
            24.309373
          ],
          [
            120.729993,
            24.30905
          ],
          [
            120.729993,
            24.30905
          ],
          [
            120.729975,
            24.309373
          ],
          [
            120.730462,
            24.309397
          ],
          [
            120.730447,
            24.309474
          ],
          [
            120.730353,
            24.309736
          ],
          [
            120.729927,
            24.310919
          ],
          [
            120.729911,
            24.310964
          ],
          [
            120.72991,
            24.310969
          ],
          [
            120.729297,
            24.311099
          ],
          [
            120.729297,
            24.311099
          ],
          [
            120.72991,
            24.310969
          ],
          [
            120.729767,
            24.311347
          ],
          [
            120.729385,
            24.311441
          ],
          [
            120.729385,
            24.311441
          ],
          [
            120.729767,
            24.311347
          ],
          [
            120.729744,
            24.31145
          ],
          [
            120.729707,
            24.31157
          ],
          [
            120.729695,
            24.311626
          ],
          [
            120.729297,
            24.312664
          ],
          [
            120.72925,
            24.312773
          ],
          [
            120.729186,
            24.312912
          ],
          [
            120.729094,
            24.313126
          ],
          [
            120.729068,
            24.3132
          ],
          [
            120.729046,
            24.313259
          ],
          [
            120.729053,
            24.313316
          ],
          [
            120.729431,
            24.313523
          ],
          [
            120.729573,
            24.313565
          ],
          [
            120.729762,
            24.313591
          ],
          [
            120.729947,
            24.313618
          ],
          [
            120.729948,
            24.313804
          ],
          [
            120.730002,
            24.313793
          ],
          [
            120.730002,
            24.313793
          ],
          [
            120.729948,
            24.313804
          ],
          [
            120.729947,
            24.313618
          ],
          [
            120.729762,
            24.313591
          ],
          [
            120.729573,
            24.313565
          ],
          [
            120.729431,
            24.313523
          ],
          [
            120.729053,
            24.313316
          ],
          [
            120.729046,
            24.313259
          ],
          [
            120.729068,
            24.3132
          ],
          [
            120.729094,
            24.313126
          ],
          [
            120.729186,
            24.312912
          ],
          [
            120.72925,
            24.312773
          ],
          [
            120.729297,
            24.312664
          ],
          [
            120.729695,
            24.311626
          ],
          [
            120.729707,
            24.31157
          ],
          [
            120.729744,
            24.31145
          ],
          [
            120.729767,
            24.311347
          ],
          [
            120.72991,
            24.310969
          ],
          [
            120.729911,
            24.310964
          ],
          [
            120.729927,
            24.310919
          ],
          [
            120.730353,
            24.309736
          ],
          [
            120.730447,
            24.309474
          ],
          [
            120.730462,
            24.309397
          ],
          [
            120.730896,
            24.309417
          ],
          [
            120.730875,
            24.309319
          ],
          [
            120.730875,
            24.309319
          ],
          [
            120.730896,
            24.309417
          ],
          [
            120.731293,
            24.309444
          ],
          [
            120.731765,
            24.309478
          ],
          [
            120.731987,
            24.309488
          ],
          [
            120.73219,
            24.309474
          ],
          [
            120.732237,
            24.309464
          ],
          [
            120.732636,
            24.309374
          ],
          [
            120.732739,
            24.309351
          ],
          [
            120.732947,
            24.309937
          ],
          [
            120.733328,
            24.31064
          ],
          [
            120.733333,
            24.310688
          ],
          [
            120.733394,
            24.311247
          ],
          [
            120.733394,
            24.311247
          ],
          [
            120.733333,
            24.310688
          ],
          [
            120.732976,
            24.310703
          ],
          [
            120.732985,
            24.310784
          ],
          [
            120.732985,
            24.310784
          ],
          [
            120.732976,
            24.310703
          ],
          [
            120.733333,
            24.310688
          ],
          [
            120.733432,
            24.3116
          ],
          [
            120.733202,
            24.311601
          ],
          [
            120.733162,
            24.311855
          ],
          [
            120.733118,
            24.312501
          ],
          [
            120.733116,
            24.312861
          ],
          [
            120.733484,
            24.312787
          ],
          [
            120.733877,
            24.312703
          ],
          [
            120.734099,
            24.312703
          ],
          [
            120.734347,
            24.312723
          ],
          [
            120.734062,
            24.312078
          ],
          [
            120.734318,
            24.311989
          ],
          [
            120.73401,
            24.310933
          ],
          [
            120.734069,
            24.310807
          ],
          [
            120.734704,
            24.310669
          ],
          [
            120.735352,
            24.310529
          ],
          [
            120.735602,
            24.310474
          ],
          [
            120.735801,
            24.310544
          ],
          [
            120.736094,
            24.310647
          ],
          [
            120.736094,
            24.310647
          ],
          [
            120.736462,
            24.310776
          ],
          [
            120.736599,
            24.31089
          ],
          [
            120.736657,
            24.311004
          ],
          [
            120.736814,
            24.311026
          ],
          [
            120.736903,
            24.311039
          ],
          [
            120.736823,
            24.311067
          ],
          [
            120.736662,
            24.311123
          ],
          [
            120.736655,
            24.311279
          ],
          [
            120.736764,
            24.31184
          ],
          [
            120.736808,
            24.312438
          ],
          [
            120.736715,
            24.313104
          ],
          [
            120.736938,
            24.313145
          ],
          [
            120.73704,
            24.313378
          ],
          [
            120.73692,
            24.313395
          ],
          [
            120.736849,
            24.313474
          ],
          [
            120.736816,
            24.313566
          ],
          [
            120.736816,
            24.313566
          ],
          [
            120.736813,
            24.313574
          ],
          [
            120.736709,
            24.313949
          ],
          [
            120.736687,
            24.314013
          ],
          [
            120.736623,
            24.314077
          ],
          [
            120.736496,
            24.314146
          ],
          [
            120.735924,
            24.314437
          ],
          [
            120.735849,
            24.314476
          ],
          [
            120.735661,
            24.314523
          ],
          [
            120.735449,
            24.314542
          ],
          [
            120.735038,
            24.314502
          ],
          [
            120.734967,
            24.314461
          ],
          [
            120.734927,
            24.314413
          ],
          [
            120.734731,
            24.31381
          ],
          [
            120.73465,
            24.313573
          ],
          [
            120.734538,
            24.31328
          ],
          [
            120.734347,
            24.312723
          ],
          [
            120.734099,
            24.312703
          ],
          [
            120.733877,
            24.312703
          ],
          [
            120.733484,
            24.312787
          ],
          [
            120.733116,
            24.312861
          ],
          [
            120.733118,
            24.312501
          ],
          [
            120.733162,
            24.311855
          ],
          [
            120.733202,
            24.311601
          ],
          [
            120.733432,
            24.3116
          ],
          [
            120.733353,
            24.310869
          ],
          [
            120.733353,
            24.310869
          ],
          [
            120.733333,
            24.310688
          ],
          [
            120.733328,
            24.31064
          ],
          [
            120.732947,
            24.309937
          ],
          [
            120.732739,
            24.309351
          ],
          [
            120.732636,
            24.309374
          ],
          [
            120.732237,
            24.309464
          ],
          [
            120.73219,
            24.309474
          ],
          [
            120.731987,
            24.309488
          ],
          [
            120.731765,
            24.309478
          ],
          [
            120.731293,
            24.309444
          ],
          [
            120.730896,
            24.309417
          ],
          [
            120.730462,
            24.309397
          ],
          [
            120.730538,
            24.309118
          ],
          [
            120.730615,
            24.308835
          ],
          [
            120.730691,
            24.308581
          ],
          [
            120.730734,
            24.308388
          ],
          [
            120.730755,
            24.308066
          ],
          [
            120.730808,
            24.307272
          ],
          [
            120.730865,
            24.306415
          ],
          [
            120.730865,
            24.306415
          ],
          [
            120.730808,
            24.307272
          ],
          [
            120.730755,
            24.308066
          ],
          [
            120.730734,
            24.308388
          ],
          [
            120.730691,
            24.308581
          ],
          [
            120.730615,
            24.308835
          ],
          [
            120.730538,
            24.309118
          ],
          [
            120.730462,
            24.309397
          ],
          [
            120.729975,
            24.309373
          ],
          [
            120.72851,
            24.309279
          ],
          [
            120.728094,
            24.309243
          ],
          [
            120.727847,
            24.309231
          ],
          [
            120.727522,
            24.309209
          ],
          [
            120.727083,
            24.309165
          ],
          [
            120.726807,
            24.309148
          ],
          [
            120.726531,
            24.309132
          ],
          [
            120.725867,
            24.309078
          ],
          [
            120.725289,
            24.309056
          ],
          [
            120.725114,
            24.309046
          ],
          [
            120.724495,
            24.309008
          ],
          [
            120.722942,
            24.308914
          ],
          [
            120.722408,
            24.308882
          ],
          [
            120.7223,
            24.308893
          ],
          [
            120.721787,
            24.308957
          ],
          [
            120.720864,
            24.309109
          ],
          [
            120.720353,
            24.309193
          ],
          [
            120.719632,
            24.309307
          ],
          [
            120.718932,
            24.309432
          ],
          [
            120.718332,
            24.309529
          ],
          [
            120.717839,
            24.309619
          ],
          [
            120.717348,
            24.309684
          ],
          [
            120.716922,
            24.309763
          ],
          [
            120.716849,
            24.309369
          ],
          [
            120.71678,
            24.308976
          ],
          [
            120.716691,
            24.308404
          ],
          [
            120.716601,
            24.307754
          ],
          [
            120.716554,
            24.307552
          ],
          [
            120.716169,
            24.306855
          ],
          [
            120.715965,
            24.306527
          ],
          [
            120.715774,
            24.306198
          ],
          [
            120.715607,
            24.306052
          ],
          [
            120.715489,
            24.306008
          ],
          [
            120.715403,
            24.305984
          ],
          [
            120.715085,
            24.305904
          ],
          [
            120.714925,
            24.305881
          ],
          [
            120.714813,
            24.305868
          ],
          [
            120.714628,
            24.305891
          ],
          [
            120.7136,
            24.306259
          ],
          [
            120.71346,
            24.305997
          ],
          [
            120.713325,
            24.305738
          ],
          [
            120.713172,
            24.305439
          ],
          [
            120.713024,
            24.305177
          ],
          [
            120.71286,
            24.304877
          ],
          [
            120.712731,
            24.304629
          ],
          [
            120.712441,
            24.30407
          ],
          [
            120.711968,
            24.304289
          ],
          [
            120.711822,
            24.304353
          ],
          [
            120.711521,
            24.304483
          ],
          [
            120.711442,
            24.304519
          ],
          [
            120.711378,
            24.304548
          ],
          [
            120.710519,
            24.30493
          ],
          [
            120.710461,
            24.304947
          ],
          [
            120.71042,
            24.30487
          ],
          [
            120.710222,
            24.304579
          ],
          [
            120.710045,
            24.304249
          ],
          [
            120.709887,
            24.303945
          ],
          [
            120.70985,
            24.303885
          ],
          [
            120.709746,
            24.303928
          ],
          [
            120.709528,
            24.304018
          ],
          [
            120.709391,
            24.303752
          ],
          [
            120.709376,
            24.303718
          ],
          [
            120.709182,
            24.303341
          ],
          [
            120.708922,
            24.303282
          ],
          [
            120.708386,
            24.303159
          ],
          [
            120.708195,
            24.303253
          ],
          [
            120.707763,
            24.303418
          ],
          [
            120.707182,
            24.30368
          ],
          [
            120.707182,
            24.30368
          ],
          [
            120.707763,
            24.303418
          ],
          [
            120.707889,
            24.303677
          ],
          [
            120.708038,
            24.303921
          ],
          [
            120.708089,
            24.304054
          ],
          [
            120.708346,
            24.304542
          ],
          [
            120.708655,
            24.305143
          ],
          [
            120.708908,
            24.305637
          ],
          [
            120.709592,
            24.305327
          ],
          [
            120.709655,
            24.305301
          ],
          [
            120.70975,
            24.305261
          ],
          [
            120.709785,
            24.305246
          ],
          [
            120.710379,
            24.304994
          ],
          [
            120.710461,
            24.304947
          ],
          [
            120.710519,
            24.30493
          ],
          [
            120.711378,
            24.304548
          ],
          [
            120.711442,
            24.304519
          ],
          [
            120.711521,
            24.304483
          ],
          [
            120.711822,
            24.304353
          ],
          [
            120.711968,
            24.304289
          ],
          [
            120.712441,
            24.30407
          ],
          [
            120.712731,
            24.304629
          ],
          [
            120.71286,
            24.304877
          ],
          [
            120.713024,
            24.305177
          ],
          [
            120.713172,
            24.305439
          ],
          [
            120.713325,
            24.305738
          ],
          [
            120.71346,
            24.305997
          ],
          [
            120.7136,
            24.306259
          ],
          [
            120.714628,
            24.305891
          ],
          [
            120.714813,
            24.305868
          ],
          [
            120.714925,
            24.305881
          ],
          [
            120.715085,
            24.305904
          ],
          [
            120.715403,
            24.305984
          ],
          [
            120.715489,
            24.306008
          ],
          [
            120.715607,
            24.306052
          ],
          [
            120.715774,
            24.306198
          ],
          [
            120.715965,
            24.306527
          ],
          [
            120.716169,
            24.306855
          ],
          [
            120.716554,
            24.307552
          ],
          [
            120.716601,
            24.307754
          ],
          [
            120.716691,
            24.308404
          ],
          [
            120.71678,
            24.308976
          ],
          [
            120.716849,
            24.309369
          ],
          [
            120.716922,
            24.309763
          ],
          [
            120.717348,
            24.309684
          ],
          [
            120.717839,
            24.309619
          ],
          [
            120.718332,
            24.309529
          ],
          [
            120.718932,
            24.309432
          ],
          [
            120.719632,
            24.309307
          ],
          [
            120.720353,
            24.309193
          ],
          [
            120.720864,
            24.309109
          ],
          [
            120.721787,
            24.308957
          ],
          [
            120.7223,
            24.308893
          ],
          [
            120.722408,
            24.308882
          ],
          [
            120.722942,
            24.308914
          ],
          [
            120.724495,
            24.309008
          ],
          [
            120.725114,
            24.309046
          ],
          [
            120.725289,
            24.309056
          ],
          [
            120.725867,
            24.309078
          ],
          [
            120.726531,
            24.309132
          ],
          [
            120.726807,
            24.309148
          ],
          [
            120.727083,
            24.309165
          ],
          [
            120.727522,
            24.309209
          ],
          [
            120.727847,
            24.309231
          ],
          [
            120.728094,
            24.309243
          ],
          [
            120.72851,
            24.309279
          ],
          [
            120.729975,
            24.309373
          ],
          [
            120.730462,
            24.309397
          ],
          [
            120.730896,
            24.309417
          ],
          [
            120.731293,
            24.309444
          ],
          [
            120.731765,
            24.309478
          ],
          [
            120.731987,
            24.309488
          ],
          [
            120.73219,
            24.309474
          ],
          [
            120.732237,
            24.309464
          ],
          [
            120.732636,
            24.309374
          ],
          [
            120.732739,
            24.309351
          ],
          [
            120.732947,
            24.309937
          ],
          [
            120.733328,
            24.31064
          ],
          [
            120.733333,
            24.310688
          ],
          [
            120.733432,
            24.3116
          ],
          [
            120.733202,
            24.311601
          ],
          [
            120.733162,
            24.311855
          ],
          [
            120.733118,
            24.312501
          ],
          [
            120.733116,
            24.312861
          ],
          [
            120.733484,
            24.312787
          ],
          [
            120.733877,
            24.312703
          ],
          [
            120.734099,
            24.312703
          ],
          [
            120.734347,
            24.312723
          ],
          [
            120.734538,
            24.31328
          ],
          [
            120.73465,
            24.313573
          ],
          [
            120.734731,
            24.31381
          ],
          [
            120.734927,
            24.314413
          ],
          [
            120.734967,
            24.314461
          ],
          [
            120.735038,
            24.314502
          ],
          [
            120.735449,
            24.314542
          ],
          [
            120.735661,
            24.314523
          ],
          [
            120.735849,
            24.314476
          ],
          [
            120.735924,
            24.314437
          ],
          [
            120.736496,
            24.314146
          ],
          [
            120.736623,
            24.314077
          ],
          [
            120.736687,
            24.314013
          ],
          [
            120.736709,
            24.313949
          ],
          [
            120.736813,
            24.313574
          ],
          [
            120.736849,
            24.313474
          ],
          [
            120.73692,
            24.313395
          ],
          [
            120.73704,
            24.313378
          ],
          [
            120.737091,
            24.313389
          ],
          [
            120.737844,
            24.313552
          ],
          [
            120.738056,
            24.313589
          ],
          [
            120.738316,
            24.313624
          ],
          [
            120.738944,
            24.313654
          ],
          [
            120.739086,
            24.313674
          ],
          [
            120.739235,
            24.31373
          ],
          [
            120.739711,
            24.313937
          ],
          [
            120.739865,
            24.313954
          ],
          [
            120.739962,
            24.31397
          ],
          [
            120.740098,
            24.313987
          ],
          [
            120.740229,
            24.31399
          ],
          [
            120.740393,
            24.313972
          ],
          [
            120.740526,
            24.31394
          ],
          [
            120.740677,
            24.313899
          ],
          [
            120.740787,
            24.313857
          ],
          [
            120.740953,
            24.31386
          ],
          [
            120.741125,
            24.313862
          ],
          [
            120.741217,
            24.313912
          ],
          [
            120.741412,
            24.314047
          ],
          [
            120.741537,
            24.31409
          ],
          [
            120.741611,
            24.3141
          ],
          [
            120.741716,
            24.314091
          ],
          [
            120.742072,
            24.313972
          ],
          [
            120.742161,
            24.313929
          ],
          [
            120.742931,
            24.313508
          ],
          [
            120.74306,
            24.313453
          ],
          [
            120.743344,
            24.313349
          ],
          [
            120.743776,
            24.313124
          ],
          [
            120.744134,
            24.312965
          ],
          [
            120.744483,
            24.312833
          ],
          [
            120.744587,
            24.312786
          ],
          [
            120.744992,
            24.3125
          ],
          [
            120.745368,
            24.312333
          ],
          [
            120.745388,
            24.312322
          ],
          [
            120.745388,
            24.312322
          ],
          [
            120.745368,
            24.312333
          ],
          [
            120.744992,
            24.3125
          ],
          [
            120.744587,
            24.312786
          ],
          [
            120.744483,
            24.312833
          ],
          [
            120.744134,
            24.312965
          ],
          [
            120.743776,
            24.313124
          ],
          [
            120.743344,
            24.313349
          ],
          [
            120.74306,
            24.313453
          ],
          [
            120.742931,
            24.313508
          ],
          [
            120.742161,
            24.313929
          ],
          [
            120.742072,
            24.313972
          ],
          [
            120.741716,
            24.314091
          ],
          [
            120.741611,
            24.3141
          ],
          [
            120.741537,
            24.31409
          ],
          [
            120.741412,
            24.314047
          ],
          [
            120.741217,
            24.313912
          ],
          [
            120.741125,
            24.313862
          ],
          [
            120.740953,
            24.31386
          ],
          [
            120.740787,
            24.313857
          ],
          [
            120.740677,
            24.313899
          ],
          [
            120.740526,
            24.31394
          ],
          [
            120.740393,
            24.313972
          ],
          [
            120.740229,
            24.31399
          ],
          [
            120.740098,
            24.313987
          ],
          [
            120.739962,
            24.31397
          ],
          [
            120.739674,
            24.313655
          ],
          [
            120.739306,
            24.31343
          ],
          [
            120.739073,
            24.313326
          ],
          [
            120.738816,
            24.313224
          ],
          [
            120.738234,
            24.313017
          ],
          [
            120.737987,
            24.312876
          ],
          [
            120.737736,
            24.31272
          ],
          [
            120.73742,
            24.312406
          ],
          [
            120.737287,
            24.31222
          ],
          [
            120.737164,
            24.311976
          ],
          [
            120.737047,
            24.3116
          ],
          [
            120.736937,
            24.311197
          ],
          [
            120.736903,
            24.311039
          ],
          [
            120.7367,
            24.310322
          ],
          [
            120.73665,
            24.310136
          ],
          [
            120.73659,
            24.309966
          ],
          [
            120.736479,
            24.309612
          ],
          [
            120.736204,
            24.309011
          ],
          [
            120.735602,
            24.308056
          ],
          [
            120.735529,
            24.307921
          ],
          [
            120.73527,
            24.307333
          ],
          [
            120.735079,
            24.306658
          ],
          [
            120.735011,
            24.306255
          ],
          [
            120.734992,
            24.304602
          ],
          [
            120.734446,
            24.304376
          ],
          [
            120.73421,
            24.304311
          ],
          [
            120.73253,
            24.304312
          ],
          [
            120.732794,
            24.303861
          ],
          [
            120.733082,
            24.303412
          ],
          [
            120.733576,
            24.302893
          ],
          [
            120.73364,
            24.302826
          ],
          [
            120.733735,
            24.302743
          ],
          [
            120.734313,
            24.302205
          ],
          [
            120.734568,
            24.302071
          ],
          [
            120.73474,
            24.301948
          ],
          [
            120.734898,
            24.301795
          ],
          [
            120.735302,
            24.301313
          ],
          [
            120.735412,
            24.301157
          ],
          [
            120.735519,
            24.300985
          ],
          [
            120.735634,
            24.300729
          ],
          [
            120.735701,
            24.300587
          ],
          [
            120.735754,
            24.300468
          ],
          [
            120.735841,
            24.300192
          ],
          [
            120.735689,
            24.299752
          ],
          [
            120.735689,
            24.299752
          ],
          [
            120.735626,
            24.299569
          ],
          [
            120.735605,
            24.29944
          ],
          [
            120.735553,
            24.298729
          ],
          [
            120.735549,
            24.298685
          ],
          [
            120.735535,
            24.298564
          ],
          [
            120.735344,
            24.298557
          ],
          [
            120.733461,
            24.298506
          ],
          [
            120.733291,
            24.298501
          ],
          [
            120.732622,
            24.298479
          ],
          [
            120.7326,
            24.298707
          ],
          [
            120.732533,
            24.299995
          ],
          [
            120.732516,
            24.300365
          ],
          [
            120.732492,
            24.300911
          ],
          [
            120.732505,
            24.300949
          ],
          [
            120.73283,
            24.301062
          ],
          [
            120.733424,
            24.300953
          ],
          [
            120.733759,
            24.300817
          ],
          [
            120.733759,
            24.300817
          ],
          [
            120.733424,
            24.300953
          ],
          [
            120.73283,
            24.301062
          ],
          [
            120.732505,
            24.300949
          ],
          [
            120.732492,
            24.300911
          ],
          [
            120.732516,
            24.300365
          ],
          [
            120.732533,
            24.299995
          ],
          [
            120.7326,
            24.298707
          ],
          [
            120.732622,
            24.298479
          ],
          [
            120.733291,
            24.298501
          ],
          [
            120.733461,
            24.298506
          ],
          [
            120.735344,
            24.298557
          ],
          [
            120.735535,
            24.298564
          ],
          [
            120.735549,
            24.298685
          ],
          [
            120.735553,
            24.298729
          ],
          [
            120.735605,
            24.29944
          ],
          [
            120.735626,
            24.299569
          ],
          [
            120.735841,
            24.300192
          ],
          [
            120.735754,
            24.300468
          ],
          [
            120.735701,
            24.300587
          ],
          [
            120.735634,
            24.300729
          ],
          [
            120.735519,
            24.300985
          ],
          [
            120.735412,
            24.301157
          ],
          [
            120.735302,
            24.301313
          ],
          [
            120.734898,
            24.301795
          ],
          [
            120.73474,
            24.301948
          ],
          [
            120.734568,
            24.302071
          ],
          [
            120.734313,
            24.302205
          ],
          [
            120.733735,
            24.302743
          ],
          [
            120.73364,
            24.302826
          ],
          [
            120.733576,
            24.302893
          ],
          [
            120.733082,
            24.303412
          ],
          [
            120.732794,
            24.303861
          ],
          [
            120.73253,
            24.304312
          ],
          [
            120.732489,
            24.304473
          ],
          [
            120.732417,
            24.304584
          ],
          [
            120.732291,
            24.304693
          ],
          [
            120.732164,
            24.304769
          ],
          [
            120.73198,
            24.304788
          ],
          [
            120.731548,
            24.304775
          ],
          [
            120.730962,
            24.304757
          ],
          [
            120.730927,
            24.30547
          ],
          [
            120.730924,
            24.30551
          ],
          [
            120.730915,
            24.305649
          ],
          [
            120.730808,
            24.307272
          ],
          [
            120.730755,
            24.308066
          ],
          [
            120.730734,
            24.308388
          ],
          [
            120.730691,
            24.308581
          ],
          [
            120.730615,
            24.308835
          ],
          [
            120.730538,
            24.309118
          ],
          [
            120.730462,
            24.309397
          ],
          [
            120.729975,
            24.309373
          ],
          [
            120.72851,
            24.309279
          ],
          [
            120.728094,
            24.309243
          ],
          [
            120.727847,
            24.309231
          ],
          [
            120.727522,
            24.309209
          ],
          [
            120.727083,
            24.309165
          ],
          [
            120.726835,
            24.30915
          ],
          [
            120.726835,
            24.30915
          ],
          [
            120.726807,
            24.309148
          ],
          [
            120.726531,
            24.309132
          ],
          [
            120.725867,
            24.309078
          ],
          [
            120.725289,
            24.309056
          ],
          [
            120.725114,
            24.309046
          ],
          [
            120.724495,
            24.309008
          ],
          [
            120.72352,
            24.308949
          ],
          [
            120.72352,
            24.308949
          ],
          [
            120.722942,
            24.308914
          ],
          [
            120.722408,
            24.308882
          ],
          [
            120.7223,
            24.308893
          ],
          [
            120.721787,
            24.308957
          ],
          [
            120.720864,
            24.309109
          ],
          [
            120.720353,
            24.309193
          ],
          [
            120.720409,
            24.309276
          ],
          [
            120.720427,
            24.309302
          ],
          [
            120.720427,
            24.309302
          ],
          [
            120.720409,
            24.309276
          ],
          [
            120.720353,
            24.309193
          ],
          [
            120.719632,
            24.309307
          ],
          [
            120.718932,
            24.309432
          ],
          [
            120.718332,
            24.309529
          ],
          [
            120.717839,
            24.309619
          ],
          [
            120.717591,
            24.309652
          ],
          [
            120.717591,
            24.309652
          ],
          [
            120.717839,
            24.309619
          ],
          [
            120.718332,
            24.309529
          ],
          [
            120.718932,
            24.309432
          ],
          [
            120.719632,
            24.309307
          ],
          [
            120.72002,
            24.309246
          ],
          [
            120.72002,
            24.309246
          ],
          [
            120.720353,
            24.309193
          ],
          [
            120.720864,
            24.309109
          ],
          [
            120.721787,
            24.308957
          ],
          [
            120.7223,
            24.308893
          ],
          [
            120.722408,
            24.308882
          ],
          [
            120.722942,
            24.308914
          ],
          [
            120.723061,
            24.308921
          ],
          [
            120.723061,
            24.308921
          ],
          [
            120.724495,
            24.309008
          ],
          [
            120.725114,
            24.309046
          ],
          [
            120.725289,
            24.309056
          ],
          [
            120.725867,
            24.309078
          ],
          [
            120.726531,
            24.309132
          ],
          [
            120.726807,
            24.309148
          ],
          [
            120.726811,
            24.309027
          ],
          [
            120.726811,
            24.309027
          ],
          [
            120.726807,
            24.309148
          ],
          [
            120.727083,
            24.309165
          ],
          [
            120.727522,
            24.309209
          ],
          [
            120.727531,
            24.309065
          ],
          [
            120.727531,
            24.309065
          ]
        ]
      },
      "properties": {
        "routeId": "taichung-kee-6862-b7e191-d6",
        "city": "taichung",
        "source_file": "taichung/taichung-kee-6862-b7e191-d6.geojson",
        "distance_km": 25.539,
        "duration_min": 43.74331666666667,
        "valhalla_config": "valhalla.json"
      }
    }
  ]
}