{
  "type": "FeatureCollection",
  "features": [
    {
      "type": "Feature",
      "geometry": {
        "type": "LineString",
        "coordinates": [
          [
            121.261024,
            24.257409
          ],
          [
            121.261024,
            24.257409
          ],
          [
            121.260725,
            24.257398
          ],
          [
            121.260541,
            24.25742
          ],
          [
            121.260319,
            24.257448
          ],
          [
            121.260115,
            24.257443
          ],
          [
            121.25997,
            24.257429
          ],
          [
            121.259841,
            24.257384
          ],
          [
            121.259675,
            24.257267
          ],
          [
            121.259148,
            24.256668
          ],
          [
            121.259065,
            24.256623
          ],
          [
            121.258937,
            24.256584
          ],
          [
            121.258716,
            24.256514
          ],
          [
            121.258291,
            24.256253
          ],
          [
            121.258149,
            24.2562
          ],
          [
            121.257973,
            24.256144
          ],
          [
            121.257756,
            24.256118
          ],
          [
            121.257528,
            24.256086
          ],
          [
            121.257446,
            24.256074
          ],
          [
            121.257262,
            24.256036
          ],
          [
            121.257061,
            24.255962
          ],
          [
            121.2569,
            24.255905
          ],
          [
            121.256797,
            24.255899
          ],
          [
            121.256624,
            24.255891
          ],
          [
            121.256171,
            24.255806
          ],
          [
            121.256003,
            24.25574
          ],
          [
            121.255888,
            24.255617
          ],
          [
            121.255787,
            24.255314
          ],
          [
            121.255746,
            24.25509
          ],
          [
            121.255732,
            24.255013
          ],
          [
            121.255727,
            24.254981
          ],
          [
            121.255705,
            24.254831
          ],
          [
            121.255717,
            24.254692
          ],
          [
            121.255967,
            24.25478
          ],
          [
            121.255967,
            24.25478
          ],
          [
            121.255717,
            24.254692
          ],
          [
            121.255705,
            24.254831
          ],
          [
            121.255727,
            24.254981
          ],
          [
            121.255732,
            24.255013
          ],
          [
            121.255746,
            24.25509
          ],
          [
            121.255787,
            24.255314
          ],
          [
            121.255888,
            24.255617
          ],
          [
            121.256003,
            24.25574
          ],
          [
            121.256171,
            24.255806
          ],
          [
            121.256624,
            24.255891
          ],
          [
            121.256797,
            24.255899
          ],
          [
            121.2569,
            24.255905
          ],
          [
            121.257061,
            24.255962
          ],
          [
            121.257262,
            24.256036
          ],
          [
            121.257446,
            24.256074
          ],
          [
            121.257528,
            24.256086
          ],
          [
            121.257756,
            24.256118
          ],
          [
            121.257973,
            24.256144
          ],
          [
            121.258149,
            24.2562
          ],
          [
            121.258291,
            24.256253
          ],
          [
            121.258716,
            24.256514
          ],
          [
            121.258937,
            24.256584
          ],
          [
            121.259065,
            24.256623
          ],
          [
            121.259148,
            24.256668
          ],
          [
            121.259675,
            24.257267
          ],
          [
            121.259841,
            24.257384
          ],
          [
            121.25997,
            24.257429
          ],
          [
            121.260115,
            24.257443
          ],
          [
            121.260319,
            24.257448
          ],
          [
            121.260541,
            24.25742
          ],
          [
            121.260725,
            24.257398
          ],
          [
            121.261035,
            24.257409
          ],
          [
            121.261307,
            24.257389
          ],
          [
            121.261397,
            24.257178
          ],
          [
            121.261405,
            24.257149
          ],
          [
            121.261391,
            24.257074
          ],
          [
            121.261312,
            24.25697
          ],
          [
            121.26124,
            24.256911
          ],
          [
            121.26124,
            24.256911
          ]
        ]
      },
      "properties": {
        "routeId": "taichung-051-q3-5b479b-d4",
        "city": "taichung",
        "source_file": "taichung/taichung-051-q3-5b479b-d4.geojson",
        "distance_km": 1.527,
        "duration_min": 1.5250333333333332,
        "valhalla_config": "valhalla.json"
      }
    }
  ]
}