{
  "type": "FeatureCollection",
  "features": [
    {
      "type": "Feature",
      "geometry": {
        "type": "LineString",
        "coordinates": [
          [
            120.681723,
            24.165376
          ],
          [
            120.680762,
            24.165387
          ],
          [
            120.680603,
            24.165389
          ],
          [
            120.680498,
            24.165391
          ],
          [
            120.680491,
            24.16534
          ],
          [
            120.680458,
            24.165113
          ],
          [
            120.681746,
            24.165091
          ],
          [
            120.681988,
            24.165086
          ],
          [
            120.681992,
            24.164817
          ],
          [
            120.681987,
            24.164654
          ],
          [
            120.681987,
            24.164508
          ],
          [
            120.68217,
            24.164506
          ],
          [
            120.681987,
            24.164508
          ],
          [
            120.681684,
            24.164512
          ],
          [
            120.681674,
            24.164457
          ],
          [
            120.681672,
            24.163935
          ],
          [
            120.682306,
            24.163943
          ],
          [
            120.682373,
            24.163945
          ],
          [
            120.682436,
            24.163943
          ],
          [
            120.68265,
            24.163941
          ],
          [
            120.683293,
            24.163935
          ],
          [
            120.683266,
            24.16384
          ],
          [
            120.683206,
            24.163629
          ],
          [
            120.683686,
            24.163624
          ],
          [
            120.683691,
            24.163804
          ],
          [
            120.683694,
            24.16392
          ],
          [
            120.684306,
            24.163906
          ],
          [
            120.684305,
            24.163825
          ],
          [
            120.684306,
            24.163906
          ],
          [
            120.68492,
            24.163905
          ],
          [
            120.685005,
            24.163902
          ],
          [
            120.685103,
            24.163901
          ],
          [
            120.685191,
            24.163898
          ],
          [
            120.685551,
            24.163895
          ],
          [
            120.685625,
            24.163893
          ],
          [
            120.685767,
            24.163888
          ],
          [
            120.686359,
            24.163881
          ],
          [
            120.686652,
            24.163877
          ],
          [
            120.686697,
            24.163877
          ],
          [
            120.686753,
            24.163876
          ],
          [
            120.687625,
            24.163861
          ],
          [
            120.687526,
            24.163656
          ],
          [
            120.68715,
            24.163661
          ],
          [
            120.687526,
            24.163656
          ],
          [
            120.687625,
            24.163861
          ],
          [
            120.687674,
            24.163956
          ],
          [
            120.687698,
            24.164213
          ],
          [
            120.687709,
            24.164378
          ],
          [
            120.687714,
            24.164608
          ],
          [
            120.687548,
            24.164612
          ],
          [
            120.687714,
            24.164608
          ],
          [
            120.687743,
            24.164937
          ],
          [
            120.687747,
            24.165013
          ],
          [
            120.687751,
            24.165094
          ],
          [
            120.687786,
            24.165211
          ],
          [
            120.687803,
            24.165258
          ],
          [
            120.687825,
            24.16532
          ],
          [
            120.687931,
            24.165607
          ],
          [
            120.687825,
            24.16532
          ],
          [
            120.687803,
            24.165258
          ],
          [
            120.687747,
            24.16527
          ],
          [
            120.686816,
            24.165289
          ],
          [
            120.686732,
            24.165291
          ],
          [
            120.686665,
            24.165292
          ],
          [
            120.686104,
            24.165298
          ],
          [
            120.685238,
            24.165306
          ],
          [
            120.685119,
            24.165311
          ],
          [
            120.68501,
            24.165313
          ],
          [
            120.685008,
            24.165262
          ],
          [
            120.685004,
            24.16511
          ],
          [
            120.685003,
            24.165037
          ],
          [
            120.685003,
            24.164963
          ],
          [
            120.685003,
            24.164454
          ],
          [
            120.685004,
            24.163977
          ],
          [
            120.685005,
            24.163902
          ],
          [
            120.685004,
            24.16383
          ],
          [
            120.684999,
            24.163458
          ],
          [
            120.684999,
            24.163201
          ],
          [
            120.685,
            24.163097
          ],
          [
            120.685002,
            24.162994
          ],
          [
            120.685106,
            24.162994
          ],
          [
            120.685244,
            24.162993
          ],
          [
            120.685511,
            24.162994
          ],
          [
            120.686593,
            24.162979
          ],
          [
            120.686693,
            24.162978
          ],
          [
            120.686694,
            24.163063
          ],
          [
            120.686694,
            24.163191
          ],
          [
            120.686695,
            24.1634
          ],
          [
            120.686696,
            24.163584
          ],
          [
            120.686697,
            24.163831
          ],
          [
            120.686697,
            24.163877
          ],
          [
            120.686703,
            24.163926
          ],
          [
            120.68671,
            24.164234
          ],
          [
            120.686713,
            24.164405
          ],
          [
            120.686592,
            24.164414
          ],
          [
            120.686713,
            24.164405
          ],
          [
            120.686729,
            24.164629
          ],
          [
            120.686742,
            24.164955
          ],
          [
            120.686741,
            24.165022
          ],
          [
            120.686742,
            24.165097
          ],
          [
            120.686732,
            24.165245
          ],
          [
            120.686732,
            24.165291
          ],
          [
            120.686733,
            24.165358
          ],
          [
            120.686756,
            24.165806
          ],
          [
            120.686761,
            24.165904
          ],
          [
            120.686763,
            24.165963
          ],
          [
            120.686769,
            24.16605
          ],
          [
            120.686786,
            24.166342
          ],
          [
            120.686815,
            24.166823
          ],
          [
            120.686831,
            24.166942
          ],
          [
            120.686727,
            24.166948
          ],
          [
            120.686227,
            24.166964
          ],
          [
            120.686125,
            24.166967
          ],
          [
            120.685987,
            24.166971
          ],
          [
            120.686125,
            24.166967
          ],
          [
            120.686227,
            24.166964
          ],
          [
            120.686727,
            24.166948
          ],
          [
            120.686831,
            24.166942
          ],
          [
            120.686904,
            24.16694
          ],
          [
            120.687164,
            24.166932
          ],
          [
            120.687601,
            24.166915
          ],
          [
            120.687673,
            24.166914
          ],
          [
            120.687727,
            24.166916
          ],
          [
            120.688594,
            24.166884
          ],
          [
            120.688692,
            24.166885
          ],
          [
            120.68867,
            24.166793
          ],
          [
            120.688644,
            24.166714
          ],
          [
            120.688619,
            24.166641
          ],
          [
            120.688543,
            24.166495
          ],
          [
            120.68837,
            24.166241
          ],
          [
            120.688172,
            24.166002
          ],
          [
            120.688117,
            24.16594
          ],
          [
            120.688062,
            24.165938
          ],
          [
            120.687994,
            24.165939
          ],
          [
            120.68777,
            24.165943
          ],
          [
            120.687317,
            24.165951
          ],
          [
            120.687118,
            24.165955
          ],
          [
            120.686969,
            24.165958
          ],
          [
            120.686842,
            24.165962
          ],
          [
            120.686763,
            24.165963
          ],
          [
            120.68669,
            24.165966
          ],
          [
            120.686372,
            24.16597
          ],
          [
            120.686074,
            24.165974
          ],
          [
            120.685534,
            24.165982
          ],
          [
            120.685557,
            24.166127
          ],
          [
            120.685534,
            24.165982
          ],
          [
            120.685249,
            24.165994
          ],
          [
            120.685141,
            24.165995
          ],
          [
            120.685145,
            24.166063
          ],
          [
            120.685169,
            24.166855
          ],
          [
            120.685178,
            24.166991
          ],
          [
            120.685185,
            24.167091
          ],
          [
            120.685205,
            24.167347
          ],
          [
            120.685236,
            24.167954
          ],
          [
            120.685246,
            24.168195
          ],
          [
            120.685251,
            24.168315
          ],
          [
            120.685259,
            24.168405
          ],
          [
            120.68516,
            24.16841
          ],
          [
            120.685154,
            24.168319
          ],
          [
            120.685149,
            24.168207
          ],
          [
            120.685137,
            24.168024
          ],
          [
            120.685051,
            24.168024
          ],
          [
            120.684431,
            24.168025
          ],
          [
            120.685051,
            24.168024
          ],
          [
            120.685137,
            24.168024
          ],
          [
            120.685117,
            24.167723
          ],
          [
            120.685076,
            24.167092
          ],
          [
            120.685078,
            24.166991
          ],
          [
            120.68507,
            24.166854
          ],
          [
            120.685069,
            24.166706
          ],
          [
            120.685062,
            24.166581
          ],
          [
            120.685039,
            24.166064
          ],
          [
            120.685038,
            24.165997
          ],
          [
            120.685036,
            24.165942
          ],
          [
            120.685011,
            24.165387
          ],
          [
            120.68501,
            24.165313
          ],
          [
            120.684925,
            24.165315
          ],
          [
            120.684554,
            24.165319
          ],
          [
            120.684225,
            24.165322
          ],
          [
            120.683871,
            24.165329
          ],
          [
            120.68387,
            24.165706
          ],
          [
            120.683869,
            24.166154
          ],
          [
            120.683871,
            24.166357
          ],
          [
            120.683869,
            24.166154
          ],
          [
            120.683371,
            24.166164
          ],
          [
            120.68331,
            24.165975
          ],
          [
            120.683371,
            24.166164
          ],
          [
            120.683026,
            24.166171
          ],
          [
            120.683053,
            24.166252
          ],
          [
            120.683026,
            24.166171
          ],
          [
            120.682653,
            24.166178
          ],
          [
            120.682529,
            24.16618
          ],
          [
            120.682565,
            24.166366
          ],
          [
            120.681894,
            24.166507
          ],
          [
            120.681729,
            24.166532
          ],
          [
            120.680896,
            24.16666
          ],
          [
            120.680775,
            24.166679
          ],
          [
            120.680822,
            24.167011
          ],
          [
            120.680841,
            24.167118
          ],
          [
            120.680859,
            24.167225
          ],
          [
            120.68089,
            24.167449
          ],
          [
            120.680964,
            24.167973
          ],
          [
            120.680823,
            24.168
          ],
          [
            120.680964,
            24.167973
          ],
          [
            120.680859,
            24.167225
          ],
          [
            120.680841,
            24.167118
          ],
          [
            120.680952,
            24.167117
          ],
          [
            120.681905,
            24.167078
          ],
          [
            120.681988,
            24.167074
          ],
          [
            120.681998,
            24.167174
          ],
          [
            120.682032,
            24.167364
          ],
          [
            120.682003,
            24.167204
          ],
          [
            120.681998,
            24.167174
          ],
          [
            120.681988,
            24.167074
          ],
          [
            120.681905,
            24.167078
          ],
          [
            120.681596,
            24.167091
          ],
          [
            120.680952,
            24.167117
          ],
          [
            120.680841,
            24.167118
          ],
          [
            120.680729,
            24.167124
          ],
          [
            120.680022,
            24.16713
          ],
          [
            120.679937,
            24.167128
          ],
          [
            120.679856,
            24.167122
          ],
          [
            120.679805,
            24.16712
          ],
          [
            120.679842,
            24.167121
          ],
          [
            120.679856,
            24.167122
          ],
          [
            120.679937,
            24.167128
          ],
          [
            120.680022,
            24.16713
          ],
          [
            120.68055,
            24.167126
          ],
          [
            120.680729,
            24.167124
          ],
          [
            120.680841,
            24.167118
          ],
          [
            120.680952,
            24.167117
          ],
          [
            120.681116,
            24.16711
          ],
          [
            120.681737,
            24.167085
          ],
          [
            120.681905,
            24.167078
          ],
          [
            120.681988,
            24.167074
          ],
          [
            120.682065,
            24.167073
          ],
          [
            120.682365,
            24.167056
          ],
          [
            120.682588,
            24.167043
          ],
          [
            120.682703,
            24.167053
          ],
          [
            120.682681,
            24.166931
          ],
          [
            120.682672,
            24.166889
          ],
          [
            120.682565,
            24.166366
          ],
          [
            120.682529,
            24.16618
          ],
          [
            120.683026,
            24.166171
          ],
          [
            120.683212,
            24.166727
          ],
          [
            120.683212,
            24.166727
          ],
          [
            120.683534,
            24.166705
          ],
          [
            120.683371,
            24.166164
          ],
          [
            120.683869,
            24.166154
          ],
          [
            120.683876,
            24.166918
          ],
          [
            120.683872,
            24.167027
          ],
          [
            120.683963,
            24.167024
          ],
          [
            120.684227,
            24.167017
          ],
          [
            120.683963,
            24.167024
          ],
          [
            120.683872,
            24.167027
          ],
          [
            120.683779,
            24.167027
          ],
          [
            120.683276,
            24.167036
          ],
          [
            120.682783,
            24.167066
          ],
          [
            120.682703,
            24.167053
          ],
          [
            120.682681,
            24.166931
          ],
          [
            120.682565,
            24.166366
          ],
          [
            120.682529,
            24.16618
          ],
          [
            120.682423,
            24.165613
          ],
          [
            120.682399,
            24.165416
          ],
          [
            120.68239,
            24.165361
          ],
          [
            120.682385,
            24.165297
          ],
          [
            120.682379,
            24.165164
          ],
          [
            120.682375,
            24.165089
          ],
          [
            120.682458,
            24.16509
          ],
          [
            120.682828,
            24.16508
          ],
          [
            120.683691,
            24.165056
          ],
          [
            120.683647,
            24.164927
          ],
          [
            120.683691,
            24.165056
          ],
          [
            120.683947,
            24.165051
          ],
          [
            120.684665,
            24.165038
          ],
          [
            120.684908,
            24.165034
          ],
          [
            120.685003,
            24.165037
          ],
          [
            120.685112,
            24.165036
          ],
          [
            120.685206,
            24.165032
          ],
          [
            120.686248,
            24.165026
          ],
          [
            120.686645,
            24.165024
          ],
          [
            120.686741,
            24.165022
          ],
          [
            120.686742,
            24.164955
          ],
          [
            120.686729,
            24.164629
          ],
          [
            120.686713,
            24.164405
          ],
          [
            120.68671,
            24.164234
          ],
          [
            120.686703,
            24.163926
          ],
          [
            120.686697,
            24.163877
          ],
          [
            120.686697,
            24.163831
          ],
          [
            120.686695,
            24.1634
          ],
          [
            120.68737,
            24.163385
          ],
          [
            120.686695,
            24.1634
          ],
          [
            120.686697,
            24.163831
          ],
          [
            120.686697,
            24.163877
          ],
          [
            120.686652,
            24.163877
          ],
          [
            120.685767,
            24.163888
          ],
          [
            120.685551,
            24.163895
          ],
          [
            120.685274,
            24.163897
          ],
          [
            120.685551,
            24.163895
          ],
          [
            120.685558,
            24.164442
          ],
          [
            120.685284,
            24.164447
          ],
          [
            120.685196,
            24.164448
          ],
          [
            120.685105,
            24.16445
          ],
          [
            120.685111,
            24.164725
          ],
          [
            120.685117,
            24.164962
          ],
          [
            120.685112,
            24.165036
          ],
          [
            120.685114,
            24.165111
          ],
          [
            120.685117,
            24.165257
          ],
          [
            120.685119,
            24.165311
          ],
          [
            120.685124,
            24.165389
          ],
          [
            120.685128,
            24.165563
          ],
          [
            120.685138,
            24.165941
          ],
          [
            120.685141,
            24.165995
          ],
          [
            120.685145,
            24.166063
          ],
          [
            120.685151,
            24.166271
          ],
          [
            120.685161,
            24.166585
          ],
          [
            120.685169,
            24.166855
          ],
          [
            120.685178,
            24.166991
          ],
          [
            120.685078,
            24.166991
          ],
          [
            120.68507,
            24.166854
          ],
          [
            120.685069,
            24.166706
          ],
          [
            120.685062,
            24.166581
          ],
          [
            120.685048,
            24.166261
          ],
          [
            120.685039,
            24.166064
          ],
          [
            120.685038,
            24.165997
          ],
          [
            120.685036,
            24.165942
          ],
          [
            120.68503,
            24.165806
          ],
          [
            120.685015,
            24.165481
          ],
          [
            120.685011,
            24.165387
          ],
          [
            120.68501,
            24.165313
          ],
          [
            120.685008,
            24.165262
          ],
          [
            120.685004,
            24.16511
          ],
          [
            120.685003,
            24.165037
          ],
          [
            120.685003,
            24.164963
          ],
          [
            120.685003,
            24.164454
          ],
          [
            120.684927,
            24.164457
          ],
          [
            120.684792,
            24.16446
          ],
          [
            120.684927,
            24.164457
          ],
          [
            120.685003,
            24.164454
          ],
          [
            120.685004,
            24.163977
          ],
          [
            120.685005,
            24.163902
          ],
          [
            120.685004,
            24.16383
          ],
          [
            120.684999,
            24.163458
          ],
          [
            120.684877,
            24.163322
          ],
          [
            120.684824,
            24.163269
          ],
          [
            120.684718,
            24.163205
          ],
          [
            120.68453,
            24.163102
          ],
          [
            120.6843,
            24.163112
          ],
          [
            120.683672,
            24.16312
          ],
          [
            120.683064,
            24.163131
          ],
          [
            120.682459,
            24.163128
          ],
          [
            120.682354,
            24.163137
          ],
          [
            120.682352,
            24.163042
          ],
          [
            120.682459,
            24.163039
          ],
          [
            120.683069,
            24.163031
          ],
          [
            120.683343,
            24.163027
          ],
          [
            120.683684,
            24.163022
          ],
          [
            120.684564,
            24.163002
          ],
          [
            120.684865,
            24.162998
          ],
          [
            120.685002,
            24.162994
          ],
          [
            120.685106,
            24.162994
          ],
          [
            120.685244,
            24.162993
          ],
          [
            120.685511,
            24.162994
          ],
          [
            120.685835,
            24.16299
          ],
          [
            120.686593,
            24.162979
          ],
          [
            120.686693,
            24.162978
          ],
          [
            120.686693,
            24.162873
          ],
          [
            120.686692,
            24.162719
          ],
          [
            120.686545,
            24.162714
          ],
          [
            120.686692,
            24.162719
          ],
          [
            120.686943,
            24.162715
          ],
          [
            120.686987,
            24.162715
          ],
          [
            120.687236,
            24.162716
          ],
          [
            120.687277,
            24.162716
          ],
          [
            120.687519,
            24.162715
          ],
          [
            120.687695,
            24.16271
          ],
          [
            120.687802,
            24.162707
          ],
          [
            120.687985,
            24.162699
          ],
          [
            120.688116,
            24.162678
          ],
          [
            120.688162,
            24.16267
          ],
          [
            120.688274,
            24.162627
          ],
          [
            120.688357,
            24.162548
          ],
          [
            120.688335,
            24.162601
          ],
          [
            120.688337,
            24.16278
          ],
          [
            120.688359,
            24.162847
          ],
          [
            120.688358,
            24.162912
          ],
          [
            120.688457,
            24.162958
          ],
          [
            120.688529,
            24.163027
          ],
          [
            120.688538,
            24.163118
          ],
          [
            120.688603,
            24.163367
          ],
          [
            120.688611,
            24.163442
          ],
          [
            120.688619,
            24.16351
          ],
          [
            120.688651,
            24.163624
          ],
          [
            120.688703,
            24.163739
          ],
          [
            120.688736,
            24.163786
          ],
          [
            120.688797,
            24.163843
          ],
          [
            120.688828,
            24.163896
          ],
          [
            120.688905,
            24.163967
          ],
          [
            120.689092,
            24.164163
          ],
          [
            120.689141,
            24.164264
          ],
          [
            120.689176,
            24.164355
          ],
          [
            120.689189,
            24.164417
          ],
          [
            120.689167,
            24.164556
          ],
          [
            120.689154,
            24.164614
          ],
          [
            120.689091,
            24.164719
          ],
          [
            120.689,
            24.164848
          ],
          [
            120.688951,
            24.164901
          ],
          [
            120.688897,
            24.164936
          ],
          [
            120.688731,
            24.16501
          ],
          [
            120.688687,
            24.164938
          ],
          [
            120.68879,
            24.164864
          ],
          [
            120.688828,
            24.164826
          ],
          [
            120.6889,
            24.164754
          ],
          [
            120.688964,
            24.164642
          ],
          [
            120.688993,
            24.164531
          ],
          [
            120.689002,
            24.164417
          ],
          [
            120.688977,
            24.164318
          ],
          [
            120.688903,
            24.16422
          ],
          [
            120.688836,
            24.164155
          ],
          [
            120.68876,
            24.164064
          ],
          [
            120.68864,
            24.163941
          ],
          [
            120.688605,
            24.163901
          ],
          [
            120.688577,
            24.163858
          ],
          [
            120.688539,
            24.163792
          ],
          [
            120.68851,
            24.163727
          ],
          [
            120.688458,
            24.163625
          ],
          [
            120.688428,
            24.163455
          ],
          [
            120.688422,
            24.163412
          ],
          [
            120.688414,
            24.163287
          ],
          [
            120.688401,
            24.163139
          ],
          [
            120.688427,
            24.163033
          ],
          [
            120.688263,
            24.163035
          ],
          [
            120.687711,
            24.163047
          ],
          [
            120.687413,
            24.163054
          ],
          [
            120.686801,
            24.163062
          ],
          [
            120.686694,
            24.163063
          ],
          [
            120.686593,
            24.163066
          ],
          [
            120.685739,
            24.163084
          ],
          [
            120.685557,
            24.163088
          ],
          [
            120.68524,
            24.163092
          ],
          [
            120.685106,
            24.163099
          ],
          [
            120.685,
            24.163097
          ],
          [
            120.685002,
            24.162994
          ],
          [
            120.685006,
            24.162871
          ],
          [
            120.685009,
            24.162629
          ],
          [
            120.685021,
            24.162039
          ],
          [
            120.685016,
            24.161653
          ],
          [
            120.685012,
            24.16156
          ],
          [
            120.685012,
            24.161462
          ],
          [
            120.685015,
            24.161099
          ],
          [
            120.685013,
            24.160721
          ],
          [
            120.68501,
            24.160363
          ],
          [
            120.685007,
            24.160271
          ],
          [
            120.685007,
            24.160168
          ],
          [
            120.684997,
            24.159676
          ],
          [
            120.685005,
            24.159203
          ],
          [
            120.685001,
            24.159046
          ],
          [
            120.684999,
            24.158909
          ],
          [
            120.685001,
            24.158509
          ],
          [
            120.685008,
            24.157726
          ],
          [
            120.685005,
            24.157636
          ],
          [
            120.684995,
            24.157481
          ],
          [
            120.684998,
            24.157421
          ],
          [
            120.685001,
            24.157344
          ],
          [
            120.685016,
            24.157281
          ],
          [
            120.685098,
            24.157074
          ],
          [
            120.685181,
            24.15688
          ],
          [
            120.685533,
            24.156108
          ],
          [
            120.685605,
            24.155941
          ],
          [
            120.685682,
            24.155763
          ],
          [
            120.685879,
            24.155332
          ],
          [
            120.685964,
            24.155142
          ],
          [
            120.686086,
            24.15487
          ],
          [
            120.686161,
            24.154708
          ],
          [
            120.686204,
            24.154616
          ],
          [
            120.686268,
            24.154684
          ],
          [
            120.686239,
            24.154782
          ],
          [
            120.686186,
            24.15492
          ],
          [
            120.686114,
            24.155106
          ],
          [
            120.685942,
            24.155454
          ],
          [
            120.685792,
            24.155804
          ],
          [
            120.685728,
            24.155942
          ],
          [
            120.685706,
            24.155991
          ],
          [
            120.685648,
            24.156148
          ],
          [
            120.685493,
            24.156503
          ],
          [
            120.685441,
            24.156612
          ],
          [
            120.685261,
            24.156958
          ],
          [
            120.685174,
            24.157148
          ],
          [
            120.685123,
            24.1573
          ],
          [
            120.685109,
            24.157363
          ],
          [
            120.685102,
            24.15748
          ],
          [
            120.685106,
            24.157635
          ],
          [
            120.685108,
            24.157724
          ],
          [
            120.685092,
            24.158598
          ],
          [
            120.685094,
            24.158911
          ],
          [
            120.685094,
            24.159046
          ],
          [
            120.685099,
            24.159203
          ],
          [
            120.685105,
            24.159675
          ],
          [
            120.685102,
            24.160169
          ],
          [
            120.685103,
            24.160268
          ],
          [
            120.685107,
            24.160366
          ],
          [
            120.685108,
            24.160703
          ],
          [
            120.685105,
            24.161086
          ],
          [
            120.685106,
            24.16146
          ],
          [
            120.685107,
            24.161556
          ],
          [
            120.685108,
            24.161651
          ],
          [
            120.685105,
            24.161993
          ],
          [
            120.685105,
            24.162414
          ],
          [
            120.685106,
            24.162442
          ],
          [
            120.685105,
            24.162621
          ],
          [
            120.685203,
            24.162733
          ],
          [
            120.685357,
            24.162858
          ],
          [
            120.68541,
            24.162903
          ],
          [
            120.685511,
            24.162994
          ],
          [
            120.686593,
            24.162979
          ],
          [
            120.686693,
            24.162978
          ],
          [
            120.686799,
            24.162977
          ],
          [
            120.687524,
            24.162966
          ],
          [
            120.688261,
            24.162955
          ],
          [
            120.688457,
            24.162958
          ],
          [
            120.688529,
            24.163027
          ],
          [
            120.688538,
            24.163118
          ],
          [
            120.688603,
            24.163367
          ],
          [
            120.688611,
            24.163442
          ],
          [
            120.688619,
            24.16351
          ],
          [
            120.688651,
            24.163624
          ],
          [
            120.688703,
            24.163739
          ],
          [
            120.688736,
            24.163786
          ],
          [
            120.688797,
            24.163843
          ],
          [
            120.688577,
            24.163858
          ],
          [
            120.688539,
            24.163792
          ],
          [
            120.68851,
            24.163727
          ],
          [
            120.688458,
            24.163625
          ],
          [
            120.688428,
            24.163455
          ],
          [
            120.688422,
            24.163412
          ],
          [
            120.688414,
            24.163287
          ],
          [
            120.688094,
            24.163292
          ],
          [
            120.688414,
            24.163287
          ],
          [
            120.688401,
            24.163139
          ],
          [
            120.688427,
            24.163033
          ],
          [
            120.688263,
            24.163035
          ],
          [
            120.687711,
            24.163047
          ],
          [
            120.687715,
            24.163206
          ],
          [
            120.687711,
            24.163047
          ],
          [
            120.687413,
            24.163054
          ],
          [
            120.686924,
            24.16306
          ],
          [
            120.686801,
            24.163062
          ],
          [
            120.686694,
            24.163063
          ],
          [
            120.686593,
            24.163066
          ],
          [
            120.686329,
            24.163072
          ],
          [
            120.685739,
            24.163084
          ],
          [
            120.685742,
            24.163181
          ],
          [
            120.685743,
            24.163247
          ],
          [
            120.685742,
            24.163181
          ],
          [
            120.685739,
            24.163084
          ],
          [
            120.685557,
            24.163088
          ],
          [
            120.68524,
            24.163092
          ],
          [
            120.685106,
            24.163099
          ],
          [
            120.685,
            24.163097
          ],
          [
            120.684867,
            24.163101
          ],
          [
            120.68453,
            24.163102
          ],
          [
            120.6843,
            24.163112
          ],
          [
            120.683672,
            24.16312
          ],
          [
            120.683674,
            24.163183
          ],
          [
            120.683677,
            24.163282
          ],
          [
            120.683674,
            24.163183
          ],
          [
            120.683672,
            24.16312
          ],
          [
            120.683064,
            24.163131
          ],
          [
            120.682602,
            24.163129
          ],
          [
            120.682459,
            24.163128
          ],
          [
            120.682354,
            24.163137
          ],
          [
            120.682352,
            24.163042
          ],
          [
            120.682459,
            24.163039
          ],
          [
            120.683069,
            24.163031
          ],
          [
            120.683684,
            24.163022
          ],
          [
            120.684564,
            24.163002
          ],
          [
            120.684865,
            24.162998
          ],
          [
            120.685002,
            24.162994
          ],
          [
            120.685106,
            24.162994
          ],
          [
            120.685106,
            24.163099
          ],
          [
            120.685109,
            24.163204
          ],
          [
            120.685112,
            24.163509
          ],
          [
            120.68511,
            24.16358
          ],
          [
            120.685104,
            24.163827
          ],
          [
            120.685103,
            24.163901
          ],
          [
            120.685101,
            24.163976
          ],
          [
            120.685105,
            24.16445
          ],
          [
            120.685117,
            24.164962
          ],
          [
            120.685112,
            24.165036
          ],
          [
            120.685206,
            24.165032
          ],
          [
            120.686645,
            24.165024
          ],
          [
            120.686741,
            24.165022
          ],
          [
            120.686742,
            24.165097
          ],
          [
            120.686732,
            24.165245
          ],
          [
            120.686732,
            24.165291
          ],
          [
            120.686733,
            24.165358
          ],
          [
            120.686736,
            24.165426
          ]
        ]
      },
      "properties": {
        "routeId": "taichung-keu-6285-eb635d-d5",
        "city": "taichung",
        "source_file": "taichung/taichung-keu-6285-eb635d-d5.geojson",
        "distance_km": 14.599999999999998,
        "duration_min": 34.036049999999996,
        "valhalla_config": "valhalla.json"
      }
    }
  ]
}