{
  "type": "FeatureCollection",
  "features": [
    {
      "type": "Feature",
      "geometry": {
        "type": "LineString",
        "coordinates": [
          [
            120.828642,
            24.250067
          ],
          [
            120.828642,
            24.250067
          ],
          [
            120.829154,
            24.249577
          ],
          [
            120.829344,
            24.249395
          ],
          [
            120.829396,
            24.249345
          ],
          [
            120.829629,
            24.249121
          ],
          [
            120.829629,
            24.249121
          ],
          [
            120.83023,
            24.248545
          ],
          [
            120.831475,
            24.24735
          ],
          [
            120.831628,
            24.24717
          ],
          [
            120.831857,
            24.246852
          ],
          [
            120.832057,
            24.246576
          ],
          [
            120.832074,
            24.246552
          ],
          [
            120.832124,
            24.246486
          ],
          [
            120.832124,
            24.246486
          ],
          [
            120.832143,
            24.246461
          ],
          [
            120.832229,
            24.246253
          ],
          [
            120.832255,
            24.246188
          ],
          [
            120.832278,
            24.246137
          ],
          [
            120.832894,
            24.244745
          ],
          [
            120.833024,
            24.244411
          ],
          [
            120.833044,
            24.244358
          ],
          [
            120.83288,
            24.244357
          ],
          [
            120.832707,
            24.244392
          ],
          [
            120.832678,
            24.244176
          ],
          [
            120.832678,
            24.244176
          ],
          [
            120.832707,
            24.244392
          ],
          [
            120.83288,
            24.244357
          ],
          [
            120.833044,
            24.244358
          ],
          [
            120.833072,
            24.244261
          ],
          [
            120.833323,
            24.243371
          ],
          [
            120.833387,
            24.243114
          ],
          [
            120.833458,
            24.242593
          ],
          [
            120.833472,
            24.242491
          ],
          [
            120.833484,
            24.242403
          ],
          [
            120.833495,
            24.24232
          ],
          [
            120.833606,
            24.241632
          ],
          [
            120.833623,
            24.241526
          ],
          [
            120.833638,
            24.241473
          ],
          [
            120.833709,
            24.241204
          ],
          [
            120.834042,
            24.240041
          ],
          [
            120.834053,
            24.240003
          ],
          [
            120.834074,
            24.239929
          ],
          [
            120.834304,
            24.239123
          ],
          [
            120.83431,
            24.239101
          ],
          [
            120.834325,
            24.239051
          ],
          [
            120.834499,
            24.23846
          ],
          [
            120.834525,
            24.238372
          ],
          [
            120.834541,
            24.238314
          ],
          [
            120.834765,
            24.237532
          ],
          [
            120.834782,
            24.237471
          ],
          [
            120.834803,
            24.237395
          ],
          [
            120.835136,
            24.236213
          ],
          [
            120.835168,
            24.236097
          ],
          [
            120.835361,
            24.235475
          ],
          [
            120.83549,
            24.235003
          ],
          [
            120.836099,
            24.23289
          ],
          [
            120.836099,
            24.23289
          ],
          [
            120.836177,
            24.232621
          ],
          [
            120.836284,
            24.232643
          ],
          [
            120.836177,
            24.23305
          ],
          [
            120.835769,
            24.234488
          ],
          [
            120.835598,
            24.235024
          ],
          [
            120.835297,
            24.236119
          ],
          [
            120.835254,
            24.236263
          ],
          [
            120.834911,
            24.23742
          ],
          [
            120.834889,
            24.237492
          ],
          [
            120.83487,
            24.237563
          ],
          [
            120.834657,
            24.238344
          ],
          [
            120.834632,
            24.238436
          ],
          [
            120.834525,
            24.238372
          ],
          [
            120.834541,
            24.238314
          ],
          [
            120.8347,
            24.23776
          ],
          [
            120.8347,
            24.23776
          ],
          [
            120.834765,
            24.237532
          ],
          [
            120.834782,
            24.237471
          ],
          [
            120.834803,
            24.237395
          ],
          [
            120.835136,
            24.236213
          ],
          [
            120.835168,
            24.236097
          ],
          [
            120.835361,
            24.235475
          ],
          [
            120.83549,
            24.235003
          ],
          [
            120.836177,
            24.232621
          ],
          [
            120.836254,
            24.232346
          ],
          [
            120.836477,
            24.231548
          ],
          [
            120.836735,
            24.230712
          ],
          [
            120.836821,
            24.230325
          ],
          [
            120.83686,
            24.230099
          ],
          [
            120.83687,
            24.230037
          ],
          [
            120.837057,
            24.228952
          ],
          [
            120.837121,
            24.228759
          ],
          [
            120.837164,
            24.228651
          ],
          [
            120.837357,
            24.228222
          ],
          [
            120.837423,
            24.228078
          ],
          [
            120.837663,
            24.22755
          ],
          [
            120.837775,
            24.22678
          ],
          [
            120.837773,
            24.226488
          ],
          [
            120.837547,
            24.225137
          ],
          [
            120.837431,
            24.224341
          ],
          [
            120.837421,
            24.224274
          ],
          [
            120.837256,
            24.223144
          ],
          [
            120.837091,
            24.222016
          ],
          [
            120.83707,
            24.221587
          ],
          [
            120.837067,
            24.221542
          ],
          [
            120.837068,
            24.22147
          ],
          [
            120.837068,
            24.221322
          ],
          [
            120.83707,
            24.220723
          ],
          [
            120.83707,
            24.220657
          ],
          [
            120.837242,
            24.220664
          ],
          [
            120.837242,
            24.220716
          ],
          [
            120.837249,
            24.221454
          ],
          [
            120.83725,
            24.221539
          ],
          [
            120.837253,
            24.221601
          ],
          [
            120.837274,
            24.222007
          ],
          [
            120.837443,
            24.22317
          ],
          [
            120.837523,
            24.223673
          ],
          [
            120.837537,
            24.223764
          ],
          [
            120.837609,
            24.224262
          ],
          [
            120.837616,
            24.224309
          ],
          [
            120.837738,
            24.225144
          ],
          [
            120.837915,
            24.226345
          ],
          [
            120.837934,
            24.226484
          ],
          [
            120.837907,
            24.226804
          ],
          [
            120.837751,
            24.227593
          ],
          [
            120.837676,
            24.227766
          ],
          [
            120.837519,
            24.228132
          ],
          [
            120.837443,
            24.228308
          ],
          [
            120.837271,
            24.228716
          ],
          [
            120.837185,
            24.228973
          ],
          [
            120.837013,
            24.229976
          ],
          [
            120.837002,
            24.230038
          ],
          [
            120.836949,
            24.230347
          ],
          [
            120.836821,
            24.230776
          ],
          [
            120.836606,
            24.231548
          ],
          [
            120.836284,
            24.232643
          ],
          [
            120.836177,
            24.232621
          ],
          [
            120.836254,
            24.232346
          ],
          [
            120.836477,
            24.231548
          ],
          [
            120.836735,
            24.230712
          ],
          [
            120.836821,
            24.230325
          ],
          [
            120.83686,
            24.230099
          ],
          [
            120.83687,
            24.230037
          ],
          [
            120.837057,
            24.228952
          ],
          [
            120.837121,
            24.228759
          ],
          [
            120.837164,
            24.228651
          ],
          [
            120.837357,
            24.228222
          ],
          [
            120.837423,
            24.228078
          ],
          [
            120.837663,
            24.22755
          ],
          [
            120.837775,
            24.22678
          ],
          [
            120.837773,
            24.226488
          ],
          [
            120.837547,
            24.225137
          ],
          [
            120.837431,
            24.224341
          ],
          [
            120.837421,
            24.224274
          ],
          [
            120.837256,
            24.223144
          ],
          [
            120.837091,
            24.222016
          ],
          [
            120.83707,
            24.221587
          ],
          [
            120.837067,
            24.221542
          ],
          [
            120.837068,
            24.22147
          ],
          [
            120.83707,
            24.220723
          ],
          [
            120.83707,
            24.220657
          ],
          [
            120.837049,
            24.219551
          ],
          [
            120.837054,
            24.21915
          ],
          [
            120.837062,
            24.219004
          ],
          [
            120.837172,
            24.218635
          ],
          [
            120.837489,
            24.217663
          ],
          [
            120.83759,
            24.217353
          ],
          [
            120.838108,
            24.215681
          ],
          [
            120.838253,
            24.215853
          ],
          [
            120.83828,
            24.215942
          ],
          [
            120.838264,
            24.216272
          ],
          [
            120.838265,
            24.216381
          ],
          [
            120.838271,
            24.217341
          ],
          [
            120.838275,
            24.217522
          ],
          [
            120.838271,
            24.217341
          ],
          [
            120.838265,
            24.216381
          ],
          [
            120.838264,
            24.216272
          ],
          [
            120.83828,
            24.215942
          ],
          [
            120.838253,
            24.215853
          ],
          [
            120.837754,
            24.217419
          ],
          [
            120.837676,
            24.217688
          ],
          [
            120.837639,
            24.217806
          ],
          [
            120.837365,
            24.218686
          ],
          [
            120.837252,
            24.21907
          ],
          [
            120.837239,
            24.219565
          ],
          [
            120.837242,
            24.220045
          ],
          [
            120.837242,
            24.220428
          ],
          [
            120.837242,
            24.220664
          ],
          [
            120.837242,
            24.220716
          ],
          [
            120.837249,
            24.221454
          ],
          [
            120.83725,
            24.221539
          ],
          [
            120.837067,
            24.221542
          ],
          [
            120.837068,
            24.22147
          ],
          [
            120.837068,
            24.221322
          ],
          [
            120.83707,
            24.220723
          ],
          [
            120.83707,
            24.220657
          ],
          [
            120.837049,
            24.219551
          ],
          [
            120.837054,
            24.21915
          ],
          [
            120.837062,
            24.219004
          ],
          [
            120.837172,
            24.218635
          ],
          [
            120.837489,
            24.217663
          ],
          [
            120.83759,
            24.217353
          ],
          [
            120.838108,
            24.215681
          ],
          [
            120.838253,
            24.215853
          ],
          [
            120.83828,
            24.215942
          ],
          [
            120.838264,
            24.216272
          ],
          [
            120.838265,
            24.216381
          ],
          [
            120.838271,
            24.217341
          ],
          [
            120.838275,
            24.217522
          ],
          [
            120.838289,
            24.218206
          ],
          [
            120.838322,
            24.218773
          ],
          [
            120.838346,
            24.218856
          ],
          [
            120.838401,
            24.219041
          ],
          [
            120.838521,
            24.219448
          ],
          [
            120.838582,
            24.219611
          ],
          [
            120.838582,
            24.219611
          ],
          [
            120.838615,
            24.2197
          ],
          [
            120.838846,
            24.220319
          ],
          [
            120.838884,
            24.220421
          ],
          [
            120.83888,
            24.220746
          ],
          [
            120.838844,
            24.220953
          ],
          [
            120.838782,
            24.221305
          ],
          [
            120.838706,
            24.221735
          ],
          [
            120.83866,
            24.221944
          ],
          [
            120.838554,
            24.222429
          ],
          [
            120.838487,
            24.222734
          ],
          [
            120.838444,
            24.22417
          ],
          [
            120.838445,
            24.224292
          ],
          [
            120.838429,
            24.224391
          ],
          [
            120.838429,
            24.224391
          ],
          [
            120.838354,
            24.224858
          ],
          [
            120.838239,
            24.225285
          ],
          [
            120.837995,
            24.226187
          ],
          [
            120.837968,
            24.226285
          ],
          [
            120.837915,
            24.226345
          ],
          [
            120.837934,
            24.226484
          ],
          [
            120.837907,
            24.226804
          ],
          [
            120.837751,
            24.227593
          ],
          [
            120.837676,
            24.227766
          ],
          [
            120.837519,
            24.228132
          ],
          [
            120.837443,
            24.228308
          ],
          [
            120.837271,
            24.228716
          ],
          [
            120.837185,
            24.228973
          ],
          [
            120.837013,
            24.229976
          ],
          [
            120.837002,
            24.230038
          ],
          [
            120.836949,
            24.230347
          ],
          [
            120.836821,
            24.230776
          ],
          [
            120.836606,
            24.231548
          ],
          [
            120.836284,
            24.232643
          ],
          [
            120.836177,
            24.23305
          ],
          [
            120.836123,
            24.233241
          ],
          [
            120.835769,
            24.234488
          ],
          [
            120.835598,
            24.235024
          ],
          [
            120.835297,
            24.236119
          ],
          [
            120.835254,
            24.236263
          ],
          [
            120.834911,
            24.23742
          ],
          [
            120.834889,
            24.237492
          ],
          [
            120.83487,
            24.237563
          ],
          [
            120.834657,
            24.238344
          ],
          [
            120.834632,
            24.238436
          ],
          [
            120.83462,
            24.238478
          ],
          [
            120.834448,
            24.239084
          ],
          [
            120.834436,
            24.239127
          ],
          [
            120.834429,
            24.239153
          ],
          [
            120.834282,
            24.239692
          ],
          [
            120.834208,
            24.239964
          ],
          [
            120.83419,
            24.24003
          ],
          [
            120.834053,
            24.240003
          ],
          [
            120.834074,
            24.239929
          ],
          [
            120.834304,
            24.239123
          ],
          [
            120.83431,
            24.239101
          ],
          [
            120.834325,
            24.239051
          ],
          [
            120.834499,
            24.23846
          ],
          [
            120.834525,
            24.238372
          ],
          [
            120.834541,
            24.238314
          ],
          [
            120.834765,
            24.237532
          ],
          [
            120.834782,
            24.237471
          ],
          [
            120.834803,
            24.237395
          ],
          [
            120.835136,
            24.236213
          ],
          [
            120.835168,
            24.236097
          ],
          [
            120.835361,
            24.235475
          ],
          [
            120.83549,
            24.235003
          ],
          [
            120.836177,
            24.232621
          ],
          [
            120.836284,
            24.232643
          ],
          [
            120.836177,
            24.23305
          ],
          [
            120.836123,
            24.233241
          ],
          [
            120.835769,
            24.234488
          ],
          [
            120.835598,
            24.235024
          ],
          [
            120.835297,
            24.236119
          ],
          [
            120.835254,
            24.236263
          ],
          [
            120.834911,
            24.23742
          ],
          [
            120.834889,
            24.237492
          ],
          [
            120.83487,
            24.237563
          ],
          [
            120.834657,
            24.238344
          ],
          [
            120.834632,
            24.238436
          ],
          [
            120.83462,
            24.238478
          ],
          [
            120.834448,
            24.239084
          ],
          [
            120.834436,
            24.239127
          ],
          [
            120.834429,
            24.239153
          ],
          [
            120.834208,
            24.239964
          ],
          [
            120.83419,
            24.24003
          ],
          [
            120.834177,
            24.240073
          ],
          [
            120.833741,
            24.241492
          ],
          [
            120.833731,
            24.241526
          ],
          [
            120.833716,
            24.241639
          ],
          [
            120.833623,
            24.242341
          ],
          [
            120.833613,
            24.242407
          ],
          [
            120.833596,
            24.24251
          ],
          [
            120.833581,
            24.242605
          ],
          [
            120.833495,
            24.243135
          ],
          [
            120.833452,
            24.243393
          ],
          [
            120.833256,
            24.244037
          ],
          [
            120.833178,
            24.244293
          ],
          [
            120.833151,
            24.24438
          ],
          [
            120.83313,
            24.244437
          ],
          [
            120.833001,
            24.244788
          ],
          [
            120.832393,
            24.246175
          ],
          [
            120.832372,
            24.246224
          ],
          [
            120.832343,
            24.246291
          ],
          [
            120.832246,
            24.246513
          ],
          [
            120.83218,
            24.246604
          ],
          [
            120.832166,
            24.246623
          ],
          [
            120.831733,
            24.247218
          ],
          [
            120.831588,
            24.247412
          ],
          [
            120.830553,
            24.24839
          ],
          [
            120.830509,
            24.248431
          ],
          [
            120.829479,
            24.249405
          ],
          [
            120.829396,
            24.249345
          ],
          [
            120.83023,
            24.248545
          ],
          [
            120.831475,
            24.24735
          ],
          [
            120.831628,
            24.24717
          ],
          [
            120.831857,
            24.246852
          ],
          [
            120.832057,
            24.246576
          ],
          [
            120.832074,
            24.246552
          ],
          [
            120.832143,
            24.246461
          ],
          [
            120.832229,
            24.246253
          ],
          [
            120.832255,
            24.246188
          ],
          [
            120.832278,
            24.246137
          ],
          [
            120.832894,
            24.244745
          ],
          [
            120.833024,
            24.244411
          ],
          [
            120.833044,
            24.244358
          ],
          [
            120.833072,
            24.244261
          ],
          [
            120.833323,
            24.243371
          ],
          [
            120.833387,
            24.243114
          ],
          [
            120.833458,
            24.242593
          ],
          [
            120.833472,
            24.242491
          ],
          [
            120.833484,
            24.242403
          ],
          [
            120.833495,
            24.24232
          ],
          [
            120.833606,
            24.241632
          ],
          [
            120.833623,
            24.241526
          ],
          [
            120.833638,
            24.241473
          ],
          [
            120.833709,
            24.241204
          ],
          [
            120.834042,
            24.240041
          ],
          [
            120.834053,
            24.240003
          ],
          [
            120.834074,
            24.239929
          ],
          [
            120.834304,
            24.239123
          ],
          [
            120.83431,
            24.239101
          ],
          [
            120.834325,
            24.239051
          ],
          [
            120.834499,
            24.23846
          ],
          [
            120.834525,
            24.238372
          ],
          [
            120.834541,
            24.238314
          ],
          [
            120.834765,
            24.237532
          ],
          [
            120.834782,
            24.237471
          ],
          [
            120.834889,
            24.237492
          ],
          [
            120.83487,
            24.237563
          ],
          [
            120.834657,
            24.238344
          ],
          [
            120.834632,
            24.238436
          ],
          [
            120.83462,
            24.238478
          ],
          [
            120.834448,
            24.239084
          ],
          [
            120.834436,
            24.239127
          ],
          [
            120.834429,
            24.239153
          ],
          [
            120.834282,
            24.239692
          ],
          [
            120.834208,
            24.239964
          ],
          [
            120.83419,
            24.24003
          ],
          [
            120.834177,
            24.240073
          ],
          [
            120.833741,
            24.241492
          ],
          [
            120.833731,
            24.241526
          ],
          [
            120.833716,
            24.241639
          ],
          [
            120.833623,
            24.242341
          ],
          [
            120.833613,
            24.242407
          ],
          [
            120.833596,
            24.24251
          ],
          [
            120.833581,
            24.242605
          ],
          [
            120.833495,
            24.243135
          ],
          [
            120.833452,
            24.243393
          ],
          [
            120.833256,
            24.244037
          ],
          [
            120.833178,
            24.244293
          ],
          [
            120.833151,
            24.24438
          ],
          [
            120.83313,
            24.244437
          ],
          [
            120.833001,
            24.244788
          ],
          [
            120.832393,
            24.246175
          ],
          [
            120.832372,
            24.246224
          ],
          [
            120.832343,
            24.246291
          ],
          [
            120.832246,
            24.246513
          ],
          [
            120.83218,
            24.246604
          ],
          [
            120.832166,
            24.246623
          ],
          [
            120.831733,
            24.247218
          ],
          [
            120.831588,
            24.247412
          ],
          [
            120.830553,
            24.24839
          ],
          [
            120.830509,
            24.248431
          ],
          [
            120.829479,
            24.249405
          ],
          [
            120.829418,
            24.249463
          ],
          [
            120.8287,
            24.250152
          ],
          [
            120.828456,
            24.250385
          ],
          [
            120.827623,
            24.251184
          ],
          [
            120.827567,
            24.251236
          ],
          [
            120.827272,
            24.251611
          ],
          [
            120.826631,
            24.252796
          ],
          [
            120.826586,
            24.252871
          ],
          [
            120.827034,
            24.253086
          ],
          [
            120.827222,
            24.252972
          ],
          [
            120.827405,
            24.252861
          ],
          [
            120.828045,
            24.252473
          ],
          [
            120.828045,
            24.252473
          ],
          [
            120.828268,
            24.252338
          ],
          [
            120.828821,
            24.252003
          ],
          [
            120.828844,
            24.251989
          ],
          [
            120.828844,
            24.251989
          ],
          [
            120.829017,
            24.251884
          ],
          [
            120.829225,
            24.251758
          ],
          [
            120.829568,
            24.251697
          ],
          [
            120.830061,
            24.251633
          ],
          [
            120.830834,
            24.251547
          ],
          [
            120.831259,
            24.251491
          ],
          [
            120.831671,
            24.25144
          ],
          [
            120.832377,
            24.251335
          ],
          [
            120.832377,
            24.251335
          ],
          [
            120.8324,
            24.251332
          ],
          [
            120.832733,
            24.25128
          ],
          [
            120.833131,
            24.251228
          ],
          [
            120.833709,
            24.250677
          ],
          [
            120.833986,
            24.25042
          ],
          [
            120.833986,
            24.25042
          ],
          [
            120.833709,
            24.250677
          ],
          [
            120.833588,
            24.251177
          ],
          [
            120.833973,
            24.251124
          ],
          [
            120.83426,
            24.251112
          ],
          [
            120.834932,
            24.251096
          ],
          [
            120.835168,
            24.251096
          ],
          [
            120.835357,
            24.251098
          ],
          [
            120.835876,
            24.251096
          ],
          [
            120.836339,
            24.251088
          ],
          [
            120.836725,
            24.251077
          ],
          [
            120.836906,
            24.251053
          ],
          [
            120.837164,
            24.251032
          ],
          [
            120.837412,
            24.251017
          ],
          [
            120.837412,
            24.251017
          ],
          [
            120.837164,
            24.251032
          ],
          [
            120.836906,
            24.251053
          ],
          [
            120.836868,
            24.250916
          ],
          [
            120.836587,
            24.250591
          ],
          [
            120.83642,
            24.250485
          ],
          [
            120.836587,
            24.250591
          ],
          [
            120.836868,
            24.250916
          ],
          [
            120.836906,
            24.251053
          ],
          [
            120.837164,
            24.251032
          ],
          [
            120.837894,
            24.250989
          ],
          [
            120.838494,
            24.250968
          ],
          [
            120.839031,
            24.250946
          ],
          [
            120.839374,
            24.250989
          ],
          [
            120.839717,
            24.251053
          ],
          [
            120.840082,
            24.251161
          ],
          [
            120.840425,
            24.251246
          ],
          [
            120.840876,
            24.251375
          ],
          [
            120.841477,
            24.251525
          ],
          [
            120.84197,
            24.251676
          ],
          [
            120.842041,
            24.251692
          ],
          [
            120.842121,
            24.251711
          ],
          [
            120.842762,
            24.251886
          ],
          [
            120.842121,
            24.251711
          ],
          [
            120.842041,
            24.251692
          ],
          [
            120.84197,
            24.251676
          ],
          [
            120.841477,
            24.251525
          ],
          [
            120.840876,
            24.251375
          ],
          [
            120.840425,
            24.251246
          ],
          [
            120.840082,
            24.251161
          ],
          [
            120.839717,
            24.251053
          ],
          [
            120.839374,
            24.250989
          ],
          [
            120.839031,
            24.250946
          ],
          [
            120.838494,
            24.250968
          ],
          [
            120.837894,
            24.250989
          ],
          [
            120.837164,
            24.251032
          ],
          [
            120.836906,
            24.251053
          ],
          [
            120.836868,
            24.250916
          ],
          [
            120.836587,
            24.250591
          ],
          [
            120.83642,
            24.250485
          ],
          [
            120.836587,
            24.250591
          ],
          [
            120.836868,
            24.250916
          ],
          [
            120.836906,
            24.251053
          ],
          [
            120.837164,
            24.251032
          ],
          [
            120.837894,
            24.250989
          ],
          [
            120.838494,
            24.250968
          ],
          [
            120.839031,
            24.250946
          ],
          [
            120.839374,
            24.250989
          ],
          [
            120.839717,
            24.251053
          ],
          [
            120.840082,
            24.251161
          ],
          [
            120.840425,
            24.251246
          ],
          [
            120.840876,
            24.251375
          ],
          [
            120.841477,
            24.251525
          ],
          [
            120.84197,
            24.251676
          ],
          [
            120.842041,
            24.251692
          ],
          [
            120.842121,
            24.251711
          ],
          [
            120.842762,
            24.251886
          ],
          [
            120.843172,
            24.251998
          ],
          [
            120.843515,
            24.252083
          ],
          [
            120.843623,
            24.252105
          ],
          [
            120.84476,
            24.252105
          ],
          [
            120.84491,
            24.252148
          ],
          [
            120.845039,
            24.252233
          ],
          [
            120.845125,
            24.252298
          ],
          [
            120.84564,
            24.252856
          ],
          [
            120.845747,
            24.252899
          ],
          [
            120.845983,
            24.252963
          ],
          [
            120.846541,
            24.253113
          ],
          [
            120.846713,
            24.253199
          ],
          [
            120.846777,
            24.253242
          ],
          [
            120.847828,
            24.254272
          ],
          [
            120.847979,
            24.254336
          ],
          [
            120.848043,
            24.254358
          ],
          [
            120.848365,
            24.254401
          ],
          [
            120.848481,
            24.254417
          ],
          [
            120.848708,
            24.254444
          ],
          [
            120.848923,
            24.254465
          ],
          [
            120.849094,
            24.254508
          ],
          [
            120.849245,
            24.254551
          ],
          [
            120.849416,
            24.254637
          ],
          [
            120.849695,
            24.254851
          ],
          [
            120.850339,
            24.255345
          ],
          [
            120.851476,
            24.25631
          ],
          [
            120.851541,
            24.256375
          ],
          [
            120.851648,
            24.256525
          ],
          [
            120.851755,
            24.256911
          ],
          [
            120.851841,
            24.257169
          ],
          [
            120.852328,
            24.258716
          ],
          [
            120.852286,
            24.258869
          ],
          [
            120.852286,
            24.258869
          ],
          [
            120.852286,
            24.258869
          ],
          [
            120.852328,
            24.258716
          ],
          [
            120.851841,
            24.257169
          ],
          [
            120.851755,
            24.256911
          ],
          [
            120.851648,
            24.256525
          ],
          [
            120.851541,
            24.256375
          ],
          [
            120.851476,
            24.25631
          ],
          [
            120.850875,
            24.2558
          ],
          [
            120.850875,
            24.2558
          ],
          [
            120.850339,
            24.255345
          ],
          [
            120.849695,
            24.254851
          ],
          [
            120.849416,
            24.254637
          ],
          [
            120.849245,
            24.254551
          ],
          [
            120.849094,
            24.254508
          ],
          [
            120.848923,
            24.254465
          ],
          [
            120.848708,
            24.254444
          ],
          [
            120.848481,
            24.254417
          ],
          [
            120.848365,
            24.254401
          ],
          [
            120.848043,
            24.254358
          ],
          [
            120.847979,
            24.254336
          ],
          [
            120.847828,
            24.254272
          ],
          [
            120.846777,
            24.253242
          ],
          [
            120.846713,
            24.253199
          ],
          [
            120.846541,
            24.253113
          ],
          [
            120.846216,
            24.253026
          ],
          [
            120.846216,
            24.253026
          ],
          [
            120.845983,
            24.252963
          ],
          [
            120.845747,
            24.252899
          ],
          [
            120.84564,
            24.252856
          ],
          [
            120.845125,
            24.252298
          ],
          [
            120.845039,
            24.252233
          ],
          [
            120.84491,
            24.252148
          ],
          [
            120.84476,
            24.252105
          ],
          [
            120.843623,
            24.252105
          ],
          [
            120.843515,
            24.252083
          ],
          [
            120.843172,
            24.251998
          ],
          [
            120.842121,
            24.251711
          ],
          [
            120.842041,
            24.251692
          ],
          [
            120.84197,
            24.251676
          ],
          [
            120.841477,
            24.251525
          ],
          [
            120.840876,
            24.251375
          ],
          [
            120.840425,
            24.251246
          ],
          [
            120.840082,
            24.251161
          ],
          [
            120.839717,
            24.251053
          ],
          [
            120.839374,
            24.250989
          ],
          [
            120.839031,
            24.250946
          ],
          [
            120.838494,
            24.250968
          ],
          [
            120.837894,
            24.250989
          ],
          [
            120.837164,
            24.251032
          ],
          [
            120.836906,
            24.251053
          ],
          [
            120.836725,
            24.251077
          ],
          [
            120.836339,
            24.251088
          ],
          [
            120.835876,
            24.251096
          ],
          [
            120.835357,
            24.251098
          ],
          [
            120.835168,
            24.251096
          ],
          [
            120.834932,
            24.251096
          ],
          [
            120.83426,
            24.251112
          ],
          [
            120.833973,
            24.251124
          ],
          [
            120.833588,
            24.251177
          ],
          [
            120.833131,
            24.251228
          ],
          [
            120.832733,
            24.25128
          ],
          [
            120.8324,
            24.251332
          ],
          [
            120.831671,
            24.25144
          ],
          [
            120.831259,
            24.251491
          ],
          [
            120.830834,
            24.251547
          ],
          [
            120.830796,
            24.252165
          ],
          [
            120.830894,
            24.252174
          ],
          [
            120.830796,
            24.252165
          ],
          [
            120.830769,
            24.252599
          ],
          [
            120.83076,
            24.252649
          ],
          [
            120.830705,
            24.252956
          ],
          [
            120.830686,
            24.253049
          ],
          [
            120.830551,
            24.253694
          ],
          [
            120.830499,
            24.253931
          ],
          [
            120.830487,
            24.253987
          ]
        ]
      },
      "properties": {
        "routeId": "taichung-310-s7-7216af-d2",
        "city": "taichung",
        "source_file": "taichung/taichung-310-s7-7216af-d2.geojson",
        "distance_km": 26.935000000000002,
        "duration_min": 34.51815,
        "valhalla_config": "valhalla.json"
      }
    }
  ]
}