{
  "type": "FeatureCollection",
  "features": [
    {
      "type": "Feature",
      "geometry": {
        "type": "LineString",
        "coordinates": [
          [
            120.778813,
            24.094206
          ],
          [
            120.778813,
            24.094206
          ],
          [
            120.778842,
            24.094198
          ],
          [
            120.779035,
            24.094112
          ],
          [
            120.779121,
            24.094026
          ],
          [
            120.778778,
            24.094112
          ],
          [
            120.778584,
            24.09409
          ],
          [
            120.778477,
            24.094069
          ],
          [
            120.778327,
            24.094026
          ],
          [
            120.77822,
            24.094005
          ],
          [
            120.778027,
            24.094047
          ],
          [
            120.777705,
            24.094176
          ],
          [
            120.777297,
            24.094391
          ],
          [
            120.776246,
            24.09467
          ],
          [
            120.776138,
            24.094691
          ],
          [
            120.776031,
            24.094691
          ],
          [
            120.775709,
            24.094648
          ],
          [
            120.775559,
            24.094691
          ],
          [
            120.775516,
            24.094713
          ],
          [
            120.775473,
            24.094777
          ],
          [
            120.775387,
            24.095077
          ],
          [
            120.775323,
            24.095228
          ],
          [
            120.775194,
            24.095335
          ],
          [
            120.775001,
            24.095485
          ],
          [
            120.774937,
            24.095528
          ],
          [
            120.774851,
            24.095571
          ],
          [
            120.774765,
            24.095571
          ],
          [
            120.774507,
            24.095571
          ],
          [
            120.774272,
            24.095528
          ],
          [
            120.774121,
            24.095485
          ],
          [
            120.773864,
            24.095249
          ],
          [
            120.773778,
            24.095206
          ],
          [
            120.773671,
            24.095206
          ],
          [
            120.773435,
            24.095228
          ],
          [
            120.773284,
            24.095292
          ],
          [
            120.77292,
            24.095678
          ],
          [
            120.772791,
            24.095786
          ],
          [
            120.772297,
            24.096065
          ],
          [
            120.772126,
            24.096129
          ],
          [
            120.77204,
            24.096129
          ],
          [
            120.771868,
            24.096107
          ],
          [
            120.771761,
            24.096086
          ],
          [
            120.771632,
            24.096043
          ],
          [
            120.771546,
            24.096
          ],
          [
            120.771503,
            24.095957
          ],
          [
            120.771418,
            24.095786
          ],
          [
            120.771332,
            24.095678
          ],
          [
            120.771246,
            24.095614
          ],
          [
            120.771139,
            24.095571
          ],
          [
            120.770945,
            24.095528
          ],
          [
            120.770817,
            24.095464
          ],
          [
            120.770581,
            24.095099
          ],
          [
            120.770452,
            24.094992
          ],
          [
            120.770366,
            24.09497
          ],
          [
            120.769808,
            24.094863
          ],
          [
            120.76968,
            24.094863
          ],
          [
            120.769572,
            24.094884
          ],
          [
            120.769486,
            24.094927
          ],
          [
            120.769401,
            24.094992
          ],
          [
            120.769036,
            24.095399
          ],
          [
            120.768757,
            24.095635
          ],
          [
            120.768521,
            24.095871
          ],
          [
            120.768435,
            24.095914
          ],
          [
            120.768349,
            24.095957
          ],
          [
            120.768263,
            24.095936
          ],
          [
            120.767813,
            24.095786
          ],
          [
            120.767641,
            24.095743
          ],
          [
            120.767549,
            24.095736
          ],
          [
            120.767549,
            24.095736
          ],
          [
            120.767362,
            24.095721
          ],
          [
            120.767287,
            24.095711
          ],
          [
            120.767212,
            24.095721
          ],
          [
            120.767083,
            24.095764
          ],
          [
            120.766976,
            24.095807
          ],
          [
            120.765989,
            24.096494
          ],
          [
            120.765409,
            24.096794
          ],
          [
            120.765173,
            24.096987
          ],
          [
            120.76498,
            24.097159
          ],
          [
            120.764637,
            24.097588
          ],
          [
            120.764143,
            24.098275
          ],
          [
            120.763972,
            24.098446
          ],
          [
            120.763822,
            24.098532
          ],
          [
            120.763414,
            24.098704
          ],
          [
            120.763328,
            24.098747
          ],
          [
            120.763221,
            24.098747
          ],
          [
            120.763135,
            24.098747
          ],
          [
            120.763006,
            24.098661
          ],
          [
            120.762835,
            24.098489
          ],
          [
            120.76277,
            24.098425
          ],
          [
            120.762641,
            24.098425
          ],
          [
            120.762491,
            24.098489
          ],
          [
            120.762448,
            24.098532
          ],
          [
            120.762405,
            24.098618
          ],
          [
            120.762427,
            24.098725
          ],
          [
            120.762792,
            24.099905
          ],
          [
            120.762856,
            24.100141
          ],
          [
            120.762792,
            24.100721
          ],
          [
            120.76277,
            24.100914
          ],
          [
            120.762727,
            24.101
          ],
          [
            120.762598,
            24.101171
          ],
          [
            120.762556,
            24.101214
          ],
          [
            120.76232,
            24.101343
          ],
          [
            120.762234,
            24.101429
          ],
          [
            120.761912,
            24.101837
          ],
          [
            120.76166,
            24.102278
          ],
          [
            120.76152,
            24.102714
          ],
          [
            120.761448,
            24.102888
          ],
          [
            120.761271,
            24.103143
          ],
          [
            120.761164,
            24.103305
          ],
          [
            120.761083,
            24.103443
          ],
          [
            120.761067,
            24.103639
          ],
          [
            120.761045,
            24.104258
          ],
          [
            120.761059,
            24.105055
          ],
          [
            120.761048,
            24.105139
          ],
          [
            120.760987,
            24.105312
          ],
          [
            120.760954,
            24.105391
          ],
          [
            120.760914,
            24.105616
          ],
          [
            120.760906,
            24.105743
          ],
          [
            120.760914,
            24.10584
          ],
          [
            120.760938,
            24.106012
          ],
          [
            120.760885,
            24.10629
          ],
          [
            120.760871,
            24.106384
          ],
          [
            120.760838,
            24.10647
          ],
          [
            120.760838,
            24.10647
          ],
          [
            120.76082,
            24.106518
          ],
          [
            120.760922,
            24.106658
          ],
          [
            120.761009,
            24.106799
          ],
          [
            120.761071,
            24.106861
          ],
          [
            120.761123,
            24.10694
          ],
          [
            120.761201,
            24.107102
          ],
          [
            120.761244,
            24.107209
          ],
          [
            120.761245,
            24.107343
          ],
          [
            120.761245,
            24.10746
          ],
          [
            120.761248,
            24.10758
          ],
          [
            120.761273,
            24.107712
          ],
          [
            120.761402,
            24.108002
          ],
          [
            120.761416,
            24.108214
          ],
          [
            120.761398,
            24.108441
          ],
          [
            120.761363,
            24.108693
          ],
          [
            120.761385,
            24.108871
          ],
          [
            120.761444,
            24.108989
          ],
          [
            120.761535,
            24.109055
          ],
          [
            120.761615,
            24.109089
          ],
          [
            120.761741,
            24.109124
          ],
          [
            120.761967,
            24.109134
          ],
          [
            120.76245,
            24.109373
          ],
          [
            120.762535,
            24.109457
          ],
          [
            120.76264,
            24.10955
          ],
          [
            120.76277,
            24.109733
          ],
          [
            120.762856,
            24.109798
          ],
          [
            120.762963,
            24.10984
          ],
          [
            120.763371,
            24.10984
          ],
          [
            120.763693,
            24.109926
          ],
          [
            120.7638,
            24.109969
          ],
          [
            120.763972,
            24.109948
          ],
          [
            120.764005,
            24.10994
          ],
          [
            120.764005,
            24.10994
          ],
          [
            120.764143,
            24.109905
          ],
          [
            120.764358,
            24.109798
          ],
          [
            120.764487,
            24.109776
          ],
          [
            120.764551,
            24.109776
          ],
          [
            120.76468,
            24.109798
          ],
          [
            120.764916,
            24.109926
          ],
          [
            120.764358,
            24.110613
          ],
          [
            120.764251,
            24.11087
          ],
          [
            120.763779,
            24.112179
          ],
          [
            120.763736,
            24.112244
          ],
          [
            120.763607,
            24.112372
          ],
          [
            120.763049,
            24.112844
          ],
          [
            120.762368,
            24.113416
          ],
          [
            120.762338,
            24.113445
          ],
          [
            120.762318,
            24.113475
          ],
          [
            120.762318,
            24.113507
          ],
          [
            120.762324,
            24.113523
          ],
          [
            120.762333,
            24.113543
          ],
          [
            120.762582,
            24.114016
          ],
          [
            120.762729,
            24.114287
          ],
          [
            120.762824,
            24.114492
          ],
          [
            120.762846,
            24.114654
          ],
          [
            120.762824,
            24.114745
          ],
          [
            120.762693,
            24.114863
          ],
          [
            120.762363,
            24.115141
          ],
          [
            120.759719,
            24.11688
          ],
          [
            120.759719,
            24.11688
          ],
          [
            120.759037,
            24.117329
          ],
          [
            120.758608,
            24.117608
          ],
          [
            120.758436,
            24.117694
          ],
          [
            120.758286,
            24.117716
          ],
          [
            120.757621,
            24.117694
          ],
          [
            120.757385,
            24.117737
          ],
          [
            120.757277,
            24.11778
          ],
          [
            120.757225,
            24.117819
          ],
          [
            120.757191,
            24.117844
          ],
          [
            120.757127,
            24.117887
          ],
          [
            120.757063,
            24.117994
          ],
          [
            120.757041,
            24.11808
          ],
          [
            120.757041,
            24.118274
          ],
          [
            120.757127,
            24.11866
          ],
          [
            120.757149,
            24.11881
          ],
          [
            120.757149,
            24.119089
          ],
          [
            120.757127,
            24.119239
          ],
          [
            120.756955,
            24.120033
          ],
          [
            120.75687,
            24.120312
          ],
          [
            120.756741,
            24.120526
          ],
          [
            120.756634,
            24.120655
          ],
          [
            120.756269,
            24.12102
          ],
          [
            120.75614,
            24.121127
          ],
          [
            120.75539,
            24.121471
          ],
          [
            120.755175,
            24.121492
          ],
          [
            120.755003,
            24.121471
          ],
          [
            120.754917,
            24.121428
          ],
          [
            120.75481,
            24.121342
          ],
          [
            120.754543,
            24.121038
          ],
          [
            120.754422,
            24.120955
          ],
          [
            120.754146,
            24.120854
          ],
          [
            120.75395,
            24.120842
          ],
          [
            120.75373,
            24.120874
          ],
          [
            120.752986,
            24.120999
          ],
          [
            120.75275,
            24.121063
          ],
          [
            120.752385,
            24.121235
          ],
          [
            120.752106,
            24.121428
          ],
          [
            120.751784,
            24.121728
          ],
          [
            120.751735,
            24.121781
          ],
          [
            120.751387,
            24.122152
          ],
          [
            120.750732,
            24.122908
          ],
          [
            120.750493,
            24.123131
          ],
          [
            120.750039,
            24.123459
          ],
          [
            120.749819,
            24.123665
          ],
          [
            120.749209,
            24.124217
          ],
          [
            120.749145,
            24.124346
          ],
          [
            120.748866,
            24.124989
          ],
          [
            120.748694,
            24.125333
          ],
          [
            120.748501,
            24.125655
          ],
          [
            120.747943,
            24.126406
          ],
          [
            120.748621,
            24.126718
          ],
          [
            120.749132,
            24.1269
          ],
          [
            120.749303,
            24.127044
          ],
          [
            120.749451,
            24.127189
          ],
          [
            120.749594,
            24.127241
          ],
          [
            120.749896,
            24.126921
          ],
          [
            120.749938,
            24.126835
          ],
          [
            120.749932,
            24.126668
          ],
          [
            120.749956,
            24.126602
          ],
          [
            120.750024,
            24.126534
          ],
          [
            120.750046,
            24.126513
          ],
          [
            120.750136,
            24.126436
          ],
          [
            120.75047,
            24.126153
          ],
          [
            120.75047,
            24.126153
          ],
          [
            120.750136,
            24.126436
          ],
          [
            120.750046,
            24.126513
          ],
          [
            120.750024,
            24.126534
          ],
          [
            120.749956,
            24.126602
          ],
          [
            120.749932,
            24.126668
          ],
          [
            120.749938,
            24.126835
          ],
          [
            120.749896,
            24.126921
          ],
          [
            120.749594,
            24.127241
          ],
          [
            120.749451,
            24.127189
          ],
          [
            120.749303,
            24.127044
          ],
          [
            120.749132,
            24.1269
          ],
          [
            120.748621,
            24.126718
          ],
          [
            120.747943,
            24.126406
          ],
          [
            120.747483,
            24.126995
          ],
          [
            120.74672,
            24.127972
          ],
          [
            120.745754,
            24.129045
          ],
          [
            120.745583,
            24.129238
          ],
          [
            120.745389,
            24.129453
          ],
          [
            120.745346,
            24.129538
          ],
          [
            120.745304,
            24.129624
          ],
          [
            120.745153,
            24.130096
          ],
          [
            120.744982,
            24.130483
          ],
          [
            120.744896,
            24.130568
          ],
          [
            120.744746,
            24.130676
          ],
          [
            120.744638,
            24.13074
          ],
          [
            120.744445,
            24.130804
          ],
          [
            120.744252,
            24.130869
          ],
          [
            120.743222,
            24.130998
          ],
          [
            120.742836,
            24.131019
          ],
          [
            120.742063,
            24.131019
          ],
          [
            120.74127,
            24.131041
          ],
          [
            120.741098,
            24.131041
          ],
          [
            120.740925,
            24.131041
          ],
          [
            120.739446,
            24.131041
          ],
          [
            120.739059,
            24.131062
          ],
          [
            120.738866,
            24.131105
          ],
          [
            120.738566,
            24.131191
          ],
          [
            120.738045,
            24.131383
          ],
          [
            120.737957,
            24.131432
          ],
          [
            120.73789,
            24.13147
          ],
          [
            120.737771,
            24.131564
          ],
          [
            120.737694,
            24.131638
          ],
          [
            120.736141,
            24.133122
          ],
          [
            120.735913,
            24.133332
          ],
          [
            120.736025,
            24.133461
          ],
          [
            120.736025,
            24.133461
          ],
          [
            120.735913,
            24.133332
          ],
          [
            120.736141,
            24.133122
          ],
          [
            120.737694,
            24.131638
          ],
          [
            120.737771,
            24.131564
          ],
          [
            120.73789,
            24.13147
          ],
          [
            120.737957,
            24.131432
          ],
          [
            120.738045,
            24.131383
          ],
          [
            120.737996,
            24.131334
          ],
          [
            120.737996,
            24.131334
          ],
          [
            120.738045,
            24.131383
          ],
          [
            120.738566,
            24.131191
          ],
          [
            120.738866,
            24.131105
          ],
          [
            120.739059,
            24.131062
          ],
          [
            120.739446,
            24.131041
          ],
          [
            120.740925,
            24.131041
          ],
          [
            120.740962,
            24.131041
          ],
          [
            120.740962,
            24.131041
          ],
          [
            120.741098,
            24.131041
          ],
          [
            120.74127,
            24.131041
          ],
          [
            120.742063,
            24.131019
          ],
          [
            120.742836,
            24.131019
          ],
          [
            120.743222,
            24.130998
          ],
          [
            120.744252,
            24.130869
          ],
          [
            120.744445,
            24.130804
          ],
          [
            120.744638,
            24.13074
          ],
          [
            120.744746,
            24.130676
          ],
          [
            120.744896,
            24.130568
          ],
          [
            120.744982,
            24.130483
          ],
          [
            120.745153,
            24.130096
          ],
          [
            120.745304,
            24.129624
          ],
          [
            120.745346,
            24.129538
          ],
          [
            120.745389,
            24.129453
          ],
          [
            120.745583,
            24.129238
          ],
          [
            120.745754,
            24.129045
          ],
          [
            120.74672,
            24.127972
          ],
          [
            120.747483,
            24.126995
          ],
          [
            120.747943,
            24.126406
          ],
          [
            120.747952,
            24.126394
          ],
          [
            120.747952,
            24.126394
          ],
          [
            120.747943,
            24.126406
          ],
          [
            120.748621,
            24.126718
          ],
          [
            120.749132,
            24.1269
          ],
          [
            120.749303,
            24.127044
          ],
          [
            120.749451,
            24.127189
          ],
          [
            120.749594,
            24.127241
          ],
          [
            120.749554,
            24.127301
          ],
          [
            120.749491,
            24.127411
          ],
          [
            120.74937,
            24.127454
          ],
          [
            120.749181,
            24.12747
          ],
          [
            120.749069,
            24.127479
          ],
          [
            120.749004,
            24.127482
          ],
          [
            120.748901,
            24.127532
          ],
          [
            120.748843,
            24.12763
          ],
          [
            120.748849,
            24.127747
          ],
          [
            120.748895,
            24.127937
          ],
          [
            120.748931,
            24.128037
          ],
          [
            120.749007,
            24.128278
          ],
          [
            120.749087,
            24.128485
          ],
          [
            120.749167,
            24.128671
          ],
          [
            120.74915,
            24.128916
          ],
          [
            120.74914,
            24.129158
          ],
          [
            120.749105,
            24.129296
          ],
          [
            120.748962,
            24.129551
          ],
          [
            120.748757,
            24.129818
          ],
          [
            120.748604,
            24.130005
          ],
          [
            120.748545,
            24.130201
          ],
          [
            120.748474,
            24.130244
          ],
          [
            120.748354,
            24.130488
          ],
          [
            120.74825,
            24.130801
          ],
          [
            120.748075,
            24.131043
          ],
          [
            120.747847,
            24.131441
          ],
          [
            120.747757,
            24.131628
          ],
          [
            120.747703,
            24.13178
          ],
          [
            120.747673,
            24.131967
          ],
          [
            120.747591,
            24.13197
          ],
          [
            120.747462,
            24.131978
          ],
          [
            120.747335,
            24.131992
          ],
          [
            120.747226,
            24.132024
          ],
          [
            120.747161,
            24.132047
          ],
          [
            120.747102,
            24.13208
          ],
          [
            120.747066,
            24.132133
          ],
          [
            120.747066,
            24.132133
          ],
          [
            120.747102,
            24.13208
          ],
          [
            120.747161,
            24.132047
          ],
          [
            120.747226,
            24.132024
          ],
          [
            120.747335,
            24.131992
          ],
          [
            120.747462,
            24.131978
          ],
          [
            120.747591,
            24.13197
          ],
          [
            120.747673,
            24.131967
          ],
          [
            120.747703,
            24.13178
          ],
          [
            120.747757,
            24.131628
          ],
          [
            120.747847,
            24.131441
          ],
          [
            120.748075,
            24.131043
          ],
          [
            120.74825,
            24.130801
          ],
          [
            120.748354,
            24.130488
          ],
          [
            120.748474,
            24.130244
          ],
          [
            120.748545,
            24.130201
          ],
          [
            120.748604,
            24.130005
          ],
          [
            120.748757,
            24.129818
          ],
          [
            120.748962,
            24.129551
          ],
          [
            120.749105,
            24.129296
          ],
          [
            120.74914,
            24.129158
          ],
          [
            120.74915,
            24.128916
          ],
          [
            120.749167,
            24.128671
          ],
          [
            120.749087,
            24.128485
          ],
          [
            120.749007,
            24.128278
          ],
          [
            120.748931,
            24.128037
          ],
          [
            120.748895,
            24.127937
          ],
          [
            120.748849,
            24.127747
          ],
          [
            120.748843,
            24.12763
          ],
          [
            120.748901,
            24.127532
          ],
          [
            120.749004,
            24.127482
          ],
          [
            120.749069,
            24.127479
          ],
          [
            120.749181,
            24.12747
          ],
          [
            120.74937,
            24.127454
          ],
          [
            120.749491,
            24.127411
          ],
          [
            120.749554,
            24.127301
          ],
          [
            120.749594,
            24.127241
          ],
          [
            120.749451,
            24.127189
          ],
          [
            120.749303,
            24.127044
          ],
          [
            120.749132,
            24.1269
          ],
          [
            120.748621,
            24.126718
          ],
          [
            120.747943,
            24.126406
          ],
          [
            120.748501,
            24.125655
          ],
          [
            120.748694,
            24.125333
          ],
          [
            120.748866,
            24.124989
          ],
          [
            120.749145,
            24.124346
          ],
          [
            120.749209,
            24.124217
          ],
          [
            120.749819,
            24.123665
          ],
          [
            120.750039,
            24.123459
          ],
          [
            120.750191,
            24.12335
          ],
          [
            120.750191,
            24.12335
          ],
          [
            120.750493,
            24.123131
          ],
          [
            120.750732,
            24.122908
          ],
          [
            120.751281,
            24.122274
          ],
          [
            120.751281,
            24.122274
          ],
          [
            120.750732,
            24.122908
          ],
          [
            120.751269,
            24.12323
          ],
          [
            120.751462,
            24.123337
          ],
          [
            120.751634,
            24.123402
          ],
          [
            120.751827,
            24.123466
          ],
          [
            120.752213,
            24.123552
          ],
          [
            120.752664,
            24.123552
          ],
          [
            120.752921,
            24.12353
          ],
          [
            120.754144,
            24.123466
          ],
          [
            120.754745,
            24.123423
          ],
          [
            120.755303,
            24.123359
          ],
          [
            120.755475,
            24.12338
          ],
          [
            120.755732,
            24.123445
          ],
          [
            120.755904,
            24.123466
          ],
          [
            120.75629,
            24.123487
          ],
          [
            120.756526,
            24.12353
          ],
          [
            120.756719,
            24.123552
          ],
          [
            120.756912,
            24.12353
          ],
          [
            120.756935,
            24.123525
          ],
          [
            120.757084,
            24.123487
          ],
          [
            120.757251,
            24.123487
          ],
          [
            120.757251,
            24.123487
          ],
          [
            120.757084,
            24.123487
          ],
          [
            120.756935,
            24.123525
          ],
          [
            120.756912,
            24.12353
          ],
          [
            120.756719,
            24.123552
          ],
          [
            120.756526,
            24.12353
          ],
          [
            120.75629,
            24.123487
          ],
          [
            120.755904,
            24.123466
          ],
          [
            120.755732,
            24.123445
          ],
          [
            120.755475,
            24.12338
          ],
          [
            120.755303,
            24.123359
          ],
          [
            120.754745,
            24.123423
          ],
          [
            120.754144,
            24.123466
          ],
          [
            120.752921,
            24.12353
          ],
          [
            120.752664,
            24.123552
          ],
          [
            120.752731,
            24.122992
          ],
          [
            120.752747,
            24.122866
          ],
          [
            120.752747,
            24.122866
          ],
          [
            120.752731,
            24.122992
          ],
          [
            120.752664,
            24.123552
          ],
          [
            120.752213,
            24.123552
          ],
          [
            120.751827,
            24.123466
          ],
          [
            120.751634,
            24.123402
          ],
          [
            120.751462,
            24.123337
          ],
          [
            120.751269,
            24.12323
          ],
          [
            120.750732,
            24.122908
          ],
          [
            120.750493,
            24.123131
          ],
          [
            120.750039,
            24.123459
          ],
          [
            120.749819,
            24.123665
          ],
          [
            120.749209,
            24.124217
          ],
          [
            120.749145,
            24.124346
          ],
          [
            120.748866,
            24.124989
          ],
          [
            120.748694,
            24.125333
          ],
          [
            120.748501,
            24.125655
          ],
          [
            120.748182,
            24.126085
          ],
          [
            120.748182,
            24.126085
          ],
          [
            120.747943,
            24.126406
          ],
          [
            120.747483,
            24.126995
          ],
          [
            120.74672,
            24.127972
          ],
          [
            120.745754,
            24.129045
          ],
          [
            120.745583,
            24.129238
          ],
          [
            120.745389,
            24.129453
          ],
          [
            120.745346,
            24.129538
          ],
          [
            120.745304,
            24.129624
          ],
          [
            120.745153,
            24.130096
          ],
          [
            120.744982,
            24.130483
          ],
          [
            120.744896,
            24.130568
          ],
          [
            120.744746,
            24.130676
          ],
          [
            120.744638,
            24.13074
          ],
          [
            120.744445,
            24.130804
          ],
          [
            120.744252,
            24.130869
          ],
          [
            120.743222,
            24.130998
          ],
          [
            120.742836,
            24.131019
          ],
          [
            120.742063,
            24.131019
          ],
          [
            120.74127,
            24.131041
          ],
          [
            120.741098,
            24.131041
          ],
          [
            120.740925,
            24.131041
          ],
          [
            120.739446,
            24.131041
          ],
          [
            120.739059,
            24.131062
          ],
          [
            120.738866,
            24.131105
          ],
          [
            120.738566,
            24.131191
          ],
          [
            120.738045,
            24.131383
          ],
          [
            120.737957,
            24.131432
          ],
          [
            120.73789,
            24.13147
          ],
          [
            120.737771,
            24.131564
          ],
          [
            120.737694,
            24.131638
          ],
          [
            120.736141,
            24.133122
          ],
          [
            120.735913,
            24.133332
          ],
          [
            120.73555,
            24.13367
          ],
          [
            120.735492,
            24.133734
          ],
          [
            120.735294,
            24.133921
          ],
          [
            120.735201,
            24.133995
          ],
          [
            120.735142,
            24.134034
          ],
          [
            120.735068,
            24.134075
          ],
          [
            120.73479,
            24.134173
          ],
          [
            120.734424,
            24.134302
          ],
          [
            120.734018,
            24.134438
          ],
          [
            120.733706,
            24.134538
          ],
          [
            120.733644,
            24.134555
          ],
          [
            120.733568,
            24.134565
          ],
          [
            120.733242,
            24.13462
          ],
          [
            120.732732,
            24.134699
          ],
          [
            120.732624,
            24.134717
          ],
          [
            120.732376,
            24.134742
          ],
          [
            120.731923,
            24.134783
          ],
          [
            120.731468,
            24.134819
          ],
          [
            120.731158,
            24.134849
          ],
          [
            120.731158,
            24.134849
          ],
          [
            120.729763,
            24.134985
          ],
          [
            120.729672,
            24.134983
          ],
          [
            120.729588,
            24.134982
          ],
          [
            120.728664,
            24.134738
          ],
          [
            120.72803,
            24.134563
          ],
          [
            120.727775,
            24.134493
          ],
          [
            120.727262,
            24.134357
          ],
          [
            120.727061,
            24.134294
          ],
          [
            120.726844,
            24.134254
          ],
          [
            120.726596,
            24.134197
          ],
          [
            120.726437,
            24.134161
          ],
          [
            120.726151,
            24.134097
          ],
          [
            120.726151,
            24.134097
          ],
          [
            120.726023,
            24.134069
          ],
          [
            120.725932,
            24.134049
          ],
          [
            120.725926,
            24.134284
          ],
          [
            120.725927,
            24.134473
          ],
          [
            120.725921,
            24.134547
          ],
          [
            120.725932,
            24.134624
          ],
          [
            120.725932,
            24.134624
          ],
          [
            120.72594,
            24.134685
          ],
          [
            120.725961,
            24.134779
          ],
          [
            120.726123,
            24.134788
          ],
          [
            120.726377,
            24.134792
          ],
          [
            120.726472,
            24.134794
          ],
          [
            120.726472,
            24.134794
          ],
          [
            120.726377,
            24.134792
          ],
          [
            120.726123,
            24.134788
          ],
          [
            120.725961,
            24.134779
          ],
          [
            120.726003,
            24.135165
          ],
          [
            120.726004,
            24.135219
          ],
          [
            120.726005,
            24.135313
          ],
          [
            120.727057,
            24.135326
          ],
          [
            120.727057,
            24.135326
          ],
          [
            120.726005,
            24.135313
          ],
          [
            120.726005,
            24.135782
          ],
          [
            120.72532,
            24.135769
          ],
          [
            120.725252,
            24.135755
          ],
          [
            120.725212,
            24.135776
          ],
          [
            120.725212,
            24.135776
          ],
          [
            120.725252,
            24.135755
          ],
          [
            120.72532,
            24.135769
          ],
          [
            120.726005,
            24.135782
          ],
          [
            120.726496,
            24.135784
          ],
          [
            120.726813,
            24.135736
          ],
          [
            120.726876,
            24.135736
          ],
          [
            120.726876,
            24.135736
          ],
          [
            120.726813,
            24.135736
          ],
          [
            120.726496,
            24.135784
          ],
          [
            120.726005,
            24.135782
          ],
          [
            120.726005,
            24.135313
          ],
          [
            120.726004,
            24.135219
          ],
          [
            120.726003,
            24.135165
          ],
          [
            120.725961,
            24.134779
          ],
          [
            120.72594,
            24.134685
          ],
          [
            120.725921,
            24.134547
          ],
          [
            120.725927,
            24.134473
          ],
          [
            120.725926,
            24.134284
          ],
          [
            120.725932,
            24.134049
          ],
          [
            120.725768,
            24.134019
          ],
          [
            120.72523,
            24.133977
          ],
          [
            120.724873,
            24.133949
          ],
          [
            120.723833,
            24.133887
          ],
          [
            120.7237,
            24.133872
          ],
          [
            120.723753,
            24.134203
          ],
          [
            120.723782,
            24.134428
          ],
          [
            120.723796,
            24.134532
          ],
          [
            120.723796,
            24.134532
          ],
          [
            120.723809,
            24.134621
          ],
          [
            120.723821,
            24.134746
          ],
          [
            120.723901,
            24.135302
          ],
          [
            120.723386,
            24.135347
          ],
          [
            120.723312,
            24.135393
          ],
          [
            120.722994,
            24.135608
          ],
          [
            120.722994,
            24.135608
          ],
          [
            120.723312,
            24.135393
          ],
          [
            120.723386,
            24.135347
          ],
          [
            120.723901,
            24.135302
          ],
          [
            120.723984,
            24.135866
          ],
          [
            120.72463,
            24.135822
          ],
          [
            120.724632,
            24.135716
          ],
          [
            120.724625,
            24.135627
          ],
          [
            120.724625,
            24.135627
          ],
          [
            120.724632,
            24.135716
          ],
          [
            120.72463,
            24.135822
          ],
          [
            120.723984,
            24.135866
          ],
          [
            120.723999,
            24.136087
          ],
          [
            120.724028,
            24.136415
          ],
          [
            120.724148,
            24.136398
          ],
          [
            120.724152,
            24.136398
          ],
          [
            120.724152,
            24.136398
          ],
          [
            120.724747,
            24.136393
          ],
          [
            120.725187,
            24.136392
          ],
          [
            120.725359,
            24.136395
          ],
          [
            120.725358,
            24.136331
          ],
          [
            120.725358,
            24.136331
          ],
          [
            120.725359,
            24.136395
          ],
          [
            120.725994,
            24.136392
          ],
          [
            120.725986,
            24.136954
          ],
          [
            120.726688,
            24.136966
          ],
          [
            120.726693,
            24.136821
          ],
          [
            120.726693,
            24.136821
          ],
          [
            120.726688,
            24.136966
          ],
          [
            120.725986,
            24.136954
          ],
          [
            120.725994,
            24.136392
          ],
          [
            120.725359,
            24.136395
          ],
          [
            120.725187,
            24.136392
          ],
          [
            120.724747,
            24.136393
          ],
          [
            120.724148,
            24.136398
          ],
          [
            120.724028,
            24.136415
          ],
          [
            120.723613,
            24.136704
          ],
          [
            120.723409,
            24.136848
          ],
          [
            120.723409,
            24.136848
          ],
          [
            120.723613,
            24.136704
          ],
          [
            120.723944,
            24.137085
          ],
          [
            120.724022,
            24.137155
          ],
          [
            120.724084,
            24.137424
          ],
          [
            120.72409,
            24.137644
          ],
          [
            120.7241,
            24.137702
          ],
          [
            120.724119,
            24.137797
          ],
          [
            120.724157,
            24.138131
          ],
          [
            120.724176,
            24.138286
          ],
          [
            120.724194,
            24.13855
          ],
          [
            120.724204,
            24.138732
          ],
          [
            120.724204,
            24.138732
          ],
          [
            120.724194,
            24.13855
          ],
          [
            120.724176,
            24.138286
          ],
          [
            120.724157,
            24.138131
          ],
          [
            120.724119,
            24.137797
          ],
          [
            120.7241,
            24.137702
          ],
          [
            120.72409,
            24.137644
          ],
          [
            120.724084,
            24.137424
          ],
          [
            120.724022,
            24.137155
          ],
          [
            120.723944,
            24.137085
          ],
          [
            120.723613,
            24.136704
          ],
          [
            120.723059,
            24.136044
          ],
          [
            120.722989,
            24.135952
          ],
          [
            120.722806,
            24.135742
          ],
          [
            120.722398,
            24.135263
          ],
          [
            120.722337,
            24.135306
          ],
          [
            120.722337,
            24.135306
          ],
          [
            120.722398,
            24.135263
          ],
          [
            120.722267,
            24.135115
          ],
          [
            120.722002,
            24.134803
          ],
          [
            120.72191,
            24.134697
          ],
          [
            120.721901,
            24.134686
          ],
          [
            120.721901,
            24.134686
          ],
          [
            120.721298,
            24.133972
          ],
          [
            120.721298,
            24.133972
          ],
          [
            120.721214,
            24.133873
          ],
          [
            120.721175,
            24.133828
          ],
          [
            120.721087,
            24.133714
          ],
          [
            120.721456,
            24.133739
          ],
          [
            120.721593,
            24.133749
          ],
          [
            120.721593,
            24.133835
          ],
          [
            120.721593,
            24.133835
          ]
        ]
      },
      "properties": {
        "routeId": "taichung-kes-6303-0a486f-d2",
        "city": "taichung",
        "source_file": "taichung/taichung-kes-6303-0a486f-d2.geojson",
        "distance_km": 21.412000000000003,
        "duration_min": 38.54441666666666,
        "valhalla_config": "valhalla.json"
      }
    }
  ]
}