{
  "type": "FeatureCollection",
  "features": [
    {
      "type": "Feature",
      "geometry": {
        "type": "LineString",
        "coordinates": [
          [
            120.668232,
            24.257329
          ],
          [
            120.668232,
            24.257329
          ],
          [
            120.667924,
            24.257411
          ],
          [
            120.664709,
            24.258103
          ],
          [
            120.66376,
            24.258308
          ],
          [
            120.662213,
            24.257927
          ],
          [
            120.662292,
            24.257606
          ],
          [
            120.662306,
            24.257547
          ],
          [
            120.662336,
            24.257426
          ],
          [
            120.662349,
            24.257376
          ],
          [
            120.662425,
            24.2571
          ],
          [
            120.662329,
            24.256914
          ],
          [
            120.662185,
            24.256778
          ],
          [
            120.662185,
            24.256778
          ],
          [
            120.662329,
            24.256914
          ],
          [
            120.662425,
            24.2571
          ],
          [
            120.662349,
            24.257376
          ],
          [
            120.662336,
            24.257426
          ],
          [
            120.662306,
            24.257547
          ],
          [
            120.662292,
            24.257606
          ],
          [
            120.662213,
            24.257927
          ],
          [
            120.66376,
            24.258308
          ],
          [
            120.66297,
            24.258499
          ],
          [
            120.66262,
            24.258576
          ],
          [
            120.662265,
            24.258674
          ],
          [
            120.66113,
            24.258947
          ],
          [
            120.660621,
            24.259023
          ],
          [
            120.66039,
            24.259041
          ],
          [
            120.660008,
            24.259009
          ],
          [
            120.659617,
            24.258979
          ],
          [
            120.658594,
            24.25893
          ],
          [
            120.658572,
            24.258647
          ],
          [
            120.658572,
            24.258647
          ],
          [
            120.658552,
            24.25839
          ],
          [
            120.6585,
            24.257819
          ],
          [
            120.658456,
            24.257193
          ],
          [
            120.659023,
            24.256858
          ],
          [
            120.659272,
            24.256543
          ],
          [
            120.659272,
            24.256543
          ],
          [
            120.659023,
            24.256858
          ],
          [
            120.65939,
            24.257078
          ],
          [
            120.659771,
            24.257301
          ],
          [
            120.660469,
            24.257475
          ],
          [
            120.661108,
            24.257635
          ],
          [
            120.66138,
            24.257707
          ],
          [
            120.662213,
            24.257927
          ],
          [
            120.662292,
            24.257606
          ],
          [
            120.662306,
            24.257547
          ],
          [
            120.662336,
            24.257426
          ],
          [
            120.662349,
            24.257376
          ],
          [
            120.662425,
            24.2571
          ],
          [
            120.662329,
            24.256914
          ],
          [
            120.661516,
            24.256146
          ],
          [
            120.661483,
            24.256101
          ],
          [
            120.661119,
            24.255609
          ],
          [
            120.661036,
            24.255498
          ],
          [
            120.66095,
            24.25537
          ],
          [
            120.662574,
            24.254951
          ],
          [
            120.662574,
            24.254951
          ],
          [
            120.66095,
            24.25537
          ],
          [
            120.660601,
            24.254913
          ],
          [
            120.660566,
            24.254857
          ],
          [
            120.660566,
            24.254857
          ],
          [
            120.660601,
            24.254913
          ],
          [
            120.66095,
            24.25537
          ],
          [
            120.663177,
            24.254795
          ],
          [
            120.663512,
            24.254687
          ],
          [
            120.664253,
            24.254408
          ],
          [
            120.664253,
            24.254408
          ],
          [
            120.664609,
            24.254274
          ],
          [
            120.665438,
            24.254071
          ],
          [
            120.665508,
            24.254041
          ],
          [
            120.665683,
            24.253889
          ],
          [
            120.666383,
            24.253855
          ],
          [
            120.666552,
            24.254048
          ],
          [
            120.666634,
            24.254026
          ],
          [
            120.666826,
            24.25397
          ],
          [
            120.666826,
            24.25397
          ],
          [
            120.667017,
            24.253914
          ],
          [
            120.667025,
            24.253967
          ],
          [
            120.667168,
            24.254401
          ],
          [
            120.667231,
            24.254562
          ],
          [
            120.667385,
            24.254598
          ],
          [
            120.667417,
            24.254698
          ],
          [
            120.667496,
            24.255218
          ],
          [
            120.667676,
            24.255479
          ],
          [
            120.667707,
            24.255586
          ],
          [
            120.667717,
            24.255741
          ],
          [
            120.667853,
            24.256063
          ],
          [
            120.668099,
            24.256873
          ],
          [
            120.66816,
            24.25703
          ],
          [
            120.66816,
            24.25703
          ],
          [
            120.668271,
            24.257319
          ],
          [
            120.669215,
            24.257104
          ],
          [
            120.669451,
            24.25704
          ],
          [
            120.669837,
            24.25689
          ],
          [
            120.669913,
            24.256861
          ],
          [
            120.669901,
            24.256701
          ],
          [
            120.669867,
            24.256608
          ],
          [
            120.669848,
            24.256561
          ],
          [
            120.669848,
            24.256561
          ],
          [
            120.669867,
            24.256608
          ],
          [
            120.669901,
            24.256701
          ],
          [
            120.669913,
            24.256861
          ],
          [
            120.670025,
            24.256819
          ],
          [
            120.670438,
            24.256626
          ],
          [
            120.67104,
            24.256351
          ],
          [
            120.671304,
            24.257032
          ],
          [
            120.671368,
            24.257162
          ],
          [
            120.670797,
            24.257243
          ],
          [
            120.670665,
            24.257285
          ],
          [
            120.670546,
            24.25739
          ],
          [
            120.670519,
            24.257412
          ],
          [
            120.670519,
            24.257412
          ],
          [
            120.670404,
            24.257505
          ],
          [
            120.670247,
            24.257589
          ],
          [
            120.668904,
            24.258065
          ],
          [
            120.668904,
            24.258065
          ],
          [
            120.668699,
            24.258137
          ],
          [
            120.668752,
            24.258355
          ],
          [
            120.668752,
            24.258355
          ],
          [
            120.668867,
            24.258824
          ],
          [
            120.668936,
            24.259125
          ],
          [
            120.66902,
            24.25924
          ],
          [
            120.669202,
            24.259369
          ],
          [
            120.669484,
            24.259761
          ],
          [
            120.670071,
            24.260766
          ],
          [
            120.670479,
            24.261401
          ],
          [
            120.670801,
            24.261851
          ],
          [
            120.670956,
            24.261976
          ],
          [
            120.670981,
            24.261988
          ],
          [
            120.670981,
            24.261988
          ],
          [
            120.670956,
            24.261976
          ],
          [
            120.670801,
            24.261851
          ],
          [
            120.670479,
            24.261401
          ],
          [
            120.670071,
            24.260766
          ],
          [
            120.669484,
            24.259761
          ],
          [
            120.669202,
            24.259369
          ],
          [
            120.66902,
            24.25924
          ],
          [
            120.668936,
            24.259125
          ],
          [
            120.668867,
            24.258824
          ],
          [
            120.668699,
            24.258137
          ],
          [
            120.668467,
            24.25818
          ],
          [
            120.668408,
            24.258192
          ],
          [
            120.668408,
            24.258192
          ],
          [
            120.668467,
            24.25818
          ],
          [
            120.668033,
            24.257606
          ],
          [
            120.668033,
            24.257606
          ],
          [
            120.668467,
            24.25818
          ],
          [
            120.668295,
            24.258216
          ],
          [
            120.668191,
            24.258263
          ],
          [
            120.668058,
            24.25838
          ],
          [
            120.667868,
            24.258499
          ],
          [
            120.667807,
            24.25852
          ],
          [
            120.667807,
            24.25852
          ],
          [
            120.667559,
            24.258604
          ],
          [
            120.667005,
            24.258721
          ],
          [
            120.666606,
            24.258805
          ],
          [
            120.666278,
            24.258882
          ],
          [
            120.665535,
            24.258942
          ],
          [
            120.665295,
            24.258947
          ],
          [
            120.665204,
            24.258922
          ],
          [
            120.665152,
            24.25888
          ],
          [
            120.664984,
            24.258579
          ],
          [
            120.664931,
            24.258522
          ],
          [
            120.664542,
            24.258458
          ],
          [
            120.664224,
            24.258397
          ],
          [
            120.664224,
            24.258397
          ],
          [
            120.66376,
            24.258308
          ],
          [
            120.66297,
            24.258499
          ],
          [
            120.66262,
            24.258576
          ],
          [
            120.662265,
            24.258674
          ],
          [
            120.662303,
            24.25886
          ],
          [
            120.662303,
            24.25886
          ],
          [
            120.662265,
            24.258674
          ],
          [
            120.66262,
            24.258576
          ],
          [
            120.66297,
            24.258499
          ],
          [
            120.66376,
            24.258308
          ],
          [
            120.664542,
            24.258458
          ],
          [
            120.664497,
            24.259071
          ],
          [
            120.66451,
            24.259194
          ],
          [
            120.664657,
            24.259943
          ],
          [
            120.66466,
            24.260421
          ],
          [
            120.66466,
            24.260421
          ],
          [
            120.664657,
            24.259943
          ],
          [
            120.66451,
            24.259194
          ],
          [
            120.664497,
            24.259071
          ],
          [
            120.664542,
            24.258458
          ],
          [
            120.66376,
            24.258308
          ],
          [
            120.663715,
            24.25826
          ],
          [
            120.663727,
            24.258185
          ],
          [
            120.663737,
            24.258127
          ],
          [
            120.66376,
            24.257983
          ],
          [
            120.663178,
            24.257823
          ],
          [
            120.663178,
            24.257823
          ],
          [
            120.66376,
            24.257983
          ],
          [
            120.663737,
            24.258127
          ],
          [
            120.663727,
            24.258185
          ],
          [
            120.663715,
            24.25826
          ],
          [
            120.66376,
            24.258308
          ],
          [
            120.662213,
            24.257927
          ],
          [
            120.662292,
            24.257606
          ],
          [
            120.662306,
            24.257547
          ],
          [
            120.662336,
            24.257426
          ],
          [
            120.66234,
            24.25741
          ],
          [
            120.66234,
            24.25741
          ],
          [
            120.662349,
            24.257376
          ],
          [
            120.662425,
            24.2571
          ],
          [
            120.662329,
            24.256914
          ],
          [
            120.661516,
            24.256146
          ],
          [
            120.661483,
            24.256101
          ],
          [
            120.661119,
            24.255609
          ],
          [
            120.661036,
            24.255498
          ],
          [
            120.66095,
            24.25537
          ],
          [
            120.660601,
            24.254913
          ],
          [
            120.660488,
            24.255041
          ],
          [
            120.660488,
            24.255041
          ],
          [
            120.660601,
            24.254913
          ],
          [
            120.660446,
            24.254663
          ],
          [
            120.660295,
            24.254417
          ],
          [
            120.66012,
            24.254101
          ],
          [
            120.660059,
            24.253991
          ],
          [
            120.659379,
            24.254181
          ],
          [
            120.659178,
            24.253591
          ],
          [
            120.659178,
            24.253591
          ],
          [
            120.659379,
            24.254181
          ],
          [
            120.660059,
            24.253991
          ],
          [
            120.659839,
            24.253592
          ],
          [
            120.659723,
            24.253359
          ],
          [
            120.659552,
            24.252985
          ],
          [
            120.658904,
            24.252504
          ],
          [
            120.658844,
            24.252457
          ],
          [
            120.658844,
            24.252457
          ],
          [
            120.658341,
            24.252059
          ],
          [
            120.658243,
            24.251989
          ],
          [
            120.657792,
            24.251645
          ],
          [
            120.657662,
            24.251546
          ],
          [
            120.657104,
            24.251183
          ],
          [
            120.656639,
            24.250908
          ],
          [
            120.656448,
            24.250743
          ],
          [
            120.656263,
            24.25061
          ],
          [
            120.656102,
            24.250477
          ],
          [
            120.656011,
            24.250352
          ],
          [
            120.655937,
            24.250198
          ],
          [
            120.65588,
            24.249993
          ],
          [
            120.655818,
            24.249963
          ],
          [
            120.655818,
            24.249963
          ],
          [
            120.65588,
            24.249993
          ],
          [
            120.655937,
            24.250198
          ],
          [
            120.656011,
            24.250352
          ],
          [
            120.656102,
            24.250477
          ],
          [
            120.656522,
            24.250294
          ],
          [
            120.656522,
            24.250294
          ],
          [
            120.657312,
            24.249949
          ],
          [
            120.658499,
            24.249431
          ],
          [
            120.660788,
            24.248431
          ],
          [
            120.662358,
            24.247757
          ],
          [
            120.662358,
            24.247757
          ],
          [
            120.662455,
            24.247715
          ],
          [
            120.662747,
            24.247549
          ],
          [
            120.662848,
            24.247504
          ],
          [
            120.663029,
            24.247492
          ],
          [
            120.663406,
            24.247325
          ],
          [
            120.663707,
            24.247918
          ],
          [
            120.663991,
            24.248419
          ],
          [
            120.663991,
            24.248419
          ],
          [
            120.664474,
            24.249271
          ],
          [
            120.665156,
            24.248979
          ],
          [
            120.665156,
            24.248979
          ],
          [
            120.667856,
            24.247823
          ],
          [
            120.667856,
            24.247823
          ],
          [
            120.668636,
            24.247489
          ],
          [
            120.668636,
            24.247489
          ],
          [
            120.664474,
            24.249271
          ],
          [
            120.66182,
            24.250445
          ],
          [
            120.66182,
            24.250445
          ],
          [
            120.660358,
            24.251092
          ],
          [
            120.659773,
            24.25134
          ],
          [
            120.658845,
            24.251734
          ],
          [
            120.658845,
            24.251734
          ],
          [
            120.658243,
            24.251989
          ],
          [
            120.658341,
            24.252059
          ],
          [
            120.658904,
            24.252504
          ],
          [
            120.659552,
            24.252985
          ],
          [
            120.659723,
            24.253359
          ],
          [
            120.659839,
            24.253592
          ],
          [
            120.660654,
            24.253225
          ],
          [
            120.660654,
            24.253225
          ],
          [
            120.662609,
            24.252345
          ],
          [
            120.662849,
            24.252199
          ],
          [
            120.662888,
            24.252177
          ],
          [
            120.663027,
            24.252135
          ],
          [
            120.66312,
            24.252142
          ],
          [
            120.664836,
            24.251406
          ],
          [
            120.664836,
            24.251406
          ],
          [
            120.665431,
            24.251151
          ],
          [
            120.666771,
            24.250573
          ],
          [
            120.666771,
            24.250573
          ],
          [
            120.665431,
            24.251151
          ],
          [
            120.664474,
            24.249271
          ],
          [
            120.660358,
            24.251092
          ],
          [
            120.659773,
            24.25134
          ],
          [
            120.658243,
            24.251989
          ],
          [
            120.657792,
            24.251645
          ],
          [
            120.657657,
            24.251777
          ],
          [
            120.657244,
            24.252254
          ],
          [
            120.657696,
            24.252836
          ],
          [
            120.6579,
            24.252656
          ],
          [
            120.6579,
            24.252656
          ],
          [
            120.657696,
            24.252836
          ],
          [
            120.657244,
            24.252254
          ],
          [
            120.657184,
            24.252322
          ],
          [
            120.656938,
            24.252762
          ],
          [
            120.656708,
            24.253094
          ],
          [
            120.656533,
            24.253257
          ],
          [
            120.656479,
            24.253375
          ],
          [
            120.656463,
            24.253407
          ],
          [
            120.656263,
            24.253911
          ],
          [
            120.656237,
            24.253976
          ],
          [
            120.656018,
            24.254508
          ],
          [
            120.655835,
            24.254222
          ],
          [
            120.655802,
            24.254184
          ],
          [
            120.655802,
            24.254184
          ],
          [
            120.655835,
            24.254222
          ],
          [
            120.656018,
            24.254508
          ],
          [
            120.655987,
            24.254576
          ],
          [
            120.655964,
            24.254624
          ],
          [
            120.655723,
            24.255141
          ],
          [
            120.654223,
            24.254206
          ],
          [
            120.654034,
            24.254065
          ],
          [
            120.653074,
            24.253558
          ],
          [
            120.652811,
            24.253364
          ],
          [
            120.652566,
            24.253125
          ],
          [
            120.652468,
            24.253029
          ],
          [
            120.652416,
            24.252978
          ],
          [
            120.652395,
            24.251791
          ],
          [
            120.652389,
            24.251471
          ],
          [
            120.652146,
            24.250854
          ],
          [
            120.651731,
            24.250366
          ],
          [
            120.651642,
            24.250303
          ],
          [
            120.651591,
            24.250296
          ],
          [
            120.649928,
            24.250794
          ],
          [
            120.647985,
            24.251392
          ],
          [
            120.647985,
            24.251392
          ],
          [
            120.649928,
            24.250794
          ],
          [
            120.651591,
            24.250296
          ],
          [
            120.651642,
            24.250303
          ],
          [
            120.651731,
            24.250366
          ],
          [
            120.652146,
            24.250854
          ],
          [
            120.652389,
            24.251471
          ],
          [
            120.652395,
            24.251791
          ],
          [
            120.652412,
            24.252764
          ],
          [
            120.652412,
            24.252764
          ],
          [
            120.652416,
            24.252978
          ],
          [
            120.652468,
            24.253029
          ],
          [
            120.652566,
            24.253125
          ],
          [
            120.652811,
            24.253364
          ],
          [
            120.653074,
            24.253558
          ],
          [
            120.654034,
            24.254065
          ],
          [
            120.654223,
            24.254206
          ],
          [
            120.655723,
            24.255141
          ],
          [
            120.655964,
            24.254624
          ],
          [
            120.655987,
            24.254576
          ],
          [
            120.656018,
            24.254508
          ],
          [
            120.656384,
            24.255092
          ],
          [
            120.656384,
            24.255092
          ],
          [
            120.656018,
            24.254508
          ],
          [
            120.655987,
            24.254576
          ],
          [
            120.655964,
            24.254624
          ],
          [
            120.655723,
            24.255141
          ],
          [
            120.655715,
            24.255159
          ],
          [
            120.655691,
            24.255215
          ],
          [
            120.655593,
            24.255448
          ],
          [
            120.656481,
            24.255805
          ],
          [
            120.656585,
            24.255843
          ],
          [
            120.656695,
            24.255883
          ],
          [
            120.657179,
            24.256039
          ],
          [
            120.657058,
            24.256309
          ],
          [
            120.657035,
            24.256367
          ],
          [
            120.656998,
            24.256458
          ],
          [
            120.656987,
            24.256495
          ],
          [
            120.656976,
            24.256531
          ],
          [
            120.656941,
            24.256647
          ],
          [
            120.65692,
            24.256724
          ],
          [
            120.656918,
            24.256736
          ],
          [
            120.656569,
            24.256727
          ],
          [
            120.656569,
            24.256727
          ],
          [
            120.656918,
            24.256736
          ],
          [
            120.65692,
            24.256724
          ],
          [
            120.656941,
            24.256647
          ],
          [
            120.656976,
            24.256531
          ],
          [
            120.656987,
            24.256495
          ],
          [
            120.656998,
            24.256458
          ],
          [
            120.657035,
            24.256367
          ],
          [
            120.657058,
            24.256309
          ],
          [
            120.657179,
            24.256039
          ],
          [
            120.656874,
            24.255941
          ],
          [
            120.656874,
            24.255941
          ],
          [
            120.656695,
            24.255883
          ],
          [
            120.656585,
            24.255843
          ],
          [
            120.656481,
            24.255805
          ],
          [
            120.655593,
            24.255448
          ],
          [
            120.654941,
            24.255202
          ],
          [
            120.654941,
            24.255202
          ],
          [
            120.654865,
            24.255173
          ],
          [
            120.654393,
            24.255013
          ],
          [
            120.654148,
            24.255007
          ],
          [
            120.653615,
            24.255204
          ],
          [
            120.653404,
            24.255294
          ],
          [
            120.653404,
            24.255294
          ],
          [
            120.653615,
            24.255204
          ],
          [
            120.654148,
            24.255007
          ],
          [
            120.654393,
            24.255013
          ],
          [
            120.654865,
            24.255173
          ],
          [
            120.655593,
            24.255448
          ],
          [
            120.655433,
            24.255802
          ],
          [
            120.65541,
            24.255846
          ],
          [
            120.655358,
            24.255973
          ],
          [
            120.655278,
            24.256168
          ],
          [
            120.655248,
            24.256281
          ],
          [
            120.655233,
            24.256339
          ],
          [
            120.65522,
            24.256451
          ],
          [
            120.655212,
            24.256555
          ],
          [
            120.655214,
            24.256635
          ],
          [
            120.655219,
            24.256694
          ],
          [
            120.65523,
            24.256814
          ],
          [
            120.655235,
            24.256875
          ],
          [
            120.655241,
            24.256928
          ],
          [
            120.655265,
            24.257154
          ],
          [
            120.655287,
            24.257364
          ],
          [
            120.65531,
            24.257575
          ],
          [
            120.655315,
            24.257623
          ],
          [
            120.65533,
            24.25784
          ],
          [
            120.655339,
            24.257982
          ],
          [
            120.655348,
            24.258081
          ],
          [
            120.655358,
            24.258214
          ],
          [
            120.655365,
            24.258293
          ],
          [
            120.655382,
            24.258503
          ],
          [
            120.655407,
            24.258662
          ],
          [
            120.654271,
            24.258612
          ],
          [
            120.6531,
            24.25855
          ],
          [
            120.652219,
            24.258494
          ],
          [
            120.651396,
            24.258391
          ],
          [
            120.650376,
            24.258312
          ],
          [
            120.649255,
            24.258225
          ],
          [
            120.649263,
            24.258107
          ],
          [
            120.649303,
            24.258044
          ],
          [
            120.649741,
            24.257854
          ],
          [
            120.64939,
            24.257478
          ],
          [
            120.649302,
            24.257421
          ],
          [
            120.649302,
            24.257421
          ],
          [
            120.64939,
            24.257478
          ],
          [
            120.649741,
            24.257854
          ],
          [
            120.649455,
            24.257978
          ],
          [
            120.649455,
            24.257978
          ],
          [
            120.649303,
            24.258044
          ],
          [
            120.649263,
            24.258107
          ],
          [
            120.649255,
            24.258225
          ],
          [
            120.650376,
            24.258312
          ],
          [
            120.651396,
            24.258391
          ],
          [
            120.652219,
            24.258494
          ],
          [
            120.6531,
            24.25855
          ],
          [
            120.654271,
            24.258612
          ],
          [
            120.655407,
            24.258662
          ],
          [
            120.655796,
            24.258674
          ],
          [
            120.655997,
            24.258732
          ],
          [
            120.656075,
            24.258755
          ],
          [
            120.656285,
            24.258762
          ],
          [
            120.656543,
            24.258773
          ],
          [
            120.657073,
            24.258808
          ],
          [
            120.65743,
            24.258836
          ],
          [
            120.657778,
            24.258874
          ],
          [
            120.658594,
            24.25893
          ],
          [
            120.659617,
            24.258979
          ],
          [
            120.660008,
            24.259009
          ],
          [
            120.66039,
            24.259041
          ],
          [
            120.660621,
            24.259023
          ],
          [
            120.66113,
            24.258947
          ],
          [
            120.662265,
            24.258674
          ],
          [
            120.66262,
            24.258576
          ],
          [
            120.66297,
            24.258499
          ],
          [
            120.66376,
            24.258308
          ],
          [
            120.664709,
            24.258103
          ],
          [
            120.667924,
            24.257411
          ],
          [
            120.668271,
            24.257319
          ],
          [
            120.669215,
            24.257104
          ],
          [
            120.669451,
            24.25704
          ],
          [
            120.669837,
            24.25689
          ],
          [
            120.669913,
            24.256861
          ],
          [
            120.670025,
            24.256819
          ],
          [
            120.670438,
            24.256626
          ],
          [
            120.67104,
            24.256351
          ],
          [
            120.671309,
            24.256203
          ],
          [
            120.67133,
            24.25619
          ],
          [
            120.671423,
            24.256139
          ],
          [
            120.671588,
            24.256042
          ],
          [
            120.671682,
            24.255967
          ],
          [
            120.671833,
            24.255817
          ],
          [
            120.671997,
            24.255609
          ],
          [
            120.672341,
            24.255095
          ],
          [
            120.672783,
            24.254427
          ],
          [
            120.673192,
            24.253861
          ],
          [
            120.67354,
            24.253326
          ],
          [
            120.673871,
            24.252963
          ],
          [
            120.673999,
            24.252815
          ],
          [
            120.67415,
            24.252641
          ],
          [
            120.674181,
            24.252594
          ],
          [
            120.674386,
            24.25272
          ],
          [
            120.675129,
            24.252917
          ],
          [
            120.675252,
            24.252942
          ],
          [
            120.675252,
            24.252942
          ],
          [
            120.675492,
            24.252992
          ],
          [
            120.675906,
            24.252989
          ],
          [
            120.675979,
            24.252852
          ],
          [
            120.676115,
            24.252727
          ],
          [
            120.678217,
            24.251683
          ],
          [
            120.678537,
            24.252195
          ],
          [
            120.678742,
            24.252521
          ],
          [
            120.67853,
            24.252543
          ],
          [
            120.67848,
            24.252608
          ],
          [
            120.678471,
            24.25272
          ],
          [
            120.678545,
            24.252719
          ],
          [
            120.678719,
            24.25277
          ],
          [
            120.678806,
            24.252866
          ],
          [
            120.678894,
            24.252897
          ],
          [
            120.678918,
            24.252937
          ],
          [
            120.678851,
            24.253038
          ],
          [
            120.678834,
            24.253065
          ],
          [
            120.678834,
            24.253065
          ],
          [
            120.678851,
            24.253038
          ],
          [
            120.678918,
            24.252937
          ],
          [
            120.678894,
            24.252897
          ],
          [
            120.678806,
            24.252866
          ],
          [
            120.678719,
            24.25277
          ],
          [
            120.678545,
            24.252719
          ],
          [
            120.678471,
            24.25272
          ],
          [
            120.67848,
            24.252608
          ],
          [
            120.67853,
            24.252543
          ],
          [
            120.678742,
            24.252521
          ],
          [
            120.678848,
            24.252499
          ],
          [
            120.678848,
            24.252499
          ],
          [
            120.679053,
            24.252456
          ],
          [
            120.6795,
            24.252421
          ],
          [
            120.680166,
            24.252339
          ],
          [
            120.681059,
            24.2522
          ],
          [
            120.681149,
            24.252213
          ],
          [
            120.681174,
            24.252267
          ],
          [
            120.681174,
            24.252267
          ],
          [
            120.681362,
            24.252676
          ],
          [
            120.681359,
            24.252786
          ],
          [
            120.68132,
            24.252944
          ],
          [
            120.681244,
            24.253047
          ],
          [
            120.681102,
            24.25311
          ],
          [
            120.68108,
            24.253198
          ],
          [
            120.681052,
            24.253352
          ],
          [
            120.681071,
            24.253483
          ],
          [
            120.681142,
            24.253758
          ],
          [
            120.681166,
            24.253821
          ],
          [
            120.681224,
            24.253855
          ],
          [
            120.681287,
            24.253898
          ],
          [
            120.681303,
            24.253956
          ],
          [
            120.681319,
            24.254381
          ],
          [
            120.681398,
            24.254425
          ],
          [
            120.681454,
            24.254485
          ],
          [
            120.681458,
            24.254595
          ],
          [
            120.681393,
            24.254751
          ],
          [
            120.681346,
            24.25483
          ],
          [
            120.681351,
            24.255084
          ],
          [
            120.681338,
            24.255402
          ],
          [
            120.681368,
            24.255448
          ],
          [
            120.681527,
            24.255542
          ],
          [
            120.681523,
            24.255695
          ],
          [
            120.681558,
            24.255797
          ],
          [
            120.681678,
            24.256149
          ],
          [
            120.681678,
            24.256149
          ],
          [
            120.681558,
            24.255797
          ],
          [
            120.681523,
            24.255695
          ],
          [
            120.681527,
            24.255542
          ],
          [
            120.681755,
            24.255599
          ],
          [
            120.682208,
            24.25568
          ],
          [
            120.682248,
            24.255711
          ],
          [
            120.68226,
            24.255779
          ],
          [
            120.683184,
            24.255768
          ],
          [
            120.683361,
            24.255576
          ],
          [
            120.683361,
            24.255576
          ],
          [
            120.683364,
            24.255572
          ],
          [
            120.683866,
            24.254944
          ],
          [
            120.684173,
            24.254546
          ],
          [
            120.684519,
            24.254102
          ],
          [
            120.684613,
            24.254029
          ],
          [
            120.684739,
            24.253982
          ],
          [
            120.685129,
            24.253812
          ],
          [
            120.685207,
            24.253882
          ],
          [
            120.685293,
            24.253912
          ],
          [
            120.685221,
            24.254167
          ],
          [
            120.685221,
            24.254167
          ],
          [
            120.685293,
            24.253912
          ],
          [
            120.685319,
            24.253888
          ],
          [
            120.685527,
            24.253845
          ],
          [
            120.685594,
            24.253846
          ],
          [
            120.685641,
            24.254076
          ],
          [
            120.685653,
            24.254464
          ],
          [
            120.685661,
            24.254484
          ],
          [
            120.685672,
            24.254493
          ],
          [
            120.68571,
            24.254504
          ],
          [
            120.685722,
            24.254503
          ],
          [
            120.685722,
            24.254503
          ],
          [
            120.68632,
            24.254472
          ],
          [
            120.686353,
            24.254491
          ],
          [
            120.686404,
            24.254557
          ],
          [
            120.686816,
            24.25464
          ],
          [
            120.686942,
            24.254688
          ],
          [
            120.686949,
            24.254693
          ],
          [
            120.686985,
            24.254727
          ],
          [
            120.687052,
            24.254759
          ],
          [
            120.687161,
            24.254814
          ],
          [
            120.687662,
            24.254915
          ],
          [
            120.687777,
            24.254946
          ],
          [
            120.687758,
            24.254902
          ],
          [
            120.68775,
            24.254145
          ],
          [
            120.687724,
            24.25408
          ],
          [
            120.687709,
            24.254046
          ],
          [
            120.687673,
            24.253998
          ],
          [
            120.687079,
            24.253628
          ],
          [
            120.686851,
            24.253475
          ],
          [
            120.686781,
            24.253395
          ],
          [
            120.686168,
            24.252431
          ],
          [
            120.686109,
            24.252168
          ],
          [
            120.68633,
            24.2521
          ],
          [
            120.68633,
            24.2521
          ],
          [
            120.686109,
            24.252168
          ],
          [
            120.686168,
            24.252431
          ],
          [
            120.686781,
            24.253395
          ],
          [
            120.686851,
            24.253475
          ],
          [
            120.687079,
            24.253628
          ],
          [
            120.687673,
            24.253998
          ],
          [
            120.687709,
            24.254046
          ],
          [
            120.687724,
            24.25408
          ],
          [
            120.68775,
            24.254145
          ],
          [
            120.687758,
            24.254902
          ],
          [
            120.687777,
            24.254946
          ],
          [
            120.687662,
            24.254915
          ],
          [
            120.687161,
            24.254814
          ],
          [
            120.687071,
            24.254769
          ],
          [
            120.687071,
            24.254769
          ],
          [
            120.687161,
            24.254814
          ],
          [
            120.687662,
            24.254915
          ],
          [
            120.687777,
            24.254946
          ],
          [
            120.687873,
            24.254944
          ],
          [
            120.687922,
            24.254934
          ],
          [
            120.688104,
            24.254874
          ],
          [
            120.688104,
            24.254874
          ],
          [
            120.687922,
            24.254934
          ],
          [
            120.687873,
            24.254944
          ],
          [
            120.687777,
            24.254946
          ],
          [
            120.687817,
            24.25546
          ],
          [
            120.687853,
            24.255804
          ],
          [
            120.687896,
            24.255872
          ],
          [
            120.687915,
            24.255914
          ],
          [
            120.687946,
            24.255957
          ],
          [
            120.687989,
            24.255994
          ],
          [
            120.68806,
            24.256037
          ],
          [
            120.688116,
            24.256073
          ],
          [
            120.688274,
            24.256135
          ],
          [
            120.688465,
            24.256192
          ],
          [
            120.688851,
            24.256253
          ],
          [
            120.688897,
            24.256273
          ],
          [
            120.688936,
            24.256313
          ],
          [
            120.688971,
            24.256374
          ],
          [
            120.689015,
            24.256579
          ],
          [
            120.689032,
            24.256698
          ],
          [
            120.689006,
            24.256849
          ],
          [
            120.688992,
            24.256911
          ],
          [
            120.689023,
            24.257009
          ],
          [
            120.689106,
            24.257235
          ],
          [
            120.68916,
            24.257379
          ],
          [
            120.689215,
            24.257502
          ],
          [
            120.689292,
            24.257652
          ],
          [
            120.689359,
            24.2578
          ],
          [
            120.689567,
            24.258305
          ],
          [
            120.689575,
            24.258388
          ],
          [
            120.689574,
            24.258431
          ],
          [
            120.689429,
            24.258452
          ],
          [
            120.689013,
            24.258621
          ],
          [
            120.688573,
            24.258721
          ],
          [
            120.688154,
            24.258794
          ],
          [
            120.68755,
            24.258953
          ],
          [
            120.687355,
            24.258988
          ],
          [
            120.687234,
            24.259053
          ],
          [
            120.686688,
            24.259285
          ],
          [
            120.686688,
            24.259285
          ],
          [
            120.687234,
            24.259053
          ],
          [
            120.687355,
            24.258988
          ],
          [
            120.68755,
            24.258953
          ],
          [
            120.688154,
            24.258794
          ],
          [
            120.688573,
            24.258721
          ],
          [
            120.689013,
            24.258621
          ],
          [
            120.689429,
            24.258452
          ],
          [
            120.689574,
            24.258431
          ],
          [
            120.689575,
            24.258388
          ],
          [
            120.689567,
            24.258305
          ],
          [
            120.689359,
            24.2578
          ],
          [
            120.689292,
            24.257652
          ],
          [
            120.689215,
            24.257502
          ],
          [
            120.68916,
            24.257379
          ],
          [
            120.689106,
            24.257235
          ],
          [
            120.689023,
            24.257009
          ],
          [
            120.688992,
            24.256911
          ],
          [
            120.689006,
            24.256849
          ],
          [
            120.689032,
            24.256698
          ],
          [
            120.689015,
            24.256579
          ],
          [
            120.688971,
            24.256374
          ],
          [
            120.688936,
            24.256313
          ],
          [
            120.688897,
            24.256273
          ],
          [
            120.688851,
            24.256253
          ],
          [
            120.688465,
            24.256192
          ],
          [
            120.688274,
            24.256135
          ],
          [
            120.688116,
            24.256073
          ],
          [
            120.68806,
            24.256037
          ],
          [
            120.687989,
            24.255994
          ],
          [
            120.687946,
            24.255957
          ],
          [
            120.687915,
            24.255914
          ],
          [
            120.687896,
            24.255872
          ],
          [
            120.687853,
            24.255804
          ],
          [
            120.687817,
            24.25546
          ],
          [
            120.687792,
            24.255142
          ],
          [
            120.687792,
            24.255142
          ],
          [
            120.687817,
            24.25546
          ],
          [
            120.687853,
            24.255804
          ],
          [
            120.687896,
            24.255872
          ],
          [
            120.687915,
            24.255914
          ],
          [
            120.687946,
            24.255957
          ],
          [
            120.687989,
            24.255994
          ],
          [
            120.68806,
            24.256037
          ],
          [
            120.688116,
            24.256073
          ],
          [
            120.688274,
            24.256135
          ],
          [
            120.688465,
            24.256192
          ],
          [
            120.688851,
            24.256253
          ],
          [
            120.688897,
            24.256273
          ],
          [
            120.688936,
            24.256313
          ],
          [
            120.688971,
            24.256374
          ],
          [
            120.689015,
            24.256579
          ],
          [
            120.689032,
            24.256698
          ],
          [
            120.689006,
            24.256849
          ],
          [
            120.688992,
            24.256911
          ],
          [
            120.689023,
            24.257009
          ],
          [
            120.689106,
            24.257235
          ],
          [
            120.68916,
            24.257379
          ],
          [
            120.689215,
            24.257502
          ],
          [
            120.689292,
            24.257652
          ],
          [
            120.689359,
            24.2578
          ],
          [
            120.689567,
            24.258305
          ],
          [
            120.689575,
            24.258388
          ],
          [
            120.689574,
            24.258431
          ],
          [
            120.689429,
            24.258452
          ],
          [
            120.689013,
            24.258621
          ],
          [
            120.688573,
            24.258721
          ],
          [
            120.688154,
            24.258794
          ],
          [
            120.68755,
            24.258953
          ],
          [
            120.687355,
            24.258988
          ],
          [
            120.687234,
            24.259053
          ],
          [
            120.685832,
            24.25965
          ],
          [
            120.685357,
            24.259886
          ],
          [
            120.68494,
            24.260139
          ],
          [
            120.68415,
            24.260434
          ],
          [
            120.68415,
            24.260434
          ],
          [
            120.68494,
            24.260139
          ],
          [
            120.685357,
            24.259886
          ],
          [
            120.685622,
            24.259754
          ],
          [
            120.685622,
            24.259754
          ],
          [
            120.685357,
            24.259886
          ],
          [
            120.68494,
            24.260139
          ],
          [
            120.684079,
            24.260461
          ],
          [
            120.683831,
            24.260556
          ],
          [
            120.683777,
            24.260561
          ],
          [
            120.68372,
            24.260566
          ],
          [
            120.683203,
            24.260584
          ],
          [
            120.682934,
            24.260593
          ],
          [
            120.682801,
            24.260619
          ],
          [
            120.682116,
            24.260909
          ],
          [
            120.681872,
            24.26103
          ],
          [
            120.681807,
            24.261105
          ],
          [
            120.681418,
            24.261722
          ],
          [
            120.681326,
            24.261858
          ],
          [
            120.681139,
            24.262023
          ],
          [
            120.680966,
            24.262176
          ],
          [
            120.680659,
            24.262438
          ],
          [
            120.680229,
            24.262599
          ],
          [
            120.679987,
            24.262733
          ],
          [
            120.679087,
            24.263358
          ],
          [
            120.678454,
            24.263797
          ],
          [
            120.678217,
            24.264036
          ],
          [
            120.677747,
            24.26462
          ],
          [
            120.677747,
            24.26462
          ]
        ]
      },
      "properties": {
        "routeId": "taichung-426-s7-d9ecc5-d4",
        "city": "taichung",
        "source_file": "taichung/taichung-426-s7-d9ecc5-d4.geojson",
        "distance_km": 30.124999999999996,
        "duration_min": 56.57176666666667,
        "valhalla_config": "valhalla.json"
      }
    }
  ]
}