{
  "type": "FeatureCollection",
  "features": [
    {
      "type": "Feature",
      "geometry": {
        "type": "LineString",
        "coordinates": [
          [
            120.823852,
            24.268753
          ],
          [
            120.823653,
            24.268643
          ],
          [
            120.823372,
            24.268488
          ],
          [
            120.823243,
            24.268724
          ],
          [
            120.823179,
            24.268917
          ],
          [
            120.823157,
            24.269003
          ],
          [
            120.823007,
            24.270269
          ],
          [
            120.823003,
            24.270329
          ],
          [
            120.822986,
            24.270591
          ],
          [
            120.822964,
            24.27072
          ],
          [
            120.822921,
            24.270848
          ],
          [
            120.822857,
            24.270956
          ],
          [
            120.822771,
            24.271063
          ],
          [
            120.822398,
            24.271497
          ],
          [
            120.821205,
            24.27278
          ],
          [
            120.821159,
            24.272831
          ],
          [
            120.820818,
            24.273209
          ],
          [
            120.81996,
            24.274303
          ],
          [
            120.819484,
            24.274922
          ],
          [
            120.819264,
            24.275171
          ],
          [
            120.818973,
            24.275419
          ],
          [
            120.818555,
            24.275797
          ],
          [
            120.818321,
            24.276042
          ],
          [
            120.818244,
            24.276127
          ],
          [
            120.817965,
            24.276535
          ],
          [
            120.817385,
            24.277372
          ],
          [
            120.817021,
            24.277886
          ],
          [
            120.816484,
            24.278718
          ],
          [
            120.816322,
            24.278869
          ],
          [
            120.816097,
            24.279061
          ],
          [
            120.815576,
            24.279482
          ],
          [
            120.815084,
            24.279919
          ],
          [
            120.814529,
            24.280391
          ],
          [
            120.814364,
            24.280496
          ],
          [
            120.814116,
            24.280613
          ],
          [
            120.813564,
            24.280849
          ],
          [
            120.813319,
            24.28096
          ],
          [
            120.813129,
            24.281032
          ],
          [
            120.81269,
            24.281214
          ],
          [
            120.812504,
            24.28128
          ],
          [
            120.81218,
            24.281358
          ],
          [
            120.811245,
            24.281584
          ],
          [
            120.81098,
            24.281671
          ],
          [
            120.810809,
            24.281757
          ],
          [
            120.810572,
            24.281886
          ],
          [
            120.809966,
            24.282391
          ],
          [
            120.810137,
            24.282632
          ],
          [
            120.809933,
            24.282786
          ],
          [
            120.809765,
            24.282969
          ],
          [
            120.80981,
            24.283148
          ],
          [
            120.809842,
            24.283418
          ],
          [
            120.809842,
            24.283502
          ],
          [
            120.809781,
            24.28358
          ],
          [
            120.809673,
            24.283754
          ],
          [
            120.810032,
            24.284039
          ],
          [
            120.810135,
            24.284233
          ],
          [
            120.810113,
            24.284334
          ],
          [
            120.81019,
            24.284528
          ],
          [
            120.810293,
            24.284703
          ],
          [
            120.81019,
            24.284528
          ],
          [
            120.810113,
            24.284334
          ],
          [
            120.810135,
            24.284233
          ],
          [
            120.810032,
            24.284039
          ],
          [
            120.809673,
            24.283754
          ],
          [
            120.809781,
            24.28358
          ],
          [
            120.809842,
            24.283502
          ],
          [
            120.809842,
            24.283418
          ],
          [
            120.80981,
            24.283148
          ],
          [
            120.809765,
            24.282969
          ],
          [
            120.809933,
            24.282786
          ],
          [
            120.810137,
            24.282632
          ],
          [
            120.809966,
            24.282391
          ],
          [
            120.809768,
            24.282543
          ],
          [
            120.809639,
            24.282629
          ],
          [
            120.80921,
            24.282822
          ],
          [
            120.808824,
            24.282972
          ],
          [
            120.808609,
            24.283079
          ],
          [
            120.808266,
            24.283272
          ],
          [
            120.807764,
            24.283657
          ],
          [
            120.80774,
            24.283676
          ],
          [
            120.807569,
            24.283762
          ],
          [
            120.807397,
            24.283848
          ],
          [
            120.807225,
            24.283891
          ],
          [
            120.806903,
            24.283955
          ],
          [
            120.806429,
            24.283957
          ],
          [
            120.805305,
            24.283916
          ],
          [
            120.804918,
            24.283916
          ],
          [
            120.804296,
            24.283938
          ],
          [
            120.803808,
            24.284045
          ],
          [
            120.803465,
            24.284153
          ],
          [
            120.802907,
            24.284367
          ],
          [
            120.802193,
            24.284624
          ],
          [
            120.801678,
            24.28483
          ],
          [
            120.801335,
            24.284921
          ],
          [
            120.801061,
            24.28499
          ],
          [
            120.800048,
            24.285182
          ],
          [
            120.799726,
            24.285268
          ],
          [
            120.799511,
            24.285354
          ],
          [
            120.799254,
            24.285461
          ],
          [
            120.799077,
            24.285528
          ],
          [
            120.798914,
            24.285558
          ],
          [
            120.79881,
            24.285558
          ],
          [
            120.798704,
            24.285553
          ],
          [
            120.798512,
            24.28552
          ],
          [
            120.798295,
            24.285444
          ],
          [
            120.797988,
            24.285321
          ],
          [
            120.797779,
            24.285235
          ],
          [
            120.797476,
            24.285154
          ],
          [
            120.797056,
            24.285221
          ],
          [
            120.796947,
            24.285233
          ],
          [
            120.796838,
            24.285253
          ],
          [
            120.796732,
            24.28528
          ],
          [
            120.796628,
            24.285314
          ],
          [
            120.796526,
            24.285354
          ],
          [
            120.796428,
            24.285401
          ],
          [
            120.796334,
            24.285455
          ],
          [
            120.796233,
            24.285512
          ],
          [
            120.796023,
            24.285659
          ],
          [
            120.795965,
            24.285729
          ],
          [
            120.795836,
            24.285901
          ],
          [
            120.795729,
            24.286115
          ],
          [
            120.795665,
            24.286287
          ],
          [
            120.795665,
            24.286416
          ],
          [
            120.795686,
            24.286909
          ],
          [
            120.795708,
            24.287095
          ],
          [
            120.795732,
            24.287332
          ],
          [
            120.795775,
            24.287526
          ],
          [
            120.795671,
            24.287542
          ],
          [
            120.79563,
            24.287298
          ],
          [
            120.7956,
            24.286909
          ],
          [
            120.795342,
            24.286928
          ],
          [
            120.795029,
            24.286759
          ],
          [
            120.795027,
            24.28672
          ],
          [
            120.795025,
            24.286688
          ],
          [
            120.795027,
            24.28672
          ],
          [
            120.795029,
            24.286759
          ],
          [
            120.795342,
            24.286928
          ],
          [
            120.7956,
            24.286909
          ],
          [
            120.795557,
            24.286416
          ],
          [
            120.795579,
            24.286265
          ],
          [
            120.795622,
            24.286094
          ],
          [
            120.795729,
            24.286115
          ],
          [
            120.795665,
            24.286287
          ],
          [
            120.795665,
            24.286416
          ],
          [
            120.795686,
            24.286909
          ],
          [
            120.795708,
            24.287095
          ],
          [
            120.795732,
            24.287332
          ],
          [
            120.795775,
            24.287526
          ],
          [
            120.795987,
            24.288068
          ],
          [
            120.796072,
            24.288261
          ],
          [
            120.796195,
            24.288493
          ],
          [
            120.796393,
            24.288511
          ],
          [
            120.796805,
            24.288824
          ],
          [
            120.797097,
            24.288985
          ],
          [
            120.797241,
            24.289043
          ],
          [
            120.797322,
            24.289147
          ],
          [
            120.797481,
            24.289204
          ],
          [
            120.797472,
            24.289263
          ],
          [
            120.797481,
            24.289204
          ],
          [
            120.797322,
            24.289147
          ],
          [
            120.797241,
            24.289043
          ],
          [
            120.797097,
            24.288985
          ],
          [
            120.796805,
            24.288824
          ],
          [
            120.796393,
            24.288511
          ],
          [
            120.796195,
            24.288493
          ],
          [
            120.796276,
            24.288695
          ],
          [
            120.796402,
            24.289143
          ],
          [
            120.796496,
            24.289476
          ],
          [
            120.796569,
            24.289739
          ],
          [
            120.796673,
            24.289881
          ],
          [
            120.796762,
            24.289974
          ],
          [
            120.796886,
            24.29008
          ],
          [
            120.796994,
            24.290146
          ],
          [
            120.7971,
            24.290206
          ],
          [
            120.798454,
            24.290787
          ],
          [
            120.799229,
            24.291125
          ],
          [
            120.799578,
            24.291281
          ],
          [
            120.799913,
            24.291454
          ],
          [
            120.800104,
            24.291578
          ],
          [
            120.800313,
            24.291733
          ],
          [
            120.800557,
            24.29199
          ],
          [
            120.800959,
            24.292476
          ],
          [
            120.801079,
            24.292652
          ],
          [
            120.801136,
            24.292759
          ],
          [
            120.8012,
            24.292918
          ],
          [
            120.80124,
            24.293053
          ],
          [
            120.801244,
            24.293207
          ],
          [
            120.801222,
            24.293393
          ],
          [
            120.801115,
            24.293884
          ],
          [
            120.800986,
            24.294333
          ],
          [
            120.801028,
            24.294328
          ],
          [
            120.801158,
            24.294312
          ],
          [
            120.801303,
            24.294247
          ],
          [
            120.801351,
            24.294226
          ],
          [
            120.801587,
            24.294076
          ],
          [
            120.801679,
            24.294007
          ],
          [
            120.801845,
            24.293883
          ],
          [
            120.80193,
            24.293861
          ],
          [
            120.802076,
            24.293851
          ],
          [
            120.802338,
            24.293883
          ],
          [
            120.802445,
            24.29384
          ],
          [
            120.802488,
            24.293819
          ],
          [
            120.802576,
            24.293718
          ],
          [
            120.802639,
            24.293647
          ],
          [
            120.803076,
            24.293381
          ],
          [
            120.803132,
            24.293346
          ],
          [
            120.803603,
            24.292961
          ],
          [
            120.803797,
            24.292853
          ],
          [
            120.804162,
            24.292724
          ],
          [
            120.804226,
            24.292638
          ],
          [
            120.804259,
            24.292541
          ],
          [
            120.804308,
            24.292487
          ],
          [
            120.804358,
            24.292454
          ],
          [
            120.80487,
            24.292681
          ],
          [
            120.805149,
            24.292767
          ],
          [
            120.805176,
            24.292776
          ],
          [
            120.805643,
            24.292939
          ],
          [
            120.80573,
            24.292921
          ],
          [
            120.805836,
            24.292921
          ],
          [
            120.805931,
            24.29268
          ],
          [
            120.806057,
            24.292368
          ],
          [
            120.805931,
            24.29268
          ],
          [
            120.805836,
            24.292921
          ],
          [
            120.80573,
            24.292921
          ],
          [
            120.805643,
            24.292939
          ],
          [
            120.805176,
            24.292776
          ],
          [
            120.805149,
            24.292767
          ],
          [
            120.80487,
            24.292681
          ],
          [
            120.804358,
            24.292454
          ],
          [
            120.804308,
            24.292487
          ],
          [
            120.804259,
            24.292541
          ],
          [
            120.804226,
            24.292638
          ],
          [
            120.804162,
            24.292724
          ],
          [
            120.803797,
            24.292853
          ],
          [
            120.803603,
            24.292961
          ],
          [
            120.803132,
            24.293346
          ],
          [
            120.803076,
            24.293381
          ],
          [
            120.802639,
            24.293647
          ],
          [
            120.802576,
            24.293718
          ],
          [
            120.802488,
            24.293819
          ],
          [
            120.802445,
            24.29384
          ],
          [
            120.802338,
            24.293883
          ],
          [
            120.802076,
            24.293851
          ],
          [
            120.80193,
            24.293861
          ],
          [
            120.801845,
            24.293883
          ],
          [
            120.801679,
            24.294007
          ],
          [
            120.801587,
            24.294076
          ],
          [
            120.801351,
            24.294226
          ],
          [
            120.801158,
            24.294312
          ],
          [
            120.801028,
            24.294328
          ],
          [
            120.800986,
            24.294333
          ],
          [
            120.800879,
            24.294355
          ],
          [
            120.800927,
            24.294194
          ],
          [
            120.801061,
            24.293626
          ],
          [
            120.80113,
            24.293352
          ],
          [
            120.801147,
            24.293222
          ],
          [
            120.801143,
            24.293053
          ],
          [
            120.801112,
            24.292929
          ],
          [
            120.801056,
            24.292795
          ],
          [
            120.800976,
            24.292649
          ],
          [
            120.800706,
            24.292316
          ],
          [
            120.80049,
            24.292055
          ],
          [
            120.800313,
            24.291867
          ],
          [
            120.800121,
            24.291692
          ],
          [
            120.799921,
            24.291556
          ],
          [
            120.799562,
            24.291341
          ],
          [
            120.798417,
            24.290843
          ],
          [
            120.79707,
            24.290257
          ],
          [
            120.796866,
            24.290139
          ],
          [
            120.796731,
            24.290029
          ],
          [
            120.79664,
            24.289949
          ],
          [
            120.796587,
            24.289892
          ],
          [
            120.796499,
            24.289751
          ],
          [
            120.79644,
            24.289533
          ],
          [
            120.796324,
            24.28912
          ],
          [
            120.796211,
            24.288717
          ],
          [
            120.796125,
            24.288519
          ],
          [
            120.795885,
            24.288069
          ],
          [
            120.795671,
            24.287542
          ],
          [
            120.79563,
            24.287298
          ],
          [
            120.7956,
            24.286909
          ],
          [
            120.795557,
            24.286416
          ],
          [
            120.795579,
            24.286265
          ],
          [
            120.795622,
            24.286094
          ],
          [
            120.795534,
            24.286063
          ],
          [
            120.795622,
            24.286094
          ],
          [
            120.795751,
            24.285858
          ],
          [
            120.795901,
            24.285665
          ],
          [
            120.795965,
            24.2856
          ],
          [
            120.796201,
            24.285428
          ],
          [
            120.796332,
            24.285358
          ],
          [
            120.796468,
            24.285295
          ],
          [
            120.796604,
            24.285228
          ],
          [
            120.796752,
            24.28518
          ],
          [
            120.796904,
            24.285146
          ],
          [
            120.797058,
            24.285118
          ],
          [
            120.797214,
            24.285109
          ],
          [
            120.797476,
            24.285154
          ],
          [
            120.797779,
            24.285235
          ],
          [
            120.797988,
            24.285321
          ],
          [
            120.798295,
            24.285444
          ],
          [
            120.798512,
            24.28552
          ],
          [
            120.798704,
            24.285553
          ],
          [
            120.79881,
            24.285558
          ],
          [
            120.798914,
            24.285558
          ],
          [
            120.799077,
            24.285528
          ],
          [
            120.799254,
            24.285461
          ],
          [
            120.799511,
            24.285354
          ],
          [
            120.799726,
            24.285268
          ],
          [
            120.800048,
            24.285182
          ],
          [
            120.801061,
            24.28499
          ],
          [
            120.801335,
            24.284921
          ],
          [
            120.801678,
            24.28483
          ],
          [
            120.802193,
            24.284624
          ],
          [
            120.802907,
            24.284367
          ],
          [
            120.803465,
            24.284153
          ],
          [
            120.803808,
            24.284045
          ],
          [
            120.804296,
            24.283938
          ],
          [
            120.804918,
            24.283916
          ],
          [
            120.805305,
            24.283916
          ],
          [
            120.806429,
            24.283957
          ],
          [
            120.806903,
            24.283955
          ],
          [
            120.807225,
            24.283891
          ],
          [
            120.807397,
            24.283848
          ],
          [
            120.807569,
            24.283762
          ],
          [
            120.80774,
            24.283676
          ],
          [
            120.807764,
            24.283657
          ],
          [
            120.808266,
            24.283272
          ],
          [
            120.808609,
            24.283079
          ],
          [
            120.808824,
            24.282972
          ],
          [
            120.80921,
            24.282822
          ],
          [
            120.809639,
            24.282629
          ],
          [
            120.809768,
            24.282543
          ],
          [
            120.809966,
            24.282391
          ],
          [
            120.810572,
            24.281886
          ],
          [
            120.810809,
            24.281757
          ],
          [
            120.81098,
            24.281671
          ],
          [
            120.811245,
            24.281584
          ],
          [
            120.81218,
            24.281358
          ],
          [
            120.812504,
            24.28128
          ],
          [
            120.81269,
            24.281214
          ],
          [
            120.813129,
            24.281032
          ],
          [
            120.813319,
            24.28096
          ],
          [
            120.813564,
            24.280849
          ],
          [
            120.814116,
            24.280613
          ],
          [
            120.814364,
            24.280496
          ],
          [
            120.814529,
            24.280391
          ],
          [
            120.815084,
            24.279919
          ],
          [
            120.815576,
            24.279482
          ],
          [
            120.816097,
            24.279061
          ],
          [
            120.816322,
            24.278869
          ],
          [
            120.816484,
            24.278718
          ],
          [
            120.817021,
            24.277886
          ],
          [
            120.817385,
            24.277372
          ],
          [
            120.817965,
            24.276535
          ],
          [
            120.818244,
            24.276127
          ],
          [
            120.818321,
            24.276042
          ],
          [
            120.818555,
            24.275797
          ],
          [
            120.818973,
            24.275419
          ],
          [
            120.819264,
            24.275171
          ],
          [
            120.819484,
            24.274922
          ],
          [
            120.81996,
            24.274303
          ],
          [
            120.820818,
            24.273209
          ],
          [
            120.821159,
            24.272831
          ],
          [
            120.821205,
            24.27278
          ],
          [
            120.822398,
            24.271497
          ],
          [
            120.822771,
            24.271063
          ],
          [
            120.822857,
            24.270956
          ],
          [
            120.822921,
            24.270848
          ],
          [
            120.822964,
            24.27072
          ],
          [
            120.822986,
            24.270591
          ],
          [
            120.823003,
            24.270329
          ],
          [
            120.823007,
            24.270269
          ],
          [
            120.823157,
            24.269003
          ],
          [
            120.823179,
            24.268917
          ],
          [
            120.823243,
            24.268724
          ],
          [
            120.823372,
            24.268488
          ],
          [
            120.823951,
            24.26791
          ],
          [
            120.824037,
            24.267802
          ],
          [
            120.824209,
            24.267567
          ],
          [
            120.824402,
            24.267287
          ],
          [
            120.824612,
            24.266961
          ],
          [
            120.824638,
            24.266922
          ],
          [
            120.824827,
            24.266618
          ],
          [
            120.824998,
            24.26641
          ],
          [
            120.825208,
            24.266077
          ],
          [
            120.825695,
            24.265344
          ],
          [
            120.825904,
            24.265033
          ],
          [
            120.825913,
            24.265013
          ],
          [
            120.826002,
            24.264794
          ],
          [
            120.826089,
            24.264471
          ],
          [
            120.826237,
            24.263922
          ],
          [
            120.826539,
            24.262894
          ],
          [
            120.826562,
            24.262815
          ],
          [
            120.826579,
            24.262753
          ],
          [
            120.826671,
            24.262428
          ],
          [
            120.826744,
            24.262172
          ],
          [
            120.826766,
            24.262094
          ],
          [
            120.826791,
            24.262006
          ],
          [
            120.826911,
            24.261684
          ],
          [
            120.826934,
            24.261434
          ],
          [
            120.826983,
            24.260914
          ],
          [
            120.826992,
            24.260819
          ],
          [
            120.827009,
            24.26074
          ],
          [
            120.827018,
            24.260714
          ],
          [
            120.827159,
            24.260185
          ],
          [
            120.827192,
            24.260043
          ],
          [
            120.827419,
            24.259354
          ],
          [
            120.827593,
            24.258854
          ],
          [
            120.827865,
            24.258218
          ],
          [
            120.828085,
            24.257692
          ],
          [
            120.828317,
            24.257176
          ],
          [
            120.828534,
            24.256705
          ],
          [
            120.828719,
            24.256264
          ],
          [
            120.828956,
            24.255745
          ],
          [
            120.82901,
            24.255597
          ],
          [
            120.829445,
            24.254617
          ],
          [
            120.829849,
            24.254678
          ],
          [
            120.829445,
            24.254617
          ],
          [
            120.82901,
            24.255597
          ],
          [
            120.828956,
            24.255745
          ],
          [
            120.828719,
            24.256264
          ],
          [
            120.828534,
            24.256705
          ],
          [
            120.828317,
            24.257176
          ],
          [
            120.828085,
            24.257692
          ],
          [
            120.827865,
            24.258218
          ],
          [
            120.827593,
            24.258854
          ],
          [
            120.827419,
            24.259354
          ],
          [
            120.827192,
            24.260043
          ],
          [
            120.827159,
            24.260185
          ],
          [
            120.827018,
            24.260714
          ],
          [
            120.827009,
            24.26074
          ],
          [
            120.826992,
            24.260819
          ],
          [
            120.826983,
            24.260914
          ],
          [
            120.826934,
            24.261434
          ],
          [
            120.826911,
            24.261684
          ],
          [
            120.826791,
            24.262006
          ],
          [
            120.826766,
            24.262094
          ],
          [
            120.826744,
            24.262172
          ],
          [
            120.826671,
            24.262428
          ],
          [
            120.826579,
            24.262753
          ],
          [
            120.826562,
            24.262815
          ],
          [
            120.826539,
            24.262894
          ],
          [
            120.826237,
            24.263922
          ],
          [
            120.826089,
            24.264471
          ],
          [
            120.826002,
            24.264794
          ],
          [
            120.825913,
            24.265013
          ],
          [
            120.825904,
            24.265033
          ],
          [
            120.825695,
            24.265344
          ],
          [
            120.825208,
            24.266077
          ],
          [
            120.824998,
            24.26641
          ],
          [
            120.824827,
            24.266618
          ],
          [
            120.824638,
            24.266922
          ],
          [
            120.824612,
            24.266961
          ],
          [
            120.824402,
            24.267287
          ],
          [
            120.824209,
            24.267567
          ],
          [
            120.824037,
            24.267802
          ],
          [
            120.823951,
            24.26791
          ],
          [
            120.823372,
            24.268488
          ],
          [
            120.823243,
            24.268724
          ],
          [
            120.823179,
            24.268917
          ],
          [
            120.823157,
            24.269003
          ],
          [
            120.823007,
            24.270269
          ],
          [
            120.823003,
            24.270329
          ],
          [
            120.822986,
            24.270591
          ],
          [
            120.822964,
            24.27072
          ],
          [
            120.822921,
            24.270848
          ],
          [
            120.822857,
            24.270956
          ],
          [
            120.822771,
            24.271063
          ],
          [
            120.822398,
            24.271497
          ],
          [
            120.821205,
            24.27278
          ],
          [
            120.821159,
            24.272831
          ],
          [
            120.820818,
            24.273209
          ],
          [
            120.81996,
            24.274303
          ],
          [
            120.819484,
            24.274922
          ],
          [
            120.819264,
            24.275171
          ],
          [
            120.818973,
            24.275419
          ],
          [
            120.818555,
            24.275797
          ],
          [
            120.818321,
            24.276042
          ],
          [
            120.818244,
            24.276127
          ],
          [
            120.817965,
            24.276535
          ],
          [
            120.817385,
            24.277372
          ],
          [
            120.817021,
            24.277886
          ],
          [
            120.816484,
            24.278718
          ],
          [
            120.816322,
            24.278869
          ],
          [
            120.816097,
            24.279061
          ],
          [
            120.815576,
            24.279482
          ],
          [
            120.815084,
            24.279919
          ],
          [
            120.814529,
            24.280391
          ],
          [
            120.814364,
            24.280496
          ],
          [
            120.814116,
            24.280613
          ],
          [
            120.813564,
            24.280849
          ],
          [
            120.813319,
            24.28096
          ],
          [
            120.813129,
            24.281032
          ],
          [
            120.81269,
            24.281214
          ],
          [
            120.812504,
            24.28128
          ],
          [
            120.81218,
            24.281358
          ],
          [
            120.811245,
            24.281584
          ],
          [
            120.81098,
            24.281671
          ],
          [
            120.810809,
            24.281757
          ],
          [
            120.810572,
            24.281886
          ],
          [
            120.809966,
            24.282391
          ],
          [
            120.809768,
            24.282543
          ],
          [
            120.809639,
            24.282629
          ],
          [
            120.80921,
            24.282822
          ],
          [
            120.808824,
            24.282972
          ],
          [
            120.808609,
            24.283079
          ],
          [
            120.808266,
            24.283272
          ],
          [
            120.807764,
            24.283657
          ],
          [
            120.80774,
            24.283676
          ],
          [
            120.807569,
            24.283762
          ],
          [
            120.807397,
            24.283848
          ],
          [
            120.807225,
            24.283891
          ],
          [
            120.806903,
            24.283955
          ],
          [
            120.806429,
            24.283957
          ],
          [
            120.805305,
            24.283916
          ],
          [
            120.804918,
            24.283916
          ],
          [
            120.804296,
            24.283938
          ],
          [
            120.803808,
            24.284045
          ],
          [
            120.803465,
            24.284153
          ],
          [
            120.802907,
            24.284367
          ],
          [
            120.802193,
            24.284624
          ],
          [
            120.801678,
            24.28483
          ],
          [
            120.801335,
            24.284921
          ],
          [
            120.801061,
            24.28499
          ],
          [
            120.800048,
            24.285182
          ],
          [
            120.799726,
            24.285268
          ],
          [
            120.799511,
            24.285354
          ],
          [
            120.799254,
            24.285461
          ],
          [
            120.799077,
            24.285528
          ],
          [
            120.798914,
            24.285558
          ],
          [
            120.79881,
            24.285558
          ],
          [
            120.798704,
            24.285553
          ],
          [
            120.798512,
            24.28552
          ],
          [
            120.798295,
            24.285444
          ],
          [
            120.797988,
            24.285321
          ],
          [
            120.797779,
            24.285235
          ],
          [
            120.797476,
            24.285154
          ],
          [
            120.797056,
            24.285221
          ],
          [
            120.796947,
            24.285233
          ],
          [
            120.796838,
            24.285253
          ],
          [
            120.796732,
            24.28528
          ],
          [
            120.796628,
            24.285314
          ],
          [
            120.796526,
            24.285354
          ],
          [
            120.796428,
            24.285401
          ],
          [
            120.796334,
            24.285455
          ],
          [
            120.796233,
            24.285512
          ],
          [
            120.796023,
            24.285659
          ],
          [
            120.795965,
            24.285729
          ],
          [
            120.795836,
            24.285901
          ],
          [
            120.795729,
            24.286115
          ],
          [
            120.795622,
            24.286094
          ],
          [
            120.795385,
            24.28601
          ],
          [
            120.794793,
            24.285761
          ],
          [
            120.794519,
            24.285666
          ],
          [
            120.794065,
            24.285571
          ],
          [
            120.793154,
            24.285497
          ],
          [
            120.792188,
            24.28544
          ],
          [
            120.791738,
            24.285396
          ],
          [
            120.791405,
            24.285351
          ],
          [
            120.791006,
            24.285273
          ],
          [
            120.79086,
            24.285252
          ],
          [
            120.790333,
            24.285198
          ],
          [
            120.790163,
            24.285191
          ],
          [
            120.789262,
            24.285241
          ],
          [
            120.789179,
            24.285249
          ],
          [
            120.789262,
            24.285241
          ],
          [
            120.790163,
            24.285191
          ],
          [
            120.790333,
            24.285198
          ],
          [
            120.79086,
            24.285252
          ],
          [
            120.791006,
            24.285273
          ],
          [
            120.791405,
            24.285351
          ],
          [
            120.791738,
            24.285396
          ],
          [
            120.792188,
            24.28544
          ],
          [
            120.793154,
            24.285497
          ],
          [
            120.794065,
            24.285571
          ],
          [
            120.794519,
            24.285666
          ],
          [
            120.794793,
            24.285761
          ],
          [
            120.795385,
            24.28601
          ],
          [
            120.795622,
            24.286094
          ],
          [
            120.795751,
            24.285858
          ],
          [
            120.795901,
            24.285665
          ],
          [
            120.795965,
            24.2856
          ],
          [
            120.796201,
            24.285428
          ],
          [
            120.796332,
            24.285358
          ],
          [
            120.796468,
            24.285295
          ],
          [
            120.796604,
            24.285228
          ],
          [
            120.796752,
            24.28518
          ],
          [
            120.796904,
            24.285146
          ],
          [
            120.797058,
            24.285118
          ],
          [
            120.797214,
            24.285109
          ],
          [
            120.797476,
            24.285154
          ],
          [
            120.797779,
            24.285235
          ],
          [
            120.797988,
            24.285321
          ],
          [
            120.798295,
            24.285444
          ],
          [
            120.798512,
            24.28552
          ],
          [
            120.798704,
            24.285553
          ],
          [
            120.79881,
            24.285558
          ],
          [
            120.798914,
            24.285558
          ],
          [
            120.799077,
            24.285528
          ],
          [
            120.799254,
            24.285461
          ],
          [
            120.799511,
            24.285354
          ],
          [
            120.799726,
            24.285268
          ],
          [
            120.800048,
            24.285182
          ],
          [
            120.801061,
            24.28499
          ],
          [
            120.801335,
            24.284921
          ],
          [
            120.801678,
            24.28483
          ],
          [
            120.802193,
            24.284624
          ],
          [
            120.802907,
            24.284367
          ],
          [
            120.803465,
            24.284153
          ],
          [
            120.803808,
            24.284045
          ],
          [
            120.804296,
            24.283938
          ],
          [
            120.804918,
            24.283916
          ],
          [
            120.805305,
            24.283916
          ],
          [
            120.806429,
            24.283957
          ],
          [
            120.806903,
            24.283955
          ],
          [
            120.807225,
            24.283891
          ],
          [
            120.807397,
            24.283848
          ],
          [
            120.807569,
            24.283762
          ],
          [
            120.80774,
            24.283676
          ],
          [
            120.807764,
            24.283657
          ],
          [
            120.808266,
            24.283272
          ],
          [
            120.808609,
            24.283079
          ],
          [
            120.808824,
            24.282972
          ],
          [
            120.80921,
            24.282822
          ],
          [
            120.809639,
            24.282629
          ],
          [
            120.809768,
            24.282543
          ],
          [
            120.809966,
            24.282391
          ],
          [
            120.810572,
            24.281886
          ],
          [
            120.810809,
            24.281757
          ],
          [
            120.81098,
            24.281671
          ],
          [
            120.811245,
            24.281584
          ],
          [
            120.81218,
            24.281358
          ],
          [
            120.812504,
            24.28128
          ],
          [
            120.81269,
            24.281214
          ],
          [
            120.813129,
            24.281032
          ],
          [
            120.813319,
            24.28096
          ],
          [
            120.813564,
            24.280849
          ],
          [
            120.814116,
            24.280613
          ],
          [
            120.814364,
            24.280496
          ],
          [
            120.814529,
            24.280391
          ],
          [
            120.815084,
            24.279919
          ],
          [
            120.815576,
            24.279482
          ],
          [
            120.816097,
            24.279061
          ],
          [
            120.816322,
            24.278869
          ],
          [
            120.816484,
            24.278718
          ],
          [
            120.817021,
            24.277886
          ],
          [
            120.817385,
            24.277372
          ],
          [
            120.817965,
            24.276535
          ],
          [
            120.818244,
            24.276127
          ],
          [
            120.818321,
            24.276042
          ],
          [
            120.818555,
            24.275797
          ],
          [
            120.818973,
            24.275419
          ],
          [
            120.819264,
            24.275171
          ],
          [
            120.819484,
            24.274922
          ],
          [
            120.81996,
            24.274303
          ],
          [
            120.820818,
            24.273209
          ],
          [
            120.821159,
            24.272831
          ],
          [
            120.821205,
            24.27278
          ],
          [
            120.822398,
            24.271497
          ],
          [
            120.822771,
            24.271063
          ],
          [
            120.822857,
            24.270956
          ],
          [
            120.822921,
            24.270848
          ],
          [
            120.822964,
            24.27072
          ],
          [
            120.822986,
            24.270591
          ],
          [
            120.823003,
            24.270329
          ],
          [
            120.823007,
            24.270269
          ],
          [
            120.823157,
            24.269003
          ],
          [
            120.823179,
            24.268917
          ],
          [
            120.823243,
            24.268724
          ],
          [
            120.823372,
            24.268488
          ],
          [
            120.823951,
            24.26791
          ],
          [
            120.824037,
            24.267802
          ],
          [
            120.824209,
            24.267567
          ],
          [
            120.824402,
            24.267287
          ],
          [
            120.824612,
            24.266961
          ],
          [
            120.824638,
            24.266922
          ],
          [
            120.824827,
            24.266618
          ],
          [
            120.824998,
            24.26641
          ],
          [
            120.825208,
            24.266077
          ],
          [
            120.825695,
            24.265344
          ],
          [
            120.825904,
            24.265033
          ],
          [
            120.825913,
            24.265013
          ],
          [
            120.826002,
            24.264794
          ],
          [
            120.826089,
            24.264471
          ],
          [
            120.826237,
            24.263922
          ],
          [
            120.826539,
            24.262894
          ],
          [
            120.826562,
            24.262815
          ],
          [
            120.826579,
            24.262753
          ],
          [
            120.826671,
            24.262428
          ],
          [
            120.826744,
            24.262172
          ],
          [
            120.826766,
            24.262094
          ],
          [
            120.826791,
            24.262006
          ],
          [
            120.826911,
            24.261684
          ],
          [
            120.826934,
            24.261434
          ],
          [
            120.826983,
            24.260914
          ],
          [
            120.826992,
            24.260819
          ],
          [
            120.827009,
            24.26074
          ],
          [
            120.827018,
            24.260714
          ],
          [
            120.827159,
            24.260185
          ],
          [
            120.827192,
            24.260043
          ],
          [
            120.827419,
            24.259354
          ],
          [
            120.827593,
            24.258854
          ],
          [
            120.827865,
            24.258218
          ],
          [
            120.828085,
            24.257692
          ],
          [
            120.828317,
            24.257176
          ],
          [
            120.828534,
            24.256705
          ],
          [
            120.828719,
            24.256264
          ],
          [
            120.828956,
            24.255745
          ],
          [
            120.82901,
            24.255597
          ],
          [
            120.829445,
            24.254617
          ],
          [
            120.829668,
            24.253519
          ],
          [
            120.829826,
            24.252776
          ],
          [
            120.829857,
            24.252652
          ],
          [
            120.829863,
            24.25262
          ],
          [
            120.829857,
            24.252652
          ],
          [
            120.829826,
            24.252776
          ],
          [
            120.829668,
            24.253519
          ],
          [
            120.829445,
            24.254617
          ],
          [
            120.82901,
            24.255597
          ],
          [
            120.828956,
            24.255745
          ],
          [
            120.828719,
            24.256264
          ],
          [
            120.828534,
            24.256705
          ],
          [
            120.828317,
            24.257176
          ],
          [
            120.828085,
            24.257692
          ],
          [
            120.827865,
            24.258218
          ],
          [
            120.827593,
            24.258854
          ],
          [
            120.827419,
            24.259354
          ],
          [
            120.827192,
            24.260043
          ],
          [
            120.827159,
            24.260185
          ],
          [
            120.827018,
            24.260714
          ],
          [
            120.827009,
            24.26074
          ],
          [
            120.826992,
            24.260819
          ],
          [
            120.826983,
            24.260914
          ],
          [
            120.826934,
            24.261434
          ],
          [
            120.826911,
            24.261684
          ],
          [
            120.826791,
            24.262006
          ],
          [
            120.826766,
            24.262094
          ],
          [
            120.826744,
            24.262172
          ],
          [
            120.826671,
            24.262428
          ],
          [
            120.826579,
            24.262753
          ],
          [
            120.826562,
            24.262815
          ],
          [
            120.826539,
            24.262894
          ],
          [
            120.826237,
            24.263922
          ],
          [
            120.826089,
            24.264471
          ],
          [
            120.826002,
            24.264794
          ],
          [
            120.825913,
            24.265013
          ],
          [
            120.825904,
            24.265033
          ],
          [
            120.825695,
            24.265344
          ],
          [
            120.825208,
            24.266077
          ],
          [
            120.824998,
            24.26641
          ],
          [
            120.824827,
            24.266618
          ],
          [
            120.824638,
            24.266922
          ],
          [
            120.824612,
            24.266961
          ],
          [
            120.824402,
            24.267287
          ],
          [
            120.824209,
            24.267567
          ],
          [
            120.824037,
            24.267802
          ],
          [
            120.823951,
            24.26791
          ],
          [
            120.823372,
            24.268488
          ],
          [
            120.823243,
            24.268724
          ],
          [
            120.823179,
            24.268917
          ],
          [
            120.823157,
            24.269003
          ],
          [
            120.823007,
            24.270269
          ],
          [
            120.823003,
            24.270329
          ],
          [
            120.822986,
            24.270591
          ],
          [
            120.822964,
            24.27072
          ],
          [
            120.822921,
            24.270848
          ],
          [
            120.822857,
            24.270956
          ],
          [
            120.822771,
            24.271063
          ],
          [
            120.822398,
            24.271497
          ],
          [
            120.821205,
            24.27278
          ],
          [
            120.821159,
            24.272831
          ],
          [
            120.820818,
            24.273209
          ],
          [
            120.81996,
            24.274303
          ],
          [
            120.819484,
            24.274922
          ],
          [
            120.819264,
            24.275171
          ],
          [
            120.818973,
            24.275419
          ],
          [
            120.818555,
            24.275797
          ],
          [
            120.818321,
            24.276042
          ],
          [
            120.818244,
            24.276127
          ],
          [
            120.817965,
            24.276535
          ],
          [
            120.817385,
            24.277372
          ],
          [
            120.817021,
            24.277886
          ],
          [
            120.816484,
            24.278718
          ],
          [
            120.816322,
            24.278869
          ],
          [
            120.816097,
            24.279061
          ],
          [
            120.815576,
            24.279482
          ],
          [
            120.815084,
            24.279919
          ],
          [
            120.814529,
            24.280391
          ],
          [
            120.814364,
            24.280496
          ],
          [
            120.814116,
            24.280613
          ],
          [
            120.813564,
            24.280849
          ],
          [
            120.813319,
            24.28096
          ],
          [
            120.813129,
            24.281032
          ],
          [
            120.81269,
            24.281214
          ],
          [
            120.812504,
            24.28128
          ],
          [
            120.81218,
            24.281358
          ],
          [
            120.811245,
            24.281584
          ],
          [
            120.81098,
            24.281671
          ],
          [
            120.810809,
            24.281757
          ],
          [
            120.810572,
            24.281886
          ],
          [
            120.809966,
            24.282391
          ],
          [
            120.809768,
            24.282543
          ],
          [
            120.809639,
            24.282629
          ],
          [
            120.80921,
            24.282822
          ],
          [
            120.808824,
            24.282972
          ],
          [
            120.808609,
            24.283079
          ],
          [
            120.808266,
            24.283272
          ],
          [
            120.807764,
            24.283657
          ],
          [
            120.80774,
            24.283676
          ],
          [
            120.807569,
            24.283762
          ],
          [
            120.807397,
            24.283848
          ],
          [
            120.807225,
            24.283891
          ],
          [
            120.806903,
            24.283955
          ],
          [
            120.806429,
            24.283957
          ],
          [
            120.805305,
            24.283916
          ],
          [
            120.804918,
            24.283916
          ],
          [
            120.804296,
            24.283938
          ],
          [
            120.803808,
            24.284045
          ],
          [
            120.803465,
            24.284153
          ],
          [
            120.802907,
            24.284367
          ],
          [
            120.802193,
            24.284624
          ],
          [
            120.801678,
            24.28483
          ],
          [
            120.801335,
            24.284921
          ],
          [
            120.801061,
            24.28499
          ],
          [
            120.800048,
            24.285182
          ],
          [
            120.799726,
            24.285268
          ],
          [
            120.799511,
            24.285354
          ],
          [
            120.799254,
            24.285461
          ],
          [
            120.799077,
            24.285528
          ],
          [
            120.798914,
            24.285558
          ],
          [
            120.79881,
            24.285558
          ],
          [
            120.798704,
            24.285553
          ],
          [
            120.798512,
            24.28552
          ],
          [
            120.798295,
            24.285444
          ],
          [
            120.797988,
            24.285321
          ],
          [
            120.797779,
            24.285235
          ],
          [
            120.797476,
            24.285154
          ],
          [
            120.797056,
            24.285221
          ],
          [
            120.796947,
            24.285233
          ],
          [
            120.796838,
            24.285253
          ],
          [
            120.796732,
            24.28528
          ],
          [
            120.796628,
            24.285314
          ],
          [
            120.796526,
            24.285354
          ],
          [
            120.796428,
            24.285401
          ],
          [
            120.796334,
            24.285455
          ],
          [
            120.796233,
            24.285512
          ],
          [
            120.796023,
            24.285659
          ],
          [
            120.795965,
            24.285729
          ],
          [
            120.795836,
            24.285901
          ],
          [
            120.795729,
            24.286115
          ],
          [
            120.795622,
            24.286094
          ],
          [
            120.795385,
            24.28601
          ],
          [
            120.794793,
            24.285761
          ],
          [
            120.794519,
            24.285666
          ],
          [
            120.794065,
            24.285571
          ],
          [
            120.793154,
            24.285497
          ],
          [
            120.792188,
            24.28544
          ],
          [
            120.791738,
            24.285396
          ],
          [
            120.791405,
            24.285351
          ],
          [
            120.791006,
            24.285273
          ],
          [
            120.79086,
            24.285252
          ],
          [
            120.790333,
            24.285198
          ],
          [
            120.790163,
            24.285191
          ],
          [
            120.789262,
            24.285241
          ],
          [
            120.788253,
            24.285339
          ],
          [
            120.788077,
            24.285375
          ],
          [
            120.786878,
            24.285714
          ],
          [
            120.786748,
            24.285765
          ],
          [
            120.786191,
            24.286065
          ],
          [
            120.786092,
            24.286105
          ],
          [
            120.785951,
            24.286141
          ],
          [
            120.784565,
            24.286284
          ],
          [
            120.784515,
            24.286288
          ],
          [
            120.784467,
            24.28629
          ],
          [
            120.783209,
            24.286183
          ],
          [
            120.782836,
            24.286166
          ],
          [
            120.781487,
            24.286103
          ],
          [
            120.781181,
            24.286072
          ],
          [
            120.780612,
            24.28579
          ],
          [
            120.780448,
            24.285849
          ],
          [
            120.780409,
            24.285844
          ],
          [
            120.780369,
            24.285832
          ],
          [
            120.780369,
            24.285832
          ],
          [
            120.780311,
            24.285801
          ],
          [
            120.780081,
            24.285624
          ],
          [
            120.780015,
            24.285611
          ],
          [
            120.779949,
            24.285603
          ],
          [
            120.779874,
            24.285602
          ],
          [
            120.7798,
            24.285608
          ],
          [
            120.77861,
            24.285986
          ],
          [
            120.77843,
            24.28607
          ],
          [
            120.778284,
            24.286159
          ],
          [
            120.777976,
            24.286421
          ],
          [
            120.777487,
            24.286701
          ],
          [
            120.777348,
            24.286734
          ],
          [
            120.777081,
            24.286798
          ],
          [
            120.776716,
            24.286956
          ],
          [
            120.776543,
            24.286969
          ],
          [
            120.776402,
            24.286954
          ],
          [
            120.775975,
            24.286884
          ],
          [
            120.775847,
            24.286875
          ],
          [
            120.774785,
            24.286918
          ],
          [
            120.774545,
            24.286932
          ],
          [
            120.774165,
            24.286955
          ],
          [
            120.773966,
            24.286968
          ],
          [
            120.773853,
            24.286915
          ],
          [
            120.773797,
            24.286883
          ],
          [
            120.773683,
            24.286807
          ],
          [
            120.773572,
            24.286687
          ],
          [
            120.773448,
            24.286617
          ],
          [
            120.773349,
            24.286577
          ],
          [
            120.773204,
            24.286479
          ],
          [
            120.773062,
            24.286357
          ],
          [
            120.773019,
            24.286314
          ],
          [
            120.772952,
            24.286249
          ],
          [
            120.772841,
            24.286205
          ],
          [
            120.77274,
            24.286206
          ],
          [
            120.77241,
            24.286157
          ],
          [
            120.77213,
            24.286129
          ],
          [
            120.771972,
            24.286102
          ],
          [
            120.771886,
            24.286077
          ],
          [
            120.771797,
            24.286047
          ],
          [
            120.771678,
            24.285972
          ],
          [
            120.771235,
            24.285514
          ],
          [
            120.770987,
            24.28525
          ],
          [
            120.77081,
            24.285072
          ],
          [
            120.7707,
            24.284985
          ],
          [
            120.770508,
            24.284913
          ],
          [
            120.770082,
            24.28478
          ],
          [
            120.769914,
            24.284718
          ],
          [
            120.769808,
            24.284671
          ],
          [
            120.769619,
            24.28456
          ],
          [
            120.769445,
            24.284476
          ],
          [
            120.769227,
            24.284408
          ],
          [
            120.769002,
            24.284329
          ],
          [
            120.768841,
            24.28424
          ],
          [
            120.76874,
            24.284189
          ],
          [
            120.768521,
            24.28399
          ],
          [
            120.768416,
            24.283947
          ],
          [
            120.768302,
            24.283944
          ],
          [
            120.768182,
            24.283964
          ],
          [
            120.768084,
            24.284002
          ],
          [
            120.76798,
            24.284052
          ],
          [
            120.767895,
            24.284091
          ],
          [
            120.767766,
            24.28411
          ],
          [
            120.767685,
            24.284102
          ],
          [
            120.767526,
            24.28405
          ],
          [
            120.767492,
            24.284109
          ],
          [
            120.767452,
            24.284137
          ],
          [
            120.767437,
            24.2842
          ],
          [
            120.767418,
            24.284272
          ],
          [
            120.767417,
            24.284384
          ],
          [
            120.767397,
            24.284493
          ],
          [
            120.767362,
            24.284558
          ],
          [
            120.76731,
            24.28461
          ],
          [
            120.767269,
            24.284668
          ],
          [
            120.767352,
            24.285019
          ],
          [
            120.766876,
            24.285389
          ],
          [
            120.767352,
            24.285019
          ],
          [
            120.767269,
            24.284668
          ],
          [
            120.76731,
            24.28461
          ],
          [
            120.767362,
            24.284558
          ],
          [
            120.767397,
            24.284493
          ],
          [
            120.767417,
            24.284384
          ],
          [
            120.767418,
            24.284272
          ],
          [
            120.767437,
            24.2842
          ],
          [
            120.767452,
            24.284137
          ],
          [
            120.767492,
            24.284109
          ],
          [
            120.767526,
            24.28405
          ],
          [
            120.767425,
            24.284041
          ],
          [
            120.766953,
            24.284061
          ],
          [
            120.766602,
            24.284063
          ],
          [
            120.766418,
            24.284092
          ],
          [
            120.766262,
            24.284132
          ],
          [
            120.7661,
            24.284178
          ],
          [
            120.765856,
            24.284283
          ],
          [
            120.765599,
            24.284382
          ],
          [
            120.765513,
            24.284406
          ],
          [
            120.765298,
            24.284406
          ],
          [
            120.7652,
            24.284401
          ],
          [
            120.765088,
            24.284409
          ],
          [
            120.764917,
            24.284405
          ],
          [
            120.764599,
            24.284395
          ],
          [
            120.764523,
            24.2844
          ],
          [
            120.764451,
            24.284432
          ],
          [
            120.764279,
            24.284509
          ],
          [
            120.76366,
            24.284737
          ],
          [
            120.763566,
            24.284751
          ],
          [
            120.763448,
            24.284756
          ],
          [
            120.763332,
            24.28476
          ],
          [
            120.76325,
            24.284768
          ],
          [
            120.763132,
            24.28478
          ],
          [
            120.762963,
            24.284816
          ],
          [
            120.762805,
            24.284833
          ],
          [
            120.762606,
            24.28481
          ],
          [
            120.762512,
            24.28478
          ],
          [
            120.762304,
            24.284677
          ],
          [
            120.761924,
            24.284533
          ],
          [
            120.761565,
            24.284393
          ],
          [
            120.761488,
            24.284372
          ],
          [
            120.761435,
            24.284361
          ],
          [
            120.761385,
            24.284361
          ],
          [
            120.76132,
            24.284374
          ],
          [
            120.761231,
            24.284395
          ],
          [
            120.760916,
            24.284477
          ],
          [
            120.760752,
            24.284518
          ],
          [
            120.760639,
            24.28455
          ],
          [
            120.760575,
            24.284557
          ],
          [
            120.760534,
            24.284537
          ],
          [
            120.760516,
            24.284485
          ],
          [
            120.760469,
            24.284243
          ],
          [
            120.760313,
            24.283451
          ],
          [
            120.760299,
            24.283381
          ],
          [
            120.760285,
            24.283328
          ],
          [
            120.760259,
            24.283259
          ],
          [
            120.760202,
            24.283134
          ],
          [
            120.760155,
            24.283044
          ],
          [
            120.760047,
            24.283074
          ],
          [
            120.759886,
            24.283125
          ],
          [
            120.759799,
            24.283166
          ],
          [
            120.759663,
            24.283216
          ],
          [
            120.759556,
            24.283276
          ],
          [
            120.759379,
            24.283354
          ],
          [
            120.759229,
            24.28338
          ],
          [
            120.758817,
            24.283456
          ],
          [
            120.758627,
            24.2835
          ],
          [
            120.758474,
            24.283514
          ],
          [
            120.758308,
            24.283517
          ],
          [
            120.758195,
            24.28347
          ],
          [
            120.758127,
            24.283428
          ],
          [
            120.75791,
            24.283425
          ],
          [
            120.757775,
            24.283422
          ],
          [
            120.757669,
            24.2834
          ],
          [
            120.757464,
            24.283379
          ],
          [
            120.757268,
            24.283364
          ],
          [
            120.757091,
            24.283369
          ],
          [
            120.756914,
            24.283373
          ],
          [
            120.756804,
            24.283364
          ],
          [
            120.756646,
            24.283347
          ],
          [
            120.75645,
            24.283297
          ],
          [
            120.756362,
            24.283278
          ],
          [
            120.756184,
            24.283266
          ],
          [
            120.75602,
            24.28325
          ],
          [
            120.755935,
            24.28323
          ],
          [
            120.755867,
            24.283226
          ],
          [
            120.755779,
            24.283226
          ],
          [
            120.755696,
            24.283258
          ],
          [
            120.755639,
            24.283332
          ],
          [
            120.755635,
            24.283414
          ],
          [
            120.755656,
            24.283508
          ],
          [
            120.75567,
            24.283567
          ],
          [
            120.755656,
            24.283623
          ],
          [
            120.755553,
            24.283583
          ],
          [
            120.755357,
            24.28353
          ],
          [
            120.755273,
            24.283543
          ],
          [
            120.755169,
            24.283516
          ],
          [
            120.755036,
            24.283511
          ],
          [
            120.754888,
            24.283523
          ],
          [
            120.754763,
            24.283547
          ],
          [
            120.754697,
            24.283567
          ],
          [
            120.754051,
            24.28355
          ],
          [
            120.753855,
            24.283582
          ],
          [
            120.75342,
            24.283568
          ],
          [
            120.753331,
            24.283941
          ],
          [
            120.753242,
            24.284018
          ],
          [
            120.753331,
            24.283941
          ],
          [
            120.75342,
            24.283568
          ],
          [
            120.753855,
            24.283582
          ],
          [
            120.754051,
            24.28355
          ],
          [
            120.754697,
            24.283567
          ],
          [
            120.754763,
            24.283547
          ],
          [
            120.754888,
            24.283523
          ],
          [
            120.755036,
            24.283511
          ],
          [
            120.755169,
            24.283516
          ],
          [
            120.755273,
            24.283543
          ],
          [
            120.755357,
            24.28353
          ],
          [
            120.755553,
            24.283583
          ],
          [
            120.755656,
            24.283623
          ],
          [
            120.75567,
            24.283567
          ],
          [
            120.755656,
            24.283508
          ],
          [
            120.755635,
            24.283414
          ],
          [
            120.755639,
            24.283332
          ],
          [
            120.755696,
            24.283258
          ],
          [
            120.755779,
            24.283226
          ],
          [
            120.755867,
            24.283226
          ],
          [
            120.755935,
            24.28323
          ],
          [
            120.75602,
            24.28325
          ],
          [
            120.756184,
            24.283266
          ],
          [
            120.756362,
            24.283278
          ],
          [
            120.75645,
            24.283297
          ],
          [
            120.756646,
            24.283347
          ],
          [
            120.756804,
            24.283364
          ],
          [
            120.756914,
            24.283373
          ],
          [
            120.757091,
            24.283369
          ],
          [
            120.757268,
            24.283364
          ],
          [
            120.757464,
            24.283379
          ],
          [
            120.757669,
            24.2834
          ],
          [
            120.757775,
            24.283422
          ],
          [
            120.75791,
            24.283425
          ],
          [
            120.758127,
            24.283428
          ],
          [
            120.758195,
            24.28347
          ],
          [
            120.758133,
            24.283507
          ],
          [
            120.758107,
            24.283562
          ],
          [
            120.758077,
            24.283649
          ],
          [
            120.758079,
            24.28383
          ],
          [
            120.758124,
            24.284112
          ],
          [
            120.758128,
            24.28422
          ],
          [
            120.758126,
            24.284296
          ],
          [
            120.758205,
            24.2845
          ],
          [
            120.758248,
            24.284617
          ],
          [
            120.758241,
            24.284716
          ],
          [
            120.758248,
            24.284617
          ],
          [
            120.758205,
            24.2845
          ],
          [
            120.758126,
            24.284296
          ],
          [
            120.758128,
            24.28422
          ],
          [
            120.758124,
            24.284112
          ],
          [
            120.758079,
            24.28383
          ],
          [
            120.758077,
            24.283649
          ],
          [
            120.758107,
            24.283562
          ],
          [
            120.758133,
            24.283507
          ],
          [
            120.758195,
            24.28347
          ],
          [
            120.758308,
            24.283517
          ],
          [
            120.758474,
            24.283514
          ],
          [
            120.758627,
            24.2835
          ],
          [
            120.758817,
            24.283456
          ],
          [
            120.759229,
            24.28338
          ],
          [
            120.759379,
            24.283354
          ],
          [
            120.759556,
            24.283276
          ],
          [
            120.759663,
            24.283216
          ],
          [
            120.759799,
            24.283166
          ],
          [
            120.759886,
            24.283125
          ],
          [
            120.760047,
            24.283074
          ],
          [
            120.760155,
            24.283044
          ],
          [
            120.760125,
            24.282908
          ],
          [
            120.760065,
            24.28254
          ],
          [
            120.760019,
            24.282241
          ]
        ]
      },
      "properties": {
        "routeId": "taichung-097-s6-85f689-d1",
        "city": "taichung",
        "source_file": "taichung/taichung-097-s6-85f689-d1.geojson",
        "distance_km": 38.799,
        "duration_min": 49.127766666666666,
        "valhalla_config": "valhalla.json"
      }
    }
  ]
}