{
  "type": "FeatureCollection",
  "features": [
    {
      "type": "Feature",
      "geometry": {
        "type": "LineString",
        "coordinates": [
          [
            120.830448,
            24.261648
          ],
          [
            120.830448,
            24.261648
          ],
          [
            120.830362,
            24.26161
          ],
          [
            120.829879,
            24.261336
          ],
          [
            120.829091,
            24.260861
          ],
          [
            120.828905,
            24.260749
          ],
          [
            120.828265,
            24.260325
          ],
          [
            120.82802,
            24.260211
          ],
          [
            120.827725,
            24.260142
          ],
          [
            120.827192,
            24.260043
          ],
          [
            120.827103,
            24.260082
          ],
          [
            120.82681,
            24.260197
          ],
          [
            120.826382,
            24.260369
          ],
          [
            120.82634,
            24.260389
          ],
          [
            120.825648,
            24.260707
          ],
          [
            120.825557,
            24.260749
          ],
          [
            120.825267,
            24.260884
          ],
          [
            120.824309,
            24.261328
          ],
          [
            120.823628,
            24.26162
          ],
          [
            120.823477,
            24.261646
          ],
          [
            120.823367,
            24.261739
          ],
          [
            120.823152,
            24.261739
          ],
          [
            120.822818,
            24.261671
          ],
          [
            120.822651,
            24.261637
          ],
          [
            120.822683,
            24.261515
          ],
          [
            120.822766,
            24.26121
          ],
          [
            120.82294,
            24.260804
          ],
          [
            120.823183,
            24.260231
          ],
          [
            120.823207,
            24.26017
          ],
          [
            120.823227,
            24.260129
          ],
          [
            120.82401,
            24.258306
          ],
          [
            120.824321,
            24.257563
          ],
          [
            120.824383,
            24.257409
          ],
          [
            120.824564,
            24.256993
          ],
          [
            120.82459,
            24.256933
          ],
          [
            120.825428,
            24.25495
          ],
          [
            120.825491,
            24.254787
          ],
          [
            120.826463,
            24.252877
          ],
          [
            120.826497,
            24.252825
          ],
          [
            120.826586,
            24.252871
          ],
          [
            120.826561,
            24.252924
          ],
          [
            120.826295,
            24.25345
          ],
          [
            120.825598,
            24.25483
          ],
          [
            120.82553,
            24.254979
          ],
          [
            120.825427,
            24.255238
          ],
          [
            120.824695,
            24.256969
          ],
          [
            120.82467,
            24.257038
          ],
          [
            120.824496,
            24.257446
          ],
          [
            120.824432,
            24.257603
          ],
          [
            120.824342,
            24.257812
          ],
          [
            120.824267,
            24.257992
          ],
          [
            120.824118,
            24.258349
          ],
          [
            120.823946,
            24.258714
          ],
          [
            120.823817,
            24.259014
          ],
          [
            120.823687,
            24.259329
          ],
          [
            120.82357,
            24.25961
          ],
          [
            120.823447,
            24.259908
          ],
          [
            120.823541,
            24.25994
          ],
          [
            120.823447,
            24.259908
          ],
          [
            120.823346,
            24.260164
          ],
          [
            120.823325,
            24.260216
          ],
          [
            120.823882,
            24.260452
          ],
          [
            120.82399,
            24.260224
          ],
          [
            120.823882,
            24.260452
          ],
          [
            120.823325,
            24.260216
          ],
          [
            120.823299,
            24.260271
          ],
          [
            120.823062,
            24.260847
          ],
          [
            120.82294,
            24.260804
          ],
          [
            120.823183,
            24.260231
          ],
          [
            120.823207,
            24.26017
          ],
          [
            120.823227,
            24.260129
          ],
          [
            120.82401,
            24.258306
          ],
          [
            120.824321,
            24.257563
          ],
          [
            120.824383,
            24.257409
          ],
          [
            120.824564,
            24.256993
          ],
          [
            120.82459,
            24.256933
          ],
          [
            120.825428,
            24.25495
          ],
          [
            120.825491,
            24.254787
          ],
          [
            120.826463,
            24.252877
          ],
          [
            120.826497,
            24.252825
          ],
          [
            120.826586,
            24.252871
          ],
          [
            120.827034,
            24.253086
          ],
          [
            120.827079,
            24.253178
          ],
          [
            120.827059,
            24.253269
          ],
          [
            120.827079,
            24.253178
          ],
          [
            120.827034,
            24.253086
          ],
          [
            120.827222,
            24.252972
          ],
          [
            120.827405,
            24.252861
          ],
          [
            120.828268,
            24.252338
          ],
          [
            120.828821,
            24.252003
          ],
          [
            120.829017,
            24.251884
          ],
          [
            120.829225,
            24.251758
          ],
          [
            120.829568,
            24.251697
          ],
          [
            120.830061,
            24.251633
          ],
          [
            120.829857,
            24.252652
          ],
          [
            120.829826,
            24.252776
          ],
          [
            120.829668,
            24.253519
          ],
          [
            120.829445,
            24.254617
          ],
          [
            120.82901,
            24.255597
          ],
          [
            120.828956,
            24.255745
          ],
          [
            120.828719,
            24.256264
          ],
          [
            120.828534,
            24.256705
          ],
          [
            120.828317,
            24.257176
          ],
          [
            120.828085,
            24.257692
          ],
          [
            120.827865,
            24.258218
          ],
          [
            120.827593,
            24.258854
          ],
          [
            120.827419,
            24.259354
          ],
          [
            120.827192,
            24.260043
          ],
          [
            120.827103,
            24.260082
          ],
          [
            120.82681,
            24.260197
          ],
          [
            120.826382,
            24.260369
          ],
          [
            120.826115,
            24.25982
          ],
          [
            120.826031,
            24.259633
          ],
          [
            120.826015,
            24.259322
          ],
          [
            120.826042,
            24.259098
          ],
          [
            120.826015,
            24.259322
          ],
          [
            120.826031,
            24.259633
          ],
          [
            120.826115,
            24.25982
          ],
          [
            120.826382,
            24.260369
          ],
          [
            120.82634,
            24.260389
          ],
          [
            120.825648,
            24.260707
          ],
          [
            120.825557,
            24.260749
          ],
          [
            120.825267,
            24.260884
          ],
          [
            120.824309,
            24.261328
          ],
          [
            120.823628,
            24.26162
          ],
          [
            120.823477,
            24.261646
          ],
          [
            120.823367,
            24.261739
          ],
          [
            120.823496,
            24.261772
          ],
          [
            120.82371,
            24.261825
          ],
          [
            120.823989,
            24.261932
          ],
          [
            120.824161,
            24.262061
          ],
          [
            120.824654,
            24.26264
          ],
          [
            120.824758,
            24.26276
          ],
          [
            120.825062,
            24.263112
          ],
          [
            120.825169,
            24.263263
          ],
          [
            120.824971,
            24.263611
          ],
          [
            120.825169,
            24.263263
          ],
          [
            120.82577,
            24.263971
          ],
          [
            120.825948,
            24.264159
          ],
          [
            120.826089,
            24.264471
          ],
          [
            120.826002,
            24.264794
          ],
          [
            120.825913,
            24.265013
          ],
          [
            120.825904,
            24.265033
          ],
          [
            120.825695,
            24.265344
          ],
          [
            120.825208,
            24.266077
          ],
          [
            120.824998,
            24.26641
          ],
          [
            120.824827,
            24.266618
          ],
          [
            120.824638,
            24.266922
          ],
          [
            120.824612,
            24.266961
          ],
          [
            120.824402,
            24.267287
          ],
          [
            120.824209,
            24.267567
          ],
          [
            120.824037,
            24.267802
          ],
          [
            120.823951,
            24.26791
          ],
          [
            120.823372,
            24.268488
          ],
          [
            120.823243,
            24.268724
          ],
          [
            120.823179,
            24.268917
          ],
          [
            120.823157,
            24.269003
          ],
          [
            120.823007,
            24.270269
          ],
          [
            120.823003,
            24.270329
          ],
          [
            120.822986,
            24.270591
          ],
          [
            120.822964,
            24.27072
          ],
          [
            120.822921,
            24.270848
          ],
          [
            120.822857,
            24.270956
          ],
          [
            120.822771,
            24.271063
          ],
          [
            120.822398,
            24.271497
          ],
          [
            120.821205,
            24.27278
          ],
          [
            120.821159,
            24.272831
          ],
          [
            120.820818,
            24.273209
          ],
          [
            120.81996,
            24.274303
          ],
          [
            120.819484,
            24.274922
          ],
          [
            120.819264,
            24.275171
          ],
          [
            120.818973,
            24.275419
          ],
          [
            120.818555,
            24.275797
          ],
          [
            120.818321,
            24.276042
          ],
          [
            120.818244,
            24.276127
          ],
          [
            120.817965,
            24.276535
          ],
          [
            120.817385,
            24.277372
          ],
          [
            120.817021,
            24.277886
          ],
          [
            120.816484,
            24.278718
          ],
          [
            120.816322,
            24.278869
          ],
          [
            120.816097,
            24.279061
          ],
          [
            120.815576,
            24.279482
          ],
          [
            120.815084,
            24.279919
          ],
          [
            120.814529,
            24.280391
          ],
          [
            120.814364,
            24.280496
          ],
          [
            120.814116,
            24.280613
          ],
          [
            120.813564,
            24.280849
          ],
          [
            120.813319,
            24.28096
          ],
          [
            120.813129,
            24.281032
          ],
          [
            120.81269,
            24.281214
          ],
          [
            120.812504,
            24.28128
          ],
          [
            120.81218,
            24.281358
          ],
          [
            120.811245,
            24.281584
          ],
          [
            120.81098,
            24.281671
          ],
          [
            120.810809,
            24.281757
          ],
          [
            120.810572,
            24.281886
          ],
          [
            120.809966,
            24.282391
          ],
          [
            120.809768,
            24.282543
          ],
          [
            120.809639,
            24.282629
          ],
          [
            120.80921,
            24.282822
          ],
          [
            120.808824,
            24.282972
          ],
          [
            120.808609,
            24.283079
          ],
          [
            120.808266,
            24.283272
          ],
          [
            120.807764,
            24.283657
          ],
          [
            120.80774,
            24.283676
          ],
          [
            120.807569,
            24.283762
          ],
          [
            120.807397,
            24.283848
          ],
          [
            120.807225,
            24.283891
          ],
          [
            120.806903,
            24.283955
          ],
          [
            120.806429,
            24.283957
          ],
          [
            120.805305,
            24.283916
          ],
          [
            120.804918,
            24.283916
          ],
          [
            120.804296,
            24.283938
          ],
          [
            120.803808,
            24.284045
          ],
          [
            120.803465,
            24.284153
          ],
          [
            120.802907,
            24.284367
          ],
          [
            120.802193,
            24.284624
          ],
          [
            120.801678,
            24.28483
          ],
          [
            120.801335,
            24.284921
          ],
          [
            120.801061,
            24.28499
          ],
          [
            120.800048,
            24.285182
          ],
          [
            120.799726,
            24.285268
          ],
          [
            120.799511,
            24.285354
          ],
          [
            120.799254,
            24.285461
          ],
          [
            120.799077,
            24.285528
          ],
          [
            120.798914,
            24.285558
          ],
          [
            120.79881,
            24.285558
          ],
          [
            120.798704,
            24.285553
          ],
          [
            120.798512,
            24.28552
          ],
          [
            120.798295,
            24.285444
          ],
          [
            120.797988,
            24.285321
          ],
          [
            120.797779,
            24.285235
          ],
          [
            120.797476,
            24.285154
          ],
          [
            120.797056,
            24.285221
          ],
          [
            120.796947,
            24.285233
          ],
          [
            120.796838,
            24.285253
          ],
          [
            120.796732,
            24.28528
          ],
          [
            120.796628,
            24.285314
          ],
          [
            120.796526,
            24.285354
          ],
          [
            120.796428,
            24.285401
          ],
          [
            120.796334,
            24.285455
          ],
          [
            120.796233,
            24.285512
          ],
          [
            120.796023,
            24.285659
          ],
          [
            120.795965,
            24.285729
          ],
          [
            120.795836,
            24.285901
          ],
          [
            120.795729,
            24.286115
          ],
          [
            120.795665,
            24.286287
          ],
          [
            120.795665,
            24.286416
          ],
          [
            120.795686,
            24.286909
          ],
          [
            120.795708,
            24.287095
          ],
          [
            120.795732,
            24.287332
          ],
          [
            120.795775,
            24.287526
          ],
          [
            120.795987,
            24.288068
          ],
          [
            120.796072,
            24.288261
          ],
          [
            120.796195,
            24.288493
          ],
          [
            120.796276,
            24.288695
          ],
          [
            120.796402,
            24.289143
          ],
          [
            120.796496,
            24.289476
          ],
          [
            120.796569,
            24.289739
          ],
          [
            120.796673,
            24.289881
          ],
          [
            120.796762,
            24.289974
          ],
          [
            120.796886,
            24.29008
          ],
          [
            120.796994,
            24.290146
          ],
          [
            120.7971,
            24.290206
          ],
          [
            120.798454,
            24.290787
          ],
          [
            120.799229,
            24.291125
          ],
          [
            120.799578,
            24.291281
          ],
          [
            120.799913,
            24.291454
          ],
          [
            120.800104,
            24.291578
          ],
          [
            120.800313,
            24.291733
          ],
          [
            120.800557,
            24.29199
          ],
          [
            120.800959,
            24.292476
          ],
          [
            120.801079,
            24.292652
          ],
          [
            120.801136,
            24.292759
          ],
          [
            120.8012,
            24.292918
          ],
          [
            120.80124,
            24.293053
          ],
          [
            120.801244,
            24.293207
          ],
          [
            120.801222,
            24.293393
          ],
          [
            120.801115,
            24.293884
          ],
          [
            120.800986,
            24.294333
          ],
          [
            120.800946,
            24.294461
          ],
          [
            120.800934,
            24.294659
          ],
          [
            120.800939,
            24.294886
          ],
          [
            120.800981,
            24.29507
          ],
          [
            120.801075,
            24.295264
          ],
          [
            120.801197,
            24.295486
          ],
          [
            120.801601,
            24.29617
          ],
          [
            120.801842,
            24.296578
          ],
          [
            120.802048,
            24.296928
          ],
          [
            120.802359,
            24.297492
          ],
          [
            120.802448,
            24.297654
          ],
          [
            120.80259,
            24.297896
          ],
          [
            120.802669,
            24.29809
          ],
          [
            120.802718,
            24.298237
          ],
          [
            120.80273,
            24.298379
          ],
          [
            120.802727,
            24.298558
          ],
          [
            120.802644,
            24.298935
          ],
          [
            120.802529,
            24.299441
          ],
          [
            120.802432,
            24.299796
          ],
          [
            120.802349,
            24.300108
          ],
          [
            120.802282,
            24.300289
          ],
          [
            120.802073,
            24.300565
          ],
          [
            120.801799,
            24.300886
          ],
          [
            120.801549,
            24.301167
          ],
          [
            120.801397,
            24.301387
          ],
          [
            120.801246,
            24.301593
          ],
          [
            120.801116,
            24.301772
          ],
          [
            120.801099,
            24.301795
          ],
          [
            120.800833,
            24.302247
          ],
          [
            120.80064,
            24.302577
          ],
          [
            120.800585,
            24.302673
          ],
          [
            120.800528,
            24.302773
          ],
          [
            120.800477,
            24.302905
          ],
          [
            120.800454,
            24.303043
          ],
          [
            120.800457,
            24.303166
          ],
          [
            120.800482,
            24.30327
          ],
          [
            120.800577,
            24.303474
          ],
          [
            120.800638,
            24.303554
          ],
          [
            120.80069,
            24.303616
          ],
          [
            120.800825,
            24.303723
          ],
          [
            120.800907,
            24.303778
          ],
          [
            120.800982,
            24.303816
          ],
          [
            120.801106,
            24.303864
          ],
          [
            120.801208,
            24.303891
          ],
          [
            120.801382,
            24.303907
          ],
          [
            120.80156,
            24.303894
          ],
          [
            120.801733,
            24.303864
          ],
          [
            120.801987,
            24.303772
          ],
          [
            120.802508,
            24.303529
          ],
          [
            120.802911,
            24.303356
          ],
          [
            120.803085,
            24.303312
          ],
          [
            120.803227,
            24.30328
          ],
          [
            120.803463,
            24.303258
          ],
          [
            120.803654,
            24.303253
          ],
          [
            120.804153,
            24.303224
          ],
          [
            120.804464,
            24.303233
          ],
          [
            120.804748,
            24.303254
          ],
          [
            120.804924,
            24.303312
          ],
          [
            120.805183,
            24.303428
          ],
          [
            120.805511,
            24.303585
          ],
          [
            120.805649,
            24.303622
          ],
          [
            120.80578,
            24.303659
          ],
          [
            120.805944,
            24.303669
          ],
          [
            120.806172,
            24.303652
          ],
          [
            120.8064,
            24.303615
          ],
          [
            120.806582,
            24.303571
          ],
          [
            120.807092,
            24.303466
          ],
          [
            120.807242,
            24.303446
          ],
          [
            120.807368,
            24.303432
          ],
          [
            120.808044,
            24.303371
          ],
          [
            120.808447,
            24.303339
          ],
          [
            120.808921,
            24.303273
          ],
          [
            120.809049,
            24.303262
          ],
          [
            120.809383,
            24.303234
          ],
          [
            120.809755,
            24.303241
          ],
          [
            120.809864,
            24.303244
          ],
          [
            120.810418,
            24.303261
          ],
          [
            120.810726,
            24.303305
          ],
          [
            120.810903,
            24.303359
          ],
          [
            120.810954,
            24.303376
          ],
          [
            120.811184,
            24.303479
          ],
          [
            120.811247,
            24.303507
          ],
          [
            120.811426,
            24.303627
          ],
          [
            120.811711,
            24.303857
          ],
          [
            120.811679,
            24.303929
          ],
          [
            120.811562,
            24.30407
          ],
          [
            120.811153,
            24.304607
          ],
          [
            120.811075,
            24.304681
          ],
          [
            120.81093,
            24.304732
          ],
          [
            120.810854,
            24.304751
          ],
          [
            120.809065,
            24.305105
          ],
          [
            120.807906,
            24.305306
          ],
          [
            120.807171,
            24.305447
          ],
          [
            120.806767,
            24.30551
          ],
          [
            120.806199,
            24.30561
          ],
          [
            120.806045,
            24.305637
          ],
          [
            120.805558,
            24.305741
          ],
          [
            120.804566,
            24.305919
          ],
          [
            120.803712,
            24.306064
          ],
          [
            120.802879,
            24.306219
          ],
          [
            120.802699,
            24.306253
          ],
          [
            120.801894,
            24.306396
          ],
          [
            120.800253,
            24.306713
          ],
          [
            120.799681,
            24.30687
          ],
          [
            120.798105,
            24.307552
          ],
          [
            120.798031,
            24.307584
          ],
          [
            120.795875,
            24.308478
          ],
          [
            120.796147,
            24.309119
          ],
          [
            120.796156,
            24.309173
          ],
          [
            120.796159,
            24.309401
          ],
          [
            120.796154,
            24.309674
          ],
          [
            120.796098,
            24.309966
          ],
          [
            120.795955,
            24.31019
          ],
          [
            120.79602,
            24.310387
          ],
          [
            120.796026,
            24.310515
          ],
          [
            120.796006,
            24.310591
          ],
          [
            120.795818,
            24.310753
          ],
          [
            120.795162,
            24.311296
          ],
          [
            120.795038,
            24.311399
          ],
          [
            120.794964,
            24.311557
          ],
          [
            120.795038,
            24.311399
          ],
          [
            120.795162,
            24.311296
          ],
          [
            120.795818,
            24.310753
          ],
          [
            120.796006,
            24.310591
          ],
          [
            120.796026,
            24.310515
          ],
          [
            120.79602,
            24.310387
          ],
          [
            120.795955,
            24.31019
          ],
          [
            120.796098,
            24.309966
          ],
          [
            120.796154,
            24.309674
          ],
          [
            120.796159,
            24.309401
          ],
          [
            120.796156,
            24.309173
          ],
          [
            120.796147,
            24.309119
          ],
          [
            120.795875,
            24.308478
          ],
          [
            120.798031,
            24.307584
          ],
          [
            120.798105,
            24.307552
          ],
          [
            120.799681,
            24.30687
          ],
          [
            120.800253,
            24.306713
          ],
          [
            120.801894,
            24.306396
          ],
          [
            120.802699,
            24.306253
          ],
          [
            120.802879,
            24.306219
          ],
          [
            120.803712,
            24.306064
          ],
          [
            120.804566,
            24.305919
          ],
          [
            120.805558,
            24.305741
          ],
          [
            120.806045,
            24.305637
          ],
          [
            120.806199,
            24.30561
          ],
          [
            120.806767,
            24.30551
          ],
          [
            120.807171,
            24.305447
          ],
          [
            120.807906,
            24.305306
          ],
          [
            120.809065,
            24.305105
          ],
          [
            120.810854,
            24.304751
          ],
          [
            120.81093,
            24.304732
          ],
          [
            120.811075,
            24.304681
          ],
          [
            120.811153,
            24.304607
          ],
          [
            120.811562,
            24.30407
          ],
          [
            120.811679,
            24.303929
          ],
          [
            120.811421,
            24.303737
          ],
          [
            120.811223,
            24.303622
          ],
          [
            120.810944,
            24.303495
          ],
          [
            120.81078,
            24.303427
          ],
          [
            120.810649,
            24.3034
          ],
          [
            120.810343,
            24.303356
          ],
          [
            120.809734,
            24.303349
          ],
          [
            120.809409,
            24.303332
          ],
          [
            120.809168,
            24.303354
          ],
          [
            120.808916,
            24.303371
          ],
          [
            120.808361,
            24.303446
          ],
          [
            120.807419,
            24.303522
          ],
          [
            120.807306,
            24.303532
          ],
          [
            120.807135,
            24.303556
          ],
          [
            120.806668,
            24.303642
          ],
          [
            120.806606,
            24.303657
          ],
          [
            120.806252,
            24.303745
          ],
          [
            120.805965,
            24.303776
          ],
          [
            120.80576,
            24.303764
          ],
          [
            120.805614,
            24.303728
          ],
          [
            120.805463,
            24.303669
          ],
          [
            120.805114,
            24.303497
          ],
          [
            120.804917,
            24.303412
          ],
          [
            120.80481,
            24.303378
          ],
          [
            120.804758,
            24.303362
          ],
          [
            120.804635,
            24.30334
          ],
          [
            120.804446,
            24.303332
          ],
          [
            120.804216,
            24.303334
          ],
          [
            120.80361,
            24.303354
          ],
          [
            120.803285,
            24.303381
          ],
          [
            120.803163,
            24.3034
          ],
          [
            120.803094,
            24.303418
          ],
          [
            120.802876,
            24.303488
          ],
          [
            120.802519,
            24.303637
          ],
          [
            120.802382,
            24.303693
          ],
          [
            120.802313,
            24.303723
          ],
          [
            120.801902,
            24.3039
          ],
          [
            120.801757,
            24.303951
          ],
          [
            120.801547,
            24.303997
          ],
          [
            120.801393,
            24.304005
          ],
          [
            120.801312,
            24.304005
          ],
          [
            120.801245,
            24.303996
          ],
          [
            120.801144,
            24.30398
          ],
          [
            120.800972,
            24.303923
          ],
          [
            120.800776,
            24.303822
          ],
          [
            120.800623,
            24.303695
          ],
          [
            120.800493,
            24.303524
          ],
          [
            120.800401,
            24.30337
          ],
          [
            120.800359,
            24.30322
          ],
          [
            120.800359,
            24.30307
          ],
          [
            120.80038,
            24.302898
          ],
          [
            120.800432,
            24.302715
          ],
          [
            120.800662,
            24.302307
          ],
          [
            120.800868,
            24.301976
          ],
          [
            120.800964,
            24.301822
          ],
          [
            120.801016,
            24.301737
          ],
          [
            120.801385,
            24.301203
          ],
          [
            120.801582,
            24.300952
          ],
          [
            120.801971,
            24.300512
          ],
          [
            120.802178,
            24.300247
          ],
          [
            120.802255,
            24.300065
          ],
          [
            120.802323,
            24.299832
          ],
          [
            120.802475,
            24.299132
          ],
          [
            120.802555,
            24.298789
          ],
          [
            120.802601,
            24.298557
          ],
          [
            120.802609,
            24.298406
          ],
          [
            120.802587,
            24.298239
          ],
          [
            120.802537,
            24.298056
          ],
          [
            120.802475,
            24.297919
          ],
          [
            120.80225,
            24.297521
          ],
          [
            120.801732,
            24.296628
          ],
          [
            120.801045,
            24.295462
          ],
          [
            120.800935,
            24.295279
          ],
          [
            120.800863,
            24.295081
          ],
          [
            120.80082,
            24.294898
          ],
          [
            120.800812,
            24.294731
          ],
          [
            120.80082,
            24.294594
          ],
          [
            120.800816,
            24.294517
          ],
          [
            120.800879,
            24.294355
          ],
          [
            120.800927,
            24.294194
          ],
          [
            120.801061,
            24.293626
          ],
          [
            120.80113,
            24.293352
          ],
          [
            120.801147,
            24.293222
          ],
          [
            120.801143,
            24.293053
          ],
          [
            120.801112,
            24.292929
          ],
          [
            120.801056,
            24.292795
          ],
          [
            120.800976,
            24.292649
          ],
          [
            120.800706,
            24.292316
          ],
          [
            120.80049,
            24.292055
          ],
          [
            120.800313,
            24.291867
          ],
          [
            120.800121,
            24.291692
          ],
          [
            120.799921,
            24.291556
          ],
          [
            120.799562,
            24.291341
          ],
          [
            120.798417,
            24.290843
          ],
          [
            120.79707,
            24.290257
          ],
          [
            120.796866,
            24.290139
          ],
          [
            120.796731,
            24.290029
          ],
          [
            120.79664,
            24.289949
          ],
          [
            120.796587,
            24.289892
          ],
          [
            120.796499,
            24.289751
          ],
          [
            120.79644,
            24.289533
          ],
          [
            120.796324,
            24.28912
          ],
          [
            120.796211,
            24.288717
          ],
          [
            120.796125,
            24.288519
          ],
          [
            120.795885,
            24.288069
          ],
          [
            120.795671,
            24.287542
          ],
          [
            120.79563,
            24.287298
          ],
          [
            120.7956,
            24.286909
          ],
          [
            120.795557,
            24.286416
          ],
          [
            120.795579,
            24.286265
          ],
          [
            120.795622,
            24.286094
          ],
          [
            120.795751,
            24.285858
          ],
          [
            120.795901,
            24.285665
          ],
          [
            120.795965,
            24.2856
          ],
          [
            120.796201,
            24.285428
          ],
          [
            120.796332,
            24.285358
          ],
          [
            120.796468,
            24.285295
          ],
          [
            120.796604,
            24.285228
          ],
          [
            120.796752,
            24.28518
          ],
          [
            120.796904,
            24.285146
          ],
          [
            120.797058,
            24.285118
          ],
          [
            120.797214,
            24.285109
          ],
          [
            120.797476,
            24.285154
          ],
          [
            120.797779,
            24.285235
          ],
          [
            120.797988,
            24.285321
          ],
          [
            120.798295,
            24.285444
          ],
          [
            120.798512,
            24.28552
          ],
          [
            120.798704,
            24.285553
          ],
          [
            120.79881,
            24.285558
          ],
          [
            120.798914,
            24.285558
          ],
          [
            120.799077,
            24.285528
          ],
          [
            120.799254,
            24.285461
          ],
          [
            120.799511,
            24.285354
          ],
          [
            120.799726,
            24.285268
          ],
          [
            120.800048,
            24.285182
          ],
          [
            120.801061,
            24.28499
          ],
          [
            120.801335,
            24.284921
          ],
          [
            120.801678,
            24.28483
          ],
          [
            120.802193,
            24.284624
          ],
          [
            120.802907,
            24.284367
          ],
          [
            120.803465,
            24.284153
          ],
          [
            120.803808,
            24.284045
          ],
          [
            120.804296,
            24.283938
          ],
          [
            120.804918,
            24.283916
          ],
          [
            120.805305,
            24.283916
          ],
          [
            120.806429,
            24.283957
          ],
          [
            120.806903,
            24.283955
          ],
          [
            120.807225,
            24.283891
          ],
          [
            120.807397,
            24.283848
          ],
          [
            120.807569,
            24.283762
          ],
          [
            120.80774,
            24.283676
          ],
          [
            120.807764,
            24.283657
          ],
          [
            120.808266,
            24.283272
          ],
          [
            120.808609,
            24.283079
          ],
          [
            120.808824,
            24.282972
          ],
          [
            120.80921,
            24.282822
          ],
          [
            120.809639,
            24.282629
          ],
          [
            120.809768,
            24.282543
          ],
          [
            120.809966,
            24.282391
          ],
          [
            120.810572,
            24.281886
          ],
          [
            120.810809,
            24.281757
          ],
          [
            120.81098,
            24.281671
          ],
          [
            120.811245,
            24.281584
          ],
          [
            120.81218,
            24.281358
          ],
          [
            120.812504,
            24.28128
          ],
          [
            120.81269,
            24.281214
          ],
          [
            120.813129,
            24.281032
          ],
          [
            120.813319,
            24.28096
          ],
          [
            120.813564,
            24.280849
          ],
          [
            120.814116,
            24.280613
          ],
          [
            120.814364,
            24.280496
          ],
          [
            120.814529,
            24.280391
          ],
          [
            120.815084,
            24.279919
          ],
          [
            120.815576,
            24.279482
          ],
          [
            120.816097,
            24.279061
          ],
          [
            120.816322,
            24.278869
          ],
          [
            120.816484,
            24.278718
          ],
          [
            120.817021,
            24.277886
          ],
          [
            120.817385,
            24.277372
          ],
          [
            120.817965,
            24.276535
          ],
          [
            120.818244,
            24.276127
          ],
          [
            120.818321,
            24.276042
          ],
          [
            120.818555,
            24.275797
          ],
          [
            120.818973,
            24.275419
          ],
          [
            120.819264,
            24.275171
          ],
          [
            120.819484,
            24.274922
          ],
          [
            120.81996,
            24.274303
          ],
          [
            120.820818,
            24.273209
          ],
          [
            120.821159,
            24.272831
          ],
          [
            120.821205,
            24.27278
          ],
          [
            120.822398,
            24.271497
          ],
          [
            120.822771,
            24.271063
          ],
          [
            120.822857,
            24.270956
          ],
          [
            120.822921,
            24.270848
          ],
          [
            120.822964,
            24.27072
          ],
          [
            120.822986,
            24.270591
          ],
          [
            120.823003,
            24.270329
          ],
          [
            120.823007,
            24.270269
          ],
          [
            120.823157,
            24.269003
          ],
          [
            120.823179,
            24.268917
          ],
          [
            120.823243,
            24.268724
          ],
          [
            120.823372,
            24.268488
          ],
          [
            120.823951,
            24.26791
          ],
          [
            120.824037,
            24.267802
          ],
          [
            120.824209,
            24.267567
          ],
          [
            120.824402,
            24.267287
          ],
          [
            120.823473,
            24.266884
          ],
          [
            120.823545,
            24.266493
          ],
          [
            120.823473,
            24.266884
          ],
          [
            120.824402,
            24.267287
          ],
          [
            120.82432,
            24.267407
          ],
          [
            120.824402,
            24.267287
          ],
          [
            120.824612,
            24.266961
          ],
          [
            120.824638,
            24.266922
          ],
          [
            120.824827,
            24.266618
          ],
          [
            120.824998,
            24.26641
          ],
          [
            120.825208,
            24.266077
          ],
          [
            120.825695,
            24.265344
          ],
          [
            120.825904,
            24.265033
          ],
          [
            120.825913,
            24.265013
          ],
          [
            120.826002,
            24.264794
          ],
          [
            120.826089,
            24.264471
          ],
          [
            120.825872,
            24.264426
          ],
          [
            120.825595,
            24.264372
          ],
          [
            120.825872,
            24.264426
          ],
          [
            120.826089,
            24.264471
          ],
          [
            120.826237,
            24.263922
          ],
          [
            120.826539,
            24.262894
          ],
          [
            120.826562,
            24.262815
          ],
          [
            120.826579,
            24.262753
          ],
          [
            120.826671,
            24.262428
          ],
          [
            120.826744,
            24.262172
          ],
          [
            120.826766,
            24.262094
          ],
          [
            120.826791,
            24.262006
          ],
          [
            120.826911,
            24.261684
          ],
          [
            120.826934,
            24.261434
          ],
          [
            120.826983,
            24.260914
          ],
          [
            120.826992,
            24.260819
          ],
          [
            120.827009,
            24.26074
          ],
          [
            120.827018,
            24.260714
          ],
          [
            120.827159,
            24.260185
          ],
          [
            120.827192,
            24.260043
          ],
          [
            120.827563,
            24.260112
          ],
          [
            120.827725,
            24.260142
          ],
          [
            120.82802,
            24.260211
          ],
          [
            120.828265,
            24.260325
          ],
          [
            120.829172,
            24.260555
          ],
          [
            120.830665,
            24.260975
          ],
          [
            120.829172,
            24.260555
          ],
          [
            120.828594,
            24.260408
          ],
          [
            120.828265,
            24.260325
          ],
          [
            120.828905,
            24.260749
          ],
          [
            120.829091,
            24.260861
          ],
          [
            120.828914,
            24.261489
          ],
          [
            120.828832,
            24.261788
          ],
          [
            120.828785,
            24.261962
          ],
          [
            120.828861,
            24.261973
          ],
          [
            120.828785,
            24.261962
          ],
          [
            120.828636,
            24.262546
          ],
          [
            120.828552,
            24.262888
          ],
          [
            120.828535,
            24.262954
          ],
          [
            120.828552,
            24.262888
          ],
          [
            120.828636,
            24.262546
          ],
          [
            120.827622,
            24.262299
          ],
          [
            120.827476,
            24.262263
          ],
          [
            120.826766,
            24.262094
          ],
          [
            120.826744,
            24.262172
          ],
          [
            120.826671,
            24.262428
          ],
          [
            120.826579,
            24.262753
          ],
          [
            120.826562,
            24.262815
          ],
          [
            120.826539,
            24.262894
          ],
          [
            120.826237,
            24.263922
          ],
          [
            120.826089,
            24.264471
          ],
          [
            120.826002,
            24.264794
          ],
          [
            120.825913,
            24.265013
          ],
          [
            120.825904,
            24.265033
          ],
          [
            120.825695,
            24.265344
          ],
          [
            120.825208,
            24.266077
          ],
          [
            120.824998,
            24.26641
          ],
          [
            120.825393,
            24.266675
          ],
          [
            120.825847,
            24.266912
          ],
          [
            120.82655,
            24.267306
          ],
          [
            120.826707,
            24.267394
          ],
          [
            120.827297,
            24.266521
          ],
          [
            120.826898,
            24.265926
          ],
          [
            120.82665,
            24.265801
          ],
          [
            120.826602,
            24.265779
          ],
          [
            120.82665,
            24.265801
          ],
          [
            120.826898,
            24.265926
          ],
          [
            120.827297,
            24.266521
          ],
          [
            120.826707,
            24.267394
          ],
          [
            120.826322,
            24.267943
          ],
          [
            120.825598,
            24.269033
          ],
          [
            120.825306,
            24.269473
          ],
          [
            120.825214,
            24.269418
          ],
          [
            120.825011,
            24.269295
          ],
          [
            120.824353,
            24.268897
          ],
          [
            120.823706,
            24.268604
          ],
          [
            120.823677,
            24.26861
          ],
          [
            120.823653,
            24.268643
          ],
          [
            120.823372,
            24.268488
          ],
          [
            120.823951,
            24.26791
          ],
          [
            120.824037,
            24.267802
          ],
          [
            120.824209,
            24.267567
          ],
          [
            120.824402,
            24.267287
          ],
          [
            120.824612,
            24.266961
          ],
          [
            120.824638,
            24.266922
          ],
          [
            120.824827,
            24.266618
          ],
          [
            120.824998,
            24.26641
          ],
          [
            120.825208,
            24.266077
          ],
          [
            120.825695,
            24.265344
          ],
          [
            120.825755,
            24.265255
          ],
          [
            120.825904,
            24.265033
          ],
          [
            120.825913,
            24.265013
          ],
          [
            120.826002,
            24.264794
          ],
          [
            120.826089,
            24.264471
          ],
          [
            120.826789,
            24.264634
          ],
          [
            120.826089,
            24.264471
          ],
          [
            120.826237,
            24.263922
          ],
          [
            120.826539,
            24.262894
          ],
          [
            120.826562,
            24.262815
          ],
          [
            120.826579,
            24.262753
          ],
          [
            120.826671,
            24.262428
          ],
          [
            120.826744,
            24.262172
          ],
          [
            120.826766,
            24.262094
          ],
          [
            120.827476,
            24.262263
          ],
          [
            120.827622,
            24.262299
          ],
          [
            120.828212,
            24.262443
          ],
          [
            120.827622,
            24.262299
          ],
          [
            120.827476,
            24.262263
          ],
          [
            120.826766,
            24.262094
          ],
          [
            120.826791,
            24.262006
          ],
          [
            120.826911,
            24.261684
          ],
          [
            120.826934,
            24.261434
          ],
          [
            120.826983,
            24.260914
          ],
          [
            120.826992,
            24.260819
          ],
          [
            120.827009,
            24.26074
          ],
          [
            120.827018,
            24.260714
          ],
          [
            120.827159,
            24.260185
          ],
          [
            120.827192,
            24.260043
          ],
          [
            120.827419,
            24.259354
          ],
          [
            120.827593,
            24.258854
          ],
          [
            120.827865,
            24.258218
          ],
          [
            120.828085,
            24.257692
          ],
          [
            120.828317,
            24.257176
          ],
          [
            120.828534,
            24.256705
          ],
          [
            120.828652,
            24.256748
          ],
          [
            120.828756,
            24.256786
          ],
          [
            120.829754,
            24.257145
          ],
          [
            120.829859,
            24.257185
          ],
          [
            120.829924,
            24.25721
          ],
          [
            120.830723,
            24.257521
          ],
          [
            120.830812,
            24.25754
          ],
          [
            120.83117,
            24.257571
          ],
          [
            120.831195,
            24.25746
          ],
          [
            120.831208,
            24.257399
          ],
          [
            120.83122,
            24.257348
          ],
          [
            120.831303,
            24.256976
          ],
          [
            120.831308,
            24.256955
          ],
          [
            120.831317,
            24.256912
          ],
          [
            120.8314,
            24.256526
          ],
          [
            120.831456,
            24.256267
          ],
          [
            120.831548,
            24.255813
          ],
          [
            120.831601,
            24.255553
          ],
          [
            120.831657,
            24.255275
          ],
          [
            120.83182,
            24.254466
          ],
          [
            120.831902,
            24.254061
          ],
          [
            120.831876,
            24.253983
          ],
          [
            120.831787,
            24.253938
          ],
          [
            120.831707,
            24.253923
          ],
          [
            120.831524,
            24.253889
          ],
          [
            120.831149,
            24.253818
          ],
          [
            120.830551,
            24.253694
          ],
          [
            120.83003,
            24.253579
          ],
          [
            120.830016,
            24.253634
          ]
        ]
      },
      "properties": {
        "routeId": "taichung-keu-6262-43d1bd-d2",
        "city": "taichung",
        "source_file": "taichung/taichung-keu-6262-43d1bd-d2.geojson",
        "distance_km": 33.163,
        "duration_min": 42.5781,
        "valhalla_config": "valhalla.json"
      }
    }
  ]
}