{
  "type": "FeatureCollection",
  "features": [
    {
      "type": "Feature",
      "geometry": {
        "type": "LineString",
        "coordinates": [
          [
            120.729375,
            24.256409
          ],
          [
            120.729414,
            24.256352
          ],
          [
            120.729577,
            24.256067
          ],
          [
            120.72967,
            24.255895
          ],
          [
            120.729718,
            24.255795
          ],
          [
            120.729758,
            24.255631
          ],
          [
            120.72982,
            24.255092
          ],
          [
            120.729927,
            24.254187
          ],
          [
            120.72994,
            24.254005
          ],
          [
            120.72994,
            24.253898
          ],
          [
            120.7299,
            24.253593
          ],
          [
            120.729855,
            24.253419
          ],
          [
            120.729765,
            24.253235
          ],
          [
            120.729358,
            24.252496
          ],
          [
            120.729291,
            24.252376
          ],
          [
            120.728811,
            24.251509
          ],
          [
            120.728553,
            24.251056
          ],
          [
            120.727579,
            24.249283
          ],
          [
            120.727346,
            24.248851
          ],
          [
            120.727299,
            24.248775
          ],
          [
            120.726889,
            24.248047
          ],
          [
            120.726819,
            24.247925
          ],
          [
            120.726673,
            24.247659
          ],
          [
            120.726451,
            24.247266
          ],
          [
            120.72612,
            24.246698
          ],
          [
            120.72589,
            24.246317
          ],
          [
            120.725798,
            24.246188
          ],
          [
            120.725703,
            24.246084
          ],
          [
            120.725559,
            24.245963
          ],
          [
            120.72546,
            24.245887
          ],
          [
            120.725033,
            24.245613
          ],
          [
            120.724006,
            24.245014
          ],
          [
            120.723654,
            24.2448
          ],
          [
            120.723177,
            24.244505
          ],
          [
            120.722781,
            24.244264
          ],
          [
            120.721713,
            24.243609
          ],
          [
            120.721586,
            24.243542
          ],
          [
            120.721444,
            24.243479
          ],
          [
            120.721188,
            24.243401
          ],
          [
            120.720946,
            24.243346
          ],
          [
            120.720509,
            24.243337
          ],
          [
            120.719421,
            24.243364
          ],
          [
            120.719147,
            24.24337
          ],
          [
            120.718949,
            24.243395
          ],
          [
            120.718837,
            24.243416
          ],
          [
            120.718192,
            24.243634
          ],
          [
            120.718174,
            24.243561
          ],
          [
            120.718684,
            24.243383
          ],
          [
            120.718866,
            24.243333
          ],
          [
            120.718996,
            24.243308
          ],
          [
            120.719239,
            24.242744
          ],
          [
            120.719344,
            24.242495
          ],
          [
            120.719509,
            24.242103
          ],
          [
            120.719596,
            24.241897
          ],
          [
            120.719833,
            24.241501
          ],
          [
            120.720004,
            24.241218
          ],
          [
            120.720188,
            24.240949
          ],
          [
            120.720361,
            24.240668
          ],
          [
            120.720375,
            24.240644
          ],
          [
            120.720436,
            24.240546
          ],
          [
            120.72059,
            24.240176
          ],
          [
            120.720621,
            24.240148
          ],
          [
            120.720649,
            24.240124
          ],
          [
            120.721209,
            24.239637
          ],
          [
            120.721651,
            24.239277
          ],
          [
            120.721677,
            24.239257
          ],
          [
            120.721761,
            24.239188
          ],
          [
            120.721848,
            24.239109
          ],
          [
            120.721874,
            24.239085
          ],
          [
            120.7219,
            24.239061
          ],
          [
            120.721964,
            24.239005
          ],
          [
            120.722174,
            24.238822
          ],
          [
            120.722295,
            24.238653
          ],
          [
            120.72241,
            24.238423
          ],
          [
            120.722456,
            24.238318
          ],
          [
            120.722467,
            24.238294
          ],
          [
            120.722483,
            24.238258
          ],
          [
            120.722495,
            24.238147
          ],
          [
            120.722506,
            24.238047
          ],
          [
            120.722507,
            24.238009
          ],
          [
            120.722508,
            24.237982
          ],
          [
            120.722511,
            24.237916
          ],
          [
            120.722503,
            24.237608
          ],
          [
            120.722495,
            24.237286
          ],
          [
            120.722497,
            24.236955
          ],
          [
            120.722492,
            24.236687
          ],
          [
            120.722492,
            24.23665
          ],
          [
            120.72249,
            24.236569
          ],
          [
            120.722496,
            24.23644
          ],
          [
            120.722506,
            24.236338
          ],
          [
            120.722519,
            24.236289
          ],
          [
            120.722576,
            24.236132
          ],
          [
            120.722608,
            24.236083
          ],
          [
            120.722601,
            24.235941
          ],
          [
            120.72258,
            24.235853
          ],
          [
            120.721846,
            24.235861
          ],
          [
            120.721846,
            24.235861
          ],
          [
            120.72258,
            24.235853
          ],
          [
            120.722601,
            24.235941
          ],
          [
            120.722608,
            24.236083
          ],
          [
            120.722576,
            24.236132
          ],
          [
            120.722519,
            24.236289
          ],
          [
            120.722506,
            24.236338
          ],
          [
            120.722496,
            24.23644
          ],
          [
            120.722636,
            24.236405
          ],
          [
            120.72301,
            24.236312
          ],
          [
            120.723459,
            24.236218
          ],
          [
            120.723723,
            24.236151
          ],
          [
            120.723959,
            24.236117
          ],
          [
            120.724395,
            24.236102
          ],
          [
            120.724818,
            24.236095
          ],
          [
            120.72506,
            24.236106
          ],
          [
            120.725269,
            24.236155
          ],
          [
            120.725437,
            24.236205
          ],
          [
            120.725607,
            24.236278
          ],
          [
            120.725897,
            24.236474
          ],
          [
            120.72604,
            24.236596
          ],
          [
            120.726141,
            24.23671
          ],
          [
            120.726263,
            24.236876
          ],
          [
            120.726342,
            24.237036
          ],
          [
            120.726447,
            24.237372
          ],
          [
            120.726521,
            24.237649
          ],
          [
            120.726589,
            24.237862
          ],
          [
            120.72672,
            24.238113
          ],
          [
            120.726809,
            24.238253
          ],
          [
            120.726836,
            24.238294
          ],
          [
            120.726872,
            24.238348
          ],
          [
            120.726721,
            24.23839
          ],
          [
            120.726685,
            24.238335
          ],
          [
            120.726606,
            24.238198
          ],
          [
            120.726491,
            24.237978
          ],
          [
            120.726491,
            24.237977
          ],
          [
            120.726491,
            24.237977
          ],
          [
            120.726391,
            24.237716
          ],
          [
            120.72628,
            24.237276
          ],
          [
            120.726208,
            24.237085
          ],
          [
            120.726136,
            24.23694
          ],
          [
            120.726049,
            24.23682
          ],
          [
            120.725898,
            24.236664
          ],
          [
            120.725797,
            24.236556
          ],
          [
            120.725539,
            24.236378
          ],
          [
            120.72536,
            24.236311
          ],
          [
            120.725109,
            24.236252
          ],
          [
            120.724829,
            24.236227
          ],
          [
            120.72461,
            24.236227
          ],
          [
            120.724447,
            24.236226
          ],
          [
            120.723846,
            24.236247
          ],
          [
            120.7231,
            24.236429
          ],
          [
            120.723117,
            24.236501
          ],
          [
            120.723144,
            24.236622
          ],
          [
            120.723296,
            24.236778
          ],
          [
            120.723335,
            24.236814
          ],
          [
            120.723335,
            24.236814
          ],
          [
            120.723483,
            24.236952
          ],
          [
            120.723578,
            24.237058
          ],
          [
            120.723752,
            24.237242
          ],
          [
            120.723785,
            24.2373
          ],
          [
            120.723784,
            24.237387
          ],
          [
            120.723791,
            24.237588
          ],
          [
            120.723747,
            24.237707
          ],
          [
            120.723895,
            24.237758
          ],
          [
            120.723961,
            24.237837
          ],
          [
            120.724004,
            24.237908
          ],
          [
            120.724088,
            24.237986
          ],
          [
            120.724133,
            24.238001
          ],
          [
            120.724178,
            24.238011
          ],
          [
            120.724214,
            24.237997
          ],
          [
            120.724255,
            24.237964
          ],
          [
            120.724508,
            24.237683
          ],
          [
            120.724927,
            24.238003
          ],
          [
            120.725106,
            24.237768
          ],
          [
            120.725238,
            24.237621
          ],
          [
            120.725238,
            24.237621
          ],
          [
            120.725106,
            24.237768
          ],
          [
            120.724927,
            24.238003
          ],
          [
            120.724508,
            24.237683
          ],
          [
            120.724255,
            24.237964
          ],
          [
            120.724214,
            24.237997
          ],
          [
            120.724178,
            24.238011
          ],
          [
            120.724133,
            24.238001
          ],
          [
            120.724121,
            24.237997
          ],
          [
            120.724121,
            24.237997
          ],
          [
            120.724088,
            24.237986
          ],
          [
            120.724004,
            24.237908
          ],
          [
            120.723961,
            24.237837
          ],
          [
            120.723895,
            24.237758
          ],
          [
            120.723747,
            24.237707
          ],
          [
            120.723791,
            24.237588
          ],
          [
            120.723784,
            24.237387
          ],
          [
            120.723785,
            24.2373
          ],
          [
            120.723752,
            24.237242
          ],
          [
            120.723578,
            24.237058
          ],
          [
            120.723483,
            24.236952
          ],
          [
            120.723296,
            24.236778
          ],
          [
            120.723144,
            24.236622
          ],
          [
            120.723117,
            24.236501
          ],
          [
            120.7231,
            24.236429
          ],
          [
            120.723052,
            24.236441
          ],
          [
            120.722686,
            24.236524
          ],
          [
            120.722639,
            24.236535
          ],
          [
            120.72249,
            24.236569
          ],
          [
            120.722496,
            24.23644
          ],
          [
            120.722636,
            24.236405
          ],
          [
            120.72301,
            24.236312
          ],
          [
            120.723459,
            24.236218
          ],
          [
            120.723723,
            24.236151
          ],
          [
            120.723959,
            24.236117
          ],
          [
            120.724395,
            24.236102
          ],
          [
            120.724818,
            24.236095
          ],
          [
            120.72506,
            24.236106
          ],
          [
            120.725269,
            24.236155
          ],
          [
            120.725437,
            24.236205
          ],
          [
            120.725607,
            24.236278
          ],
          [
            120.725897,
            24.236474
          ],
          [
            120.72604,
            24.236596
          ],
          [
            120.726141,
            24.23671
          ],
          [
            120.726263,
            24.236876
          ],
          [
            120.726342,
            24.237036
          ],
          [
            120.726447,
            24.237372
          ],
          [
            120.726521,
            24.237649
          ],
          [
            120.726589,
            24.237862
          ],
          [
            120.72672,
            24.238113
          ],
          [
            120.726809,
            24.238253
          ],
          [
            120.726836,
            24.238294
          ],
          [
            120.726872,
            24.238348
          ],
          [
            120.726928,
            24.238411
          ],
          [
            120.727279,
            24.238792
          ],
          [
            120.72743,
            24.238937
          ],
          [
            120.727455,
            24.23896
          ],
          [
            120.727536,
            24.239038
          ],
          [
            120.727601,
            24.239106
          ],
          [
            120.727652,
            24.23916
          ],
          [
            120.727822,
            24.239342
          ],
          [
            120.728111,
            24.239789
          ],
          [
            120.728302,
            24.240208
          ],
          [
            120.728605,
            24.241394
          ],
          [
            120.728664,
            24.241577
          ],
          [
            120.728817,
            24.241883
          ],
          [
            120.729025,
            24.242217
          ],
          [
            120.729486,
            24.242986
          ],
          [
            120.729717,
            24.243399
          ],
          [
            120.729791,
            24.243504
          ],
          [
            120.729718,
            24.243601
          ],
          [
            120.729539,
            24.243823
          ],
          [
            120.728627,
            24.244354
          ],
          [
            120.728583,
            24.244381
          ],
          [
            120.728339,
            24.244533
          ],
          [
            120.728285,
            24.244568
          ],
          [
            120.728164,
            24.244637
          ],
          [
            120.727981,
            24.244748
          ],
          [
            120.727899,
            24.244802
          ],
          [
            120.727802,
            24.244855
          ],
          [
            120.727,
            24.245322
          ],
          [
            120.726607,
            24.245549
          ],
          [
            120.726571,
            24.245561
          ],
          [
            120.726595,
            24.245664
          ],
          [
            120.726663,
            24.246057
          ],
          [
            120.726708,
            24.246148
          ],
          [
            120.726761,
            24.246222
          ],
          [
            120.72679,
            24.246241
          ],
          [
            120.72679,
            24.246241
          ],
          [
            120.726761,
            24.246222
          ],
          [
            120.726708,
            24.246148
          ],
          [
            120.726663,
            24.246057
          ],
          [
            120.726595,
            24.245664
          ],
          [
            120.726571,
            24.245561
          ],
          [
            120.725926,
            24.245956
          ],
          [
            120.725777,
            24.246036
          ],
          [
            120.725874,
            24.246136
          ],
          [
            120.725979,
            24.246308
          ],
          [
            120.726189,
            24.246662
          ],
          [
            120.726741,
            24.247619
          ],
          [
            120.727437,
            24.248855
          ],
          [
            120.727842,
            24.248857
          ],
          [
            120.728464,
            24.248834
          ],
          [
            120.728388,
            24.248422
          ],
          [
            120.728106,
            24.24847
          ],
          [
            120.728072,
            24.248378
          ],
          [
            120.728072,
            24.248378
          ],
          [
            120.728106,
            24.24847
          ],
          [
            120.728388,
            24.248422
          ],
          [
            120.728464,
            24.248834
          ],
          [
            120.727842,
            24.248857
          ],
          [
            120.727437,
            24.248855
          ],
          [
            120.72765,
            24.249251
          ],
          [
            120.727939,
            24.249774
          ],
          [
            120.728219,
            24.250292
          ],
          [
            120.728633,
            24.251025
          ],
          [
            120.729146,
            24.251942
          ],
          [
            120.729373,
            24.252353
          ],
          [
            120.729441,
            24.252489
          ],
          [
            120.729847,
            24.25322
          ],
          [
            120.729907,
            24.253346
          ],
          [
            120.729982,
            24.253584
          ],
          [
            120.730016,
            24.253859
          ],
          [
            120.730019,
            24.254043
          ],
          [
            120.729953,
            24.254644
          ],
          [
            120.729898,
            24.255097
          ],
          [
            120.729846,
            24.255598
          ],
          [
            120.729814,
            24.255744
          ],
          [
            120.729754,
            24.255902
          ],
          [
            120.730309,
            24.255984
          ],
          [
            120.730555,
            24.256006
          ],
          [
            120.730732,
            24.256012
          ],
          [
            120.731376,
            24.25603
          ],
          [
            120.731376,
            24.25603
          ],
          [
            120.730732,
            24.256012
          ],
          [
            120.730555,
            24.256006
          ],
          [
            120.730309,
            24.255984
          ],
          [
            120.729754,
            24.255902
          ],
          [
            120.729618,
            24.256165
          ],
          [
            120.729469,
            24.256409
          ],
          [
            120.729086,
            24.257002
          ],
          [
            120.729024,
            24.257066
          ],
          [
            120.728159,
            24.258375
          ],
          [
            120.727598,
            24.259224
          ],
          [
            120.727524,
            24.25935
          ],
          [
            120.727444,
            24.259448
          ],
          [
            120.727421,
            24.259475
          ],
          [
            120.727195,
            24.259679
          ],
          [
            120.726999,
            24.259823
          ],
          [
            120.726567,
            24.260082
          ],
          [
            120.725563,
            24.260315
          ],
          [
            120.724885,
            24.260451
          ],
          [
            120.725083,
            24.260979
          ],
          [
            120.725193,
            24.261016
          ],
          [
            120.725295,
            24.26104
          ],
          [
            120.725362,
            24.261094
          ],
          [
            120.725434,
            24.261219
          ],
          [
            120.725434,
            24.261219
          ],
          [
            120.725362,
            24.261094
          ],
          [
            120.725295,
            24.26104
          ],
          [
            120.725193,
            24.261016
          ],
          [
            120.725083,
            24.260979
          ],
          [
            120.724885,
            24.260451
          ],
          [
            120.724841,
            24.260326
          ],
          [
            120.726228,
            24.260023
          ],
          [
            120.726527,
            24.259963
          ],
          [
            120.726754,
            24.259872
          ],
          [
            120.726959,
            24.259757
          ],
          [
            120.72712,
            24.259618
          ],
          [
            120.727272,
            24.259467
          ],
          [
            120.727333,
            24.259409
          ],
          [
            120.727354,
            24.259384
          ],
          [
            120.727427,
            24.259297
          ],
          [
            120.727516,
            24.259164
          ],
          [
            120.728058,
            24.258346
          ],
          [
            120.728446,
            24.25776
          ],
          [
            120.728979,
            24.256989
          ],
          [
            120.729086,
            24.257002
          ],
          [
            120.730265,
            24.257669
          ],
          [
            120.732592,
            24.25894
          ],
          [
            120.732729,
            24.259018
          ],
          [
            120.732829,
            24.259079
          ],
          [
            120.733998,
            24.259644
          ],
          [
            120.73588,
            24.260572
          ],
          [
            120.736027,
            24.260633
          ],
          [
            120.736785,
            24.26101
          ],
          [
            120.739593,
            24.262371
          ],
          [
            120.740014,
            24.262568
          ],
          [
            120.741542,
            24.263306
          ],
          [
            120.742269,
            24.263664
          ],
          [
            120.742693,
            24.263864
          ],
          [
            120.743063,
            24.264027
          ],
          [
            120.744433,
            24.264652
          ],
          [
            120.744476,
            24.264672
          ],
          [
            120.744606,
            24.264704
          ],
          [
            120.744686,
            24.264771
          ],
          [
            120.745321,
            24.265099
          ],
          [
            120.746226,
            24.265582
          ],
          [
            120.746315,
            24.265642
          ],
          [
            120.746759,
            24.26595
          ],
          [
            120.746894,
            24.266052
          ],
          [
            120.747606,
            24.266578
          ],
          [
            120.747652,
            24.266621
          ],
          [
            120.748271,
            24.267073
          ],
          [
            120.748609,
            24.267346
          ],
          [
            120.748872,
            24.267579
          ],
          [
            120.749261,
            24.268039
          ],
          [
            120.749626,
            24.268491
          ],
          [
            120.749684,
            24.268552
          ],
          [
            120.749736,
            24.268606
          ],
          [
            120.749596,
            24.26866
          ],
          [
            120.749528,
            24.268698
          ],
          [
            120.749231,
            24.26886
          ],
          [
            120.749084,
            24.268932
          ],
          [
            120.748582,
            24.269138
          ],
          [
            120.748461,
            24.269188
          ],
          [
            120.748202,
            24.269293
          ],
          [
            120.748005,
            24.269419
          ],
          [
            120.747625,
            24.269558
          ],
          [
            120.747396,
            24.26963
          ],
          [
            120.747171,
            24.269705
          ],
          [
            120.746264,
            24.270009
          ],
          [
            120.746223,
            24.270021
          ],
          [
            120.746112,
            24.270053
          ],
          [
            120.745976,
            24.270092
          ],
          [
            120.744199,
            24.270574
          ],
          [
            120.743243,
            24.270878
          ],
          [
            120.742597,
            24.271154
          ],
          [
            120.742181,
            24.271287
          ],
          [
            120.741822,
            24.271336
          ],
          [
            120.741266,
            24.271445
          ],
          [
            120.74079,
            24.27154
          ],
          [
            120.740302,
            24.271664
          ],
          [
            120.740005,
            24.271717
          ],
          [
            120.739314,
            24.271943
          ],
          [
            120.739314,
            24.271943
          ],
          [
            120.73866,
            24.272156
          ],
          [
            120.73829,
            24.272295
          ],
          [
            120.737946,
            24.272418
          ],
          [
            120.737934,
            24.272127
          ],
          [
            120.738823,
            24.271805
          ],
          [
            120.739698,
            24.271549
          ],
          [
            120.740694,
            24.271216
          ],
          [
            120.741685,
            24.270846
          ],
          [
            120.742112,
            24.270656
          ],
          [
            120.742617,
            24.270567
          ],
          [
            120.743318,
            24.270464
          ],
          [
            120.744096,
            24.270331
          ],
          [
            120.744258,
            24.270365
          ],
          [
            120.744866,
            24.270191
          ],
          [
            120.745225,
            24.27009
          ],
          [
            120.747364,
            24.269454
          ],
          [
            120.747569,
            24.269374
          ],
          [
            120.748336,
            24.269061
          ],
          [
            120.748458,
            24.269012
          ],
          [
            120.748978,
            24.2688
          ],
          [
            120.749128,
            24.268735
          ],
          [
            120.749291,
            24.268601
          ],
          [
            120.749307,
            24.268585
          ],
          [
            120.74932,
            24.26857
          ],
          [
            120.749333,
            24.268549
          ],
          [
            120.749342,
            24.268535
          ],
          [
            120.749351,
            24.268517
          ],
          [
            120.749358,
            24.268501
          ],
          [
            120.749363,
            24.268485
          ],
          [
            120.749369,
            24.268454
          ],
          [
            120.749371,
            24.268418
          ],
          [
            120.749369,
            24.268379
          ],
          [
            120.749363,
            24.268357
          ],
          [
            120.749354,
            24.268333
          ],
          [
            120.749349,
            24.268321
          ],
          [
            120.749292,
            24.268242
          ],
          [
            120.748775,
            24.267644
          ],
          [
            120.747605,
            24.266732
          ],
          [
            120.74751,
            24.266651
          ],
          [
            120.746843,
            24.26614
          ],
          [
            120.746725,
            24.266044
          ],
          [
            120.746657,
            24.265997
          ],
          [
            120.746406,
            24.265823
          ],
          [
            120.746269,
            24.265727
          ],
          [
            120.746159,
            24.26566
          ],
          [
            120.745268,
            24.265186
          ],
          [
            120.744704,
            24.264918
          ],
          [
            120.744623,
            24.26488
          ],
          [
            120.744513,
            24.26483
          ],
          [
            120.744606,
            24.264704
          ],
          [
            120.744634,
            24.264651
          ],
          [
            120.744675,
            24.264577
          ],
          [
            120.744993,
            24.264006
          ],
          [
            120.74528,
            24.263538
          ],
          [
            120.745387,
            24.263339
          ],
          [
            120.745829,
            24.263534
          ],
          [
            120.745855,
            24.263557
          ],
          [
            120.745878,
            24.2636
          ],
          [
            120.746207,
            24.264458
          ],
          [
            120.746211,
            24.264486
          ],
          [
            120.746207,
            24.264502
          ],
          [
            120.746207,
            24.264502
          ],
          [
            120.746211,
            24.264486
          ],
          [
            120.746207,
            24.264458
          ],
          [
            120.745878,
            24.2636
          ],
          [
            120.745855,
            24.263557
          ],
          [
            120.745829,
            24.263534
          ],
          [
            120.745387,
            24.263339
          ],
          [
            120.74528,
            24.263538
          ],
          [
            120.744993,
            24.264006
          ],
          [
            120.744675,
            24.264577
          ],
          [
            120.744634,
            24.264651
          ],
          [
            120.744606,
            24.264704
          ],
          [
            120.744686,
            24.264771
          ],
          [
            120.745321,
            24.265099
          ],
          [
            120.746226,
            24.265582
          ],
          [
            120.746315,
            24.265642
          ],
          [
            120.746759,
            24.26595
          ],
          [
            120.746894,
            24.266052
          ],
          [
            120.747606,
            24.266578
          ],
          [
            120.747652,
            24.266621
          ],
          [
            120.748271,
            24.267073
          ],
          [
            120.748609,
            24.267346
          ],
          [
            120.748872,
            24.267579
          ],
          [
            120.749261,
            24.268039
          ],
          [
            120.749626,
            24.268491
          ],
          [
            120.749684,
            24.268552
          ],
          [
            120.749736,
            24.268606
          ],
          [
            120.749804,
            24.268676
          ],
          [
            120.74997,
            24.268858
          ],
          [
            120.750121,
            24.26903
          ],
          [
            120.750724,
            24.269718
          ],
          [
            120.751457,
            24.270548
          ],
          [
            120.751526,
            24.270643
          ],
          [
            120.751614,
            24.270732
          ],
          [
            120.751897,
            24.271046
          ],
          [
            120.751973,
            24.271132
          ],
          [
            120.752042,
            24.27122
          ],
          [
            120.752198,
            24.271436
          ],
          [
            120.752235,
            24.271479
          ],
          [
            120.752412,
            24.271681
          ],
          [
            120.752702,
            24.271999
          ],
          [
            120.752961,
            24.272313
          ],
          [
            120.753533,
            24.273008
          ],
          [
            120.753537,
            24.273011
          ],
          [
            120.753618,
            24.273092
          ],
          [
            120.753682,
            24.273163
          ],
          [
            120.753776,
            24.27327
          ],
          [
            120.753851,
            24.273361
          ],
          [
            120.754107,
            24.273638
          ],
          [
            120.75439,
            24.273827
          ],
          [
            120.754667,
            24.274021
          ],
          [
            120.754732,
            24.274068
          ],
          [
            120.754842,
            24.274136
          ],
          [
            120.754939,
            24.2742
          ],
          [
            120.755135,
            24.274338
          ],
          [
            120.755356,
            24.274464
          ],
          [
            120.75557,
            24.274602
          ],
          [
            120.7558,
            24.274742
          ],
          [
            120.755984,
            24.274856
          ],
          [
            120.756186,
            24.274964
          ],
          [
            120.756869,
            24.275317
          ],
          [
            120.75702,
            24.275395
          ],
          [
            120.757444,
            24.27563
          ],
          [
            120.757614,
            24.275724
          ],
          [
            120.758093,
            24.276004
          ],
          [
            120.758549,
            24.276285
          ],
          [
            120.758621,
            24.276326
          ],
          [
            120.758787,
            24.276424
          ],
          [
            120.758984,
            24.276533
          ],
          [
            120.759173,
            24.276632
          ],
          [
            120.759371,
            24.276723
          ],
          [
            120.759417,
            24.276748
          ],
          [
            120.759502,
            24.276786
          ],
          [
            120.759476,
            24.27689
          ],
          [
            120.759446,
            24.276979
          ],
          [
            120.759429,
            24.27701
          ],
          [
            120.75926,
            24.277267
          ],
          [
            120.759383,
            24.277329
          ],
          [
            120.759415,
            24.277352
          ],
          [
            120.759433,
            24.277373
          ],
          [
            120.759433,
            24.277409
          ],
          [
            120.759435,
            24.277436
          ],
          [
            120.759465,
            24.277463
          ],
          [
            120.759683,
            24.277563
          ],
          [
            120.760046,
            24.277727
          ],
          [
            120.760157,
            24.277781
          ],
          [
            120.760259,
            24.277833
          ],
          [
            120.760358,
            24.277894
          ],
          [
            120.760395,
            24.277911
          ],
          [
            120.760395,
            24.277911
          ],
          [
            120.760395,
            24.277911
          ],
          [
            120.760395,
            24.277911
          ],
          [
            120.760395,
            24.277911
          ],
          [
            120.760358,
            24.277894
          ],
          [
            120.760259,
            24.277833
          ],
          [
            120.760157,
            24.277781
          ],
          [
            120.760046,
            24.277727
          ],
          [
            120.759683,
            24.277563
          ],
          [
            120.759465,
            24.277463
          ],
          [
            120.759435,
            24.277436
          ],
          [
            120.759433,
            24.277409
          ],
          [
            120.759433,
            24.277373
          ],
          [
            120.759415,
            24.277352
          ],
          [
            120.759383,
            24.277329
          ],
          [
            120.75926,
            24.277267
          ],
          [
            120.759429,
            24.27701
          ],
          [
            120.759446,
            24.276979
          ],
          [
            120.759476,
            24.27689
          ],
          [
            120.759158,
            24.276741
          ],
          [
            120.758773,
            24.276539
          ],
          [
            120.75817,
            24.276174
          ],
          [
            120.758076,
            24.276124
          ],
          [
            120.75703,
            24.275558
          ],
          [
            120.756775,
            24.275423
          ],
          [
            120.755729,
            24.274871
          ],
          [
            120.755496,
            24.274724
          ],
          [
            120.754661,
            24.274198
          ],
          [
            120.754538,
            24.274115
          ],
          [
            120.754082,
            24.274136
          ],
          [
            120.753869,
            24.274238
          ],
          [
            120.753468,
            24.274229
          ],
          [
            120.753324,
            24.274266
          ],
          [
            120.753222,
            24.274335
          ],
          [
            120.753118,
            24.274415
          ],
          [
            120.753095,
            24.274452
          ],
          [
            120.753061,
            24.274507
          ],
          [
            120.75302,
            24.274612
          ],
          [
            120.753002,
            24.274719
          ],
          [
            120.75298,
            24.274809
          ],
          [
            120.752957,
            24.274816
          ],
          [
            120.752906,
            24.274831
          ],
          [
            120.752802,
            24.274813
          ],
          [
            120.752772,
            24.274805
          ],
          [
            120.752372,
            24.274699
          ],
          [
            120.751739,
            24.274633
          ],
          [
            120.751289,
            24.274535
          ],
          [
            120.751034,
            24.274492
          ],
          [
            120.750749,
            24.274468
          ],
          [
            120.750616,
            24.274439
          ],
          [
            120.750505,
            24.274407
          ],
          [
            120.750259,
            24.274332
          ],
          [
            120.749814,
            24.274194
          ],
          [
            120.749582,
            24.274144
          ],
          [
            120.749359,
            24.274093
          ],
          [
            120.749315,
            24.274083
          ],
          [
            120.749167,
            24.274085
          ],
          [
            120.748974,
            24.274143
          ],
          [
            120.748943,
            24.274155
          ],
          [
            120.748685,
            24.274254
          ],
          [
            120.748384,
            24.274365
          ],
          [
            120.748229,
            24.274421
          ],
          [
            120.748139,
            24.274474
          ],
          [
            120.748085,
            24.2745
          ],
          [
            120.748005,
            24.274596
          ],
          [
            120.747948,
            24.274607
          ],
          [
            120.747854,
            24.274618
          ],
          [
            120.747708,
            24.274591
          ],
          [
            120.747623,
            24.274576
          ],
          [
            120.74751,
            24.274554
          ],
          [
            120.74733,
            24.27452
          ],
          [
            120.747174,
            24.2745
          ],
          [
            120.747162,
            24.274682
          ],
          [
            120.74716,
            24.274794
          ],
          [
            120.747121,
            24.275191
          ],
          [
            120.747096,
            24.275403
          ],
          [
            120.747317,
            24.275451
          ],
          [
            120.747617,
            24.275473
          ],
          [
            120.748056,
            24.275517
          ],
          [
            120.748343,
            24.275594
          ],
          [
            120.748639,
            24.275663
          ],
          [
            120.74863,
            24.275733
          ],
          [
            120.748564,
            24.276339
          ],
          [
            120.74858,
            24.276603
          ],
          [
            120.748479,
            24.276588
          ],
          [
            120.748479,
            24.276588
          ],
          [
            120.74858,
            24.276603
          ],
          [
            120.748564,
            24.276339
          ],
          [
            120.74863,
            24.275733
          ],
          [
            120.748639,
            24.275663
          ],
          [
            120.748343,
            24.275594
          ],
          [
            120.748056,
            24.275517
          ],
          [
            120.747617,
            24.275473
          ],
          [
            120.747317,
            24.275451
          ],
          [
            120.747096,
            24.275403
          ],
          [
            120.747121,
            24.275191
          ],
          [
            120.74716,
            24.274794
          ],
          [
            120.747162,
            24.274682
          ],
          [
            120.747174,
            24.2745
          ],
          [
            120.74708,
            24.274505
          ],
          [
            120.746937,
            24.27451
          ],
          [
            120.746687,
            24.274512
          ],
          [
            120.746586,
            24.274499
          ],
          [
            120.746481,
            24.274464
          ],
          [
            120.746401,
            24.274435
          ],
          [
            120.746308,
            24.274386
          ],
          [
            120.746227,
            24.274338
          ],
          [
            120.746087,
            24.274297
          ],
          [
            120.745883,
            24.274324
          ],
          [
            120.745929,
            24.274404
          ],
          [
            120.745929,
            24.274404
          ],
          [
            120.745883,
            24.274324
          ],
          [
            120.745654,
            24.274361
          ],
          [
            120.745467,
            24.274395
          ],
          [
            120.745384,
            24.274417
          ],
          [
            120.745355,
            24.27446
          ],
          [
            120.745337,
            24.274532
          ],
          [
            120.74532,
            24.274611
          ],
          [
            120.745298,
            24.27471
          ],
          [
            120.745239,
            24.274871
          ],
          [
            120.745208,
            24.274931
          ],
          [
            120.745149,
            24.274982
          ],
          [
            120.745056,
            24.27501
          ],
          [
            120.744925,
            24.275011
          ],
          [
            120.744852,
            24.274979
          ],
          [
            120.74472,
            24.274906
          ],
          [
            120.744553,
            24.274797
          ],
          [
            120.744368,
            24.274668
          ],
          [
            120.744307,
            24.274653
          ],
          [
            120.744237,
            24.274652
          ],
          [
            120.744068,
            24.274648
          ],
          [
            120.743831,
            24.274587
          ],
          [
            120.743808,
            24.274692
          ],
          [
            120.743808,
            24.274692
          ],
          [
            120.743831,
            24.274587
          ],
          [
            120.743537,
            24.274471
          ],
          [
            120.743393,
            24.274429
          ],
          [
            120.743284,
            24.274392
          ],
          [
            120.7431,
            24.274393
          ],
          [
            120.742883,
            24.274416
          ],
          [
            120.742715,
            24.274424
          ],
          [
            120.742418,
            24.27441
          ],
          [
            120.742174,
            24.27442
          ],
          [
            120.742033,
            24.274435
          ],
          [
            120.741966,
            24.274429
          ],
          [
            120.741829,
            24.274389
          ],
          [
            120.74188,
            24.274176
          ],
          [
            120.741872,
            24.274042
          ],
          [
            120.741905,
            24.273904
          ],
          [
            120.741846,
            24.273597
          ],
          [
            120.741846,
            24.273597
          ],
          [
            120.741905,
            24.273904
          ],
          [
            120.741872,
            24.274042
          ],
          [
            120.74188,
            24.274176
          ],
          [
            120.741829,
            24.274389
          ],
          [
            120.741384,
            24.274271
          ],
          [
            120.741124,
            24.274191
          ],
          [
            120.740863,
            24.274153
          ],
          [
            120.740425,
            24.274107
          ],
          [
            120.740253,
            24.274095
          ],
          [
            120.740013,
            24.274058
          ],
          [
            120.739887,
            24.274022
          ],
          [
            120.739569,
            24.273925
          ],
          [
            120.739454,
            24.273879
          ],
          [
            120.739371,
            24.273846
          ],
          [
            120.739371,
            24.273846
          ],
          [
            120.738961,
            24.273685
          ],
          [
            120.738786,
            24.273632
          ],
          [
            120.738653,
            24.273594
          ],
          [
            120.738409,
            24.273517
          ],
          [
            120.738124,
            24.273402
          ],
          [
            120.73791,
            24.273309
          ],
          [
            120.737799,
            24.273242
          ],
          [
            120.737536,
            24.273086
          ],
          [
            120.737206,
            24.273629
          ],
          [
            120.737202,
            24.273636
          ],
          [
            120.737202,
            24.273636
          ],
          [
            120.737206,
            24.273629
          ],
          [
            120.737536,
            24.273086
          ],
          [
            120.737333,
            24.272976
          ],
          [
            120.736994,
            24.272796
          ],
          [
            120.73662,
            24.272946
          ],
          [
            120.736495,
            24.272652
          ],
          [
            120.736357,
            24.27255
          ],
          [
            120.736287,
            24.27254
          ],
          [
            120.736155,
            24.2725
          ],
          [
            120.736079,
            24.272433
          ],
          [
            120.735839,
            24.271961
          ],
          [
            120.735736,
            24.271897
          ],
          [
            120.735539,
            24.271868
          ],
          [
            120.735411,
            24.271865
          ],
          [
            120.73526,
            24.271866
          ],
          [
            120.73517,
            24.271858
          ],
          [
            120.735114,
            24.271846
          ],
          [
            120.735139,
            24.272242
          ],
          [
            120.735293,
            24.272594
          ],
          [
            120.735293,
            24.272594
          ],
          [
            120.735139,
            24.272242
          ],
          [
            120.735114,
            24.271846
          ],
          [
            120.735069,
            24.271747
          ],
          [
            120.735009,
            24.271659
          ],
          [
            120.734886,
            24.271576
          ],
          [
            120.734724,
            24.271519
          ],
          [
            120.734601,
            24.271502
          ],
          [
            120.734466,
            24.271483
          ],
          [
            120.734308,
            24.271449
          ],
          [
            120.734153,
            24.271431
          ],
          [
            120.734033,
            24.271424
          ],
          [
            120.733899,
            24.271373
          ],
          [
            120.733734,
            24.271283
          ],
          [
            120.733698,
            24.271196
          ],
          [
            120.733674,
            24.271096
          ],
          [
            120.733638,
            24.270981
          ],
          [
            120.733528,
            24.270893
          ],
          [
            120.733379,
            24.270781
          ],
          [
            120.733279,
            24.27068
          ],
          [
            120.733128,
            24.270549
          ],
          [
            120.73299,
            24.270464
          ],
          [
            120.732864,
            24.270427
          ],
          [
            120.732762,
            24.270354
          ],
          [
            120.732679,
            24.270273
          ],
          [
            120.73258,
            24.270137
          ],
          [
            120.732501,
            24.269988
          ],
          [
            120.732441,
            24.269875
          ],
          [
            120.732354,
            24.269768
          ],
          [
            120.732305,
            24.269708
          ],
          [
            120.732144,
            24.269513
          ],
          [
            120.732045,
            24.269444
          ],
          [
            120.731904,
            24.269342
          ],
          [
            120.731798,
            24.269254
          ],
          [
            120.731683,
            24.269123
          ],
          [
            120.731556,
            24.26898
          ],
          [
            120.731444,
            24.268853
          ],
          [
            120.73136,
            24.26873
          ],
          [
            120.731277,
            24.268604
          ],
          [
            120.731227,
            24.268494
          ],
          [
            120.731176,
            24.26845
          ],
          [
            120.73104,
            24.268425
          ],
          [
            120.730808,
            24.268415
          ],
          [
            120.730613,
            24.268429
          ],
          [
            120.730488,
            24.268447
          ],
          [
            120.730322,
            24.268459
          ],
          [
            120.730279,
            24.268261
          ],
          [
            120.730248,
            24.268094
          ],
          [
            120.730213,
            24.267967
          ],
          [
            120.730179,
            24.267846
          ],
          [
            120.730093,
            24.267829
          ],
          [
            120.729932,
            24.267766
          ],
          [
            120.729857,
            24.267762
          ],
          [
            120.729766,
            24.26773
          ],
          [
            120.729663,
            24.26767
          ],
          [
            120.729305,
            24.267417
          ],
          [
            120.729195,
            24.267367
          ],
          [
            120.729156,
            24.267362
          ],
          [
            120.728935,
            24.267378
          ],
          [
            120.72866,
            24.267344
          ],
          [
            120.72833,
            24.267352
          ],
          [
            120.727984,
            24.26733
          ],
          [
            120.727684,
            24.267304
          ],
          [
            120.72764,
            24.267341
          ],
          [
            120.727509,
            24.267402
          ],
          [
            120.72749,
            24.267412
          ],
          [
            120.727244,
            24.267454
          ],
          [
            120.727104,
            24.267501
          ],
          [
            120.727038,
            24.267514
          ],
          [
            120.727018,
            24.267512
          ],
          [
            120.726979,
            24.267499
          ],
          [
            120.726944,
            24.267479
          ],
          [
            120.726168,
            24.266888
          ],
          [
            120.726044,
            24.266781
          ],
          [
            120.725927,
            24.266701
          ],
          [
            120.725856,
            24.266668
          ],
          [
            120.725728,
            24.26664
          ],
          [
            120.725506,
            24.266624
          ],
          [
            120.725449,
            24.266616
          ],
          [
            120.725421,
            24.266599
          ],
          [
            120.725399,
            24.266572
          ],
          [
            120.725359,
            24.266497
          ],
          [
            120.725342,
            24.266469
          ],
          [
            120.725307,
            24.266447
          ],
          [
            120.725083,
            24.266388
          ],
          [
            120.724995,
            24.266373
          ],
          [
            120.724905,
            24.266375
          ],
          [
            120.724788,
            24.266394
          ],
          [
            120.72459,
            24.266443
          ],
          [
            120.724516,
            24.26647
          ],
          [
            120.724438,
            24.266493
          ],
          [
            120.724343,
            24.266503
          ],
          [
            120.724299,
            24.266492
          ],
          [
            120.724236,
            24.266474
          ],
          [
            120.724187,
            24.26645
          ],
          [
            120.723684,
            24.266131
          ],
          [
            120.72354,
            24.266032
          ],
          [
            120.723521,
            24.266012
          ],
          [
            120.723474,
            24.265962
          ],
          [
            120.723404,
            24.265882
          ],
          [
            120.723322,
            24.265769
          ],
          [
            120.723234,
            24.265669
          ],
          [
            120.723294,
            24.266082
          ],
          [
            120.723163,
            24.266099
          ],
          [
            120.722912,
            24.266096
          ],
          [
            120.722752,
            24.266111
          ],
          [
            120.722618,
            24.266143
          ],
          [
            120.722345,
            24.266157
          ],
          [
            120.722213,
            24.266169
          ],
          [
            120.722213,
            24.266169
          ]
        ]
      },
      "properties": {
        "routeId": "taichung-ked-9055-2c6698-d6",
        "city": "taichung",
        "source_file": "taichung/taichung-ked-9055-2c6698-d6.geojson",
        "distance_km": 25.369000000000003,
        "duration_min": 43.63286666666667,
        "valhalla_config": "valhalla.json"
      }
    }
  ]
}