{
  "type": "FeatureCollection",
  "features": [
    {
      "type": "Feature",
      "geometry": {
        "type": "LineString",
        "coordinates": [
          [
            120.600888,
            24.304773
          ],
          [
            120.601132,
            24.304681
          ],
          [
            120.601084,
            24.304552
          ],
          [
            120.600743,
            24.30381
          ],
          [
            120.600598,
            24.303562
          ],
          [
            120.600425,
            24.303385
          ],
          [
            120.600205,
            24.303247
          ],
          [
            120.600155,
            24.30302
          ],
          [
            120.600071,
            24.302656
          ],
          [
            120.600123,
            24.302526
          ],
          [
            120.600154,
            24.302469
          ],
          [
            120.600154,
            24.302469
          ],
          [
            120.600123,
            24.302526
          ],
          [
            120.600071,
            24.302656
          ],
          [
            120.600155,
            24.30302
          ],
          [
            120.600205,
            24.303247
          ],
          [
            120.599963,
            24.303125
          ],
          [
            120.599435,
            24.302832
          ],
          [
            120.598933,
            24.30259
          ],
          [
            120.598279,
            24.30227
          ],
          [
            120.59757,
            24.301918
          ],
          [
            120.596664,
            24.301481
          ],
          [
            120.596261,
            24.301277
          ],
          [
            120.595974,
            24.300995
          ],
          [
            120.595689,
            24.30072
          ],
          [
            120.595124,
            24.300241
          ],
          [
            120.594958,
            24.300298
          ],
          [
            120.59442,
            24.299544
          ],
          [
            120.593931,
            24.299096
          ],
          [
            120.593582,
            24.298735
          ],
          [
            120.592355,
            24.297544
          ],
          [
            120.591095,
            24.296289
          ],
          [
            120.590916,
            24.29641
          ],
          [
            120.590665,
            24.296516
          ],
          [
            120.59061,
            24.296539
          ],
          [
            120.590475,
            24.296603
          ],
          [
            120.590315,
            24.296657
          ],
          [
            120.590161,
            24.296727
          ],
          [
            120.590113,
            24.296748
          ],
          [
            120.590031,
            24.29678
          ],
          [
            120.589837,
            24.296854
          ],
          [
            120.589552,
            24.296972
          ],
          [
            120.589413,
            24.297007
          ],
          [
            120.589261,
            24.297024
          ],
          [
            120.588754,
            24.297036
          ],
          [
            120.588484,
            24.297041
          ],
          [
            120.588311,
            24.297047
          ],
          [
            120.587853,
            24.297066
          ],
          [
            120.587752,
            24.297065
          ],
          [
            120.587752,
            24.297065
          ],
          [
            120.587638,
            24.297064
          ],
          [
            120.586824,
            24.297078
          ],
          [
            120.586015,
            24.297088
          ],
          [
            120.5857,
            24.296997
          ],
          [
            120.585587,
            24.296965
          ],
          [
            120.58526,
            24.296885
          ],
          [
            120.584622,
            24.29673
          ],
          [
            120.582398,
            24.296116
          ],
          [
            120.581633,
            24.29593
          ],
          [
            120.580524,
            24.295646
          ],
          [
            120.58019,
            24.295567
          ],
          [
            120.579919,
            24.295463
          ],
          [
            120.579605,
            24.295301
          ],
          [
            120.579198,
            24.295055
          ],
          [
            120.577851,
            24.294241
          ],
          [
            120.577612,
            24.294088
          ],
          [
            120.577479,
            24.294016
          ],
          [
            120.575319,
            24.292664
          ],
          [
            120.573342,
            24.29138
          ],
          [
            120.57299,
            24.291285
          ],
          [
            120.572612,
            24.291158
          ],
          [
            120.571263,
            24.290791
          ],
          [
            120.571126,
            24.290824
          ],
          [
            120.57099,
            24.290006
          ],
          [
            120.57099,
            24.290006
          ],
          [
            120.571126,
            24.290824
          ],
          [
            120.571263,
            24.290791
          ],
          [
            120.571325,
            24.290729
          ],
          [
            120.571368,
            24.290643
          ],
          [
            120.572111,
            24.28921
          ],
          [
            120.572406,
            24.288631
          ],
          [
            120.572679,
            24.288058
          ],
          [
            120.573125,
            24.287259
          ],
          [
            120.573333,
            24.28685
          ],
          [
            120.573347,
            24.286831
          ],
          [
            120.573638,
            24.286427
          ],
          [
            120.574015,
            24.285957
          ],
          [
            120.574186,
            24.285659
          ],
          [
            120.574321,
            24.285394
          ],
          [
            120.574373,
            24.285244
          ],
          [
            120.574563,
            24.284722
          ],
          [
            120.574608,
            24.284596
          ],
          [
            120.574698,
            24.284266
          ],
          [
            120.574723,
            24.284112
          ],
          [
            120.574748,
            24.283719
          ],
          [
            120.574791,
            24.283281
          ],
          [
            120.57482,
            24.283105
          ],
          [
            120.574847,
            24.282768
          ],
          [
            120.574915,
            24.28235
          ],
          [
            120.574946,
            24.28196
          ],
          [
            120.575036,
            24.281563
          ],
          [
            120.5751,
            24.280916
          ],
          [
            120.575148,
            24.280596
          ],
          [
            120.575148,
            24.280596
          ],
          [
            120.575155,
            24.28055
          ],
          [
            120.575186,
            24.280158
          ],
          [
            120.575216,
            24.27991
          ],
          [
            120.575234,
            24.279662
          ],
          [
            120.575307,
            24.27909
          ],
          [
            120.575388,
            24.278524
          ],
          [
            120.575448,
            24.278314
          ],
          [
            120.575411,
            24.278255
          ],
          [
            120.575407,
            24.278131
          ],
          [
            120.575626,
            24.278231
          ],
          [
            120.577335,
            24.279317
          ],
          [
            120.579108,
            24.280423
          ],
          [
            120.579287,
            24.28054
          ],
          [
            120.580928,
            24.2816
          ],
          [
            120.581352,
            24.28185
          ],
          [
            120.581511,
            24.281955
          ],
          [
            120.58229,
            24.282491
          ],
          [
            120.582787,
            24.283044
          ],
          [
            120.583089,
            24.283373
          ],
          [
            120.582947,
            24.283443
          ],
          [
            120.582646,
            24.283089
          ],
          [
            120.582389,
            24.282823
          ],
          [
            120.58228,
            24.282882
          ],
          [
            120.58228,
            24.282882
          ],
          [
            120.582389,
            24.282823
          ],
          [
            120.582207,
            24.28263
          ],
          [
            120.581996,
            24.282488
          ],
          [
            120.581463,
            24.282116
          ],
          [
            120.581281,
            24.282007
          ],
          [
            120.581352,
            24.28185
          ],
          [
            120.58143,
            24.281561
          ],
          [
            120.581383,
            24.281338
          ],
          [
            120.581305,
            24.281135
          ],
          [
            120.581041,
            24.280798
          ],
          [
            120.580515,
            24.280126
          ],
          [
            120.578884,
            24.278095
          ],
          [
            120.578021,
            24.277042
          ],
          [
            120.577809,
            24.276728
          ],
          [
            120.577567,
            24.276461
          ],
          [
            120.577494,
            24.276534
          ],
          [
            120.577494,
            24.276534
          ],
          [
            120.577567,
            24.276461
          ],
          [
            120.577395,
            24.27623
          ],
          [
            120.577257,
            24.27598
          ],
          [
            120.577161,
            24.275708
          ],
          [
            120.576427,
            24.275755
          ],
          [
            120.575764,
            24.275786
          ],
          [
            120.575355,
            24.275753
          ],
          [
            120.575044,
            24.2757
          ],
          [
            120.574929,
            24.275671
          ],
          [
            120.574411,
            24.275539
          ],
          [
            120.574122,
            24.275422
          ],
          [
            120.573484,
            24.275141
          ],
          [
            120.573347,
            24.275089
          ],
          [
            120.57313,
            24.275001
          ],
          [
            120.57281,
            24.274899
          ],
          [
            120.572512,
            24.274876
          ],
          [
            120.572522,
            24.27474
          ],
          [
            120.572504,
            24.274283
          ],
          [
            120.5725,
            24.274246
          ],
          [
            120.5725,
            24.274246
          ],
          [
            120.572504,
            24.274283
          ],
          [
            120.572522,
            24.27474
          ],
          [
            120.572512,
            24.274876
          ],
          [
            120.572224,
            24.274904
          ],
          [
            120.571963,
            24.275049
          ],
          [
            120.57183,
            24.275173
          ],
          [
            120.571532,
            24.275461
          ],
          [
            120.571418,
            24.275572
          ],
          [
            120.571328,
            24.275508
          ],
          [
            120.57112,
            24.275326
          ],
          [
            120.570331,
            24.274654
          ],
          [
            120.569808,
            24.274094
          ],
          [
            120.569665,
            24.273941
          ],
          [
            120.569382,
            24.273638
          ],
          [
            120.569015,
            24.273242
          ],
          [
            120.568667,
            24.2728
          ],
          [
            120.568318,
            24.272196
          ],
          [
            120.56807,
            24.271687
          ],
          [
            120.567707,
            24.270944
          ],
          [
            120.567533,
            24.270571
          ],
          [
            120.567424,
            24.270306
          ],
          [
            120.567319,
            24.270016
          ],
          [
            120.567057,
            24.269357
          ],
          [
            120.566756,
            24.268722
          ],
          [
            120.566594,
            24.268413
          ],
          [
            120.566159,
            24.268551
          ],
          [
            120.566078,
            24.26858
          ],
          [
            120.566008,
            24.268588
          ],
          [
            120.565959,
            24.268598
          ],
          [
            120.565835,
            24.269164
          ],
          [
            120.565777,
            24.269281
          ],
          [
            120.565853,
            24.269263
          ],
          [
            120.565883,
            24.269432
          ],
          [
            120.565883,
            24.269432
          ]
        ]
      },
      "properties": {
        "routeId": "taichung-keg-8200-7753e0-d6",
        "city": "taichung",
        "source_file": "taichung/taichung-keg-8200-7753e0-d6.geojson",
        "distance_km": 9.559,
        "duration_min": 14.833116666666665,
        "valhalla_config": "valhalla.json"
      }
    }
  ]
}