{
  "type": "FeatureCollection",
  "features": [
    {
      "type": "Feature",
      "geometry": {
        "type": "LineString",
        "coordinates": [
          [
            120.715071,
            24.138572
          ],
          [
            120.7151,
            24.13833
          ],
          [
            120.715131,
            24.138097
          ],
          [
            120.715162,
            24.137804
          ],
          [
            120.715223,
            24.137523
          ],
          [
            120.715258,
            24.137347
          ],
          [
            120.715321,
            24.137085
          ],
          [
            120.715368,
            24.136886
          ],
          [
            120.715432,
            24.136594
          ],
          [
            120.715508,
            24.136307
          ],
          [
            120.715571,
            24.136068
          ],
          [
            120.715598,
            24.135965
          ],
          [
            120.71562,
            24.135863
          ],
          [
            120.715642,
            24.135771
          ],
          [
            120.715836,
            24.134944
          ],
          [
            120.71585,
            24.134884
          ],
          [
            120.715866,
            24.134827
          ],
          [
            120.715893,
            24.134724
          ],
          [
            120.715976,
            24.134379
          ],
          [
            120.715993,
            24.134317
          ],
          [
            120.71614,
            24.133624
          ],
          [
            120.716201,
            24.133455
          ],
          [
            120.716231,
            24.133327
          ],
          [
            120.716338,
            24.133015
          ],
          [
            120.716454,
            24.132683
          ],
          [
            120.716563,
            24.132376
          ],
          [
            120.716674,
            24.132065
          ],
          [
            120.71676,
            24.131818
          ],
          [
            120.716857,
            24.131583
          ],
          [
            120.716903,
            24.13148
          ],
          [
            120.716954,
            24.131331
          ],
          [
            120.71709,
            24.130949
          ],
          [
            120.717126,
            24.13085
          ],
          [
            120.717188,
            24.130673
          ],
          [
            120.717324,
            24.13029
          ],
          [
            120.717486,
            24.129839
          ],
          [
            120.717543,
            24.12969
          ],
          [
            120.717665,
            24.129374
          ],
          [
            120.717867,
            24.128871
          ],
          [
            120.717919,
            24.128752
          ],
          [
            120.718095,
            24.128347
          ],
          [
            120.718558,
            24.12724
          ],
          [
            120.718695,
            24.126948
          ],
          [
            120.718809,
            24.126787
          ],
          [
            120.718787,
            24.126729
          ],
          [
            120.718664,
            24.126526
          ],
          [
            120.718649,
            24.126493
          ],
          [
            120.718581,
            24.126394
          ],
          [
            120.718271,
            24.125873
          ],
          [
            120.718253,
            24.12584
          ],
          [
            120.718209,
            24.125724
          ],
          [
            120.718106,
            24.125696
          ],
          [
            120.717552,
            24.125468
          ],
          [
            120.717501,
            24.125448
          ],
          [
            120.717364,
            24.125329
          ],
          [
            120.717237,
            24.125215
          ],
          [
            120.717187,
            24.125188
          ],
          [
            120.716913,
            24.125158
          ],
          [
            120.716698,
            24.125131
          ],
          [
            120.716617,
            24.125121
          ],
          [
            120.716353,
            24.125091
          ],
          [
            120.71627,
            24.125079
          ],
          [
            120.716216,
            24.125039
          ],
          [
            120.716025,
            24.124743
          ],
          [
            120.716052,
            24.124596
          ],
          [
            120.716024,
            24.12455
          ],
          [
            120.716406,
            24.124391
          ],
          [
            120.716577,
            24.12432
          ],
          [
            120.716942,
            24.12417
          ],
          [
            120.717101,
            24.124106
          ],
          [
            120.717144,
            24.124082
          ],
          [
            120.717204,
            24.124014
          ],
          [
            120.71741,
            24.123719
          ],
          [
            120.717534,
            24.123528
          ],
          [
            120.717796,
            24.123124
          ],
          [
            120.71789,
            24.122976
          ],
          [
            120.717958,
            24.122887
          ],
          [
            120.718078,
            24.122769
          ],
          [
            120.718187,
            24.122662
          ],
          [
            120.718289,
            24.122564
          ],
          [
            120.718332,
            24.122518
          ],
          [
            120.718706,
            24.122177
          ],
          [
            120.718807,
            24.122097
          ],
          [
            120.718951,
            24.121978
          ],
          [
            120.719319,
            24.12168
          ],
          [
            120.719439,
            24.121582
          ],
          [
            120.719604,
            24.121456
          ],
          [
            120.719851,
            24.121257
          ],
          [
            120.720154,
            24.121002
          ],
          [
            120.720468,
            24.120739
          ],
          [
            120.720558,
            24.120664
          ],
          [
            120.720597,
            24.120624
          ],
          [
            120.720971,
            24.120305
          ],
          [
            120.721097,
            24.120198
          ],
          [
            120.721505,
            24.119863
          ],
          [
            120.721644,
            24.119752
          ],
          [
            120.721956,
            24.119488
          ],
          [
            120.72207,
            24.119392
          ],
          [
            120.722423,
            24.119101
          ],
          [
            120.722547,
            24.119002
          ],
          [
            120.722845,
            24.118761
          ],
          [
            120.723014,
            24.118622
          ],
          [
            120.723291,
            24.118395
          ],
          [
            120.723361,
            24.11833
          ],
          [
            120.723443,
            24.118198
          ],
          [
            120.72355,
            24.117939
          ],
          [
            120.723784,
            24.117379
          ],
          [
            120.723821,
            24.117309
          ],
          [
            120.724044,
            24.117167
          ],
          [
            120.724142,
            24.117072
          ],
          [
            120.724176,
            24.117031
          ],
          [
            120.724228,
            24.116978
          ],
          [
            120.724367,
            24.116832
          ],
          [
            120.724427,
            24.116787
          ]
        ]
      },
      "properties": {
        "routeId": "taichung-861-ue-d68b94-d6",
        "city": "taichung",
        "source_file": "taichung/taichung-861-ue-d68b94-d6.geojson",
        "distance_km": 3.026,
        "duration_min": 5.547866666666667,
        "valhalla_config": "valhalla.json"
      }
    }
  ]
}