{
  "type": "FeatureCollection",
  "features": [
    {
      "type": "Feature",
      "geometry": {
        "type": "LineString",
        "coordinates": [
          [
            120.519486,
            24.200386
          ],
          [
            120.519486,
            24.200386
          ],
          [
            120.519539,
            24.200324
          ],
          [
            120.51916,
            24.20001
          ],
          [
            120.519157,
            24.199956
          ],
          [
            120.519188,
            24.199913
          ],
          [
            120.519278,
            24.199781
          ],
          [
            120.519454,
            24.199525
          ],
          [
            120.519463,
            24.199467
          ],
          [
            120.519447,
            24.199405
          ],
          [
            120.51933,
            24.198972
          ],
          [
            120.519218,
            24.198554
          ],
          [
            120.52052,
            24.197818
          ],
          [
            120.521178,
            24.197464
          ],
          [
            120.521513,
            24.197362
          ],
          [
            120.521588,
            24.197347
          ],
          [
            120.521911,
            24.197284
          ],
          [
            120.522731,
            24.197202
          ],
          [
            120.523096,
            24.197181
          ],
          [
            120.523164,
            24.197459
          ],
          [
            120.523211,
            24.197699
          ],
          [
            120.523236,
            24.197802
          ],
          [
            120.522958,
            24.197887
          ],
          [
            120.522364,
            24.198239
          ],
          [
            120.522329,
            24.198029
          ],
          [
            120.521945,
            24.197936
          ],
          [
            120.521838,
            24.198136
          ],
          [
            120.521813,
            24.198259
          ],
          [
            120.521686,
            24.198228
          ],
          [
            120.521686,
            24.198228
          ],
          [
            120.521813,
            24.198259
          ],
          [
            120.521838,
            24.198136
          ],
          [
            120.521945,
            24.197936
          ],
          [
            120.522329,
            24.198029
          ],
          [
            120.522364,
            24.198239
          ],
          [
            120.522958,
            24.197887
          ],
          [
            120.523236,
            24.197802
          ],
          [
            120.523337,
            24.198226
          ],
          [
            120.523393,
            24.198522
          ],
          [
            120.523407,
            24.198584
          ],
          [
            120.5235,
            24.199017
          ],
          [
            120.523513,
            24.199081
          ],
          [
            120.523523,
            24.199127
          ],
          [
            120.523514,
            24.199369
          ],
          [
            120.523508,
            24.199538
          ],
          [
            120.523483,
            24.200172
          ],
          [
            120.523482,
            24.200221
          ],
          [
            120.523474,
            24.200648
          ],
          [
            120.523446,
            24.201398
          ],
          [
            120.523445,
            24.201438
          ],
          [
            120.523461,
            24.201506
          ],
          [
            120.523458,
            24.201816
          ],
          [
            120.523447,
            24.201959
          ],
          [
            120.523209,
            24.202029
          ],
          [
            120.522959,
            24.201945
          ],
          [
            120.522267,
            24.202129
          ],
          [
            120.52209,
            24.202102
          ],
          [
            120.521709,
            24.202229
          ],
          [
            120.521607,
            24.202119
          ],
          [
            120.521492,
            24.202043
          ],
          [
            120.521425,
            24.202065
          ],
          [
            120.521373,
            24.202081
          ],
          [
            120.521312,
            24.202002
          ],
          [
            120.521312,
            24.202002
          ],
          [
            120.521373,
            24.202081
          ],
          [
            120.521425,
            24.202065
          ],
          [
            120.521492,
            24.202043
          ],
          [
            120.521607,
            24.202119
          ],
          [
            120.521709,
            24.202229
          ],
          [
            120.52209,
            24.202102
          ],
          [
            120.522267,
            24.202129
          ],
          [
            120.522959,
            24.201945
          ],
          [
            120.523209,
            24.202029
          ],
          [
            120.523447,
            24.201959
          ],
          [
            120.523432,
            24.202443
          ],
          [
            120.523428,
            24.202532
          ],
          [
            120.523418,
            24.202777
          ],
          [
            120.52342,
            24.203078
          ],
          [
            120.523383,
            24.203925
          ],
          [
            120.523362,
            24.204448
          ],
          [
            120.523334,
            24.205193
          ],
          [
            120.523334,
            24.205266
          ],
          [
            120.523334,
            24.205326
          ],
          [
            120.523345,
            24.205446
          ],
          [
            120.523387,
            24.205792
          ],
          [
            120.523447,
            24.206159
          ],
          [
            120.523513,
            24.206556
          ],
          [
            120.523539,
            24.206722
          ],
          [
            120.523564,
            24.206875
          ],
          [
            120.523596,
            24.207073
          ],
          [
            120.523642,
            24.207238
          ],
          [
            120.52392,
            24.207189
          ],
          [
            120.525052,
            24.206935
          ],
          [
            120.525073,
            24.207005
          ],
          [
            120.525073,
            24.207005
          ],
          [
            120.525202,
            24.207447
          ],
          [
            120.525221,
            24.207512
          ],
          [
            120.525259,
            24.207542
          ],
          [
            120.525331,
            24.207556
          ],
          [
            120.525769,
            24.207454
          ],
          [
            120.525658,
            24.207016
          ],
          [
            120.525626,
            24.206889
          ],
          [
            120.525626,
            24.206889
          ],
          [
            120.525658,
            24.207016
          ],
          [
            120.525769,
            24.207454
          ],
          [
            120.525816,
            24.207652
          ],
          [
            120.525841,
            24.207755
          ],
          [
            120.526029,
            24.208451
          ],
          [
            120.525954,
            24.208458
          ],
          [
            120.525613,
            24.208489
          ],
          [
            120.525202,
            24.208514
          ],
          [
            120.52495,
            24.20852
          ],
          [
            120.524681,
            24.208504
          ],
          [
            120.524435,
            24.208442
          ],
          [
            120.524165,
            24.208376
          ],
          [
            120.523813,
            24.208319
          ],
          [
            120.52386,
            24.208664
          ],
          [
            120.523907,
            24.209125
          ],
          [
            120.523969,
            24.2095
          ],
          [
            120.523996,
            24.209602
          ],
          [
            120.524014,
            24.209664
          ],
          [
            120.524104,
            24.209972
          ],
          [
            120.524352,
            24.210509
          ],
          [
            120.524446,
            24.210636
          ],
          [
            120.524617,
            24.210949
          ],
          [
            120.52478,
            24.211312
          ],
          [
            120.524818,
            24.211382
          ],
          [
            120.524839,
            24.21142
          ],
          [
            120.524883,
            24.211548
          ],
          [
            120.525027,
            24.211967
          ],
          [
            120.525087,
            24.212183
          ],
          [
            120.525158,
            24.212398
          ],
          [
            120.525207,
            24.212582
          ],
          [
            120.525279,
            24.212827
          ],
          [
            120.525357,
            24.213097
          ],
          [
            120.525506,
            24.21357
          ],
          [
            120.525554,
            24.213806
          ],
          [
            120.525625,
            24.213994
          ],
          [
            120.525685,
            24.214188
          ],
          [
            120.525704,
            24.214248
          ],
          [
            120.525759,
            24.214374
          ],
          [
            120.525818,
            24.214565
          ],
          [
            120.525886,
            24.214817
          ],
          [
            120.525422,
            24.215014
          ],
          [
            120.524956,
            24.215199
          ],
          [
            120.524669,
            24.215313
          ],
          [
            120.524548,
            24.215355
          ],
          [
            120.524364,
            24.215421
          ],
          [
            120.524175,
            24.215501
          ],
          [
            120.524017,
            24.215584
          ],
          [
            120.523947,
            24.215618
          ],
          [
            120.523666,
            24.215771
          ],
          [
            120.523435,
            24.21589
          ],
          [
            120.52313,
            24.216015
          ],
          [
            120.522672,
            24.21621
          ],
          [
            120.522257,
            24.216375
          ],
          [
            120.522105,
            24.216437
          ],
          [
            120.52193,
            24.216502
          ],
          [
            120.521895,
            24.216513
          ],
          [
            120.52178,
            24.216548
          ],
          [
            120.521233,
            24.216775
          ],
          [
            120.520942,
            24.216894
          ],
          [
            120.520789,
            24.216956
          ],
          [
            120.520789,
            24.216956
          ],
          [
            120.520942,
            24.216894
          ],
          [
            120.521233,
            24.216775
          ],
          [
            120.52178,
            24.216548
          ],
          [
            120.521895,
            24.216513
          ],
          [
            120.52193,
            24.216502
          ],
          [
            120.522105,
            24.216437
          ],
          [
            120.522257,
            24.216375
          ],
          [
            120.522672,
            24.21621
          ],
          [
            120.52313,
            24.216015
          ],
          [
            120.523435,
            24.21589
          ],
          [
            120.523666,
            24.215771
          ],
          [
            120.523947,
            24.215618
          ],
          [
            120.524017,
            24.215584
          ],
          [
            120.524175,
            24.215501
          ],
          [
            120.524364,
            24.215421
          ],
          [
            120.524548,
            24.215355
          ],
          [
            120.524669,
            24.215313
          ],
          [
            120.524422,
            24.215126
          ],
          [
            120.524368,
            24.215025
          ],
          [
            120.524354,
            24.214745
          ],
          [
            120.524377,
            24.214577
          ],
          [
            120.524535,
            24.214559
          ],
          [
            120.524535,
            24.214559
          ],
          [
            120.524574,
            24.214554
          ],
          [
            120.524773,
            24.214635
          ],
          [
            120.524884,
            24.214644
          ],
          [
            120.525125,
            24.214566
          ],
          [
            120.525759,
            24.214374
          ],
          [
            120.525704,
            24.214248
          ],
          [
            120.525685,
            24.214188
          ],
          [
            120.525625,
            24.213994
          ],
          [
            120.525554,
            24.213806
          ],
          [
            120.525506,
            24.21357
          ],
          [
            120.525357,
            24.213097
          ],
          [
            120.525279,
            24.212827
          ],
          [
            120.525207,
            24.212582
          ],
          [
            120.525158,
            24.212398
          ],
          [
            120.525087,
            24.212183
          ],
          [
            120.525027,
            24.211967
          ],
          [
            120.524883,
            24.211548
          ],
          [
            120.524839,
            24.21142
          ],
          [
            120.524818,
            24.211382
          ],
          [
            120.52478,
            24.211312
          ],
          [
            120.524617,
            24.210949
          ],
          [
            120.524446,
            24.210636
          ],
          [
            120.524106,
            24.21074
          ],
          [
            120.523524,
            24.210917
          ],
          [
            120.523034,
            24.211066
          ],
          [
            120.523034,
            24.211066
          ],
          [
            120.523524,
            24.210917
          ],
          [
            120.524106,
            24.21074
          ],
          [
            120.524446,
            24.210636
          ],
          [
            120.524352,
            24.210509
          ],
          [
            120.524104,
            24.209972
          ],
          [
            120.524014,
            24.209664
          ],
          [
            120.523996,
            24.209602
          ],
          [
            120.523969,
            24.2095
          ],
          [
            120.523907,
            24.209125
          ],
          [
            120.52386,
            24.208664
          ],
          [
            120.523813,
            24.208319
          ],
          [
            120.524165,
            24.208376
          ],
          [
            120.524435,
            24.208442
          ],
          [
            120.524681,
            24.208504
          ],
          [
            120.52495,
            24.20852
          ],
          [
            120.525202,
            24.208514
          ],
          [
            120.525613,
            24.208489
          ],
          [
            120.525954,
            24.208458
          ],
          [
            120.526029,
            24.208451
          ],
          [
            120.526749,
            24.20839
          ],
          [
            120.526819,
            24.208385
          ],
          [
            120.526949,
            24.208376
          ],
          [
            120.527136,
            24.208351
          ],
          [
            120.527273,
            24.208335
          ],
          [
            120.52741,
            24.208307
          ],
          [
            120.527795,
            24.208189
          ],
          [
            120.528079,
            24.208118
          ],
          [
            120.527997,
            24.207671
          ],
          [
            120.527964,
            24.207599
          ],
          [
            120.527956,
            24.207581
          ],
          [
            120.528004,
            24.207387
          ],
          [
            120.528046,
            24.207223
          ],
          [
            120.52811,
            24.20709
          ],
          [
            120.528248,
            24.206872
          ],
          [
            120.528281,
            24.206553
          ],
          [
            120.528023,
            24.206557
          ],
          [
            120.527846,
            24.206574
          ],
          [
            120.527846,
            24.206574
          ],
          [
            120.528023,
            24.206557
          ],
          [
            120.528281,
            24.206553
          ],
          [
            120.528248,
            24.206872
          ],
          [
            120.52811,
            24.20709
          ],
          [
            120.528046,
            24.207223
          ],
          [
            120.528004,
            24.207387
          ],
          [
            120.527956,
            24.207581
          ],
          [
            120.527964,
            24.207599
          ],
          [
            120.527997,
            24.207671
          ],
          [
            120.528079,
            24.208118
          ],
          [
            120.527795,
            24.208189
          ],
          [
            120.52741,
            24.208307
          ],
          [
            120.527273,
            24.208335
          ],
          [
            120.527136,
            24.208351
          ],
          [
            120.526949,
            24.208376
          ],
          [
            120.526819,
            24.208385
          ],
          [
            120.526749,
            24.20839
          ],
          [
            120.526029,
            24.208451
          ],
          [
            120.525954,
            24.208458
          ],
          [
            120.525613,
            24.208489
          ],
          [
            120.525202,
            24.208514
          ],
          [
            120.52495,
            24.20852
          ],
          [
            120.524681,
            24.208504
          ],
          [
            120.524435,
            24.208442
          ],
          [
            120.524165,
            24.208376
          ],
          [
            120.523813,
            24.208319
          ],
          [
            120.523741,
            24.20782
          ],
          [
            120.523702,
            24.20759
          ],
          [
            120.523642,
            24.207238
          ],
          [
            120.523596,
            24.207073
          ],
          [
            120.523564,
            24.206875
          ],
          [
            120.523539,
            24.206722
          ],
          [
            120.523513,
            24.206556
          ],
          [
            120.523447,
            24.206159
          ],
          [
            120.523387,
            24.205792
          ],
          [
            120.523345,
            24.205446
          ],
          [
            120.523334,
            24.205326
          ],
          [
            120.523334,
            24.205266
          ],
          [
            120.523334,
            24.205193
          ],
          [
            120.523362,
            24.204448
          ],
          [
            120.523383,
            24.203925
          ],
          [
            120.522356,
            24.204133
          ],
          [
            120.521176,
            24.204346
          ],
          [
            120.520758,
            24.204415
          ],
          [
            120.52059,
            24.203694
          ],
          [
            120.520443,
            24.20316
          ],
          [
            120.520443,
            24.20316
          ],
          [
            120.520368,
            24.202885
          ],
          [
            120.520789,
            24.20279
          ],
          [
            120.520798,
            24.202822
          ],
          [
            120.520904,
            24.202798
          ],
          [
            120.520904,
            24.202798
          ],
          [
            120.520798,
            24.202822
          ],
          [
            120.521176,
            24.204346
          ],
          [
            120.522356,
            24.204133
          ],
          [
            120.522795,
            24.203517
          ],
          [
            120.522704,
            24.203466
          ],
          [
            120.522626,
            24.203484
          ],
          [
            120.522626,
            24.203484
          ],
          [
            120.522704,
            24.203466
          ],
          [
            120.522795,
            24.203517
          ],
          [
            120.522356,
            24.204133
          ],
          [
            120.521176,
            24.204346
          ],
          [
            120.520758,
            24.204415
          ],
          [
            120.51914,
            24.204692
          ],
          [
            120.518762,
            24.204753
          ],
          [
            120.517735,
            24.20492
          ],
          [
            120.517139,
            24.205016
          ],
          [
            120.516873,
            24.205027
          ],
          [
            120.516647,
            24.205089
          ],
          [
            120.515858,
            24.20524
          ],
          [
            120.514706,
            24.205493
          ],
          [
            120.514733,
            24.2056
          ],
          [
            120.514733,
            24.2056
          ],
          [
            120.514706,
            24.205493
          ],
          [
            120.512717,
            24.20583
          ],
          [
            120.512879,
            24.206431
          ],
          [
            120.512899,
            24.20651
          ],
          [
            120.512902,
            24.206581
          ],
          [
            120.512872,
            24.206647
          ],
          [
            120.512782,
            24.206883
          ],
          [
            120.512694,
            24.207051
          ],
          [
            120.512637,
            24.207176
          ],
          [
            120.512638,
            24.207211
          ],
          [
            120.512638,
            24.207211
          ],
          [
            120.512637,
            24.207176
          ],
          [
            120.512694,
            24.207051
          ],
          [
            120.512782,
            24.206883
          ],
          [
            120.512872,
            24.206647
          ],
          [
            120.512902,
            24.206581
          ],
          [
            120.512899,
            24.20651
          ],
          [
            120.512879,
            24.206431
          ],
          [
            120.512717,
            24.20583
          ],
          [
            120.512527,
            24.205228
          ],
          [
            120.512398,
            24.204697
          ],
          [
            120.512398,
            24.204697
          ],
          [
            120.512527,
            24.205228
          ],
          [
            120.512717,
            24.20583
          ],
          [
            120.512879,
            24.206431
          ],
          [
            120.512899,
            24.20651
          ],
          [
            120.512902,
            24.206581
          ],
          [
            120.512872,
            24.206647
          ],
          [
            120.512782,
            24.206883
          ],
          [
            120.512694,
            24.207051
          ],
          [
            120.512637,
            24.207176
          ],
          [
            120.51264,
            24.207294
          ],
          [
            120.512466,
            24.207584
          ],
          [
            120.512308,
            24.207832
          ],
          [
            120.512276,
            24.208024
          ],
          [
            120.512267,
            24.208147
          ],
          [
            120.511843,
            24.208156
          ],
          [
            120.511489,
            24.208174
          ],
          [
            120.51113,
            24.208226
          ],
          [
            120.510343,
            24.208354
          ],
          [
            120.509681,
            24.208564
          ],
          [
            120.509263,
            24.208676
          ],
          [
            120.50834,
            24.208983
          ],
          [
            120.507383,
            24.20929
          ],
          [
            120.507276,
            24.208927
          ],
          [
            120.507383,
            24.20929
          ],
          [
            120.505801,
            24.209734
          ],
          [
            120.505944,
            24.21007
          ],
          [
            120.505721,
            24.210163
          ],
          [
            120.505541,
            24.20978
          ],
          [
            120.505372,
            24.209458
          ],
          [
            120.505222,
            24.209059
          ],
          [
            120.505062,
            24.20862
          ],
          [
            120.504895,
            24.208069
          ],
          [
            120.50485,
            24.207891
          ],
          [
            120.504782,
            24.207358
          ],
          [
            120.504752,
            24.207133
          ],
          [
            120.504752,
            24.206664
          ],
          [
            120.504758,
            24.205978
          ],
          [
            120.504845,
            24.205231
          ],
          [
            120.505022,
            24.204741
          ],
          [
            120.50514,
            24.204432
          ],
          [
            120.505312,
            24.203987
          ],
          [
            120.505511,
            24.203615
          ],
          [
            120.505714,
            24.203263
          ],
          [
            120.505988,
            24.202858
          ],
          [
            120.506243,
            24.202535
          ],
          [
            120.506544,
            24.202216
          ],
          [
            120.506973,
            24.201808
          ],
          [
            120.507322,
            24.2015
          ],
          [
            120.507896,
            24.2011
          ],
          [
            120.508604,
            24.200671
          ],
          [
            120.509173,
            24.200349
          ],
          [
            120.510106,
            24.199834
          ],
          [
            120.511018,
            24.199431
          ],
          [
            120.511725,
            24.199149
          ],
          [
            120.512909,
            24.198752
          ],
          [
            120.513557,
            24.198539
          ],
          [
            120.513614,
            24.19852
          ],
          [
            120.513797,
            24.198461
          ],
          [
            120.514068,
            24.198387
          ],
          [
            120.514215,
            24.19836
          ],
          [
            120.515042,
            24.19817
          ],
          [
            120.516884,
            24.197754
          ],
          [
            120.518899,
            24.197338
          ],
          [
            120.520884,
            24.196909
          ],
          [
            120.52291,
            24.196427
          ],
          [
            120.522947,
            24.196582
          ],
          [
            120.523006,
            24.196789
          ],
          [
            120.523096,
            24.197181
          ],
          [
            120.523209,
            24.197192
          ],
          [
            120.524442,
            24.197022
          ],
          [
            120.524967,
            24.196917
          ],
          [
            120.525095,
            24.196894
          ],
          [
            120.525761,
            24.196734
          ],
          [
            120.527104,
            24.196452
          ],
          [
            120.529056,
            24.196036
          ],
          [
            120.52944,
            24.197427
          ],
          [
            120.52944,
            24.197427
          ],
          [
            120.529584,
            24.197947
          ],
          [
            120.531323,
            24.197627
          ],
          [
            120.531396,
            24.198351
          ],
          [
            120.531407,
            24.19848
          ],
          [
            120.531449,
            24.198614
          ],
          [
            120.531579,
            24.198774
          ],
          [
            120.531536,
            24.198775
          ],
          [
            120.531536,
            24.198775
          ],
          [
            120.531579,
            24.198774
          ],
          [
            120.531656,
            24.198862
          ],
          [
            120.531876,
            24.199095
          ],
          [
            120.532022,
            24.199314
          ],
          [
            120.532121,
            24.199556
          ],
          [
            120.532518,
            24.201031
          ],
          [
            120.533455,
            24.204535
          ],
          [
            120.534442,
            24.204307
          ],
          [
            120.535404,
            24.204104
          ],
          [
            120.536425,
            24.203856
          ],
          [
            120.536662,
            24.203807
          ],
          [
            120.536662,
            24.203807
          ],
          [
            120.536425,
            24.203856
          ],
          [
            120.535404,
            24.204104
          ],
          [
            120.535731,
            24.205291
          ],
          [
            120.535731,
            24.205291
          ],
          [
            120.535404,
            24.204104
          ],
          [
            120.534442,
            24.204307
          ],
          [
            120.533455,
            24.204535
          ],
          [
            120.533055,
            24.203038
          ],
          [
            120.533055,
            24.203038
          ],
          [
            120.532518,
            24.201031
          ],
          [
            120.530532,
            24.201469
          ],
          [
            120.529439,
            24.20172
          ],
          [
            120.528547,
            24.201913
          ],
          [
            120.52721,
            24.202214
          ],
          [
            120.526562,
            24.202352
          ],
          [
            120.525608,
            24.202583
          ],
          [
            120.525026,
            24.202733
          ],
          [
            120.524579,
            24.202835
          ],
          [
            120.524532,
            24.202667
          ],
          [
            120.524532,
            24.202667
          ],
          [
            120.524579,
            24.202835
          ],
          [
            120.524113,
            24.202935
          ],
          [
            120.52342,
            24.203078
          ],
          [
            120.523383,
            24.203925
          ],
          [
            120.523362,
            24.204448
          ],
          [
            120.523334,
            24.205193
          ],
          [
            120.523334,
            24.205266
          ],
          [
            120.523334,
            24.205326
          ],
          [
            120.523345,
            24.205446
          ],
          [
            120.523387,
            24.205792
          ],
          [
            120.523447,
            24.206159
          ],
          [
            120.523513,
            24.206556
          ],
          [
            120.523539,
            24.206722
          ],
          [
            120.523186,
            24.20681
          ],
          [
            120.523186,
            24.20681
          ],
          [
            120.523186,
            24.20681
          ],
          [
            120.523539,
            24.206722
          ],
          [
            120.523513,
            24.206556
          ],
          [
            120.523976,
            24.206467
          ],
          [
            120.523952,
            24.206278
          ],
          [
            120.523952,
            24.206278
          ],
          [
            120.523976,
            24.206467
          ],
          [
            120.524842,
            24.20629
          ],
          [
            120.525443,
            24.206159
          ],
          [
            120.525313,
            24.205649
          ],
          [
            120.52521,
            24.205289
          ],
          [
            120.525167,
            24.205109
          ],
          [
            120.525076,
            24.204757
          ],
          [
            120.525076,
            24.204757
          ],
          [
            120.525167,
            24.205109
          ],
          [
            120.52521,
            24.205289
          ],
          [
            120.525313,
            24.205649
          ],
          [
            120.525443,
            24.206159
          ],
          [
            120.525461,
            24.206238
          ],
          [
            120.525997,
            24.206202
          ],
          [
            120.526527,
            24.206159
          ],
          [
            120.526826,
            24.206145
          ],
          [
            120.526921,
            24.206112
          ],
          [
            120.527299,
            24.2067
          ],
          [
            120.527388,
            24.206838
          ],
          [
            120.527418,
            24.206916
          ],
          [
            120.527418,
            24.206916
          ],
          [
            120.527573,
            24.207326
          ],
          [
            120.527601,
            24.207397
          ],
          [
            120.527798,
            24.207653
          ],
          [
            120.527964,
            24.207599
          ],
          [
            120.527997,
            24.207671
          ],
          [
            120.528079,
            24.208118
          ],
          [
            120.527795,
            24.208189
          ],
          [
            120.52741,
            24.208307
          ],
          [
            120.527273,
            24.208335
          ],
          [
            120.527136,
            24.208351
          ],
          [
            120.526949,
            24.208376
          ],
          [
            120.526819,
            24.208385
          ],
          [
            120.526749,
            24.20839
          ],
          [
            120.526029,
            24.208451
          ],
          [
            120.525954,
            24.208458
          ],
          [
            120.525613,
            24.208489
          ],
          [
            120.525202,
            24.208514
          ],
          [
            120.52495,
            24.20852
          ],
          [
            120.524681,
            24.208504
          ],
          [
            120.524435,
            24.208442
          ],
          [
            120.524165,
            24.208376
          ],
          [
            120.523813,
            24.208319
          ],
          [
            120.52386,
            24.208664
          ],
          [
            120.523907,
            24.209125
          ],
          [
            120.523969,
            24.2095
          ],
          [
            120.523996,
            24.209602
          ],
          [
            120.524014,
            24.209664
          ],
          [
            120.524104,
            24.209972
          ],
          [
            120.524352,
            24.210509
          ],
          [
            120.524446,
            24.210636
          ],
          [
            120.524617,
            24.210949
          ],
          [
            120.52478,
            24.211312
          ],
          [
            120.524818,
            24.211382
          ],
          [
            120.524494,
            24.21145
          ],
          [
            120.524255,
            24.211428
          ],
          [
            120.524255,
            24.211768
          ],
          [
            120.523989,
            24.212183
          ],
          [
            120.523527,
            24.212537
          ],
          [
            120.523527,
            24.212537
          ],
          [
            120.523989,
            24.212183
          ],
          [
            120.524255,
            24.211768
          ],
          [
            120.524255,
            24.211428
          ],
          [
            120.524494,
            24.21145
          ],
          [
            120.524818,
            24.211382
          ],
          [
            120.524839,
            24.21142
          ],
          [
            120.524883,
            24.211548
          ],
          [
            120.525027,
            24.211967
          ],
          [
            120.525087,
            24.212183
          ],
          [
            120.525158,
            24.212398
          ],
          [
            120.525207,
            24.212582
          ],
          [
            120.525279,
            24.212827
          ],
          [
            120.525357,
            24.213097
          ],
          [
            120.525506,
            24.21357
          ],
          [
            120.525554,
            24.213806
          ],
          [
            120.525625,
            24.213994
          ],
          [
            120.525685,
            24.214188
          ],
          [
            120.525704,
            24.214248
          ],
          [
            120.525759,
            24.214374
          ],
          [
            120.525818,
            24.214565
          ],
          [
            120.525886,
            24.214817
          ],
          [
            120.525422,
            24.215014
          ],
          [
            120.524956,
            24.215199
          ],
          [
            120.524669,
            24.215313
          ],
          [
            120.524828,
            24.21555
          ],
          [
            120.524828,
            24.21555
          ],
          [
            120.525045,
            24.215871
          ],
          [
            120.525529,
            24.216557
          ],
          [
            120.525747,
            24.216861
          ],
          [
            120.525816,
            24.216927
          ],
          [
            120.525923,
            24.217015
          ],
          [
            120.52648,
            24.216857
          ],
          [
            120.526509,
            24.216945
          ],
          [
            120.52696,
            24.218248
          ],
          [
            120.525721,
            24.218647
          ],
          [
            120.525764,
            24.218766
          ],
          [
            120.525764,
            24.218766
          ],
          [
            120.525721,
            24.218647
          ],
          [
            120.52696,
            24.218248
          ],
          [
            120.526509,
            24.216945
          ],
          [
            120.52648,
            24.216857
          ],
          [
            120.52641,
            24.216615
          ],
          [
            120.526337,
            24.21637
          ],
          [
            120.526225,
            24.215995
          ],
          [
            120.526144,
            24.215749
          ],
          [
            120.526101,
            24.215582
          ],
          [
            120.526007,
            24.21529
          ],
          [
            120.525947,
            24.215037
          ],
          [
            120.525886,
            24.214817
          ],
          [
            120.525818,
            24.214565
          ],
          [
            120.525759,
            24.214374
          ],
          [
            120.525704,
            24.214248
          ],
          [
            120.525685,
            24.214188
          ],
          [
            120.525625,
            24.213994
          ],
          [
            120.525554,
            24.213806
          ],
          [
            120.525506,
            24.21357
          ],
          [
            120.525357,
            24.213097
          ],
          [
            120.525279,
            24.212827
          ],
          [
            120.525207,
            24.212582
          ],
          [
            120.524283,
            24.212863
          ],
          [
            120.524208,
            24.212722
          ],
          [
            120.523701,
            24.212892
          ],
          [
            120.523465,
            24.212977
          ],
          [
            120.523383,
            24.212805
          ],
          [
            120.523379,
            24.212728
          ],
          [
            120.523419,
            24.21262
          ],
          [
            120.523127,
            24.21183
          ],
          [
            120.523039,
            24.211599
          ],
          [
            120.522899,
            24.211258
          ],
          [
            120.522899,
            24.211258
          ],
          [
            120.523039,
            24.211599
          ],
          [
            120.523127,
            24.21183
          ],
          [
            120.523419,
            24.21262
          ],
          [
            120.523379,
            24.212728
          ],
          [
            120.523383,
            24.212805
          ],
          [
            120.523465,
            24.212977
          ],
          [
            120.523357,
            24.213023
          ],
          [
            120.523285,
            24.213084
          ],
          [
            120.52325,
            24.213157
          ],
          [
            120.523286,
            24.213403
          ],
          [
            120.523372,
            24.213775
          ],
          [
            120.523558,
            24.214367
          ],
          [
            120.523742,
            24.214876
          ],
          [
            120.523879,
            24.21525
          ],
          [
            120.5239,
            24.215324
          ],
          [
            120.52396,
            24.215449
          ],
          [
            120.523995,
            24.215509
          ],
          [
            120.524017,
            24.215584
          ],
          [
            120.523947,
            24.215618
          ],
          [
            120.523666,
            24.215771
          ],
          [
            120.523435,
            24.21589
          ],
          [
            120.52313,
            24.216015
          ],
          [
            120.522672,
            24.21621
          ],
          [
            120.522257,
            24.216375
          ],
          [
            120.522105,
            24.216437
          ],
          [
            120.52193,
            24.216502
          ],
          [
            120.521895,
            24.216513
          ],
          [
            120.52178,
            24.216548
          ],
          [
            120.521233,
            24.216775
          ],
          [
            120.520942,
            24.216894
          ],
          [
            120.520644,
            24.217016
          ],
          [
            120.520519,
            24.217069
          ],
          [
            120.51995,
            24.21731
          ],
          [
            120.519405,
            24.217492
          ],
          [
            120.517813,
            24.217926
          ],
          [
            120.515743,
            24.218489
          ],
          [
            120.513799,
            24.219009
          ],
          [
            120.513633,
            24.219026
          ],
          [
            120.513385,
            24.218997
          ],
          [
            120.512902,
            24.218937
          ],
          [
            120.512012,
            24.218809
          ],
          [
            120.511091,
            24.218677
          ],
          [
            120.51064,
            24.218612
          ],
          [
            120.510968,
            24.219521
          ],
          [
            120.510968,
            24.219521
          ],
          [
            120.51064,
            24.218612
          ],
          [
            120.50946,
            24.218473
          ],
          [
            120.509266,
            24.218504
          ],
          [
            120.509073,
            24.218041
          ],
          [
            120.509047,
            24.217961
          ],
          [
            120.508615,
            24.21694
          ],
          [
            120.508122,
            24.215737
          ],
          [
            120.507764,
            24.214872
          ],
          [
            120.507429,
            24.214061
          ],
          [
            120.507324,
            24.213806
          ],
          [
            120.506954,
            24.212909
          ],
          [
            120.506348,
            24.211498
          ],
          [
            120.506298,
            24.211392
          ],
          [
            120.505721,
            24.210163
          ],
          [
            120.505944,
            24.21007
          ],
          [
            120.506283,
            24.210874
          ],
          [
            120.506283,
            24.210874
          ],
          [
            120.506476,
            24.211331
          ],
          [
            120.507602,
            24.214003
          ],
          [
            120.508319,
            24.215703
          ],
          [
            120.508808,
            24.21689
          ],
          [
            120.509291,
            24.218116
          ],
          [
            120.50946,
            24.218473
          ],
          [
            120.509792,
            24.21926
          ],
          [
            120.510331,
            24.220516
          ],
          [
            120.510594,
            24.221173
          ],
          [
            120.510828,
            24.221695
          ],
          [
            120.510846,
            24.221735
          ],
          [
            120.51123,
            24.222645
          ],
          [
            120.511426,
            24.223116
          ],
          [
            120.512195,
            24.222888
          ],
          [
            120.514553,
            24.222158
          ],
          [
            120.515198,
            24.223851
          ],
          [
            120.516233,
            24.223485
          ],
          [
            120.516233,
            24.223485
          ]
        ]
      },
      "properties": {
        "routeId": "taichung-302-s7-926730-d1",
        "city": "taichung",
        "source_file": "taichung/taichung-302-s7-926730-d1.geojson",
        "distance_km": 29.598,
        "duration_min": 57.397933333333334,
        "valhalla_config": "valhalla.json"
      }
    }
  ]
}