{
  "type": "FeatureCollection",
  "features": [
    {
      "type": "Feature",
      "geometry": {
        "type": "LineString",
        "coordinates": [
          [
            120.669736,
            24.204302
          ],
          [
            120.669736,
            24.204302
          ],
          [
            120.669716,
            24.204221
          ],
          [
            120.669555,
            24.203881
          ],
          [
            120.669506,
            24.203673
          ],
          [
            120.669618,
            24.203727
          ],
          [
            120.669937,
            24.203729
          ],
          [
            120.670362,
            24.203698
          ],
          [
            120.671394,
            24.203702
          ],
          [
            120.671739,
            24.203769
          ],
          [
            120.672828,
            24.203975
          ],
          [
            120.67342,
            24.204096
          ],
          [
            120.673632,
            24.204202
          ],
          [
            120.673829,
            24.20432
          ],
          [
            120.67409,
            24.20448
          ],
          [
            120.674084,
            24.204569
          ],
          [
            120.673935,
            24.205152
          ],
          [
            120.673825,
            24.20545
          ],
          [
            120.673746,
            24.205602
          ],
          [
            120.673719,
            24.205664
          ],
          [
            120.673699,
            24.20573
          ],
          [
            120.673668,
            24.205839
          ],
          [
            120.673649,
            24.20601
          ],
          [
            120.673656,
            24.206098
          ],
          [
            120.673694,
            24.206516
          ],
          [
            120.673744,
            24.206961
          ],
          [
            120.673785,
            24.207451
          ],
          [
            120.673864,
            24.20818
          ],
          [
            120.673903,
            24.208626
          ],
          [
            120.673915,
            24.208771
          ],
          [
            120.673921,
            24.208846
          ],
          [
            120.673927,
            24.209103
          ],
          [
            120.67409,
            24.209186
          ],
          [
            120.674093,
            24.209187
          ],
          [
            120.674485,
            24.209432
          ],
          [
            120.67462,
            24.209545
          ],
          [
            120.674714,
            24.209637
          ],
          [
            120.674865,
            24.209761
          ],
          [
            120.675044,
            24.209879
          ],
          [
            120.67532,
            24.210066
          ],
          [
            120.675509,
            24.210211
          ],
          [
            120.675384,
            24.210369
          ],
          [
            120.675361,
            24.210469
          ],
          [
            120.675362,
            24.210556
          ],
          [
            120.675443,
            24.210969
          ],
          [
            120.675524,
            24.211303
          ],
          [
            120.675551,
            24.211501
          ],
          [
            120.675589,
            24.211809
          ],
          [
            120.675646,
            24.212073
          ],
          [
            120.675808,
            24.21268
          ],
          [
            120.675874,
            24.212849
          ],
          [
            120.67606,
            24.2134
          ],
          [
            120.67614,
            24.213591
          ],
          [
            120.67627,
            24.214001
          ],
          [
            120.676321,
            24.214225
          ],
          [
            120.676419,
            24.214586
          ],
          [
            120.676467,
            24.214749
          ],
          [
            120.676501,
            24.214953
          ],
          [
            120.676697,
            24.215493
          ],
          [
            120.676405,
            24.215582
          ],
          [
            120.676405,
            24.215582
          ],
          [
            120.676697,
            24.215493
          ],
          [
            120.67719,
            24.215435
          ],
          [
            120.677922,
            24.215522
          ],
          [
            120.678147,
            24.215555
          ],
          [
            120.678234,
            24.215658
          ],
          [
            120.678304,
            24.215778
          ],
          [
            120.678454,
            24.216418
          ],
          [
            120.678465,
            24.216456
          ],
          [
            120.67825,
            24.216596
          ],
          [
            120.678167,
            24.216646
          ],
          [
            120.677907,
            24.216816
          ],
          [
            120.677853,
            24.216826
          ],
          [
            120.677777,
            24.216745
          ],
          [
            120.677777,
            24.216745
          ],
          [
            120.677853,
            24.216826
          ],
          [
            120.677907,
            24.216816
          ],
          [
            120.678167,
            24.216646
          ],
          [
            120.67825,
            24.216596
          ],
          [
            120.678465,
            24.216456
          ],
          [
            120.678575,
            24.21692
          ],
          [
            120.678725,
            24.217421
          ],
          [
            120.678791,
            24.217497
          ],
          [
            120.678865,
            24.217532
          ],
          [
            120.678963,
            24.217559
          ],
          [
            120.679086,
            24.217596
          ],
          [
            120.67918,
            24.2176
          ],
          [
            120.679307,
            24.217602
          ],
          [
            120.679373,
            24.217623
          ],
          [
            120.679396,
            24.217653
          ],
          [
            120.679429,
            24.217699
          ],
          [
            120.679465,
            24.217782
          ],
          [
            120.679632,
            24.218201
          ],
          [
            120.679667,
            24.218285
          ],
          [
            120.679688,
            24.218335
          ],
          [
            120.67983,
            24.218703
          ],
          [
            120.679911,
            24.218974
          ],
          [
            120.679988,
            24.219235
          ],
          [
            120.680121,
            24.219619
          ],
          [
            120.680245,
            24.219937
          ],
          [
            120.680367,
            24.220242
          ],
          [
            120.680455,
            24.220426
          ],
          [
            120.680587,
            24.220608
          ],
          [
            120.680714,
            24.220799
          ],
          [
            120.680846,
            24.220949
          ],
          [
            120.680876,
            24.220983
          ],
          [
            120.68102,
            24.221139
          ],
          [
            120.681125,
            24.221296
          ],
          [
            120.681616,
            24.221952
          ],
          [
            120.682265,
            24.222825
          ],
          [
            120.68285,
            24.223671
          ],
          [
            120.683011,
            24.223903
          ],
          [
            120.682695,
            24.22407
          ],
          [
            120.682573,
            24.224118
          ],
          [
            120.682469,
            24.224125
          ],
          [
            120.682347,
            24.224096
          ],
          [
            120.682195,
            24.22404
          ],
          [
            120.682183,
            24.224063
          ],
          [
            120.682152,
            24.224123
          ],
          [
            120.682052,
            24.224318
          ],
          [
            120.682039,
            24.224379
          ],
          [
            120.682059,
            24.22449
          ],
          [
            120.682071,
            24.224529
          ],
          [
            120.68221,
            24.22501
          ],
          [
            120.682288,
            24.225247
          ],
          [
            120.682338,
            24.225412
          ],
          [
            120.682384,
            24.225562
          ],
          [
            120.682549,
            24.226055
          ],
          [
            120.682657,
            24.22632
          ],
          [
            120.682752,
            24.226584
          ],
          [
            120.68182,
            24.226671
          ],
          [
            120.681776,
            24.226675
          ],
          [
            120.681381,
            24.226712
          ],
          [
            120.680872,
            24.226758
          ],
          [
            120.680557,
            24.226765
          ],
          [
            120.680427,
            24.226771
          ],
          [
            120.679432,
            24.22681
          ],
          [
            120.679323,
            24.226879
          ],
          [
            120.6789,
            24.227155
          ],
          [
            120.678878,
            24.227196
          ],
          [
            120.678587,
            24.227394
          ],
          [
            120.678081,
            24.227717
          ],
          [
            120.677945,
            24.227801
          ],
          [
            120.677876,
            24.227846
          ],
          [
            120.677829,
            24.227872
          ],
          [
            120.677037,
            24.228402
          ],
          [
            120.676697,
            24.228635
          ],
          [
            120.675608,
            24.22931
          ],
          [
            120.67555,
            24.229328
          ],
          [
            120.675456,
            24.229238
          ],
          [
            120.675392,
            24.229224
          ],
          [
            120.675392,
            24.229224
          ],
          [
            120.675456,
            24.229238
          ],
          [
            120.67555,
            24.229328
          ],
          [
            120.675608,
            24.22931
          ],
          [
            120.675631,
            24.229406
          ],
          [
            120.675695,
            24.229693
          ],
          [
            120.675799,
            24.230015
          ],
          [
            120.675839,
            24.230145
          ],
          [
            120.675868,
            24.230212
          ],
          [
            120.67609,
            24.230889
          ],
          [
            120.676165,
            24.231204
          ],
          [
            120.676236,
            24.231312
          ],
          [
            120.676515,
            24.231629
          ],
          [
            120.676638,
            24.231717
          ],
          [
            120.67667,
            24.231749
          ],
          [
            120.676744,
            24.231825
          ],
          [
            120.676849,
            24.231905
          ],
          [
            120.677005,
            24.231972
          ],
          [
            120.676992,
            24.232165
          ],
          [
            120.677016,
            24.232288
          ],
          [
            120.677095,
            24.232639
          ],
          [
            120.677177,
            24.233075
          ],
          [
            120.677258,
            24.233348
          ],
          [
            120.677332,
            24.233747
          ],
          [
            120.677438,
            24.234473
          ],
          [
            120.677522,
            24.234518
          ],
          [
            120.677631,
            24.234492
          ],
          [
            120.678515,
            24.234502
          ],
          [
            120.678568,
            24.234528
          ],
          [
            120.678577,
            24.234581
          ],
          [
            120.678507,
            24.234718
          ],
          [
            120.678507,
            24.234718
          ],
          [
            120.6785,
            24.234731
          ],
          [
            120.678489,
            24.234809
          ],
          [
            120.678517,
            24.234957
          ],
          [
            120.678548,
            24.235004
          ],
          [
            120.678449,
            24.235045
          ],
          [
            120.678307,
            24.235063
          ],
          [
            120.67809,
            24.235075
          ],
          [
            120.678064,
            24.235077
          ],
          [
            120.677632,
            24.235152
          ],
          [
            120.677443,
            24.235188
          ],
          [
            120.677352,
            24.235258
          ],
          [
            120.677319,
            24.235309
          ],
          [
            120.677285,
            24.235339
          ],
          [
            120.677241,
            24.23536
          ],
          [
            120.676941,
            24.235503
          ],
          [
            120.676566,
            24.235018
          ],
          [
            120.676383,
            24.234769
          ],
          [
            120.676334,
            24.234716
          ],
          [
            120.6762,
            24.234572
          ],
          [
            120.675792,
            24.23418
          ],
          [
            120.675046,
            24.233469
          ],
          [
            120.67468,
            24.233121
          ],
          [
            120.674558,
            24.232988
          ],
          [
            120.674369,
            24.232749
          ],
          [
            120.674221,
            24.232548
          ],
          [
            120.674046,
            24.232349
          ],
          [
            120.673961,
            24.232267
          ],
          [
            120.673824,
            24.232136
          ],
          [
            120.673627,
            24.231954
          ],
          [
            120.673504,
            24.231841
          ],
          [
            120.673347,
            24.231644
          ],
          [
            120.673635,
            24.231377
          ],
          [
            120.673661,
            24.231335
          ],
          [
            120.673742,
            24.231205
          ],
          [
            120.673622,
            24.231122
          ],
          [
            120.673231,
            24.230699
          ],
          [
            120.673231,
            24.230699
          ],
          [
            120.673622,
            24.231122
          ],
          [
            120.673742,
            24.231205
          ],
          [
            120.673661,
            24.231335
          ],
          [
            120.673635,
            24.231377
          ],
          [
            120.673347,
            24.231644
          ],
          [
            120.673504,
            24.231841
          ],
          [
            120.673161,
            24.232302
          ],
          [
            120.672886,
            24.232519
          ],
          [
            120.67249,
            24.232722
          ],
          [
            120.672367,
            24.232818
          ],
          [
            120.672341,
            24.232856
          ],
          [
            120.6723,
            24.232947
          ],
          [
            120.672281,
            24.233124
          ],
          [
            120.672301,
            24.233251
          ],
          [
            120.672487,
            24.233792
          ],
          [
            120.672592,
            24.234207
          ],
          [
            120.672658,
            24.234492
          ],
          [
            120.672677,
            24.234745
          ],
          [
            120.67272,
            24.235117
          ],
          [
            120.67279,
            24.235589
          ],
          [
            120.672802,
            24.235818
          ],
          [
            120.672805,
            24.235987
          ],
          [
            120.672489,
            24.236147
          ],
          [
            120.672298,
            24.236244
          ],
          [
            120.671916,
            24.23589
          ],
          [
            120.671428,
            24.235563
          ],
          [
            120.671223,
            24.235666
          ],
          [
            120.670824,
            24.235855
          ],
          [
            120.670667,
            24.235932
          ],
          [
            120.670538,
            24.235995
          ],
          [
            120.670403,
            24.236082
          ],
          [
            120.670339,
            24.236121
          ],
          [
            120.670004,
            24.236326
          ],
          [
            120.669431,
            24.236581
          ],
          [
            120.668996,
            24.236774
          ],
          [
            120.668977,
            24.236782
          ],
          [
            120.668857,
            24.236847
          ],
          [
            120.66874,
            24.236912
          ],
          [
            120.668692,
            24.236934
          ],
          [
            120.667938,
            24.237278
          ],
          [
            120.667978,
            24.237342
          ],
          [
            120.667978,
            24.237342
          ],
          [
            120.668461,
            24.238121
          ],
          [
            120.668668,
            24.238493
          ],
          [
            120.668788,
            24.238681
          ],
          [
            120.667403,
            24.239369
          ],
          [
            120.667259,
            24.23944
          ],
          [
            120.668201,
            24.240555
          ],
          [
            120.668213,
            24.24068
          ],
          [
            120.668162,
            24.240936
          ],
          [
            120.668116,
            24.240961
          ],
          [
            120.667989,
            24.240979
          ],
          [
            120.667989,
            24.240979
          ],
          [
            120.668116,
            24.240961
          ],
          [
            120.668162,
            24.240936
          ],
          [
            120.668213,
            24.24068
          ],
          [
            120.668201,
            24.240555
          ],
          [
            120.667259,
            24.23944
          ],
          [
            120.66567,
            24.24018
          ],
          [
            120.665394,
            24.24027
          ],
          [
            120.663666,
            24.241048
          ],
          [
            120.663531,
            24.241147
          ],
          [
            120.66329,
            24.241055
          ],
          [
            120.663119,
            24.241096
          ],
          [
            120.662772,
            24.241103
          ],
          [
            120.662477,
            24.241089
          ],
          [
            120.66215,
            24.241149
          ],
          [
            120.661791,
            24.241168
          ],
          [
            120.661367,
            24.241129
          ],
          [
            120.661151,
            24.241045
          ],
          [
            120.660911,
            24.240974
          ],
          [
            120.658794,
            24.24193
          ],
          [
            120.658206,
            24.241892
          ],
          [
            120.657739,
            24.242144
          ],
          [
            120.657578,
            24.241905
          ],
          [
            120.657109,
            24.240598
          ],
          [
            120.656935,
            24.240165
          ],
          [
            120.656809,
            24.239928
          ],
          [
            120.656078,
            24.238937
          ],
          [
            120.656049,
            24.238898
          ],
          [
            120.655706,
            24.238432
          ],
          [
            120.655529,
            24.238193
          ],
          [
            120.655377,
            24.23791
          ],
          [
            120.655257,
            24.237581
          ],
          [
            120.655241,
            24.237533
          ],
          [
            120.65517,
            24.237323
          ],
          [
            120.655128,
            24.237138
          ],
          [
            120.65513,
            24.237016
          ],
          [
            120.655173,
            24.236872
          ],
          [
            120.655264,
            24.236325
          ],
          [
            120.655285,
            24.236148
          ],
          [
            120.65527,
            24.235858
          ],
          [
            120.655241,
            24.235637
          ],
          [
            120.655205,
            24.235493
          ],
          [
            120.655112,
            24.235126
          ],
          [
            120.655059,
            24.235005
          ],
          [
            120.654992,
            24.234897
          ],
          [
            120.654929,
            24.23481
          ],
          [
            120.655022,
            24.234772
          ],
          [
            120.655022,
            24.234772
          ],
          [
            120.654929,
            24.23481
          ],
          [
            120.654992,
            24.234897
          ],
          [
            120.655059,
            24.235005
          ],
          [
            120.655112,
            24.235126
          ],
          [
            120.655205,
            24.235493
          ],
          [
            120.655241,
            24.235637
          ],
          [
            120.65527,
            24.235858
          ],
          [
            120.655285,
            24.236148
          ],
          [
            120.655264,
            24.236325
          ],
          [
            120.655173,
            24.236872
          ],
          [
            120.65513,
            24.237016
          ],
          [
            120.655128,
            24.237138
          ],
          [
            120.65517,
            24.237323
          ],
          [
            120.655241,
            24.237533
          ],
          [
            120.655257,
            24.237581
          ],
          [
            120.655377,
            24.23791
          ],
          [
            120.655529,
            24.238193
          ],
          [
            120.655706,
            24.238432
          ],
          [
            120.656049,
            24.238898
          ],
          [
            120.656078,
            24.238937
          ],
          [
            120.656388,
            24.239357
          ],
          [
            120.656388,
            24.239357
          ],
          [
            120.656809,
            24.239928
          ],
          [
            120.656935,
            24.240165
          ],
          [
            120.657109,
            24.240598
          ],
          [
            120.654902,
            24.241297
          ],
          [
            120.654764,
            24.241329
          ],
          [
            120.654705,
            24.241443
          ],
          [
            120.654636,
            24.241561
          ],
          [
            120.654575,
            24.241577
          ],
          [
            120.654174,
            24.241795
          ],
          [
            120.654055,
            24.241802
          ],
          [
            120.653811,
            24.241955
          ],
          [
            120.65363,
            24.242092
          ],
          [
            120.653407,
            24.242229
          ],
          [
            120.652333,
            24.242659
          ],
          [
            120.650359,
            24.243517
          ],
          [
            120.649827,
            24.242527
          ],
          [
            120.649455,
            24.241935
          ],
          [
            120.64957,
            24.241883
          ],
          [
            120.64957,
            24.241883
          ]
        ]
      },
      "properties": {
        "routeId": "taichung-407-vp-a94553-d4",
        "city": "taichung",
        "source_file": "taichung/taichung-407-vp-a94553-d4.geojson",
        "distance_km": 12.006,
        "duration_min": 24.68978333333333,
        "valhalla_config": "valhalla.json"
      }
    }
  ]
}