{
  "type": "FeatureCollection",
  "features": [
    {
      "type": "Feature",
      "geometry": {
        "type": "LineString",
        "coordinates": [
          [
            120.651019,
            24.380205
          ],
          [
            120.651019,
            24.380205
          ],
          [
            120.650942,
            24.380248
          ],
          [
            120.651029,
            24.380393
          ],
          [
            120.651383,
            24.381113
          ],
          [
            120.651498,
            24.381425
          ],
          [
            120.651597,
            24.381657
          ],
          [
            120.651704,
            24.381947
          ],
          [
            120.651861,
            24.382474
          ],
          [
            120.652757,
            24.382031
          ],
          [
            120.653019,
            24.381897
          ],
          [
            120.653023,
            24.381895
          ],
          [
            120.653023,
            24.381895
          ],
          [
            120.653259,
            24.381768
          ],
          [
            120.653783,
            24.381485
          ],
          [
            120.653783,
            24.381485
          ],
          [
            120.654103,
            24.381313
          ],
          [
            120.654429,
            24.381179
          ],
          [
            120.654516,
            24.38113
          ],
          [
            120.655037,
            24.380896
          ],
          [
            120.655341,
            24.381389
          ],
          [
            120.655341,
            24.381389
          ],
          [
            120.655037,
            24.380896
          ],
          [
            120.654851,
            24.380583
          ],
          [
            120.654851,
            24.380583
          ],
          [
            120.654134,
            24.379376
          ],
          [
            120.654053,
            24.37923
          ],
          [
            120.653975,
            24.379104
          ],
          [
            120.653556,
            24.378423
          ],
          [
            120.653411,
            24.378178
          ],
          [
            120.653411,
            24.378178
          ],
          [
            120.65302,
            24.377514
          ],
          [
            120.652805,
            24.377154
          ],
          [
            120.652343,
            24.376411
          ],
          [
            120.652322,
            24.376375
          ],
          [
            120.652322,
            24.376375
          ],
          [
            120.652343,
            24.376411
          ],
          [
            120.652805,
            24.377154
          ],
          [
            120.65302,
            24.377514
          ],
          [
            120.653556,
            24.378423
          ],
          [
            120.653975,
            24.379104
          ],
          [
            120.654053,
            24.37923
          ],
          [
            120.654134,
            24.379376
          ],
          [
            120.65366,
            24.379653
          ],
          [
            120.65366,
            24.379653
          ],
          [
            120.653223,
            24.379908
          ],
          [
            120.652993,
            24.380078
          ],
          [
            120.652765,
            24.38023
          ],
          [
            120.652765,
            24.38023
          ],
          [
            120.652735,
            24.38025
          ],
          [
            120.652542,
            24.380357
          ],
          [
            120.65243,
            24.380428
          ],
          [
            120.651963,
            24.380722
          ],
          [
            120.65158,
            24.380952
          ],
          [
            120.65158,
            24.380952
          ],
          [
            120.651534,
            24.380979
          ],
          [
            120.651383,
            24.381113
          ],
          [
            120.651498,
            24.381425
          ],
          [
            120.651597,
            24.381657
          ],
          [
            120.651704,
            24.381947
          ],
          [
            120.651861,
            24.382474
          ],
          [
            120.651923,
            24.382746
          ],
          [
            120.651941,
            24.382824
          ],
          [
            120.652003,
            24.383183
          ],
          [
            120.652061,
            24.383512
          ],
          [
            120.652079,
            24.384418
          ],
          [
            120.652086,
            24.384761
          ],
          [
            120.652055,
            24.385158
          ],
          [
            120.652013,
            24.385707
          ],
          [
            120.651989,
            24.385856
          ],
          [
            120.65183,
            24.386549
          ],
          [
            120.65169,
            24.386977
          ],
          [
            120.651502,
            24.387575
          ],
          [
            120.651234,
            24.388367
          ],
          [
            120.65121,
            24.388465
          ],
          [
            120.6508,
            24.389557
          ],
          [
            120.65068,
            24.389889
          ],
          [
            120.65068,
            24.389889
          ],
          [
            120.650579,
            24.390169
          ],
          [
            120.650194,
            24.391237
          ],
          [
            120.649953,
            24.391866
          ],
          [
            120.64985,
            24.392156
          ],
          [
            120.649378,
            24.393377
          ],
          [
            120.649005,
            24.394379
          ],
          [
            120.648621,
            24.395116
          ],
          [
            120.648621,
            24.395116
          ],
          [
            120.64852,
            24.395309
          ],
          [
            120.648142,
            24.395913
          ],
          [
            120.647924,
            24.396211
          ],
          [
            120.64747,
            24.396709
          ],
          [
            120.646918,
            24.397276
          ],
          [
            120.646175,
            24.397935
          ],
          [
            120.645739,
            24.398325
          ],
          [
            120.645403,
            24.398592
          ],
          [
            120.644729,
            24.399184
          ],
          [
            120.644015,
            24.399776
          ],
          [
            120.64328,
            24.400385
          ],
          [
            120.642286,
            24.401249
          ],
          [
            120.642074,
            24.401434
          ],
          [
            120.641859,
            24.401702
          ],
          [
            120.641669,
            24.401995
          ],
          [
            120.641516,
            24.40232
          ],
          [
            120.641445,
            24.402595
          ],
          [
            120.641428,
            24.402659
          ],
          [
            120.641372,
            24.403181
          ],
          [
            120.641366,
            24.403419
          ],
          [
            120.64144,
            24.403805
          ],
          [
            120.641498,
            24.403939
          ],
          [
            120.641498,
            24.403939
          ],
          [
            120.6417,
            24.404406
          ],
          [
            120.642216,
            24.405603
          ],
          [
            120.642465,
            24.40619
          ],
          [
            120.642827,
            24.406008
          ],
          [
            120.644032,
            24.405416
          ],
          [
            120.645091,
            24.404886
          ],
          [
            120.646221,
            24.404328
          ],
          [
            120.647476,
            24.403677
          ],
          [
            120.648409,
            24.403192
          ],
          [
            120.648954,
            24.404123
          ],
          [
            120.648833,
            24.404182
          ],
          [
            120.648833,
            24.404182
          ],
          [
            120.648954,
            24.404123
          ],
          [
            120.649486,
            24.405022
          ],
          [
            120.648979,
            24.405271
          ],
          [
            120.648727,
            24.405395
          ],
          [
            120.648678,
            24.405313
          ],
          [
            120.648678,
            24.405313
          ],
          [
            120.648727,
            24.405395
          ],
          [
            120.648235,
            24.405637
          ],
          [
            120.647262,
            24.406109
          ],
          [
            120.647064,
            24.405772
          ],
          [
            120.646897,
            24.405501
          ],
          [
            120.646729,
            24.405209
          ],
          [
            120.646572,
            24.404937
          ],
          [
            120.646404,
            24.404646
          ],
          [
            120.646221,
            24.404328
          ],
          [
            120.646039,
            24.404013
          ],
          [
            120.645868,
            24.403715
          ],
          [
            120.645703,
            24.403437
          ],
          [
            120.645631,
            24.403309
          ],
          [
            120.645537,
            24.403141
          ],
          [
            120.64538,
            24.402868
          ],
          [
            120.644849,
            24.403124
          ],
          [
            120.64473,
            24.403182
          ],
          [
            120.64473,
            24.403182
          ],
          [
            120.644223,
            24.403429
          ],
          [
            120.643173,
            24.403965
          ],
          [
            120.642579,
            24.404248
          ],
          [
            120.642579,
            24.404248
          ],
          [
            120.643173,
            24.403965
          ],
          [
            120.643344,
            24.404249
          ],
          [
            120.644133,
            24.403848
          ],
          [
            120.644133,
            24.403848
          ],
          [
            120.643344,
            24.404249
          ],
          [
            120.643513,
            24.404531
          ],
          [
            120.643674,
            24.404814
          ],
          [
            120.643416,
            24.404941
          ],
          [
            120.643416,
            24.404941
          ],
          [
            120.643674,
            24.404814
          ],
          [
            120.643844,
            24.405104
          ],
          [
            120.644032,
            24.405416
          ],
          [
            120.645091,
            24.404886
          ],
          [
            120.646061,
            24.404407
          ],
          [
            120.646061,
            24.404407
          ],
          [
            120.645091,
            24.404886
          ],
          [
            120.644032,
            24.405416
          ],
          [
            120.644211,
            24.405732
          ],
          [
            120.644377,
            24.406012
          ],
          [
            120.644174,
            24.406111
          ],
          [
            120.644174,
            24.406111
          ],
          [
            120.644377,
            24.406012
          ],
          [
            120.645438,
            24.405491
          ],
          [
            120.645602,
            24.405775
          ],
          [
            120.645764,
            24.406054
          ],
          [
            120.646504,
            24.405693
          ],
          [
            120.646504,
            24.405693
          ],
          [
            120.645764,
            24.406054
          ],
          [
            120.644727,
            24.406587
          ],
          [
            120.644883,
            24.406865
          ],
          [
            120.645053,
            24.407159
          ],
          [
            120.644366,
            24.407496
          ],
          [
            120.644366,
            24.407496
          ],
          [
            120.645053,
            24.407159
          ],
          [
            120.645222,
            24.407449
          ],
          [
            120.645741,
            24.407185
          ],
          [
            120.645741,
            24.407185
          ],
          [
            120.646273,
            24.406915
          ],
          [
            120.64646,
            24.407229
          ],
          [
            120.647415,
            24.406756
          ],
          [
            120.647415,
            24.406756
          ],
          [
            120.647592,
            24.406668
          ],
          [
            120.647858,
            24.407129
          ],
          [
            120.647599,
            24.40726
          ],
          [
            120.647242,
            24.407437
          ],
          [
            120.646782,
            24.407656
          ],
          [
            120.645823,
            24.408135
          ],
          [
            120.644179,
            24.408944
          ],
          [
            120.643562,
            24.409256
          ],
          [
            120.643564,
            24.409532
          ],
          [
            120.64356,
            24.409674
          ],
          [
            120.643515,
            24.410587
          ],
          [
            120.643398,
            24.411857
          ],
          [
            120.643339,
            24.412495
          ],
          [
            120.643135,
            24.414615
          ],
          [
            120.643078,
            24.415218
          ],
          [
            120.642997,
            24.416188
          ],
          [
            120.642979,
            24.416413
          ],
          [
            120.642893,
            24.41747
          ],
          [
            120.64288,
            24.417815
          ],
          [
            120.642878,
            24.418044
          ],
          [
            120.642888,
            24.418449
          ],
          [
            120.642913,
            24.41879
          ],
          [
            120.642776,
            24.418807
          ],
          [
            120.642572,
            24.418861
          ],
          [
            120.64145,
            24.419569
          ],
          [
            120.64145,
            24.419569
          ],
          [
            120.641317,
            24.419653
          ],
          [
            120.640534,
            24.419921
          ],
          [
            120.640296,
            24.420044
          ],
          [
            120.640148,
            24.420122
          ],
          [
            120.640051,
            24.420317
          ],
          [
            120.639777,
            24.420459
          ],
          [
            120.639353,
            24.420713
          ],
          [
            120.63908,
            24.420878
          ],
          [
            120.638689,
            24.421181
          ],
          [
            120.638584,
            24.421306
          ],
          [
            120.638227,
            24.42171
          ],
          [
            120.638037,
            24.421876
          ],
          [
            120.637589,
            24.421955
          ],
          [
            120.637362,
            24.421937
          ],
          [
            120.636273,
            24.422501
          ],
          [
            120.635707,
            24.422817
          ],
          [
            120.635476,
            24.422957
          ],
          [
            120.635188,
            24.423188
          ],
          [
            120.634634,
            24.42367
          ],
          [
            120.634439,
            24.423924
          ],
          [
            120.634315,
            24.424123
          ],
          [
            120.633839,
            24.424725
          ],
          [
            120.633845,
            24.425013
          ],
          [
            120.633841,
            24.425062
          ],
          [
            120.633841,
            24.425062
          ],
          [
            120.633845,
            24.425013
          ],
          [
            120.633839,
            24.424725
          ],
          [
            120.634315,
            24.424123
          ],
          [
            120.63419,
            24.423964
          ],
          [
            120.633937,
            24.423767
          ],
          [
            120.633638,
            24.423534
          ],
          [
            120.633466,
            24.423347
          ],
          [
            120.633455,
            24.423419
          ],
          [
            120.633128,
            24.423889
          ],
          [
            120.632974,
            24.424113
          ],
          [
            120.632737,
            24.424496
          ],
          [
            120.632715,
            24.424603
          ],
          [
            120.632715,
            24.424667
          ],
          [
            120.632844,
            24.425011
          ],
          [
            120.632887,
            24.425161
          ],
          [
            120.632865,
            24.425225
          ],
          [
            120.632822,
            24.425311
          ],
          [
            120.63278,
            24.425354
          ],
          [
            120.632565,
            24.425504
          ],
          [
            120.632393,
            24.425633
          ],
          [
            120.631449,
            24.426234
          ],
          [
            120.631127,
            24.426427
          ],
          [
            120.630548,
            24.426749
          ],
          [
            120.630105,
            24.42697
          ],
          [
            120.629776,
            24.427135
          ],
          [
            120.629518,
            24.427285
          ],
          [
            120.629411,
            24.427371
          ],
          [
            120.628982,
            24.427843
          ],
          [
            120.628338,
            24.42868
          ],
          [
            120.628102,
            24.428873
          ],
          [
            120.627608,
            24.429152
          ],
          [
            120.627353,
            24.429296
          ],
          [
            120.626965,
            24.429538
          ],
          [
            120.626128,
            24.43001
          ],
          [
            120.625743,
            24.430227
          ],
          [
            120.624518,
            24.43074
          ],
          [
            120.624347,
            24.430804
          ],
          [
            120.624068,
            24.430933
          ],
          [
            120.623719,
            24.431108
          ],
          [
            120.623719,
            24.431108
          ],
          [
            120.624068,
            24.430933
          ],
          [
            120.624347,
            24.430804
          ],
          [
            120.624518,
            24.43074
          ],
          [
            120.625743,
            24.430227
          ],
          [
            120.626128,
            24.43001
          ],
          [
            120.626965,
            24.429538
          ],
          [
            120.627353,
            24.429296
          ],
          [
            120.626964,
            24.428817
          ],
          [
            120.626165,
            24.427902
          ],
          [
            120.626165,
            24.427902
          ],
          [
            120.62602,
            24.427736
          ],
          [
            120.626128,
            24.427435
          ],
          [
            120.626235,
            24.427178
          ],
          [
            120.626278,
            24.426963
          ],
          [
            120.626321,
            24.426668
          ],
          [
            120.626401,
            24.425772
          ],
          [
            120.626409,
            24.42558
          ],
          [
            120.626405,
            24.425418
          ],
          [
            120.62645,
            24.424818
          ],
          [
            120.626514,
            24.424024
          ],
          [
            120.626535,
            24.423723
          ],
          [
            120.626578,
            24.423208
          ],
          [
            120.626621,
            24.423015
          ],
          [
            120.626726,
            24.422757
          ],
          [
            120.6269,
            24.422328
          ],
          [
            120.627145,
            24.421814
          ],
          [
            120.627363,
            24.421286
          ],
          [
            120.627363,
            24.421286
          ],
          [
            120.627488,
            24.420982
          ],
          [
            120.627575,
            24.420834
          ],
          [
            120.628531,
            24.42014
          ],
          [
            120.628703,
            24.419968
          ],
          [
            120.629004,
            24.419673
          ],
          [
            120.629346,
            24.419324
          ],
          [
            120.629625,
            24.419002
          ],
          [
            120.629861,
            24.418702
          ],
          [
            120.630274,
            24.418155
          ],
          [
            120.630491,
            24.41787
          ],
          [
            120.631202,
            24.416973
          ],
          [
            120.6318,
            24.416163
          ],
          [
            120.631999,
            24.415889
          ],
          [
            120.632076,
            24.415799
          ],
          [
            120.632151,
            24.415645
          ],
          [
            120.632296,
            24.415208
          ],
          [
            120.632379,
            24.414981
          ],
          [
            120.632452,
            24.414746
          ],
          [
            120.63322,
            24.412314
          ],
          [
            120.633252,
            24.4122
          ],
          [
            120.633509,
            24.411428
          ],
          [
            120.633634,
            24.411081
          ],
          [
            120.633702,
            24.410891
          ],
          [
            120.633767,
            24.410784
          ],
          [
            120.633895,
            24.410613
          ],
          [
            120.632875,
            24.410782
          ],
          [
            120.632436,
            24.409799
          ],
          [
            120.632141,
            24.40915
          ],
          [
            120.631568,
            24.407856
          ],
          [
            120.630813,
            24.406256
          ],
          [
            120.630829,
            24.40621
          ],
          [
            120.630848,
            24.406141
          ],
          [
            120.63089,
            24.406056
          ],
          [
            120.631696,
            24.405183
          ],
          [
            120.631747,
            24.40508
          ],
          [
            120.63188,
            24.404584
          ],
          [
            120.631974,
            24.404439
          ],
          [
            120.632241,
            24.403773
          ],
          [
            120.632284,
            24.4037
          ],
          [
            120.632694,
            24.403137
          ],
          [
            120.632902,
            24.40297
          ],
          [
            120.632835,
            24.402869
          ],
          [
            120.632705,
            24.402142
          ],
          [
            120.632711,
            24.402084
          ],
          [
            120.632721,
            24.401974
          ],
          [
            120.632495,
            24.401371
          ],
          [
            120.631983,
            24.401328
          ],
          [
            120.63182,
            24.40129
          ],
          [
            120.631535,
            24.40129
          ],
          [
            120.630984,
            24.401279
          ],
          [
            120.63056,
            24.401252
          ],
          [
            120.629919,
            24.401235
          ],
          [
            120.629716,
            24.400848
          ],
          [
            120.629716,
            24.400848
          ],
          [
            120.629652,
            24.400725
          ],
          [
            120.627314,
            24.402373
          ],
          [
            120.626538,
            24.402968
          ],
          [
            120.624587,
            24.404362
          ],
          [
            120.62311,
            24.40546
          ],
          [
            120.622988,
            24.405551
          ],
          [
            120.622681,
            24.405778
          ],
          [
            120.621442,
            24.40664
          ],
          [
            120.620965,
            24.406991
          ],
          [
            120.619503,
            24.408041
          ],
          [
            120.618171,
            24.409003
          ],
          [
            120.617116,
            24.409754
          ],
          [
            120.616559,
            24.410163
          ],
          [
            120.616559,
            24.410163
          ]
        ]
      },
      "properties": {
        "routeId": "taichung-kel-0282-1901fa-d4",
        "city": "taichung",
        "source_file": "taichung/taichung-kel-0282-1901fa-d4.geojson",
        "distance_km": 19.809,
        "duration_min": 29.340199999999996,
        "valhalla_config": "valhalla.json"
      }
    }
  ]
}