{
  "type": "FeatureCollection",
  "features": [
    {
      "type": "Feature",
      "geometry": {
        "type": "LineString",
        "coordinates": [
          [
            121.47419,
            25.01994
          ],
          [
            121.474595,
            25.02021
          ],
          [
            121.474693,
            25.020275
          ],
          [
            121.474739,
            25.020306
          ],
          [
            121.47491,
            25.020421
          ],
          [
            121.475182,
            25.020549
          ],
          [
            121.475307,
            25.020608
          ],
          [
            121.475353,
            25.020566
          ],
          [
            121.475307,
            25.020608
          ],
          [
            121.47491,
            25.020421
          ],
          [
            121.474693,
            25.020275
          ],
          [
            121.474429,
            25.020624
          ],
          [
            121.474834,
            25.020866
          ],
          [
            121.47485,
            25.020972
          ],
          [
            121.474885,
            25.020996
          ],
          [
            121.475268,
            25.021251
          ],
          [
            121.47485,
            25.020972
          ],
          [
            121.474834,
            25.020866
          ],
          [
            121.474428,
            25.020624
          ],
          [
            121.474157,
            25.020459
          ],
          [
            121.4741,
            25.020482
          ],
          [
            121.473955,
            25.020639
          ],
          [
            121.473457,
            25.020287
          ],
          [
            121.472721,
            25.019774
          ],
          [
            121.472185,
            25.01941
          ],
          [
            121.471884,
            25.019175
          ],
          [
            121.471464,
            25.018799
          ],
          [
            121.471359,
            25.018719
          ],
          [
            121.471146,
            25.018557
          ],
          [
            121.470924,
            25.018405
          ],
          [
            121.470995,
            25.018317
          ],
          [
            121.47121,
            25.018481
          ],
          [
            121.471435,
            25.018626
          ],
          [
            121.471516,
            25.018704
          ],
          [
            121.471541,
            25.018728
          ],
          [
            121.471974,
            25.019062
          ],
          [
            121.475354,
            25.021446
          ],
          [
            121.475492,
            25.021546
          ],
          [
            121.47718,
            25.022766
          ],
          [
            121.477938,
            25.023335
          ],
          [
            121.478367,
            25.023647
          ],
          [
            121.479102,
            25.024115
          ],
          [
            121.480059,
            25.024807
          ],
          [
            121.480777,
            25.025318
          ],
          [
            121.48099,
            25.025474
          ],
          [
            121.481224,
            25.025618
          ],
          [
            121.481638,
            25.025868
          ],
          [
            121.482185,
            25.026173
          ],
          [
            121.482882,
            25.0265
          ],
          [
            121.483705,
            25.02675
          ],
          [
            121.484283,
            25.026877
          ],
          [
            121.485442,
            25.027073
          ],
          [
            121.486822,
            25.027293
          ],
          [
            121.487929,
            25.027451
          ],
          [
            121.488987,
            25.027602
          ],
          [
            121.489471,
            25.027692
          ],
          [
            121.489938,
            25.027826
          ],
          [
            121.490373,
            25.028008
          ],
          [
            121.490663,
            25.028153
          ],
          [
            121.490969,
            25.028335
          ],
          [
            121.491277,
            25.028544
          ],
          [
            121.491807,
            25.028989
          ],
          [
            121.492645,
            25.029713
          ],
          [
            121.492839,
            25.029879
          ],
          [
            121.493122,
            25.030124
          ],
          [
            121.493384,
            25.030364
          ],
          [
            121.493447,
            25.030419
          ],
          [
            121.493508,
            25.030479
          ],
          [
            121.493406,
            25.030574
          ],
          [
            121.493342,
            25.030515
          ],
          [
            121.493293,
            25.030469
          ],
          [
            121.493117,
            25.030319
          ],
          [
            121.493071,
            25.030283
          ],
          [
            121.492771,
            25.030023
          ],
          [
            121.492726,
            25.029984
          ],
          [
            121.492565,
            25.029848
          ],
          [
            121.491308,
            25.028711
          ],
          [
            121.490896,
            25.028399
          ],
          [
            121.490845,
            25.02837
          ],
          [
            121.490524,
            25.028185
          ],
          [
            121.490097,
            25.02799
          ],
          [
            121.489432,
            25.027759
          ],
          [
            121.488975,
            25.027684
          ],
          [
            121.48791,
            25.027537
          ],
          [
            121.48648,
            25.027301
          ],
          [
            121.48555,
            25.027155
          ],
          [
            121.48428,
            25.026948
          ],
          [
            121.483677,
            25.026811
          ],
          [
            121.483346,
            25.026719
          ],
          [
            121.483012,
            25.026618
          ],
          [
            121.482682,
            25.026495
          ],
          [
            121.482371,
            25.026378
          ],
          [
            121.481798,
            25.026105
          ],
          [
            121.481528,
            25.025948
          ],
          [
            121.481048,
            25.025661
          ],
          [
            121.480773,
            25.025483
          ],
          [
            121.480378,
            25.025125
          ],
          [
            121.480217,
            25.024991
          ],
          [
            121.479991,
            25.024821
          ],
          [
            121.479639,
            25.024566
          ],
          [
            121.47895,
            25.024071
          ],
          [
            121.478707,
            25.02394
          ],
          [
            121.478606,
            25.023919
          ],
          [
            121.478568,
            25.023906
          ],
          [
            121.478503,
            25.023878
          ],
          [
            121.478466,
            25.023851
          ],
          [
            121.478414,
            25.023815
          ],
          [
            121.478336,
            25.023759
          ],
          [
            121.478148,
            25.023631
          ],
          [
            121.477691,
            25.023289
          ],
          [
            121.477486,
            25.023147
          ],
          [
            121.47736,
            25.02306
          ],
          [
            121.477038,
            25.022809
          ],
          [
            121.476743,
            25.022594
          ],
          [
            121.476398,
            25.022346
          ],
          [
            121.475932,
            25.022019
          ],
          [
            121.476098,
            25.021918
          ],
          [
            121.476129,
            25.021914
          ],
          [
            121.475966,
            25.021443
          ],
          [
            121.47576,
            25.020931
          ],
          [
            121.475684,
            25.02098
          ],
          [
            121.475353,
            25.020566
          ],
          [
            121.47553,
            25.020336
          ],
          [
            121.475577,
            25.020367
          ],
          [
            121.475776,
            25.020501
          ],
          [
            121.476241,
            25.020816
          ],
          [
            121.476311,
            25.020861
          ],
          [
            121.476567,
            25.020588
          ],
          [
            121.476637,
            25.020513
          ],
          [
            121.476456,
            25.020387
          ],
          [
            121.476324,
            25.020294
          ],
          [
            121.4763,
            25.020277
          ],
          [
            121.476356,
            25.020199
          ],
          [
            121.476101,
            25.020064
          ],
          [
            121.475328,
            25.01971
          ],
          [
            121.475675,
            25.019869
          ],
          [
            121.476101,
            25.020064
          ],
          [
            121.476192,
            25.019934
          ],
          [
            121.476365,
            25.019699
          ],
          [
            121.476526,
            25.019479
          ],
          [
            121.477246,
            25.018496
          ],
          [
            121.477272,
            25.018461
          ],
          [
            121.47742,
            25.018254
          ],
          [
            121.477511,
            25.018275
          ],
          [
            121.477603,
            25.01842
          ],
          [
            121.477511,
            25.018275
          ],
          [
            121.47742,
            25.018254
          ],
          [
            121.477803,
            25.017754
          ],
          [
            121.477906,
            25.017818
          ],
          [
            121.47791,
            25.017821
          ],
          [
            121.477965,
            25.017831
          ],
          [
            121.478667,
            25.018252
          ],
          [
            121.478721,
            25.018284
          ],
          [
            121.479088,
            25.018509
          ],
          [
            121.479187,
            25.018562
          ],
          [
            121.479295,
            25.018626
          ],
          [
            121.479411,
            25.01871
          ],
          [
            121.47953,
            25.018775
          ],
          [
            121.479562,
            25.018796
          ],
          [
            121.479613,
            25.018736
          ],
          [
            121.479806,
            25.018508
          ],
          [
            121.479812,
            25.018434
          ],
          [
            121.479833,
            25.018181
          ],
          [
            121.479906,
            25.018187
          ],
          [
            121.480416,
            25.018233
          ],
          [
            121.480607,
            25.01825
          ],
          [
            121.480576,
            25.018504
          ],
          [
            121.480534,
            25.018561
          ],
          [
            121.480442,
            25.018687
          ],
          [
            121.480386,
            25.018764
          ],
          [
            121.480619,
            25.018794
          ],
          [
            121.481057,
            25.01885
          ],
          [
            121.481132,
            25.018859
          ],
          [
            121.481057,
            25.01885
          ],
          [
            121.480386,
            25.018764
          ],
          [
            121.480152,
            25.019083
          ],
          [
            121.480126,
            25.019159
          ],
          [
            121.480065,
            25.01926
          ],
          [
            121.480025,
            25.019231
          ],
          [
            121.479631,
            25.018999
          ],
          [
            121.4794,
            25.018837
          ],
          [
            121.479287,
            25.018744
          ],
          [
            121.479184,
            25.018666
          ],
          [
            121.479081,
            25.018585
          ],
          [
            121.478886,
            25.018462
          ],
          [
            121.478769,
            25.018613
          ],
          [
            121.478726,
            25.018742
          ],
          [
            121.47869,
            25.01881
          ],
          [
            121.478726,
            25.018742
          ],
          [
            121.478769,
            25.018613
          ],
          [
            121.478886,
            25.018462
          ],
          [
            121.478575,
            25.018269
          ],
          [
            121.477934,
            25.017871
          ],
          [
            121.47791,
            25.017821
          ],
          [
            121.477906,
            25.017818
          ],
          [
            121.477803,
            25.017754
          ],
          [
            121.477507,
            25.01757
          ],
          [
            121.477284,
            25.017791
          ],
          [
            121.477047,
            25.017948
          ],
          [
            121.477033,
            25.017958
          ],
          [
            121.476614,
            25.017559
          ],
          [
            121.476365,
            25.017365
          ],
          [
            121.47627,
            25.017291
          ],
          [
            121.47617,
            25.017212
          ],
          [
            121.476077,
            25.01714
          ],
          [
            121.475755,
            25.01698
          ],
          [
            121.475574,
            25.01689
          ],
          [
            121.475702,
            25.016641
          ],
          [
            121.475136,
            25.016386
          ],
          [
            121.474174,
            25.015924
          ],
          [
            121.474151,
            25.015913
          ],
          [
            121.473829,
            25.01576
          ],
          [
            121.473639,
            25.015667
          ],
          [
            121.473513,
            25.015607
          ],
          [
            121.473311,
            25.015502
          ],
          [
            121.473127,
            25.01541
          ],
          [
            121.472938,
            25.015319
          ],
          [
            121.472572,
            25.015154
          ],
          [
            121.472362,
            25.015049
          ],
          [
            121.472212,
            25.014978
          ],
          [
            121.472017,
            25.014884
          ],
          [
            121.471848,
            25.014812
          ],
          [
            121.471743,
            25.014766
          ],
          [
            121.471042,
            25.014437
          ],
          [
            121.470314,
            25.014095
          ],
          [
            121.4701,
            25.013994
          ],
          [
            121.469837,
            25.013871
          ],
          [
            121.469361,
            25.013647
          ],
          [
            121.468913,
            25.013437
          ],
          [
            121.468591,
            25.013763
          ],
          [
            121.468439,
            25.013915
          ],
          [
            121.46839,
            25.014086
          ],
          [
            121.468346,
            25.014364
          ],
          [
            121.468345,
            25.014418
          ],
          [
            121.46842,
            25.014504
          ],
          [
            121.468521,
            25.014604
          ],
          [
            121.468617,
            25.014636
          ],
          [
            121.468729,
            25.014676
          ],
          [
            121.469225,
            25.01505
          ],
          [
            121.469124,
            25.015162
          ],
          [
            121.469225,
            25.01505
          ],
          [
            121.46883,
            25.014752
          ],
          [
            121.468729,
            25.014676
          ],
          [
            121.468617,
            25.014636
          ],
          [
            121.468521,
            25.014604
          ],
          [
            121.46842,
            25.014504
          ],
          [
            121.468345,
            25.014418
          ],
          [
            121.468346,
            25.014364
          ],
          [
            121.468284,
            25.014356
          ],
          [
            121.468168,
            25.014355
          ],
          [
            121.467939,
            25.014307
          ],
          [
            121.467841,
            25.014255
          ],
          [
            121.467694,
            25.014431
          ],
          [
            121.467661,
            25.01447
          ],
          [
            121.467455,
            25.014709
          ],
          [
            121.467404,
            25.014768
          ],
          [
            121.467218,
            25.014976
          ],
          [
            121.467424,
            25.015158
          ],
          [
            121.467659,
            25.015307
          ],
          [
            121.467843,
            25.015428
          ],
          [
            121.467942,
            25.015462
          ],
          [
            121.468328,
            25.015554
          ],
          [
            121.467942,
            25.015462
          ],
          [
            121.467843,
            25.015428
          ],
          [
            121.467834,
            25.015422
          ],
          [
            121.467659,
            25.015307
          ],
          [
            121.467424,
            25.015158
          ],
          [
            121.467218,
            25.014976
          ],
          [
            121.466948,
            25.015275
          ],
          [
            121.466854,
            25.015421
          ],
          [
            121.466951,
            25.015485
          ],
          [
            121.466982,
            25.015505
          ],
          [
            121.467947,
            25.016152
          ],
          [
            121.468623,
            25.016648
          ],
          [
            121.468888,
            25.016364
          ],
          [
            121.469144,
            25.016091
          ],
          [
            121.469198,
            25.015977
          ],
          [
            121.469167,
            25.015836
          ],
          [
            121.469348,
            25.0158
          ],
          [
            121.470019,
            25.01559
          ],
          [
            121.470463,
            25.015444
          ],
          [
            121.470279,
            25.015158
          ],
          [
            121.470092,
            25.014892
          ],
          [
            121.470009,
            25.014755
          ],
          [
            121.469992,
            25.014727
          ],
          [
            121.470135,
            25.014458
          ],
          [
            121.470182,
            25.014525
          ],
          [
            121.470542,
            25.015042
          ],
          [
            121.470752,
            25.015343
          ],
          [
            121.471025,
            25.015243
          ],
          [
            121.471365,
            25.015105
          ],
          [
            121.4716,
            25.014953
          ],
          [
            121.471848,
            25.014812
          ],
          [
            121.472017,
            25.014884
          ],
          [
            121.471562,
            25.015138
          ],
          [
            121.471471,
            25.015176
          ],
          [
            121.471986,
            25.015442
          ],
          [
            121.471872,
            25.015383
          ],
          [
            121.471728,
            25.015309
          ],
          [
            121.471471,
            25.015176
          ],
          [
            121.471376,
            25.015229
          ],
          [
            121.471169,
            25.015335
          ],
          [
            121.471276,
            25.015503
          ],
          [
            121.471369,
            25.015548
          ],
          [
            121.471714,
            25.015715
          ],
          [
            121.47185,
            25.01578
          ],
          [
            121.471394,
            25.016177
          ],
          [
            121.471373,
            25.016195
          ],
          [
            121.471253,
            25.016057
          ],
          [
            121.471019,
            25.015789
          ],
          [
            121.470724,
            25.015899
          ],
          [
            121.470517,
            25.015951
          ],
          [
            121.470248,
            25.016054
          ],
          [
            121.47028,
            25.016099
          ],
          [
            121.470384,
            25.016246
          ],
          [
            121.470514,
            25.016463
          ],
          [
            121.47022,
            25.01655
          ],
          [
            121.469973,
            25.016653
          ],
          [
            121.469615,
            25.016802
          ],
          [
            121.469467,
            25.016864
          ],
          [
            121.469436,
            25.016876
          ],
          [
            121.469273,
            25.01699
          ],
          [
            121.46926,
            25.017025
          ],
          [
            121.469233,
            25.017096
          ],
          [
            121.469474,
            25.017264
          ],
          [
            121.469671,
            25.017184
          ],
          [
            121.469711,
            25.017168
          ],
          [
            121.469764,
            25.017149
          ],
          [
            121.47,
            25.01735
          ],
          [
            121.470206,
            25.017489
          ],
          [
            121.470373,
            25.017601
          ],
          [
            121.470711,
            25.017841
          ],
          [
            121.470828,
            25.017924
          ],
          [
            121.470971,
            25.017771
          ],
          [
            121.471294,
            25.017942
          ],
          [
            121.471483,
            25.017695
          ],
          [
            121.47207,
            25.01689
          ],
          [
            121.472402,
            25.016435
          ],
          [
            121.472619,
            25.016137
          ],
          [
            121.472354,
            25.015957
          ],
          [
            121.472281,
            25.015822
          ],
          [
            121.472354,
            25.015957
          ],
          [
            121.472619,
            25.016137
          ],
          [
            121.472698,
            25.016028
          ],
          [
            121.473127,
            25.01541
          ],
          [
            121.472938,
            25.015319
          ],
          [
            121.472572,
            25.015154
          ],
          [
            121.472362,
            25.015049
          ],
          [
            121.472212,
            25.014978
          ],
          [
            121.472017,
            25.014884
          ],
          [
            121.471848,
            25.014812
          ],
          [
            121.471743,
            25.014766
          ],
          [
            121.471042,
            25.014437
          ],
          [
            121.470314,
            25.014095
          ],
          [
            121.4701,
            25.013994
          ],
          [
            121.469837,
            25.013871
          ],
          [
            121.469361,
            25.013647
          ],
          [
            121.468913,
            25.013437
          ],
          [
            121.468645,
            25.01331
          ],
          [
            121.468565,
            25.013268
          ],
          [
            121.468465,
            25.013227
          ],
          [
            121.468433,
            25.013211
          ],
          [
            121.46767,
            25.012844
          ],
          [
            121.467327,
            25.012681
          ],
          [
            121.467309,
            25.01267
          ],
          [
            121.467183,
            25.012609
          ],
          [
            121.466911,
            25.012471
          ],
          [
            121.466806,
            25.012424
          ],
          [
            121.466727,
            25.012383
          ],
          [
            121.466662,
            25.012352
          ],
          [
            121.466418,
            25.012234
          ],
          [
            121.466006,
            25.012035
          ],
          [
            121.465558,
            25.011834
          ],
          [
            121.464906,
            25.011544
          ],
          [
            121.464775,
            25.011487
          ],
          [
            121.4647,
            25.011456
          ],
          [
            121.464645,
            25.011431
          ],
          [
            121.464075,
            25.011172
          ],
          [
            121.463857,
            25.011079
          ],
          [
            121.462995,
            25.010678
          ],
          [
            121.462884,
            25.010638
          ],
          [
            121.462744,
            25.010586
          ],
          [
            121.46264,
            25.010528
          ],
          [
            121.461692,
            25.010093
          ],
          [
            121.461477,
            25.009966
          ],
          [
            121.461454,
            25.009908
          ],
          [
            121.461337,
            25.009744
          ],
          [
            121.460884,
            25.009122
          ],
          [
            121.460345,
            25.008413
          ],
          [
            121.460286,
            25.008325
          ],
          [
            121.46025,
            25.008272
          ],
          [
            121.459453,
            25.007222
          ],
          [
            121.459396,
            25.00708
          ],
          [
            121.459419,
            25.00695
          ],
          [
            121.459487,
            25.006578
          ],
          [
            121.459504,
            25.006527
          ],
          [
            121.459518,
            25.006422
          ],
          [
            121.459605,
            25.005955
          ],
          [
            121.459663,
            25.005618
          ],
          [
            121.45967,
            25.005566
          ],
          [
            121.459797,
            25.004725
          ],
          [
            121.459833,
            25.004539
          ],
          [
            121.45986,
            25.00439
          ],
          [
            121.459915,
            25.004064
          ],
          [
            121.459932,
            25.00396
          ],
          [
            121.459998,
            25.003609
          ],
          [
            121.460017,
            25.003319
          ],
          [
            121.459979,
            25.003041
          ],
          [
            121.459893,
            25.002831
          ],
          [
            121.459786,
            25.002636
          ],
          [
            121.459709,
            25.002487
          ],
          [
            121.459604,
            25.002311
          ],
          [
            121.459324,
            25.001787
          ],
          [
            121.459311,
            25.001759
          ],
          [
            121.459251,
            25.001646
          ],
          [
            121.458935,
            25.001053
          ],
          [
            121.458906,
            25.000995
          ],
          [
            121.458653,
            25.001113
          ],
          [
            121.458197,
            25.001324
          ],
          [
            121.457993,
            25.001419
          ],
          [
            121.45797,
            25.001408
          ],
          [
            121.457993,
            25.001419
          ],
          [
            121.458906,
            25.000995
          ],
          [
            121.458873,
            25.000926
          ],
          [
            121.458782,
            25.000739
          ],
          [
            121.458545,
            25.000855
          ],
          [
            121.458782,
            25.000739
          ],
          [
            121.458605,
            25.000406
          ],
          [
            121.458491,
            25.000188
          ],
          [
            121.457417,
            25.000699
          ],
          [
            121.457389,
            25.000655
          ],
          [
            121.457417,
            25.000699
          ],
          [
            121.457277,
            25.000771
          ]
        ]
      },
      "properties": {
        "routeId": "new-taipei-220061",
        "city": "new-taipei",
        "source_file": "new-taipei/new-taipei-220061.geojson",
        "distance_km": 14.944999999999999,
        "duration_min": 30.506216666666667,
        "valhalla_config": "valhalla.json"
      }
    }
  ]
}