{
  "type": "FeatureCollection",
  "features": [
    {
      "type": "Feature",
      "geometry": {
        "type": "LineString",
        "coordinates": [
          [
            121.482743,
            25.065875
          ],
          [
            121.482628,
            25.065949
          ],
          [
            121.482846,
            25.066185
          ],
          [
            121.483021,
            25.066398
          ],
          [
            121.483246,
            25.066666
          ],
          [
            121.483404,
            25.066854
          ],
          [
            121.484233,
            25.066278
          ],
          [
            121.484318,
            25.066219
          ],
          [
            121.484145,
            25.066012
          ],
          [
            121.483936,
            25.065762
          ],
          [
            121.483556,
            25.066026
          ],
          [
            121.483518,
            25.065981
          ],
          [
            121.483556,
            25.066026
          ],
          [
            121.483936,
            25.065762
          ],
          [
            121.484318,
            25.066219
          ],
          [
            121.484727,
            25.065935
          ],
          [
            121.485131,
            25.065655
          ],
          [
            121.485697,
            25.065262
          ],
          [
            121.486731,
            25.064543
          ],
          [
            121.48691,
            25.064412
          ],
          [
            121.487435,
            25.064022
          ],
          [
            121.487488,
            25.063989
          ],
          [
            121.487206,
            25.063441
          ],
          [
            121.487102,
            25.063248
          ],
          [
            121.486979,
            25.062951
          ],
          [
            121.486957,
            25.062899
          ],
          [
            121.486903,
            25.062731
          ],
          [
            121.486885,
            25.062675
          ],
          [
            121.486815,
            25.062382
          ],
          [
            121.486759,
            25.061998
          ],
          [
            121.486738,
            25.061806
          ],
          [
            121.486735,
            25.061775
          ],
          [
            121.486718,
            25.061533
          ],
          [
            121.486055,
            25.06154
          ],
          [
            121.486079,
            25.062298
          ],
          [
            121.486081,
            25.062377
          ],
          [
            121.486146,
            25.062442
          ],
          [
            121.486185,
            25.0624
          ],
          [
            121.486623,
            25.061902
          ],
          [
            121.486185,
            25.0624
          ],
          [
            121.486146,
            25.062442
          ],
          [
            121.485959,
            25.062643
          ],
          [
            121.485814,
            25.062792
          ],
          [
            121.485568,
            25.063031
          ],
          [
            121.485458,
            25.063139
          ],
          [
            121.48541,
            25.062739
          ],
          [
            121.48541,
            25.062428
          ],
          [
            121.485759,
            25.062416
          ],
          [
            121.485751,
            25.062153
          ],
          [
            121.48574,
            25.061687
          ],
          [
            121.485737,
            25.061563
          ],
          [
            121.48541,
            25.06157
          ],
          [
            121.484237,
            25.061583
          ],
          [
            121.484255,
            25.061905
          ],
          [
            121.484262,
            25.062033
          ],
          [
            121.483505,
            25.062044
          ],
          [
            121.483509,
            25.06213
          ],
          [
            121.483532,
            25.062584
          ],
          [
            121.483544,
            25.063046
          ],
          [
            121.483545,
            25.06311
          ],
          [
            121.48356,
            25.063471
          ],
          [
            121.48363,
            25.063472
          ],
          [
            121.484297,
            25.06348
          ],
          [
            121.484856,
            25.063477
          ],
          [
            121.484839,
            25.062802
          ],
          [
            121.484838,
            25.062754
          ],
          [
            121.484829,
            25.062544
          ],
          [
            121.484838,
            25.062754
          ],
          [
            121.484275,
            25.062764
          ],
          [
            121.484276,
            25.062584
          ],
          [
            121.483607,
            25.062584
          ],
          [
            121.483532,
            25.062584
          ],
          [
            121.483544,
            25.063046
          ],
          [
            121.483545,
            25.06311
          ],
          [
            121.48356,
            25.063471
          ],
          [
            121.483567,
            25.063809
          ],
          [
            121.484103,
            25.063807
          ],
          [
            121.484651,
            25.063805
          ],
          [
            121.484777,
            25.063802
          ],
          [
            121.48482,
            25.06376
          ],
          [
            121.485047,
            25.063539
          ],
          [
            121.48531,
            25.063283
          ],
          [
            121.48534,
            25.063318
          ],
          [
            121.48531,
            25.063283
          ],
          [
            121.485458,
            25.063139
          ],
          [
            121.485568,
            25.063031
          ],
          [
            121.485814,
            25.062792
          ],
          [
            121.485959,
            25.062643
          ],
          [
            121.486146,
            25.062442
          ],
          [
            121.486185,
            25.0624
          ],
          [
            121.486667,
            25.061852
          ],
          [
            121.486735,
            25.061775
          ],
          [
            121.48683,
            25.061666
          ],
          [
            121.486848,
            25.061849
          ],
          [
            121.486892,
            25.062129
          ],
          [
            121.486947,
            25.062462
          ],
          [
            121.486996,
            25.06265
          ],
          [
            121.486885,
            25.062675
          ],
          [
            121.486815,
            25.062382
          ],
          [
            121.486749,
            25.062384
          ],
          [
            121.486328,
            25.062396
          ],
          [
            121.486185,
            25.0624
          ],
          [
            121.486146,
            25.062442
          ],
          [
            121.485959,
            25.062643
          ],
          [
            121.485814,
            25.062792
          ],
          [
            121.485568,
            25.063031
          ],
          [
            121.485458,
            25.063139
          ],
          [
            121.48531,
            25.063283
          ],
          [
            121.485047,
            25.063539
          ],
          [
            121.48482,
            25.06376
          ],
          [
            121.484927,
            25.063896
          ],
          [
            121.484986,
            25.063968
          ],
          [
            121.485203,
            25.064234
          ],
          [
            121.485787,
            25.063812
          ],
          [
            121.486011,
            25.063651
          ],
          [
            121.486205,
            25.06351
          ],
          [
            121.486458,
            25.063327
          ],
          [
            121.486618,
            25.063211
          ],
          [
            121.486933,
            25.062984
          ],
          [
            121.486979,
            25.062951
          ],
          [
            121.486957,
            25.062899
          ],
          [
            121.486903,
            25.062731
          ],
          [
            121.486885,
            25.062675
          ],
          [
            121.486996,
            25.06265
          ],
          [
            121.487009,
            25.062711
          ],
          [
            121.487156,
            25.063082
          ],
          [
            121.487312,
            25.063403
          ],
          [
            121.487587,
            25.063927
          ],
          [
            121.487488,
            25.063989
          ],
          [
            121.487435,
            25.064022
          ],
          [
            121.48691,
            25.064412
          ],
          [
            121.486731,
            25.064543
          ],
          [
            121.485697,
            25.065262
          ],
          [
            121.485131,
            25.065655
          ],
          [
            121.485068,
            25.065699
          ],
          [
            121.485131,
            25.065655
          ],
          [
            121.485697,
            25.065262
          ],
          [
            121.486731,
            25.064543
          ],
          [
            121.48691,
            25.064412
          ],
          [
            121.487388,
            25.064057
          ],
          [
            121.487435,
            25.064022
          ],
          [
            121.487488,
            25.063989
          ],
          [
            121.487206,
            25.063441
          ],
          [
            121.487102,
            25.063248
          ],
          [
            121.486979,
            25.062951
          ],
          [
            121.486957,
            25.062899
          ],
          [
            121.486903,
            25.062731
          ],
          [
            121.486885,
            25.062675
          ],
          [
            121.486815,
            25.062382
          ],
          [
            121.486759,
            25.061998
          ],
          [
            121.486738,
            25.061806
          ],
          [
            121.486735,
            25.061775
          ],
          [
            121.486667,
            25.061852
          ],
          [
            121.486185,
            25.0624
          ],
          [
            121.486146,
            25.062442
          ],
          [
            121.485959,
            25.062643
          ],
          [
            121.485814,
            25.062792
          ],
          [
            121.485568,
            25.063031
          ],
          [
            121.485458,
            25.063139
          ],
          [
            121.48531,
            25.063283
          ],
          [
            121.485047,
            25.063539
          ],
          [
            121.48482,
            25.06376
          ],
          [
            121.484777,
            25.063802
          ],
          [
            121.484617,
            25.064006
          ],
          [
            121.484091,
            25.064385
          ],
          [
            121.483812,
            25.064573
          ],
          [
            121.483577,
            25.064721
          ],
          [
            121.483201,
            25.064978
          ],
          [
            121.483315,
            25.065129
          ],
          [
            121.483392,
            25.065231
          ],
          [
            121.483484,
            25.065353
          ],
          [
            121.483558,
            25.065353
          ],
          [
            121.48385,
            25.065137
          ],
          [
            121.483975,
            25.065278
          ],
          [
            121.484228,
            25.065562
          ],
          [
            121.483936,
            25.065762
          ],
          [
            121.484318,
            25.066219
          ],
          [
            121.484727,
            25.065935
          ],
          [
            121.485131,
            25.065655
          ],
          [
            121.485697,
            25.065262
          ],
          [
            121.486731,
            25.064543
          ],
          [
            121.48691,
            25.064412
          ],
          [
            121.487435,
            25.064022
          ],
          [
            121.487488,
            25.063989
          ],
          [
            121.487206,
            25.063441
          ],
          [
            121.487102,
            25.063248
          ],
          [
            121.486979,
            25.062951
          ],
          [
            121.486957,
            25.062899
          ],
          [
            121.486903,
            25.062731
          ],
          [
            121.486885,
            25.062675
          ],
          [
            121.486815,
            25.062382
          ],
          [
            121.486759,
            25.061998
          ],
          [
            121.486738,
            25.061806
          ],
          [
            121.486735,
            25.061775
          ],
          [
            121.48683,
            25.061666
          ],
          [
            121.486836,
            25.061728
          ],
          [
            121.486848,
            25.061849
          ],
          [
            121.486892,
            25.062129
          ],
          [
            121.486947,
            25.062462
          ],
          [
            121.486996,
            25.06265
          ],
          [
            121.487009,
            25.062711
          ],
          [
            121.487156,
            25.063082
          ],
          [
            121.487312,
            25.063403
          ],
          [
            121.487587,
            25.063927
          ],
          [
            121.487622,
            25.063833
          ],
          [
            121.488439,
            25.063456
          ],
          [
            121.48863,
            25.063381
          ],
          [
            121.488977,
            25.063257
          ],
          [
            121.48921,
            25.063171
          ],
          [
            121.489291,
            25.063141
          ],
          [
            121.48938,
            25.063114
          ],
          [
            121.489175,
            25.062517
          ],
          [
            121.489058,
            25.062179
          ],
          [
            121.488993,
            25.061991
          ],
          [
            121.488842,
            25.061554
          ],
          [
            121.488805,
            25.061441
          ],
          [
            121.488649,
            25.061444
          ],
          [
            121.487895,
            25.061457
          ],
          [
            121.487235,
            25.061468
          ],
          [
            121.486955,
            25.061499
          ],
          [
            121.486889,
            25.061596
          ],
          [
            121.48683,
            25.061666
          ],
          [
            121.486848,
            25.061849
          ],
          [
            121.486892,
            25.062129
          ],
          [
            121.486947,
            25.062462
          ],
          [
            121.487287,
            25.062458
          ],
          [
            121.487427,
            25.062456
          ],
          [
            121.487453,
            25.062603
          ],
          [
            121.487716,
            25.063135
          ],
          [
            121.488179,
            25.062939
          ],
          [
            121.488643,
            25.062743
          ],
          [
            121.488841,
            25.062659
          ],
          [
            121.488724,
            25.06244
          ],
          [
            121.48793,
            25.06245
          ],
          [
            121.487427,
            25.062456
          ],
          [
            121.487287,
            25.062458
          ],
          [
            121.486947,
            25.062462
          ],
          [
            121.486996,
            25.06265
          ],
          [
            121.487009,
            25.062711
          ],
          [
            121.487156,
            25.063082
          ],
          [
            121.487312,
            25.063403
          ],
          [
            121.487587,
            25.063927
          ],
          [
            121.487488,
            25.063989
          ],
          [
            121.487435,
            25.064022
          ],
          [
            121.48691,
            25.064412
          ],
          [
            121.486731,
            25.064543
          ],
          [
            121.486664,
            25.064459
          ],
          [
            121.486328,
            25.064041
          ],
          [
            121.486113,
            25.063777
          ]
        ]
      },
      "properties": {
        "routeId": "new-taipei-241022",
        "city": "new-taipei",
        "source_file": "new-taipei/new-taipei-241022.geojson",
        "distance_km": 8.315000000000001,
        "duration_min": 19.6262,
        "valhalla_config": "valhalla.json"
      }
    }
  ]
}