{
  "type": "FeatureCollection",
  "features": [
    {
      "type": "Feature",
      "geometry": {
        "type": "LineString",
        "coordinates": [
          [
            121.464542,
            25.127494
          ],
          [
            121.464531,
            25.127543
          ],
          [
            121.464488,
            25.127851
          ],
          [
            121.464433,
            25.127976
          ],
          [
            121.464372,
            25.128043
          ],
          [
            121.464245,
            25.128146
          ],
          [
            121.464116,
            25.128205
          ],
          [
            121.463685,
            25.128351
          ],
          [
            121.463527,
            25.128404
          ],
          [
            121.463446,
            25.128629
          ],
          [
            121.463352,
            25.128891
          ],
          [
            121.463315,
            25.128992
          ],
          [
            121.463266,
            25.129176
          ],
          [
            121.463157,
            25.129582
          ],
          [
            121.463056,
            25.129721
          ],
          [
            121.463029,
            25.129758
          ],
          [
            121.46264,
            25.129463
          ],
          [
            121.462391,
            25.129277
          ],
          [
            121.462374,
            25.129265
          ],
          [
            121.462217,
            25.129218
          ],
          [
            121.46205,
            25.129665
          ],
          [
            121.461828,
            25.13037
          ],
          [
            121.461712,
            25.130911
          ],
          [
            121.461671,
            25.131102
          ],
          [
            121.461649,
            25.131224
          ],
          [
            121.461582,
            25.13151
          ],
          [
            121.462054,
            25.131738
          ],
          [
            121.462347,
            25.131756
          ],
          [
            121.46244,
            25.131752
          ],
          [
            121.462499,
            25.131779
          ],
          [
            121.462524,
            25.131797
          ],
          [
            121.462692,
            25.131921
          ],
          [
            121.462716,
            25.131938
          ],
          [
            121.462777,
            25.131972
          ],
          [
            121.462994,
            25.132118
          ],
          [
            121.46306,
            25.132154
          ],
          [
            121.463586,
            25.132487
          ],
          [
            121.463634,
            25.132518
          ],
          [
            121.463858,
            25.132643
          ],
          [
            121.464121,
            25.132824
          ],
          [
            121.464392,
            25.13303
          ],
          [
            121.464423,
            25.133061
          ],
          [
            121.464736,
            25.133371
          ],
          [
            121.464981,
            25.133599
          ],
          [
            121.46509,
            25.133734
          ],
          [
            121.465371,
            25.134084
          ],
          [
            121.464981,
            25.133599
          ],
          [
            121.464736,
            25.133371
          ],
          [
            121.464392,
            25.13303
          ],
          [
            121.464121,
            25.132824
          ],
          [
            121.463858,
            25.132643
          ],
          [
            121.463634,
            25.132518
          ],
          [
            121.46306,
            25.132154
          ],
          [
            121.462994,
            25.132118
          ],
          [
            121.462777,
            25.131972
          ],
          [
            121.462716,
            25.131938
          ],
          [
            121.462692,
            25.131921
          ],
          [
            121.462524,
            25.131797
          ],
          [
            121.462499,
            25.131779
          ],
          [
            121.46244,
            25.131752
          ],
          [
            121.462347,
            25.131756
          ],
          [
            121.462054,
            25.131738
          ],
          [
            121.461582,
            25.13151
          ],
          [
            121.461649,
            25.131224
          ],
          [
            121.461671,
            25.131102
          ],
          [
            121.461828,
            25.13037
          ],
          [
            121.46205,
            25.129665
          ],
          [
            121.462217,
            25.129218
          ],
          [
            121.462247,
            25.129131
          ],
          [
            121.462379,
            25.128833
          ],
          [
            121.462653,
            25.128312
          ],
          [
            121.462712,
            25.128211
          ],
          [
            121.462807,
            25.128047
          ],
          [
            121.463027,
            25.127628
          ],
          [
            121.463083,
            25.127523
          ],
          [
            121.463374,
            25.126979
          ],
          [
            121.463884,
            25.126151
          ],
          [
            121.463922,
            25.126086
          ],
          [
            121.464042,
            25.125877
          ],
          [
            121.464232,
            25.125547
          ],
          [
            121.464389,
            25.125182
          ],
          [
            121.464446,
            25.125068
          ],
          [
            121.464455,
            25.125049
          ],
          [
            121.464518,
            25.124884
          ],
          [
            121.464529,
            25.124836
          ],
          [
            121.464527,
            25.124788
          ],
          [
            121.464506,
            25.124679
          ],
          [
            121.464401,
            25.124572
          ],
          [
            121.464242,
            25.124473
          ],
          [
            121.464108,
            25.124413
          ],
          [
            121.46397,
            25.124374
          ],
          [
            121.463823,
            25.124369
          ],
          [
            121.463681,
            25.124384
          ],
          [
            121.463586,
            25.124414
          ],
          [
            121.46344,
            25.124503
          ],
          [
            121.46332,
            25.124639
          ],
          [
            121.463238,
            25.124759
          ],
          [
            121.463195,
            25.124835
          ],
          [
            121.463015,
            25.124664
          ],
          [
            121.462611,
            25.124965
          ],
          [
            121.462348,
            25.125187
          ],
          [
            121.462244,
            25.125248
          ],
          [
            121.461921,
            25.125544
          ],
          [
            121.461536,
            25.125964
          ],
          [
            121.461374,
            25.126168
          ],
          [
            121.461187,
            25.126412
          ],
          [
            121.460896,
            25.126844
          ],
          [
            121.460778,
            25.127084
          ],
          [
            121.460568,
            25.127465
          ],
          [
            121.460357,
            25.127926
          ],
          [
            121.460242,
            25.128119
          ],
          [
            121.459873,
            25.129003
          ],
          [
            121.459765,
            25.129222
          ],
          [
            121.459657,
            25.129395
          ],
          [
            121.459534,
            25.129556
          ],
          [
            121.459269,
            25.129843
          ],
          [
            121.459204,
            25.129943
          ],
          [
            121.459063,
            25.130101
          ],
          [
            121.458875,
            25.130341
          ],
          [
            121.45874,
            25.130547
          ],
          [
            121.458629,
            25.130728
          ],
          [
            121.458489,
            25.131022
          ],
          [
            121.458405,
            25.131287
          ],
          [
            121.458382,
            25.131503
          ],
          [
            121.458401,
            25.131709
          ],
          [
            121.458444,
            25.13188
          ],
          [
            121.458516,
            25.132058
          ],
          [
            121.458616,
            25.132215
          ],
          [
            121.458829,
            25.132484
          ],
          [
            121.45895,
            25.132649
          ],
          [
            121.459029,
            25.132787
          ],
          [
            121.459196,
            25.133232
          ],
          [
            121.459292,
            25.1336
          ],
          [
            121.459414,
            25.134014
          ],
          [
            121.459505,
            25.134351
          ],
          [
            121.45958,
            25.134628
          ],
          [
            121.459671,
            25.134959
          ],
          [
            121.459739,
            25.1352
          ],
          [
            121.45988,
            25.13573
          ],
          [
            121.459967,
            25.136091
          ],
          [
            121.460017,
            25.136309
          ],
          [
            121.460031,
            25.136388
          ],
          [
            121.460087,
            25.136709
          ],
          [
            121.460121,
            25.13706
          ],
          [
            121.460117,
            25.137182
          ],
          [
            121.460107,
            25.137292
          ],
          [
            121.460077,
            25.137494
          ],
          [
            121.46005,
            25.137591
          ],
          [
            121.46001,
            25.137732
          ],
          [
            121.459973,
            25.137905
          ],
          [
            121.459886,
            25.138158
          ],
          [
            121.459862,
            25.138237
          ],
          [
            121.459825,
            25.13834
          ],
          [
            121.459777,
            25.138539
          ],
          [
            121.459735,
            25.138788
          ],
          [
            121.459731,
            25.139015
          ],
          [
            121.459725,
            25.139332
          ],
          [
            121.459729,
            25.140261
          ],
          [
            121.459716,
            25.140948
          ],
          [
            121.459714,
            25.141458
          ],
          [
            121.459714,
            25.141623
          ],
          [
            121.459715,
            25.142449
          ],
          [
            121.459704,
            25.143297
          ],
          [
            121.459704,
            25.143334
          ],
          [
            121.4597,
            25.143871
          ],
          [
            121.459699,
            25.143918
          ],
          [
            121.459687,
            25.145406
          ],
          [
            121.459683,
            25.14651
          ],
          [
            121.459669,
            25.147643
          ],
          [
            121.459686,
            25.148173
          ],
          [
            121.459607,
            25.149339
          ],
          [
            121.4596,
            25.149494
          ],
          [
            121.45959,
            25.149676
          ],
          [
            121.459548,
            25.150251
          ],
          [
            121.459545,
            25.150298
          ],
          [
            121.459541,
            25.150349
          ],
          [
            121.459535,
            25.150422
          ],
          [
            121.459468,
            25.151418
          ],
          [
            121.459465,
            25.151472
          ],
          [
            121.459447,
            25.151912
          ],
          [
            121.459432,
            25.152286
          ],
          [
            121.459432,
            25.15238
          ],
          [
            121.459435,
            25.152613
          ],
          [
            121.459435,
            25.152671
          ],
          [
            121.45944,
            25.153248
          ],
          [
            121.459441,
            25.1533
          ],
          [
            121.459437,
            25.153394
          ],
          [
            121.459432,
            25.153499
          ],
          [
            121.459417,
            25.153993
          ],
          [
            121.459422,
            25.154472
          ],
          [
            121.459422,
            25.154524
          ],
          [
            121.459423,
            25.155025
          ],
          [
            121.45942,
            25.155408
          ],
          [
            121.459386,
            25.155655
          ],
          [
            121.459325,
            25.155922
          ],
          [
            121.459312,
            25.155978
          ],
          [
            121.459233,
            25.156173
          ],
          [
            121.459222,
            25.156201
          ],
          [
            121.459138,
            25.156379
          ],
          [
            121.459077,
            25.156555
          ],
          [
            121.458985,
            25.156729
          ],
          [
            121.458785,
            25.157104
          ],
          [
            121.458591,
            25.157423
          ],
          [
            121.458361,
            25.157821
          ],
          [
            121.457997,
            25.158408
          ],
          [
            121.457859,
            25.15864
          ],
          [
            121.457112,
            25.159861
          ],
          [
            121.456807,
            25.160378
          ],
          [
            121.456643,
            25.160694
          ],
          [
            121.456582,
            25.160806
          ],
          [
            121.456453,
            25.161096
          ],
          [
            121.456356,
            25.16137
          ],
          [
            121.456319,
            25.161313
          ],
          [
            121.456249,
            25.161206
          ],
          [
            121.456372,
            25.160833
          ],
          [
            121.456467,
            25.160597
          ],
          [
            121.456526,
            25.160474
          ],
          [
            121.456683,
            25.160185
          ],
          [
            121.456934,
            25.159767
          ],
          [
            121.457584,
            25.15869
          ],
          [
            121.457606,
            25.158627
          ],
          [
            121.457607,
            25.158565
          ],
          [
            121.457591,
            25.158528
          ],
          [
            121.45757,
            25.158507
          ],
          [
            121.457516,
            25.158496
          ],
          [
            121.457466,
            25.158498
          ],
          [
            121.457344,
            25.158549
          ],
          [
            121.457206,
            25.158629
          ],
          [
            121.457068,
            25.158698
          ],
          [
            121.456926,
            25.158758
          ],
          [
            121.456766,
            25.158821
          ],
          [
            121.4564,
            25.158958
          ],
          [
            121.455958,
            25.159116
          ],
          [
            121.455925,
            25.159128
          ],
          [
            121.45576,
            25.159189
          ],
          [
            121.455478,
            25.159295
          ],
          [
            121.455006,
            25.159451
          ],
          [
            121.454523,
            25.159613
          ],
          [
            121.454276,
            25.159701
          ],
          [
            121.454065,
            25.159818
          ],
          [
            121.453896,
            25.159948
          ],
          [
            121.453732,
            25.160078
          ],
          [
            121.453548,
            25.160272
          ],
          [
            121.453419,
            25.160438
          ],
          [
            121.453263,
            25.160659
          ],
          [
            121.453179,
            25.160844
          ],
          [
            121.453137,
            25.16103
          ],
          [
            121.453097,
            25.161191
          ],
          [
            121.453063,
            25.161365
          ],
          [
            121.453003,
            25.161637
          ],
          [
            121.452937,
            25.161809
          ],
          [
            121.45287,
            25.161947
          ],
          [
            121.45281,
            25.162041
          ],
          [
            121.452672,
            25.162285
          ],
          [
            121.452535,
            25.162534
          ],
          [
            121.452365,
            25.162763
          ],
          [
            121.452132,
            25.163039
          ],
          [
            121.451995,
            25.163195
          ],
          [
            121.451774,
            25.163373
          ],
          [
            121.451613,
            25.16348
          ],
          [
            121.451456,
            25.163593
          ],
          [
            121.451291,
            25.163717
          ],
          [
            121.451133,
            25.163836
          ],
          [
            121.451063,
            25.163903
          ],
          [
            121.450992,
            25.163973
          ],
          [
            121.450891,
            25.164118
          ],
          [
            121.450796,
            25.164276
          ],
          [
            121.45068,
            25.164478
          ],
          [
            121.450604,
            25.164626
          ],
          [
            121.45055,
            25.164714
          ],
          [
            121.450541,
            25.164733
          ],
          [
            121.450392,
            25.164938
          ],
          [
            121.450208,
            25.165128
          ],
          [
            121.449968,
            25.165317
          ],
          [
            121.449571,
            25.165573
          ],
          [
            121.449291,
            25.165725
          ],
          [
            121.448792,
            25.165903
          ],
          [
            121.448476,
            25.166044
          ],
          [
            121.448264,
            25.166201
          ],
          [
            121.448091,
            25.166401
          ],
          [
            121.447926,
            25.166658
          ],
          [
            121.447821,
            25.166855
          ],
          [
            121.447698,
            25.16708
          ],
          [
            121.447551,
            25.167303
          ],
          [
            121.44744,
            25.167432
          ],
          [
            121.447286,
            25.167566
          ],
          [
            121.447073,
            25.167697
          ],
          [
            121.44668,
            25.167921
          ],
          [
            121.446081,
            25.168231
          ],
          [
            121.445674,
            25.168449
          ],
          [
            121.445297,
            25.168651
          ],
          [
            121.445062,
            25.168781
          ],
          [
            121.444913,
            25.168891
          ],
          [
            121.444759,
            25.169011
          ],
          [
            121.444695,
            25.169053
          ],
          [
            121.444553,
            25.169243
          ],
          [
            121.444432,
            25.169432
          ],
          [
            121.444287,
            25.169782
          ],
          [
            121.444121,
            25.170188
          ],
          [
            121.444007,
            25.170359
          ],
          [
            121.443793,
            25.170487
          ],
          [
            121.443526,
            25.170532
          ],
          [
            121.443344,
            25.170542
          ],
          [
            121.443172,
            25.170544
          ],
          [
            121.442771,
            25.170533
          ],
          [
            121.442407,
            25.17056
          ],
          [
            121.442228,
            25.170627
          ],
          [
            121.442197,
            25.170646
          ],
          [
            121.441997,
            25.170791
          ],
          [
            121.441827,
            25.170915
          ],
          [
            121.441172,
            25.171462
          ],
          [
            121.44101,
            25.17161
          ],
          [
            121.440752,
            25.171928
          ],
          [
            121.440567,
            25.172196
          ],
          [
            121.440431,
            25.172346
          ],
          [
            121.4406,
            25.172692
          ],
          [
            121.440713,
            25.172942
          ],
          [
            121.440725,
            25.17297
          ],
          [
            121.441055,
            25.173703
          ],
          [
            121.441385,
            25.174428
          ],
          [
            121.441418,
            25.174596
          ],
          [
            121.441531,
            25.175122
          ],
          [
            121.441601,
            25.175244
          ],
          [
            121.441676,
            25.175369
          ],
          [
            121.441783,
            25.175519
          ],
          [
            121.441956,
            25.175719
          ],
          [
            121.442128,
            25.175943
          ],
          [
            121.442604,
            25.17657
          ],
          [
            121.442746,
            25.176755
          ],
          [
            121.4428,
            25.176817
          ],
          [
            121.443168,
            25.177262
          ],
          [
            121.443867,
            25.178059
          ],
          [
            121.44413,
            25.178352
          ],
          [
            121.444301,
            25.178636
          ],
          [
            121.444336,
            25.178694
          ],
          [
            121.444419,
            25.178965
          ],
          [
            121.444439,
            25.17907
          ],
          [
            121.444502,
            25.179421
          ],
          [
            121.444575,
            25.179819
          ],
          [
            121.444583,
            25.179864
          ],
          [
            121.444637,
            25.180185
          ],
          [
            121.444712,
            25.180557
          ],
          [
            121.444753,
            25.180774
          ],
          [
            121.444748,
            25.180923
          ],
          [
            121.444689,
            25.181457
          ],
          [
            121.444618,
            25.181993
          ],
          [
            121.444606,
            25.182088
          ],
          [
            121.444588,
            25.182235
          ],
          [
            121.444485,
            25.182976
          ],
          [
            121.444319,
            25.184614
          ],
          [
            121.444485,
            25.182976
          ],
          [
            121.444969,
            25.182976
          ],
          [
            121.446281,
            25.182977
          ],
          [
            121.447231,
            25.182974
          ],
          [
            121.447868,
            25.182968
          ],
          [
            121.448226,
            25.182971
          ],
          [
            121.448308,
            25.18297
          ],
          [
            121.44849,
            25.182968
          ],
          [
            121.448639,
            25.182928
          ],
          [
            121.448932,
            25.182929
          ],
          [
            121.449185,
            25.182889
          ],
          [
            121.449489,
            25.182817
          ],
          [
            121.452026,
            25.181202
          ],
          [
            121.452089,
            25.181163
          ],
          [
            121.452594,
            25.180847
          ],
          [
            121.452881,
            25.180674
          ],
          [
            121.453028,
            25.180558
          ],
          [
            121.45351,
            25.180198
          ],
          [
            121.453984,
            25.179761
          ],
          [
            121.454388,
            25.179307
          ],
          [
            121.454578,
            25.179069
          ],
          [
            121.454805,
            25.17877
          ],
          [
            121.454926,
            25.178594
          ],
          [
            121.45508,
            25.178357
          ],
          [
            121.455715,
            25.177374
          ],
          [
            121.45606,
            25.176853
          ],
          [
            121.456449,
            25.176254
          ],
          [
            121.45664,
            25.175959
          ],
          [
            121.456739,
            25.175822
          ],
          [
            121.456859,
            25.175633
          ],
          [
            121.458344,
            25.173428
          ],
          [
            121.459455,
            25.171748
          ],
          [
            121.459725,
            25.171309
          ],
          [
            121.459985,
            25.170916
          ],
          [
            121.460237,
            25.170541
          ],
          [
            121.460503,
            25.170085
          ],
          [
            121.460654,
            25.169599
          ],
          [
            121.460681,
            25.169489
          ],
          [
            121.460709,
            25.169371
          ],
          [
            121.460723,
            25.169305
          ],
          [
            121.460747,
            25.169152
          ],
          [
            121.460755,
            25.169083
          ],
          [
            121.460764,
            25.168983
          ],
          [
            121.460761,
            25.168539
          ],
          [
            121.460666,
            25.168148
          ],
          [
            121.460567,
            25.167825
          ],
          [
            121.460406,
            25.167529
          ],
          [
            121.460176,
            25.167222
          ],
          [
            121.459675,
            25.166684
          ],
          [
            121.459615,
            25.166621
          ],
          [
            121.459366,
            25.166353
          ],
          [
            121.458648,
            25.165661
          ],
          [
            121.457969,
            25.165029
          ],
          [
            121.457553,
            25.164615
          ],
          [
            121.457338,
            25.16439
          ],
          [
            121.45701,
            25.164069
          ],
          [
            121.456729,
            25.163763
          ],
          [
            121.456549,
            25.163533
          ],
          [
            121.456412,
            25.163309
          ],
          [
            121.45634,
            25.16313
          ],
          [
            121.456259,
            25.162911
          ],
          [
            121.456194,
            25.162614
          ],
          [
            121.456164,
            25.162426
          ],
          [
            121.456168,
            25.161893
          ],
          [
            121.456297,
            25.161904
          ],
          [
            121.45629,
            25.16215
          ],
          [
            121.45631,
            25.16251
          ],
          [
            121.456386,
            25.162898
          ],
          [
            121.456442,
            25.163098
          ],
          [
            121.456533,
            25.163282
          ],
          [
            121.456652,
            25.163495
          ],
          [
            121.456795,
            25.163681
          ],
          [
            121.456997,
            25.163906
          ],
          [
            121.457468,
            25.164352
          ],
          [
            121.457654,
            25.164542
          ],
          [
            121.4577,
            25.164582
          ],
          [
            121.458327,
            25.165187
          ],
          [
            121.459593,
            25.1664
          ],
          [
            121.459759,
            25.166566
          ],
          [
            121.459821,
            25.166628
          ],
          [
            121.460174,
            25.166982
          ],
          [
            121.460576,
            25.167518
          ],
          [
            121.46068,
            25.167729
          ],
          [
            121.460823,
            25.168146
          ],
          [
            121.460908,
            25.168541
          ],
          [
            121.460927,
            25.168961
          ],
          [
            121.460865,
            25.169414
          ],
          [
            121.460807,
            25.169651
          ],
          [
            121.460632,
            25.170095
          ],
          [
            121.460519,
            25.170303
          ],
          [
            121.460326,
            25.170643
          ],
          [
            121.459887,
            25.171296
          ],
          [
            121.459725,
            25.171309
          ],
          [
            121.459985,
            25.170916
          ],
          [
            121.460237,
            25.170541
          ],
          [
            121.460503,
            25.170085
          ],
          [
            121.460654,
            25.169599
          ],
          [
            121.460681,
            25.169489
          ],
          [
            121.460709,
            25.169371
          ],
          [
            121.460723,
            25.169305
          ],
          [
            121.460747,
            25.169152
          ],
          [
            121.460755,
            25.169083
          ],
          [
            121.460764,
            25.168983
          ],
          [
            121.460761,
            25.168539
          ],
          [
            121.460666,
            25.168148
          ],
          [
            121.460567,
            25.167825
          ],
          [
            121.460406,
            25.167529
          ],
          [
            121.460176,
            25.167222
          ],
          [
            121.459675,
            25.166684
          ],
          [
            121.459615,
            25.166621
          ],
          [
            121.459366,
            25.166353
          ],
          [
            121.458648,
            25.165661
          ],
          [
            121.457969,
            25.165029
          ],
          [
            121.457553,
            25.164615
          ],
          [
            121.457338,
            25.16439
          ],
          [
            121.45701,
            25.164069
          ],
          [
            121.456729,
            25.163763
          ],
          [
            121.456549,
            25.163533
          ],
          [
            121.456412,
            25.163309
          ],
          [
            121.45634,
            25.16313
          ],
          [
            121.456259,
            25.162911
          ],
          [
            121.456194,
            25.162614
          ],
          [
            121.456164,
            25.162426
          ],
          [
            121.456168,
            25.161893
          ],
          [
            121.456183,
            25.161522
          ],
          [
            121.456249,
            25.161206
          ],
          [
            121.456372,
            25.160833
          ],
          [
            121.456467,
            25.160597
          ],
          [
            121.456526,
            25.160474
          ],
          [
            121.456683,
            25.160185
          ],
          [
            121.456934,
            25.159767
          ],
          [
            121.457584,
            25.15869
          ],
          [
            121.457941,
            25.15809
          ],
          [
            121.458164,
            25.157727
          ],
          [
            121.458394,
            25.15743
          ],
          [
            121.458614,
            25.157105
          ],
          [
            121.458842,
            25.156697
          ],
          [
            121.458964,
            25.156457
          ],
          [
            121.459106,
            25.156136
          ],
          [
            121.459188,
            25.155951
          ],
          [
            121.4592,
            25.155901
          ],
          [
            121.459267,
            25.155632
          ],
          [
            121.459296,
            25.155384
          ],
          [
            121.459315,
            25.154901
          ],
          [
            121.459304,
            25.15447
          ],
          [
            121.459297,
            25.153964
          ],
          [
            121.459293,
            25.153497
          ],
          [
            121.459292,
            25.153402
          ],
          [
            121.459437,
            25.153394
          ],
          [
            121.459432,
            25.153499
          ],
          [
            121.459417,
            25.153993
          ],
          [
            121.459422,
            25.154472
          ],
          [
            121.459422,
            25.154524
          ],
          [
            121.459423,
            25.155025
          ],
          [
            121.45942,
            25.155408
          ],
          [
            121.459386,
            25.155655
          ],
          [
            121.459325,
            25.155922
          ],
          [
            121.459312,
            25.155978
          ],
          [
            121.459233,
            25.156173
          ],
          [
            121.459222,
            25.156201
          ],
          [
            121.459138,
            25.156379
          ],
          [
            121.459077,
            25.156555
          ],
          [
            121.458985,
            25.156729
          ],
          [
            121.458785,
            25.157104
          ],
          [
            121.458591,
            25.157423
          ],
          [
            121.458361,
            25.157821
          ],
          [
            121.457997,
            25.158408
          ],
          [
            121.457859,
            25.15864
          ],
          [
            121.457112,
            25.159861
          ],
          [
            121.456807,
            25.160378
          ],
          [
            121.456643,
            25.160694
          ],
          [
            121.456582,
            25.160806
          ],
          [
            121.456453,
            25.161096
          ],
          [
            121.456356,
            25.16137
          ],
          [
            121.456306,
            25.161608
          ],
          [
            121.456305,
            25.161636
          ],
          [
            121.456297,
            25.161904
          ],
          [
            121.45629,
            25.16215
          ],
          [
            121.45631,
            25.16251
          ],
          [
            121.456386,
            25.162898
          ],
          [
            121.456442,
            25.163098
          ],
          [
            121.456533,
            25.163282
          ],
          [
            121.456652,
            25.163495
          ],
          [
            121.456795,
            25.163681
          ],
          [
            121.456997,
            25.163906
          ],
          [
            121.457468,
            25.164352
          ],
          [
            121.457654,
            25.164542
          ],
          [
            121.4577,
            25.164582
          ],
          [
            121.458327,
            25.165187
          ],
          [
            121.459593,
            25.1664
          ],
          [
            121.459759,
            25.166566
          ],
          [
            121.459821,
            25.166628
          ],
          [
            121.460174,
            25.166982
          ],
          [
            121.460576,
            25.167518
          ],
          [
            121.46068,
            25.167729
          ],
          [
            121.460823,
            25.168146
          ],
          [
            121.460908,
            25.168541
          ],
          [
            121.460927,
            25.168961
          ],
          [
            121.460865,
            25.169414
          ],
          [
            121.460807,
            25.169651
          ],
          [
            121.460632,
            25.170095
          ],
          [
            121.460519,
            25.170303
          ],
          [
            121.460326,
            25.170643
          ],
          [
            121.459887,
            25.171296
          ],
          [
            121.458462,
            25.173486
          ],
          [
            121.458001,
            25.174138
          ],
          [
            121.45793,
            25.174244
          ],
          [
            121.456973,
            25.175686
          ],
          [
            121.456911,
            25.175808
          ],
          [
            121.45678,
            25.175995
          ],
          [
            121.45661,
            25.176261
          ],
          [
            121.456175,
            25.176916
          ],
          [
            121.455829,
            25.177436
          ],
          [
            121.455029,
            25.178657
          ],
          [
            121.454902,
            25.178843
          ],
          [
            121.454704,
            25.179119
          ],
          [
            121.454557,
            25.179305
          ],
          [
            121.454158,
            25.179798
          ],
          [
            121.453353,
            25.18048
          ],
          [
            121.453028,
            25.180747
          ],
          [
            121.45279,
            25.18091
          ],
          [
            121.45129,
            25.181861
          ],
          [
            121.449779,
            25.182773
          ],
          [
            121.448994,
            25.183291
          ],
          [
            121.448268,
            25.183893
          ],
          [
            121.448255,
            25.183884
          ],
          [
            121.448148,
            25.183805
          ],
          [
            121.448458,
            25.183522
          ],
          [
            121.448519,
            25.183469
          ],
          [
            121.448613,
            25.183342
          ],
          [
            121.448648,
            25.183238
          ],
          [
            121.448645,
            25.183173
          ],
          [
            121.448635,
            25.183133
          ],
          [
            121.448546,
            25.183047
          ],
          [
            121.448308,
            25.18297
          ],
          [
            121.448226,
            25.182971
          ],
          [
            121.447868,
            25.182968
          ],
          [
            121.447231,
            25.182974
          ],
          [
            121.446281,
            25.182977
          ],
          [
            121.445366,
            25.182976
          ],
          [
            121.444485,
            25.182976
          ],
          [
            121.444257,
            25.185223
          ],
          [
            121.443374,
            25.185252
          ],
          [
            121.443359,
            25.185786
          ],
          [
            121.443315,
            25.187363
          ],
          [
            121.44334,
            25.187408
          ],
          [
            121.443406,
            25.187432
          ],
          [
            121.444145,
            25.187428
          ],
          [
            121.444138,
            25.187794
          ],
          [
            121.444115,
            25.188076
          ],
          [
            121.443868,
            25.18895
          ],
          [
            121.443829,
            25.1891
          ],
          [
            121.443217,
            25.189101
          ],
          [
            121.443034,
            25.189101
          ],
          [
            121.442811,
            25.189125
          ],
          [
            121.44135,
            25.189312
          ],
          [
            121.441083,
            25.189346
          ],
          [
            121.440612,
            25.189406
          ],
          [
            121.437955,
            25.189744
          ],
          [
            121.438132,
            25.191057
          ],
          [
            121.438373,
            25.191038
          ],
          [
            121.438568,
            25.190997
          ],
          [
            121.438856,
            25.19096
          ],
          [
            121.439152,
            25.190938
          ],
          [
            121.439328,
            25.190914
          ],
          [
            121.439152,
            25.190938
          ],
          [
            121.438856,
            25.19096
          ],
          [
            121.438568,
            25.190997
          ],
          [
            121.438373,
            25.191038
          ],
          [
            121.438132,
            25.191057
          ],
          [
            121.437955,
            25.189744
          ],
          [
            121.437653,
            25.189779
          ],
          [
            121.436223,
            25.189946
          ],
          [
            121.43458,
            25.190172
          ],
          [
            121.431301,
            25.190603
          ],
          [
            121.430952,
            25.190656
          ],
          [
            121.430867,
            25.190668
          ],
          [
            121.430891,
            25.190726
          ],
          [
            121.431959,
            25.193855
          ],
          [
            121.43274,
            25.193751
          ],
          [
            121.433164,
            25.193694
          ],
          [
            121.435164,
            25.193439
          ],
          [
            121.435064,
            25.192939
          ],
          [
            121.434984,
            25.192437
          ],
          [
            121.434813,
            25.19149
          ],
          [
            121.434672,
            25.190738
          ],
          [
            121.43458,
            25.190172
          ],
          [
            121.431301,
            25.190603
          ],
          [
            121.431064,
            25.190639
          ]
        ]
      },
      "properties": {
        "routeId": "new-taipei-251001",
        "city": "new-taipei",
        "source_file": "new-taipei/new-taipei-251001.geojson",
        "distance_km": 27.198,
        "duration_min": 40.56873333333333,
        "valhalla_config": "valhalla.json"
      }
    }
  ]
}