{
  "type": "FeatureCollection",
  "features": [
    {
      "type": "Feature",
      "geometry": {
        "type": "LineString",
        "coordinates": [
          [
            121.548168,
            24.974147
          ],
          [
            121.548176,
            24.974107
          ],
          [
            121.548223,
            24.973823
          ],
          [
            121.548226,
            24.973712
          ],
          [
            121.548222,
            24.973629
          ],
          [
            121.548218,
            24.973537
          ],
          [
            121.548181,
            24.973497
          ],
          [
            121.548134,
            24.973336
          ],
          [
            121.548096,
            24.973161
          ],
          [
            121.547972,
            24.972873
          ],
          [
            121.547777,
            24.972482
          ],
          [
            121.547549,
            24.972129
          ],
          [
            121.547438,
            24.971954
          ],
          [
            121.547393,
            24.971882
          ],
          [
            121.547307,
            24.971733
          ],
          [
            121.547149,
            24.971474
          ],
          [
            121.54712,
            24.971418
          ],
          [
            121.547098,
            24.971376
          ],
          [
            121.546929,
            24.971076
          ],
          [
            121.546897,
            24.97102
          ],
          [
            121.546738,
            24.970773
          ],
          [
            121.546506,
            24.970412
          ],
          [
            121.546475,
            24.970362
          ],
          [
            121.546423,
            24.970281
          ],
          [
            121.546294,
            24.97006
          ],
          [
            121.546109,
            24.969697
          ],
          [
            121.545879,
            24.969285
          ],
          [
            121.545809,
            24.969151
          ],
          [
            121.545739,
            24.969037
          ],
          [
            121.545591,
            24.968793
          ],
          [
            121.545547,
            24.96872
          ],
          [
            121.545409,
            24.968485
          ],
          [
            121.545401,
            24.968472
          ],
          [
            121.545325,
            24.968352
          ],
          [
            121.544927,
            24.967673
          ],
          [
            121.544787,
            24.96742
          ],
          [
            121.54477,
            24.967392
          ],
          [
            121.544728,
            24.967313
          ],
          [
            121.544708,
            24.967276
          ],
          [
            121.544538,
            24.966961
          ],
          [
            121.544333,
            24.966625
          ],
          [
            121.544066,
            24.966197
          ],
          [
            121.543802,
            24.965809
          ],
          [
            121.543741,
            24.965717
          ],
          [
            121.54364,
            24.965574
          ],
          [
            121.543607,
            24.965527
          ],
          [
            121.543396,
            24.965252
          ],
          [
            121.543059,
            24.964825
          ],
          [
            121.542746,
            24.964428
          ],
          [
            121.542525,
            24.964159
          ],
          [
            121.54217,
            24.963729
          ],
          [
            121.542023,
            24.963531
          ],
          [
            121.541754,
            24.963168
          ],
          [
            121.541599,
            24.962951
          ],
          [
            121.541209,
            24.962371
          ],
          [
            121.540884,
            24.961834
          ],
          [
            121.540806,
            24.961699
          ],
          [
            121.540615,
            24.961427
          ],
          [
            121.540393,
            24.961084
          ],
          [
            121.539877,
            24.960466
          ],
          [
            121.539505,
            24.960067
          ],
          [
            121.539471,
            24.960031
          ],
          [
            121.539405,
            24.959946
          ],
          [
            121.539355,
            24.959901
          ],
          [
            121.539064,
            24.959517
          ],
          [
            121.538891,
            24.959284
          ],
          [
            121.538764,
            24.959113
          ],
          [
            121.538593,
            24.958856
          ],
          [
            121.538532,
            24.958711
          ],
          [
            121.538461,
            24.958431
          ],
          [
            121.538452,
            24.958385
          ],
          [
            121.53853,
            24.958366
          ],
          [
            121.538541,
            24.958412
          ],
          [
            121.538638,
            24.958727
          ],
          [
            121.538703,
            24.958852
          ],
          [
            121.538802,
            24.958996
          ],
          [
            121.53898,
            24.959234
          ],
          [
            121.53911,
            24.959408
          ],
          [
            121.539211,
            24.959539
          ],
          [
            121.539424,
            24.959802
          ],
          [
            121.539487,
            24.959895
          ],
          [
            121.539588,
            24.959999
          ],
          [
            121.539925,
            24.960396
          ],
          [
            121.540486,
            24.961053
          ],
          [
            121.540705,
            24.961377
          ],
          [
            121.540908,
            24.961668
          ],
          [
            121.541011,
            24.961847
          ],
          [
            121.541385,
            24.962492
          ],
          [
            121.541433,
            24.962568
          ],
          [
            121.541967,
            24.963262
          ],
          [
            121.542037,
            24.963379
          ],
          [
            121.542179,
            24.963533
          ],
          [
            121.542347,
            24.963753
          ],
          [
            121.542928,
            24.964465
          ],
          [
            121.543215,
            24.964835
          ],
          [
            121.543704,
            24.965461
          ],
          [
            121.543739,
            24.965511
          ],
          [
            121.543842,
            24.965663
          ],
          [
            121.543917,
            24.965746
          ],
          [
            121.54429,
            24.966286
          ],
          [
            121.544458,
            24.966569
          ],
          [
            121.544615,
            24.966831
          ],
          [
            121.544794,
            24.967143
          ],
          [
            121.544859,
            24.967248
          ],
          [
            121.544906,
            24.967322
          ],
          [
            121.544922,
            24.967352
          ],
          [
            121.545024,
            24.967536
          ],
          [
            121.545112,
            24.967683
          ],
          [
            121.545263,
            24.967953
          ],
          [
            121.545436,
            24.968248
          ],
          [
            121.545534,
            24.968414
          ],
          [
            121.545545,
            24.968432
          ],
          [
            121.545829,
            24.968894
          ],
          [
            121.545883,
            24.968981
          ],
          [
            121.545949,
            24.969088
          ],
          [
            121.546014,
            24.969219
          ],
          [
            121.54657,
            24.97017
          ],
          [
            121.547504,
            24.971631
          ],
          [
            121.547605,
            24.971786
          ],
          [
            121.547645,
            24.971858
          ],
          [
            121.547438,
            24.971954
          ],
          [
            121.547371,
            24.971983
          ],
          [
            121.547118,
            24.972109
          ],
          [
            121.546987,
            24.972203
          ],
          [
            121.546846,
            24.97234
          ],
          [
            121.546778,
            24.972435
          ],
          [
            121.54672,
            24.972556
          ],
          [
            121.546684,
            24.972694
          ],
          [
            121.54667,
            24.972813
          ],
          [
            121.546682,
            24.972958
          ],
          [
            121.546713,
            24.973079
          ],
          [
            121.54678,
            24.973209
          ],
          [
            121.546877,
            24.973323
          ],
          [
            121.54702,
            24.973436
          ],
          [
            121.547151,
            24.973504
          ],
          [
            121.547346,
            24.973572
          ],
          [
            121.547542,
            24.973606
          ],
          [
            121.547693,
            24.973606
          ],
          [
            121.550402,
            24.973521
          ],
          [
            121.550802,
            24.973455
          ],
          [
            121.551104,
            24.973371
          ],
          [
            121.551357,
            24.973249
          ],
          [
            121.551564,
            24.973093
          ],
          [
            121.551722,
            24.972905
          ],
          [
            121.551849,
            24.972673
          ],
          [
            121.551918,
            24.972396
          ],
          [
            121.55191,
            24.972165
          ],
          [
            121.551863,
            24.971953
          ],
          [
            121.551707,
            24.971644
          ],
          [
            121.551511,
            24.971262
          ],
          [
            121.55127,
            24.970964
          ],
          [
            121.55085,
            24.970457
          ],
          [
            121.54449,
            24.962365
          ],
          [
            121.544402,
            24.962262
          ],
          [
            121.543696,
            24.961412
          ],
          [
            121.543535,
            24.961244
          ],
          [
            121.54309,
            24.960843
          ],
          [
            121.542646,
            24.960494
          ],
          [
            121.542204,
            24.96019
          ],
          [
            121.541712,
            24.959878
          ],
          [
            121.541275,
            24.959616
          ],
          [
            121.540749,
            24.959318
          ],
          [
            121.540376,
            24.959139
          ],
          [
            121.539964,
            24.958974
          ],
          [
            121.539623,
            24.958863
          ],
          [
            121.53942,
            24.958817
          ],
          [
            121.53921,
            24.958777
          ],
          [
            121.539142,
            24.958768
          ],
          [
            121.538772,
            24.958711
          ],
          [
            121.538532,
            24.958685
          ],
          [
            121.538315,
            24.958661
          ],
          [
            121.53794,
            24.958639
          ],
          [
            121.537394,
            24.958641
          ],
          [
            121.536803,
            24.958687
          ],
          [
            121.536236,
            24.958774
          ],
          [
            121.535751,
            24.958874
          ],
          [
            121.535125,
            24.959056
          ],
          [
            121.53453,
            24.959278
          ],
          [
            121.53398,
            24.959535
          ],
          [
            121.533629,
            24.959732
          ],
          [
            121.533195,
            24.960011
          ],
          [
            121.532861,
            24.960252
          ],
          [
            121.532422,
            24.960622
          ],
          [
            121.53208,
            24.960946
          ],
          [
            121.531763,
            24.961262
          ],
          [
            121.53153,
            24.961506
          ],
          [
            121.531315,
            24.961738
          ],
          [
            121.53094,
            24.962168
          ],
          [
            121.530536,
            24.962577
          ],
          [
            121.528343,
            24.96519
          ],
          [
            121.52784,
            24.96588
          ],
          [
            121.527231,
            24.966708
          ],
          [
            121.526553,
            24.967844
          ],
          [
            121.526392,
            24.968178
          ],
          [
            121.526302,
            24.968365
          ],
          [
            121.526228,
            24.968554
          ],
          [
            121.526185,
            24.968709
          ],
          [
            121.526175,
            24.968871
          ],
          [
            121.526183,
            24.969013
          ],
          [
            121.526207,
            24.969156
          ],
          [
            121.526232,
            24.969273
          ],
          [
            121.526281,
            24.96938
          ],
          [
            121.526493,
            24.969654
          ],
          [
            121.526725,
            24.969851
          ],
          [
            121.527046,
            24.970057
          ],
          [
            121.527183,
            24.970157
          ],
          [
            121.527709,
            24.970494
          ],
          [
            121.527901,
            24.97064
          ],
          [
            121.528144,
            24.970873
          ],
          [
            121.528341,
            24.971062
          ],
          [
            121.528651,
            24.971441
          ],
          [
            121.528775,
            24.971571
          ],
          [
            121.528875,
            24.971635
          ],
          [
            121.528956,
            24.971675
          ],
          [
            121.5291,
            24.971694
          ],
          [
            121.529317,
            24.971647
          ],
          [
            121.529555,
            24.97153
          ],
          [
            121.529858,
            24.971405
          ],
          [
            121.53,
            24.971366
          ],
          [
            121.530262,
            24.971331
          ],
          [
            121.530968,
            24.97112
          ],
          [
            121.531027,
            24.971104
          ],
          [
            121.531138,
            24.971074
          ],
          [
            121.531551,
            24.970959
          ],
          [
            121.531764,
            24.970887
          ],
          [
            121.534038,
            24.969923
          ],
          [
            121.534422,
            24.969757
          ],
          [
            121.534664,
            24.969625
          ],
          [
            121.534839,
            24.969522
          ],
          [
            121.535939,
            24.968768
          ],
          [
            121.536112,
            24.968655
          ],
          [
            121.536241,
            24.968536
          ],
          [
            121.536347,
            24.968411
          ],
          [
            121.536444,
            24.96823
          ],
          [
            121.536696,
            24.967578
          ],
          [
            121.536908,
            24.967034
          ],
          [
            121.536935,
            24.966921
          ],
          [
            121.536941,
            24.966803
          ],
          [
            121.536849,
            24.964571
          ],
          [
            121.536845,
            24.964424
          ],
          [
            121.536835,
            24.964221
          ],
          [
            121.536834,
            24.964122
          ],
          [
            121.536823,
            24.963769
          ],
          [
            121.536859,
            24.963612
          ],
          [
            121.536873,
            24.963333
          ],
          [
            121.536922,
            24.963082
          ],
          [
            121.53706,
            24.961677
          ],
          [
            121.537075,
            24.961469
          ],
          [
            121.537091,
            24.96137
          ],
          [
            121.537286,
            24.961389
          ],
          [
            121.538109,
            24.961604
          ],
          [
            121.538941,
            24.961799
          ],
          [
            121.539059,
            24.961797
          ],
          [
            121.539181,
            24.961771
          ],
          [
            121.539213,
            24.961727
          ],
          [
            121.539233,
            24.96171
          ],
          [
            121.539392,
            24.961662
          ],
          [
            121.539258,
            24.96133
          ],
          [
            121.539715,
            24.961219
          ],
          [
            121.539852,
            24.961192
          ],
          [
            121.540083,
            24.961153
          ],
          [
            121.540316,
            24.9611
          ],
          [
            121.540362,
            24.96109
          ],
          [
            121.540393,
            24.961084
          ],
          [
            121.539877,
            24.960466
          ],
          [
            121.539505,
            24.960067
          ],
          [
            121.539471,
            24.960031
          ],
          [
            121.539405,
            24.959946
          ],
          [
            121.539355,
            24.959901
          ],
          [
            121.539064,
            24.959517
          ],
          [
            121.538891,
            24.959284
          ],
          [
            121.538764,
            24.959113
          ],
          [
            121.538593,
            24.958856
          ],
          [
            121.538532,
            24.958711
          ],
          [
            121.538461,
            24.958431
          ],
          [
            121.538452,
            24.958385
          ],
          [
            121.53853,
            24.958366
          ],
          [
            121.538541,
            24.958412
          ],
          [
            121.538638,
            24.958727
          ],
          [
            121.538703,
            24.958852
          ],
          [
            121.538802,
            24.958996
          ],
          [
            121.53898,
            24.959234
          ],
          [
            121.53911,
            24.959408
          ],
          [
            121.539211,
            24.959539
          ],
          [
            121.539421,
            24.959798
          ],
          [
            121.539424,
            24.959802
          ],
          [
            121.539487,
            24.959895
          ],
          [
            121.539588,
            24.959999
          ],
          [
            121.539925,
            24.960396
          ],
          [
            121.540486,
            24.961053
          ],
          [
            121.540705,
            24.961377
          ],
          [
            121.540908,
            24.961668
          ],
          [
            121.541011,
            24.961847
          ],
          [
            121.541385,
            24.962492
          ],
          [
            121.541433,
            24.962568
          ],
          [
            121.541967,
            24.963262
          ],
          [
            121.542037,
            24.963379
          ],
          [
            121.542179,
            24.963533
          ],
          [
            121.542193,
            24.963539
          ],
          [
            121.542179,
            24.963533
          ],
          [
            121.542347,
            24.963753
          ],
          [
            121.542928,
            24.964465
          ],
          [
            121.543215,
            24.964835
          ],
          [
            121.543275,
            24.964912
          ],
          [
            121.543704,
            24.965461
          ],
          [
            121.543739,
            24.965511
          ],
          [
            121.543842,
            24.965663
          ],
          [
            121.543917,
            24.965746
          ],
          [
            121.54429,
            24.966286
          ],
          [
            121.544458,
            24.966569
          ],
          [
            121.544615,
            24.966831
          ],
          [
            121.544634,
            24.966863
          ],
          [
            121.544794,
            24.967143
          ],
          [
            121.544859,
            24.967248
          ],
          [
            121.544906,
            24.967322
          ],
          [
            121.544922,
            24.967352
          ],
          [
            121.545024,
            24.967536
          ],
          [
            121.545112,
            24.967683
          ],
          [
            121.545264,
            24.967953
          ],
          [
            121.545436,
            24.968248
          ],
          [
            121.545457,
            24.968284
          ],
          [
            121.545534,
            24.968414
          ],
          [
            121.545545,
            24.968432
          ],
          [
            121.545829,
            24.968894
          ],
          [
            121.545883,
            24.968981
          ],
          [
            121.545941,
            24.968952
          ],
          [
            121.545883,
            24.968981
          ],
          [
            121.545949,
            24.969088
          ],
          [
            121.546014,
            24.969219
          ],
          [
            121.546347,
            24.969788
          ],
          [
            121.54657,
            24.97017
          ],
          [
            121.547504,
            24.971631
          ],
          [
            121.547605,
            24.971786
          ],
          [
            121.547645,
            24.971858
          ],
          [
            121.547776,
            24.972094
          ],
          [
            121.548004,
            24.972496
          ],
          [
            121.548212,
            24.972865
          ],
          [
            121.548291,
            24.973095
          ],
          [
            121.548367,
            24.973532
          ],
          [
            121.548373,
            24.973626
          ],
          [
            121.548376,
            24.973708
          ],
          [
            121.548281,
            24.974308
          ],
          [
            121.548272,
            24.974587
          ],
          [
            121.5482,
            24.974785
          ],
          [
            121.548125,
            24.974955
          ],
          [
            121.548033,
            24.975112
          ],
          [
            121.547856,
            24.975376
          ],
          [
            121.547666,
            24.975639
          ],
          [
            121.547435,
            24.975973
          ],
          [
            121.547293,
            24.976166
          ],
          [
            121.54726,
            24.976208
          ],
          [
            121.547323,
            24.976238
          ],
          [
            121.547583,
            24.97639
          ],
          [
            121.547742,
            24.9765
          ],
          [
            121.548429,
            24.97693
          ],
          [
            121.548827,
            24.97718
          ],
          [
            121.548964,
            24.977265
          ],
          [
            121.549279,
            24.977466
          ],
          [
            121.549525,
            24.977623
          ],
          [
            121.550526,
            24.978264
          ],
          [
            121.551459,
            24.978851
          ],
          [
            121.550526,
            24.978264
          ],
          [
            121.551052,
            24.977728
          ],
          [
            121.551245,
            24.977714
          ],
          [
            121.551542,
            24.977652
          ],
          [
            121.551987,
            24.977644
          ],
          [
            121.552025,
            24.977661
          ],
          [
            121.552234,
            24.977752
          ],
          [
            121.552654,
            24.977784
          ],
          [
            121.55272,
            24.977742
          ],
          [
            121.552764,
            24.977664
          ],
          [
            121.552873,
            24.977587
          ],
          [
            121.553064,
            24.977398
          ],
          [
            121.553075,
            24.977387
          ],
          [
            121.553168,
            24.977204
          ],
          [
            121.553303,
            24.976935
          ],
          [
            121.553464,
            24.976706
          ],
          [
            121.553609,
            24.97656
          ],
          [
            121.553847,
            24.976483
          ],
          [
            121.553981,
            24.976448
          ],
          [
            121.55432,
            24.976264
          ],
          [
            121.554545,
            24.976181
          ],
          [
            121.554726,
            24.976139
          ],
          [
            121.555162,
            24.976076
          ],
          [
            121.555199,
            24.976071
          ],
          [
            121.555302,
            24.976056
          ],
          [
            121.555344,
            24.975935
          ],
          [
            121.55536,
            24.975889
          ],
          [
            121.555631,
            24.97509
          ],
          [
            121.55572,
            24.974763
          ],
          [
            121.55499,
            24.97428
          ],
          [
            121.554197,
            24.973675
          ],
          [
            121.553878,
            24.973808
          ],
          [
            121.553504,
            24.973971
          ],
          [
            121.553412,
            24.974009
          ],
          [
            121.553305,
            24.974046
          ],
          [
            121.553163,
            24.974113
          ],
          [
            121.553058,
            24.974126
          ],
          [
            121.552972,
            24.974119
          ],
          [
            121.552592,
            24.974036
          ],
          [
            121.552554,
            24.974028
          ],
          [
            121.552459,
            24.974007
          ],
          [
            121.55238,
            24.97399
          ],
          [
            121.552249,
            24.973962
          ],
          [
            121.552034,
            24.973915
          ],
          [
            121.551962,
            24.97389
          ],
          [
            121.551901,
            24.97385
          ],
          [
            121.551863,
            24.973799
          ],
          [
            121.551835,
            24.9737
          ],
          [
            121.551808,
            24.973657
          ],
          [
            121.551778,
            24.97363
          ],
          [
            121.551705,
            24.973613
          ],
          [
            121.551616,
            24.97361
          ],
          [
            121.550064,
            24.973657
          ],
          [
            121.549248,
            24.973681
          ],
          [
            121.549221,
            24.973682
          ],
          [
            121.549195,
            24.973683
          ],
          [
            121.549194,
            24.973655
          ],
          [
            121.549193,
            24.973587
          ],
          [
            121.549192,
            24.973532
          ],
          [
            121.549192,
            24.973509
          ],
          [
            121.549191,
            24.973481
          ],
          [
            121.549191,
            24.973455
          ],
          [
            121.549188,
            24.973293
          ],
          [
            121.549294,
            24.973182
          ],
          [
            121.549573,
            24.97289
          ],
          [
            121.549642,
            24.972793
          ],
          [
            121.549677,
            24.972687
          ],
          [
            121.549691,
            24.97247
          ],
          [
            121.54982,
            24.972204
          ],
          [
            121.550038,
            24.97201
          ],
          [
            121.54982,
            24.972204
          ],
          [
            121.549691,
            24.97247
          ],
          [
            121.549677,
            24.972687
          ],
          [
            121.549642,
            24.972793
          ],
          [
            121.549573,
            24.97289
          ],
          [
            121.549188,
            24.973293
          ],
          [
            121.549191,
            24.973455
          ],
          [
            121.549191,
            24.973481
          ],
          [
            121.549192,
            24.973509
          ],
          [
            121.549192,
            24.973532
          ],
          [
            121.549193,
            24.973587
          ],
          [
            121.549194,
            24.973655
          ],
          [
            121.549195,
            24.973683
          ],
          [
            121.549164,
            24.973716
          ],
          [
            121.548926,
            24.973941
          ],
          [
            121.54874,
            24.974112
          ],
          [
            121.548667,
            24.974176
          ]
        ]
      },
      "properties": {
        "routeId": "new-taipei-231003",
        "city": "new-taipei",
        "source_file": "new-taipei/new-taipei-231003.geojson",
        "distance_km": 16.278,
        "duration_min": 23.7759,
        "valhalla_config": "valhalla.json"
      }
    }
  ]
}