{
  "type": "FeatureCollection",
  "features": [
    {
      "type": "Feature",
      "geometry": {
        "type": "LineString",
        "coordinates": [
          [
            121.619671,
            25.043134
          ],
          [
            121.619649,
            25.043134
          ],
          [
            121.61955,
            25.043125
          ],
          [
            121.619536,
            25.043108
          ],
          [
            121.619449,
            25.042996
          ],
          [
            121.619429,
            25.04297
          ],
          [
            121.619522,
            25.042902
          ],
          [
            121.619722,
            25.042754
          ],
          [
            121.619798,
            25.042678
          ],
          [
            121.619943,
            25.042453
          ],
          [
            121.62001,
            25.042362
          ],
          [
            121.620125,
            25.042159
          ],
          [
            121.620295,
            25.041883
          ],
          [
            121.620765,
            25.041118
          ],
          [
            121.620813,
            25.041155
          ],
          [
            121.620928,
            25.041231
          ],
          [
            121.620959,
            25.041247
          ],
          [
            121.621216,
            25.041443
          ],
          [
            121.621283,
            25.041493
          ],
          [
            121.621477,
            25.041633
          ],
          [
            121.621525,
            25.041578
          ],
          [
            121.621827,
            25.041241
          ],
          [
            121.622164,
            25.040898
          ],
          [
            121.621827,
            25.041241
          ],
          [
            121.621525,
            25.041578
          ],
          [
            121.621477,
            25.041633
          ],
          [
            121.621725,
            25.041844
          ],
          [
            121.621971,
            25.042033
          ],
          [
            121.62222,
            25.04221
          ],
          [
            121.62236,
            25.042312
          ],
          [
            121.622489,
            25.042396
          ],
          [
            121.62236,
            25.042312
          ],
          [
            121.62222,
            25.04221
          ],
          [
            121.621971,
            25.042033
          ],
          [
            121.621725,
            25.041844
          ],
          [
            121.621477,
            25.041633
          ],
          [
            121.621327,
            25.041525
          ],
          [
            121.621283,
            25.041493
          ],
          [
            121.621216,
            25.041443
          ],
          [
            121.620958,
            25.041247
          ],
          [
            121.620928,
            25.041231
          ],
          [
            121.620813,
            25.041155
          ],
          [
            121.620765,
            25.041118
          ],
          [
            121.620693,
            25.041057
          ],
          [
            121.620657,
            25.040945
          ],
          [
            121.620586,
            25.040608
          ],
          [
            121.620529,
            25.040346
          ],
          [
            121.620494,
            25.040111
          ],
          [
            121.620421,
            25.039982
          ],
          [
            121.620367,
            25.039914
          ],
          [
            121.620323,
            25.039858
          ],
          [
            121.620424,
            25.039798
          ],
          [
            121.621237,
            25.03931
          ],
          [
            121.621247,
            25.039304
          ],
          [
            121.621333,
            25.03927
          ],
          [
            121.621567,
            25.039142
          ],
          [
            121.621651,
            25.039082
          ],
          [
            121.621771,
            25.038992
          ],
          [
            121.621951,
            25.038826
          ],
          [
            121.622114,
            25.038684
          ],
          [
            121.622448,
            25.038372
          ],
          [
            121.622475,
            25.038347
          ],
          [
            121.62257,
            25.038266
          ],
          [
            121.622644,
            25.038203
          ],
          [
            121.622999,
            25.037901
          ],
          [
            121.6236,
            25.037351
          ],
          [
            121.623717,
            25.037256
          ],
          [
            121.623808,
            25.037198
          ],
          [
            121.623886,
            25.03719
          ],
          [
            121.624081,
            25.037216
          ],
          [
            121.624472,
            25.03746
          ],
          [
            121.624713,
            25.037584
          ],
          [
            121.624888,
            25.037642
          ],
          [
            121.625036,
            25.037585
          ],
          [
            121.625182,
            25.03755
          ],
          [
            121.625352,
            25.03747
          ],
          [
            121.625481,
            25.037451
          ],
          [
            121.625677,
            25.037453
          ],
          [
            121.626535,
            25.037587
          ],
          [
            121.626636,
            25.037568
          ],
          [
            121.62678,
            25.037525
          ],
          [
            121.626976,
            25.037426
          ],
          [
            121.627167,
            25.03731
          ],
          [
            121.626976,
            25.037426
          ],
          [
            121.62678,
            25.037525
          ],
          [
            121.626636,
            25.037568
          ],
          [
            121.626535,
            25.037587
          ],
          [
            121.625677,
            25.037453
          ],
          [
            121.625481,
            25.037451
          ],
          [
            121.625352,
            25.03747
          ],
          [
            121.625182,
            25.03755
          ],
          [
            121.625036,
            25.037585
          ],
          [
            121.624888,
            25.037642
          ],
          [
            121.624911,
            25.037675
          ],
          [
            121.624984,
            25.037777
          ],
          [
            121.624996,
            25.037794
          ],
          [
            121.62489,
            25.037874
          ],
          [
            121.624824,
            25.037993
          ],
          [
            121.624779,
            25.038138
          ],
          [
            121.625051,
            25.038272
          ],
          [
            121.625107,
            25.0383
          ],
          [
            121.625292,
            25.038447
          ],
          [
            121.625366,
            25.038512
          ],
          [
            121.625438,
            25.038649
          ],
          [
            121.6255,
            25.038842
          ],
          [
            121.625544,
            25.039033
          ],
          [
            121.625565,
            25.039124
          ],
          [
            121.625732,
            25.039536
          ],
          [
            121.625938,
            25.03992
          ],
          [
            121.626051,
            25.039935
          ],
          [
            121.626382,
            25.039956
          ],
          [
            121.626444,
            25.039951
          ],
          [
            121.626699,
            25.039892
          ],
          [
            121.626897,
            25.039872
          ],
          [
            121.627401,
            25.039829
          ],
          [
            121.627502,
            25.039818
          ],
          [
            121.627572,
            25.03983
          ],
          [
            121.62765,
            25.039864
          ],
          [
            121.627818,
            25.039977
          ],
          [
            121.627903,
            25.040016
          ],
          [
            121.628008,
            25.04005
          ],
          [
            121.62826,
            25.040174
          ],
          [
            121.628442,
            25.040288
          ],
          [
            121.628511,
            25.04032
          ],
          [
            121.628584,
            25.040321
          ],
          [
            121.628647,
            25.04029
          ],
          [
            121.628798,
            25.04015
          ],
          [
            121.628912,
            25.040078
          ],
          [
            121.628936,
            25.040075
          ],
          [
            121.628992,
            25.040081
          ],
          [
            121.62918,
            25.040136
          ],
          [
            121.629228,
            25.040158
          ],
          [
            121.629408,
            25.040265
          ],
          [
            121.6296,
            25.040413
          ],
          [
            121.629692,
            25.040435
          ],
          [
            121.629744,
            25.040423
          ],
          [
            121.629812,
            25.040369
          ],
          [
            121.630249,
            25.039967
          ],
          [
            121.630396,
            25.039895
          ],
          [
            121.630488,
            25.039878
          ],
          [
            121.630591,
            25.039912
          ],
          [
            121.630738,
            25.040016
          ],
          [
            121.630786,
            25.040042
          ],
          [
            121.630892,
            25.040099
          ],
          [
            121.630976,
            25.040125
          ],
          [
            121.631149,
            25.040182
          ],
          [
            121.631286,
            25.040251
          ],
          [
            121.631371,
            25.040278
          ],
          [
            121.631465,
            25.040306
          ],
          [
            121.631615,
            25.040331
          ],
          [
            121.631786,
            25.040337
          ],
          [
            121.63192,
            25.0403
          ],
          [
            121.632015,
            25.040255
          ],
          [
            121.632103,
            25.040214
          ],
          [
            121.632237,
            25.040176
          ],
          [
            121.632359,
            25.040161
          ],
          [
            121.63241,
            25.040169
          ],
          [
            121.632793,
            25.040241
          ],
          [
            121.632938,
            25.040286
          ],
          [
            121.633053,
            25.040351
          ],
          [
            121.633154,
            25.040438
          ],
          [
            121.633245,
            25.040391
          ],
          [
            121.633457,
            25.040274
          ],
          [
            121.633466,
            25.040257
          ],
          [
            121.633457,
            25.040178
          ],
          [
            121.6334,
            25.040125
          ],
          [
            121.633276,
            25.040091
          ],
          [
            121.633153,
            25.040062
          ],
          [
            121.633127,
            25.040037
          ],
          [
            121.633012,
            25.039848
          ],
          [
            121.632983,
            25.039688
          ],
          [
            121.632911,
            25.039623
          ],
          [
            121.632782,
            25.039589
          ],
          [
            121.632454,
            25.039576
          ],
          [
            121.632381,
            25.039561
          ],
          [
            121.632307,
            25.039514
          ],
          [
            121.632252,
            25.039443
          ],
          [
            121.632252,
            25.039401
          ],
          [
            121.632249,
            25.039342
          ],
          [
            121.632274,
            25.039295
          ],
          [
            121.632343,
            25.039255
          ],
          [
            121.632399,
            25.039225
          ],
          [
            121.632534,
            25.039217
          ],
          [
            121.632661,
            25.039221
          ],
          [
            121.63337,
            25.039266
          ],
          [
            121.633489,
            25.039235
          ],
          [
            121.633589,
            25.039153
          ],
          [
            121.633692,
            25.038944
          ],
          [
            121.633749,
            25.03886
          ],
          [
            121.633814,
            25.038812
          ],
          [
            121.633891,
            25.038783
          ],
          [
            121.63404,
            25.038789
          ],
          [
            121.634072,
            25.038799
          ],
          [
            121.634191,
            25.038837
          ],
          [
            121.63453,
            25.038951
          ],
          [
            121.634596,
            25.038966
          ],
          [
            121.634679,
            25.038961
          ],
          [
            121.635297,
            25.038864
          ],
          [
            121.63563,
            25.038842
          ],
          [
            121.635706,
            25.038851
          ],
          [
            121.63582,
            25.038906
          ],
          [
            121.635706,
            25.038851
          ],
          [
            121.63563,
            25.038842
          ],
          [
            121.635297,
            25.038864
          ],
          [
            121.634679,
            25.038961
          ],
          [
            121.634596,
            25.038966
          ],
          [
            121.63453,
            25.038951
          ],
          [
            121.634247,
            25.038856
          ],
          [
            121.634191,
            25.038837
          ],
          [
            121.634072,
            25.038799
          ],
          [
            121.63404,
            25.038789
          ],
          [
            121.633891,
            25.038783
          ],
          [
            121.633814,
            25.038812
          ],
          [
            121.633749,
            25.03886
          ],
          [
            121.633692,
            25.038944
          ],
          [
            121.633589,
            25.039153
          ],
          [
            121.633489,
            25.039235
          ],
          [
            121.63337,
            25.039266
          ],
          [
            121.632661,
            25.039221
          ],
          [
            121.632534,
            25.039217
          ],
          [
            121.632399,
            25.039225
          ],
          [
            121.632343,
            25.039255
          ],
          [
            121.632274,
            25.039295
          ],
          [
            121.632249,
            25.039342
          ],
          [
            121.632252,
            25.039401
          ],
          [
            121.632252,
            25.039443
          ],
          [
            121.632307,
            25.039514
          ],
          [
            121.632381,
            25.039561
          ],
          [
            121.632454,
            25.039576
          ],
          [
            121.632782,
            25.039589
          ],
          [
            121.632911,
            25.039623
          ],
          [
            121.632983,
            25.039688
          ],
          [
            121.633012,
            25.039848
          ],
          [
            121.633127,
            25.040037
          ],
          [
            121.633153,
            25.040062
          ],
          [
            121.633276,
            25.040091
          ],
          [
            121.6334,
            25.040125
          ],
          [
            121.633457,
            25.040178
          ],
          [
            121.633466,
            25.040257
          ],
          [
            121.633457,
            25.040274
          ],
          [
            121.633245,
            25.040391
          ],
          [
            121.633154,
            25.040438
          ],
          [
            121.633184,
            25.040472
          ],
          [
            121.633227,
            25.040557
          ],
          [
            121.633284,
            25.040711
          ],
          [
            121.633449,
            25.041276
          ],
          [
            121.633527,
            25.041395
          ],
          [
            121.633674,
            25.041542
          ],
          [
            121.633793,
            25.041661
          ],
          [
            121.633835,
            25.041703
          ],
          [
            121.633862,
            25.041737
          ],
          [
            121.633813,
            25.041793
          ],
          [
            121.633804,
            25.041862
          ],
          [
            121.633723,
            25.042016
          ],
          [
            121.633685,
            25.042141
          ],
          [
            121.633687,
            25.042194
          ],
          [
            121.633702,
            25.042211
          ],
          [
            121.633972,
            25.042392
          ],
          [
            121.633984,
            25.04242
          ],
          [
            121.633982,
            25.042452
          ],
          [
            121.633794,
            25.042626
          ],
          [
            121.634375,
            25.042985
          ],
          [
            121.63501,
            25.043394
          ],
          [
            121.635014,
            25.043441
          ],
          [
            121.635004,
            25.043479
          ],
          [
            121.634924,
            25.043602
          ],
          [
            121.63487,
            25.043647
          ],
          [
            121.63482,
            25.043669
          ],
          [
            121.634747,
            25.043676
          ],
          [
            121.634043,
            25.043266
          ],
          [
            121.633523,
            25.042933
          ],
          [
            121.634043,
            25.043266
          ],
          [
            121.634747,
            25.043676
          ],
          [
            121.63482,
            25.043669
          ],
          [
            121.63487,
            25.043647
          ],
          [
            121.634924,
            25.043602
          ],
          [
            121.635004,
            25.043479
          ],
          [
            121.635014,
            25.043441
          ],
          [
            121.63501,
            25.043394
          ],
          [
            121.634375,
            25.042985
          ],
          [
            121.633794,
            25.042626
          ],
          [
            121.633982,
            25.042452
          ],
          [
            121.633984,
            25.04242
          ],
          [
            121.633972,
            25.042392
          ],
          [
            121.633702,
            25.042211
          ],
          [
            121.633687,
            25.042194
          ],
          [
            121.633685,
            25.042141
          ],
          [
            121.633723,
            25.042016
          ],
          [
            121.633804,
            25.041862
          ],
          [
            121.633813,
            25.041793
          ],
          [
            121.633862,
            25.041737
          ],
          [
            121.633835,
            25.041703
          ],
          [
            121.633674,
            25.041542
          ],
          [
            121.633527,
            25.041395
          ],
          [
            121.633449,
            25.041276
          ],
          [
            121.633284,
            25.040711
          ],
          [
            121.633227,
            25.040557
          ],
          [
            121.633184,
            25.040472
          ],
          [
            121.633154,
            25.040438
          ],
          [
            121.633053,
            25.040351
          ],
          [
            121.632938,
            25.040286
          ],
          [
            121.632793,
            25.040241
          ],
          [
            121.63241,
            25.040169
          ],
          [
            121.632359,
            25.040161
          ],
          [
            121.632237,
            25.040176
          ],
          [
            121.632103,
            25.040214
          ],
          [
            121.632015,
            25.040255
          ],
          [
            121.63192,
            25.0403
          ],
          [
            121.631786,
            25.040337
          ],
          [
            121.631615,
            25.040331
          ],
          [
            121.631465,
            25.040306
          ],
          [
            121.631371,
            25.040278
          ],
          [
            121.631286,
            25.040251
          ],
          [
            121.631149,
            25.040182
          ],
          [
            121.630976,
            25.040125
          ],
          [
            121.630892,
            25.040099
          ],
          [
            121.630786,
            25.040042
          ],
          [
            121.630738,
            25.040016
          ],
          [
            121.630591,
            25.039912
          ],
          [
            121.630488,
            25.039878
          ],
          [
            121.630396,
            25.039895
          ],
          [
            121.630249,
            25.039967
          ],
          [
            121.629812,
            25.040369
          ],
          [
            121.629744,
            25.040423
          ],
          [
            121.629692,
            25.040435
          ],
          [
            121.6296,
            25.040413
          ],
          [
            121.629408,
            25.040265
          ],
          [
            121.629228,
            25.040158
          ],
          [
            121.62918,
            25.040136
          ],
          [
            121.628992,
            25.040081
          ],
          [
            121.628936,
            25.040075
          ],
          [
            121.628912,
            25.040078
          ],
          [
            121.628798,
            25.04015
          ],
          [
            121.628647,
            25.04029
          ],
          [
            121.628584,
            25.040321
          ],
          [
            121.628511,
            25.04032
          ],
          [
            121.628442,
            25.040288
          ],
          [
            121.62826,
            25.040174
          ],
          [
            121.628008,
            25.04005
          ],
          [
            121.627903,
            25.040016
          ],
          [
            121.627818,
            25.039977
          ],
          [
            121.62765,
            25.039864
          ],
          [
            121.627572,
            25.03983
          ],
          [
            121.627502,
            25.039818
          ],
          [
            121.627401,
            25.039829
          ],
          [
            121.626897,
            25.039872
          ],
          [
            121.626699,
            25.039892
          ],
          [
            121.626444,
            25.039951
          ],
          [
            121.626382,
            25.039956
          ],
          [
            121.626051,
            25.039935
          ],
          [
            121.625938,
            25.03992
          ],
          [
            121.625864,
            25.039921
          ],
          [
            121.625822,
            25.039922
          ],
          [
            121.625791,
            25.039923
          ],
          [
            121.62559,
            25.039946
          ],
          [
            121.625299,
            25.040013
          ],
          [
            121.625216,
            25.040025
          ],
          [
            121.625106,
            25.040011
          ],
          [
            121.625017,
            25.039991
          ],
          [
            121.624956,
            25.039967
          ],
          [
            121.624909,
            25.040203
          ],
          [
            121.624932,
            25.040217
          ],
          [
            121.624935,
            25.040261
          ],
          [
            121.624923,
            25.040462
          ],
          [
            121.624956,
            25.040652
          ],
          [
            121.624907,
            25.040656
          ],
          [
            121.624687,
            25.040661
          ],
          [
            121.624589,
            25.040641
          ],
          [
            121.624506,
            25.040624
          ],
          [
            121.62394,
            25.040638
          ],
          [
            121.623614,
            25.040802
          ],
          [
            121.623459,
            25.040841
          ],
          [
            121.623558,
            25.041027
          ],
          [
            121.623709,
            25.041286
          ],
          [
            121.623748,
            25.041365
          ],
          [
            121.623709,
            25.041286
          ],
          [
            121.623558,
            25.041027
          ],
          [
            121.623459,
            25.040841
          ],
          [
            121.62341,
            25.040786
          ],
          [
            121.62338,
            25.040782
          ],
          [
            121.623329,
            25.040788
          ],
          [
            121.623168,
            25.04085
          ],
          [
            121.623127,
            25.040774
          ],
          [
            121.623035,
            25.040673
          ],
          [
            121.622887,
            25.040435
          ],
          [
            121.62265,
            25.040004
          ],
          [
            121.622172,
            25.040084
          ],
          [
            121.622009,
            25.04014
          ],
          [
            121.621915,
            25.040184
          ],
          [
            121.621647,
            25.040459
          ],
          [
            121.621301,
            25.040827
          ],
          [
            121.620958,
            25.041247
          ],
          [
            121.620893,
            25.04131
          ],
          [
            121.620457,
            25.041967
          ]
        ]
      },
      "properties": {
        "routeId": "new-taipei-221033",
        "city": "new-taipei",
        "source_file": "new-taipei/new-taipei-221033.geojson",
        "distance_km": 7.541,
        "duration_min": 14.9085,
        "valhalla_config": "valhalla.json"
      }
    }
  ]
}