{
  "type": "FeatureCollection",
  "features": [
    {
      "type": "Feature",
      "geometry": {
        "type": "LineString",
        "coordinates": [
          [
            121.380989,
            25.076967
          ],
          [
            121.380768,
            25.077102
          ],
          [
            121.380642,
            25.077181
          ],
          [
            121.381742,
            25.078702
          ],
          [
            121.381776,
            25.078753
          ],
          [
            121.381966,
            25.079025
          ],
          [
            121.38229,
            25.079532
          ],
          [
            121.383029,
            25.080739
          ],
          [
            121.38319,
            25.080659
          ],
          [
            121.383852,
            25.080318
          ],
          [
            121.384102,
            25.080191
          ],
          [
            121.384458,
            25.079992
          ],
          [
            121.384974,
            25.079728
          ],
          [
            121.385366,
            25.079527
          ],
          [
            121.385564,
            25.079469
          ],
          [
            121.386083,
            25.079337
          ],
          [
            121.386675,
            25.079244
          ],
          [
            121.38704,
            25.079186
          ],
          [
            121.388184,
            25.078998
          ],
          [
            121.388283,
            25.078988
          ],
          [
            121.388682,
            25.07895
          ],
          [
            121.389566,
            25.078852
          ],
          [
            121.390114,
            25.078792
          ],
          [
            121.390662,
            25.078733
          ],
          [
            121.390594,
            25.078815
          ],
          [
            121.39067,
            25.078885
          ],
          [
            121.390799,
            25.079222
          ],
          [
            121.391036,
            25.079359
          ],
          [
            121.390799,
            25.079222
          ],
          [
            121.39067,
            25.078885
          ],
          [
            121.390594,
            25.078815
          ],
          [
            121.389569,
            25.078929
          ],
          [
            121.388228,
            25.079076
          ],
          [
            121.387489,
            25.079192
          ],
          [
            121.386697,
            25.079317
          ],
          [
            121.386852,
            25.079993
          ],
          [
            121.386697,
            25.079317
          ],
          [
            121.38603,
            25.079432
          ],
          [
            121.385405,
            25.079615
          ],
          [
            121.384234,
            25.080214
          ],
          [
            121.383089,
            25.080835
          ],
          [
            121.382963,
            25.0809
          ],
          [
            121.382902,
            25.080804
          ],
          [
            121.383029,
            25.080739
          ],
          [
            121.38319,
            25.080659
          ],
          [
            121.383852,
            25.080318
          ],
          [
            121.384102,
            25.080191
          ],
          [
            121.383768,
            25.079536
          ],
          [
            121.383272,
            25.079746
          ],
          [
            121.383186,
            25.079596
          ],
          [
            121.382672,
            25.078691
          ],
          [
            121.381966,
            25.079025
          ],
          [
            121.38229,
            25.079532
          ],
          [
            121.383029,
            25.080739
          ],
          [
            121.383089,
            25.080835
          ],
          [
            121.382963,
            25.0809
          ],
          [
            121.382902,
            25.080804
          ],
          [
            121.381621,
            25.078764
          ],
          [
            121.380496,
            25.077272
          ],
          [
            121.380642,
            25.077181
          ],
          [
            121.380768,
            25.077102
          ],
          [
            121.38108,
            25.076911
          ],
          [
            121.381188,
            25.076918
          ],
          [
            121.381759,
            25.07707
          ],
          [
            121.381859,
            25.07714
          ],
          [
            121.38181,
            25.077233
          ],
          [
            121.381859,
            25.07714
          ],
          [
            121.381759,
            25.07707
          ],
          [
            121.381188,
            25.076918
          ],
          [
            121.38108,
            25.076911
          ],
          [
            121.380768,
            25.077102
          ],
          [
            121.380642,
            25.077181
          ],
          [
            121.380496,
            25.077272
          ],
          [
            121.379935,
            25.076634
          ],
          [
            121.379305,
            25.075989
          ],
          [
            121.379174,
            25.075868
          ],
          [
            121.37864,
            25.075375
          ],
          [
            121.377939,
            25.074794
          ],
          [
            121.377762,
            25.07466
          ],
          [
            121.37767,
            25.074582
          ],
          [
            121.377572,
            25.074507
          ],
          [
            121.37753,
            25.074475
          ],
          [
            121.377265,
            25.074272
          ],
          [
            121.375787,
            25.073136
          ],
          [
            121.375711,
            25.073078
          ],
          [
            121.375396,
            25.072836
          ],
          [
            121.374195,
            25.07195
          ],
          [
            121.373891,
            25.071727
          ],
          [
            121.373989,
            25.071624
          ],
          [
            121.374308,
            25.071861
          ],
          [
            121.374417,
            25.07174
          ],
          [
            121.374308,
            25.071861
          ],
          [
            121.375485,
            25.072733
          ],
          [
            121.375633,
            25.072583
          ],
          [
            121.375883,
            25.072315
          ],
          [
            121.376036,
            25.07215
          ],
          [
            121.376241,
            25.071903
          ],
          [
            121.376371,
            25.0717
          ],
          [
            121.376455,
            25.071571
          ],
          [
            121.376616,
            25.071211
          ],
          [
            121.376731,
            25.070933
          ],
          [
            121.376787,
            25.070783
          ],
          [
            121.37683,
            25.070664
          ],
          [
            121.376905,
            25.070355
          ],
          [
            121.377032,
            25.070364
          ],
          [
            121.376905,
            25.070355
          ],
          [
            121.37683,
            25.070664
          ],
          [
            121.376787,
            25.070783
          ],
          [
            121.376731,
            25.070933
          ],
          [
            121.376616,
            25.071211
          ],
          [
            121.376609,
            25.071228
          ],
          [
            121.376455,
            25.071571
          ],
          [
            121.376371,
            25.0717
          ],
          [
            121.376241,
            25.071903
          ],
          [
            121.376036,
            25.07215
          ],
          [
            121.375883,
            25.072315
          ],
          [
            121.375764,
            25.072232
          ],
          [
            121.375479,
            25.072033
          ]
        ]
      },
      "properties": {
        "routeId": "new-taipei-244012",
        "city": "new-taipei",
        "source_file": "new-taipei/new-taipei-244012.geojson",
        "distance_km": 5.791,
        "duration_min": 11.649000000000001,
        "valhalla_config": "valhalla.json"
      }
    }
  ]
}