{
  "type": "FeatureCollection",
  "features": [
    {
      "type": "Feature",
      "geometry": {
        "type": "LineString",
        "coordinates": [
          [
            121.428121,
            25.003974
          ],
          [
            121.42812,
            25.003977
          ],
          [
            121.427963,
            25.004321
          ],
          [
            121.427794,
            25.004693
          ],
          [
            121.427769,
            25.004744
          ],
          [
            121.427741,
            25.0048
          ],
          [
            121.42758,
            25.005104
          ],
          [
            121.427641,
            25.005128
          ],
          [
            121.42758,
            25.005104
          ],
          [
            121.427505,
            25.005241
          ],
          [
            121.427483,
            25.00528
          ],
          [
            121.427357,
            25.00551
          ],
          [
            121.427329,
            25.00556
          ],
          [
            121.427393,
            25.005589
          ],
          [
            121.428436,
            25.00605
          ],
          [
            121.42786,
            25.007019
          ],
          [
            121.427814,
            25.007095
          ],
          [
            121.42786,
            25.007019
          ],
          [
            121.428101,
            25.006613
          ],
          [
            121.428436,
            25.00605
          ],
          [
            121.429038,
            25.006302
          ],
          [
            121.428926,
            25.006482
          ],
          [
            121.429038,
            25.006302
          ],
          [
            121.428436,
            25.00605
          ],
          [
            121.428124,
            25.005912
          ],
          [
            121.427393,
            25.005589
          ],
          [
            121.427329,
            25.00556
          ],
          [
            121.427299,
            25.005611
          ],
          [
            121.427119,
            25.005916
          ],
          [
            121.426928,
            25.006239
          ],
          [
            121.426763,
            25.006519
          ],
          [
            121.426711,
            25.00661
          ],
          [
            121.426538,
            25.006913
          ],
          [
            121.426596,
            25.006944
          ],
          [
            121.426818,
            25.007064
          ],
          [
            121.426596,
            25.006944
          ],
          [
            121.426538,
            25.006913
          ],
          [
            121.426329,
            25.007264
          ],
          [
            121.426274,
            25.007358
          ],
          [
            121.426343,
            25.007391
          ],
          [
            121.426274,
            25.007358
          ],
          [
            121.426205,
            25.007474
          ],
          [
            121.426148,
            25.007569
          ],
          [
            121.425911,
            25.007987
          ],
          [
            121.425704,
            25.008344
          ],
          [
            121.425448,
            25.008812
          ],
          [
            121.425302,
            25.009104
          ],
          [
            121.425272,
            25.009165
          ],
          [
            121.42526,
            25.009189
          ],
          [
            121.42522,
            25.009272
          ],
          [
            121.424954,
            25.009828
          ],
          [
            121.424933,
            25.009871
          ],
          [
            121.424901,
            25.009941
          ],
          [
            121.424856,
            25.01003
          ],
          [
            121.424718,
            25.010296
          ],
          [
            121.424652,
            25.010437
          ],
          [
            121.424547,
            25.010688
          ],
          [
            121.424533,
            25.010731
          ],
          [
            121.424518,
            25.010788
          ],
          [
            121.424483,
            25.01094
          ],
          [
            121.424474,
            25.010988
          ],
          [
            121.424427,
            25.011342
          ],
          [
            121.424412,
            25.011462
          ],
          [
            121.424407,
            25.011513
          ],
          [
            121.424375,
            25.011789
          ],
          [
            121.424265,
            25.012325
          ],
          [
            121.424134,
            25.012637
          ],
          [
            121.424065,
            25.012766
          ],
          [
            121.424046,
            25.012796
          ],
          [
            121.424018,
            25.012844
          ],
          [
            121.423917,
            25.013023
          ],
          [
            121.42388,
            25.013094
          ],
          [
            121.423866,
            25.013127
          ],
          [
            121.423759,
            25.013419
          ],
          [
            121.423653,
            25.013764
          ],
          [
            121.423601,
            25.013905
          ],
          [
            121.423497,
            25.01393
          ],
          [
            121.423429,
            25.013951
          ],
          [
            121.423207,
            25.014023
          ],
          [
            121.423134,
            25.014046
          ],
          [
            121.422975,
            25.014099
          ],
          [
            121.422652,
            25.014226
          ],
          [
            121.422304,
            25.014393
          ],
          [
            121.422354,
            25.01446
          ],
          [
            121.422304,
            25.014393
          ],
          [
            121.421819,
            25.014659
          ],
          [
            121.421767,
            25.014685
          ],
          [
            121.421523,
            25.014823
          ],
          [
            121.421446,
            25.014867
          ],
          [
            121.421398,
            25.014898
          ],
          [
            121.421056,
            25.015097
          ],
          [
            121.420997,
            25.015128
          ],
          [
            121.420426,
            25.015426
          ],
          [
            121.420144,
            25.015517
          ],
          [
            121.420097,
            25.015532
          ],
          [
            121.420099,
            25.015575
          ],
          [
            121.420123,
            25.016047
          ],
          [
            121.420142,
            25.016197
          ],
          [
            121.420185,
            25.016537
          ],
          [
            121.420272,
            25.016954
          ],
          [
            121.420456,
            25.017679
          ],
          [
            121.420973,
            25.018192
          ],
          [
            121.420817,
            25.018339
          ],
          [
            121.420786,
            25.018391
          ],
          [
            121.420652,
            25.018423
          ],
          [
            121.420786,
            25.018391
          ],
          [
            121.420817,
            25.018339
          ],
          [
            121.420973,
            25.018192
          ],
          [
            121.420538,
            25.01776
          ],
          [
            121.420456,
            25.017679
          ],
          [
            121.420272,
            25.016954
          ],
          [
            121.420185,
            25.016537
          ],
          [
            121.420123,
            25.016047
          ],
          [
            121.420099,
            25.015575
          ],
          [
            121.420097,
            25.015532
          ],
          [
            121.419916,
            25.015561
          ],
          [
            121.41985,
            25.015571
          ],
          [
            121.419607,
            25.015576
          ],
          [
            121.419452,
            25.01557
          ],
          [
            121.419342,
            25.015565
          ],
          [
            121.419003,
            25.01555
          ],
          [
            121.418237,
            25.015515
          ],
          [
            121.418015,
            25.015505
          ],
          [
            121.417873,
            25.015499
          ],
          [
            121.417902,
            25.01561
          ],
          [
            121.417963,
            25.015836
          ],
          [
            121.418042,
            25.016129
          ],
          [
            121.418316,
            25.017146
          ],
          [
            121.418331,
            25.017202
          ],
          [
            121.418411,
            25.017182
          ],
          [
            121.418678,
            25.017118
          ],
          [
            121.418411,
            25.017182
          ],
          [
            121.418331,
            25.017202
          ],
          [
            121.418351,
            25.017271
          ],
          [
            121.418453,
            25.017627
          ],
          [
            121.418463,
            25.017661
          ],
          [
            121.418572,
            25.018054
          ],
          [
            121.41859,
            25.018117
          ],
          [
            121.418524,
            25.018129
          ],
          [
            121.418186,
            25.01817
          ],
          [
            121.417391,
            25.018268
          ],
          [
            121.416958,
            25.018322
          ],
          [
            121.417057,
            25.018924
          ],
          [
            121.417139,
            25.019061
          ],
          [
            121.417057,
            25.018924
          ],
          [
            121.416958,
            25.018322
          ],
          [
            121.416014,
            25.018443
          ],
          [
            121.415507,
            25.018508
          ],
          [
            121.415461,
            25.018148
          ],
          [
            121.415403,
            25.017696
          ],
          [
            121.415336,
            25.017218
          ],
          [
            121.414339,
            25.017081
          ],
          [
            121.414412,
            25.017765
          ],
          [
            121.414505,
            25.01864
          ],
          [
            121.414033,
            25.018698
          ],
          [
            121.414009,
            25.01849
          ],
          [
            121.414033,
            25.018698
          ],
          [
            121.413792,
            25.018733
          ],
          [
            121.413533,
            25.018569
          ],
          [
            121.413501,
            25.018414
          ],
          [
            121.413431,
            25.017847
          ],
          [
            121.413394,
            25.017442
          ],
          [
            121.413385,
            25.017341
          ],
          [
            121.413373,
            25.017212
          ],
          [
            121.413361,
            25.017086
          ],
          [
            121.413357,
            25.016937
          ]
        ]
      },
      "properties": {
        "routeId": "new-taipei-238007",
        "city": "new-taipei",
        "source_file": "new-taipei/new-taipei-238007.geojson",
        "distance_km": 4.968,
        "duration_min": 12.73475,
        "valhalla_config": "valhalla.json"
      }
    }
  ]
}