{
  "type": "FeatureCollection",
  "features": [
    {
      "type": "Feature",
      "geometry": {
        "type": "LineString",
        "coordinates": [
          [
            121.488123,
            25.08091
          ],
          [
            121.485878,
            25.080211
          ],
          [
            121.485358,
            25.080086
          ],
          [
            121.485381,
            25.079974
          ],
          [
            121.48439,
            25.079693
          ],
          [
            121.484365,
            25.079755
          ],
          [
            121.484343,
            25.07981
          ],
          [
            121.482279,
            25.079226
          ],
          [
            121.482222,
            25.07921
          ],
          [
            121.481933,
            25.079373
          ],
          [
            121.481982,
            25.079392
          ],
          [
            121.482136,
            25.079433
          ],
          [
            121.482217,
            25.079456
          ],
          [
            121.483999,
            25.079965
          ],
          [
            121.484731,
            25.08023
          ],
          [
            121.485786,
            25.08049
          ],
          [
            121.485692,
            25.080769
          ],
          [
            121.487742,
            25.081418
          ],
          [
            121.485692,
            25.080769
          ],
          [
            121.485534,
            25.080727
          ],
          [
            121.485098,
            25.08061
          ],
          [
            121.484273,
            25.080392
          ],
          [
            121.483993,
            25.080304
          ],
          [
            121.483922,
            25.080357
          ],
          [
            121.483879,
            25.080355
          ],
          [
            121.483824,
            25.080353
          ],
          [
            121.481543,
            25.079651
          ],
          [
            121.481492,
            25.079634
          ],
          [
            121.481116,
            25.07986
          ],
          [
            121.481174,
            25.079885
          ],
          [
            121.481217,
            25.079899
          ],
          [
            121.484146,
            25.080775
          ],
          [
            121.48408,
            25.081006
          ],
          [
            121.484058,
            25.081081
          ],
          [
            121.484837,
            25.081329
          ],
          [
            121.485036,
            25.080851
          ],
          [
            121.485334,
            25.080932
          ],
          [
            121.485614,
            25.081008
          ],
          [
            121.487579,
            25.081639
          ],
          [
            121.487831,
            25.08172
          ],
          [
            121.487658,
            25.081963
          ],
          [
            121.487416,
            25.081884
          ],
          [
            121.487658,
            25.081963
          ],
          [
            121.487607,
            25.082052
          ],
          [
            121.48755,
            25.082179
          ],
          [
            121.487394,
            25.08217
          ],
          [
            121.486997,
            25.082082
          ],
          [
            121.485524,
            25.081576
          ],
          [
            121.485442,
            25.081548
          ],
          [
            121.484884,
            25.081344
          ],
          [
            121.484837,
            25.081329
          ],
          [
            121.484058,
            25.081081
          ],
          [
            121.483445,
            25.080903
          ],
          [
            121.482279,
            25.080544
          ],
          [
            121.4819,
            25.080405
          ],
          [
            121.481547,
            25.080275
          ],
          [
            121.480977,
            25.080002
          ],
          [
            121.480927,
            25.079978
          ],
          [
            121.480713,
            25.080097
          ],
          [
            121.480672,
            25.080068
          ],
          [
            121.480616,
            25.080042
          ],
          [
            121.480577,
            25.079994
          ],
          [
            121.480554,
            25.079966
          ],
          [
            121.480327,
            25.079742
          ],
          [
            121.480316,
            25.07973
          ],
          [
            121.480201,
            25.079609
          ],
          [
            121.480058,
            25.079377
          ],
          [
            121.479904,
            25.079156
          ],
          [
            121.479822,
            25.079056
          ],
          [
            121.480057,
            25.079125
          ],
          [
            121.479822,
            25.079056
          ],
          [
            121.479634,
            25.078838
          ],
          [
            121.479504,
            25.078712
          ],
          [
            121.480521,
            25.078977
          ],
          [
            121.481339,
            25.079227
          ],
          [
            121.481469,
            25.079171
          ],
          [
            121.481497,
            25.079153
          ],
          [
            121.481624,
            25.079318
          ],
          [
            121.481497,
            25.079153
          ],
          [
            121.481469,
            25.079171
          ],
          [
            121.48136,
            25.079218
          ],
          [
            121.481339,
            25.079227
          ],
          [
            121.480521,
            25.078977
          ],
          [
            121.479504,
            25.078712
          ],
          [
            121.479417,
            25.078618
          ],
          [
            121.479219,
            25.078383
          ],
          [
            121.479274,
            25.07836
          ],
          [
            121.479284,
            25.078362
          ],
          [
            121.48028,
            25.078587
          ],
          [
            121.481304,
            25.078846
          ],
          [
            121.481583,
            25.078947
          ],
          [
            121.482136,
            25.079159
          ],
          [
            121.482302,
            25.079066
          ],
          [
            121.482557,
            25.078923
          ],
          [
            121.483499,
            25.078414
          ],
          [
            121.483366,
            25.078348
          ],
          [
            121.483249,
            25.078313
          ],
          [
            121.482967,
            25.078302
          ],
          [
            121.482735,
            25.078306
          ],
          [
            121.48217,
            25.078237
          ],
          [
            121.481824,
            25.078153
          ],
          [
            121.481452,
            25.078065
          ],
          [
            121.480696,
            25.077837
          ],
          [
            121.480582,
            25.077814
          ],
          [
            121.480229,
            25.077745
          ],
          [
            121.479934,
            25.0777
          ],
          [
            121.479799,
            25.077638
          ],
          [
            121.479687,
            25.078105
          ],
          [
            121.479425,
            25.078078
          ],
          [
            121.478875,
            25.078017
          ],
          [
            121.478835,
            25.078013
          ],
          [
            121.478056,
            25.077569
          ],
          [
            121.478835,
            25.078013
          ],
          [
            121.478875,
            25.078017
          ],
          [
            121.479425,
            25.078078
          ],
          [
            121.479687,
            25.078105
          ],
          [
            121.4801,
            25.078187
          ],
          [
            121.481083,
            25.078466
          ],
          [
            121.481136,
            25.078482
          ],
          [
            121.481391,
            25.078558
          ],
          [
            121.481715,
            25.078627
          ],
          [
            121.482042,
            25.078727
          ],
          [
            121.482489,
            25.078838
          ],
          [
            121.482557,
            25.078923
          ],
          [
            121.482605,
            25.078992
          ],
          [
            121.482222,
            25.07921
          ],
          [
            121.481933,
            25.079373
          ],
          [
            121.481748,
            25.07948
          ],
          [
            121.481492,
            25.079634
          ],
          [
            121.481116,
            25.07986
          ],
          [
            121.481047,
            25.079903
          ],
          [
            121.480927,
            25.079978
          ],
          [
            121.480977,
            25.080002
          ],
          [
            121.481547,
            25.080275
          ],
          [
            121.4819,
            25.080405
          ],
          [
            121.482279,
            25.080544
          ],
          [
            121.483445,
            25.080903
          ],
          [
            121.484058,
            25.081081
          ],
          [
            121.484837,
            25.081329
          ],
          [
            121.484058,
            25.081081
          ],
          [
            121.483445,
            25.080903
          ],
          [
            121.482279,
            25.080544
          ],
          [
            121.4819,
            25.080405
          ],
          [
            121.481547,
            25.080275
          ],
          [
            121.480977,
            25.080002
          ],
          [
            121.480927,
            25.079978
          ],
          [
            121.480832,
            25.07992
          ],
          [
            121.48098,
            25.079837
          ],
          [
            121.48111,
            25.079763
          ],
          [
            121.481319,
            25.079645
          ],
          [
            121.481695,
            25.07941
          ],
          [
            121.481968,
            25.079253
          ],
          [
            121.482136,
            25.079159
          ],
          [
            121.482065,
            25.079132
          ],
          [
            121.482136,
            25.079159
          ],
          [
            121.482557,
            25.078923
          ],
          [
            121.483499,
            25.078414
          ],
          [
            121.483992,
            25.078137
          ],
          [
            121.483768,
            25.07785
          ],
          [
            121.483644,
            25.077699
          ],
          [
            121.483522,
            25.07753
          ],
          [
            121.483001,
            25.076686
          ],
          [
            121.482917,
            25.076547
          ],
          [
            121.482521,
            25.075853
          ],
          [
            121.482436,
            25.07571
          ],
          [
            121.482302,
            25.075401
          ],
          [
            121.48224,
            25.075261
          ],
          [
            121.482081,
            25.0748
          ],
          [
            121.482056,
            25.074704
          ],
          [
            121.481998,
            25.074321
          ],
          [
            121.481958,
            25.074136
          ],
          [
            121.481893,
            25.073805
          ],
          [
            121.481871,
            25.073603
          ],
          [
            121.481864,
            25.072741
          ],
          [
            121.481881,
            25.072523
          ],
          [
            121.481921,
            25.072264
          ],
          [
            121.48199,
            25.071962
          ],
          [
            121.482036,
            25.071777
          ],
          [
            121.482149,
            25.071542
          ],
          [
            121.482133,
            25.071484
          ],
          [
            121.482275,
            25.071203
          ],
          [
            121.482429,
            25.070953
          ],
          [
            121.482757,
            25.070502
          ],
          [
            121.482942,
            25.070304
          ],
          [
            121.483179,
            25.070097
          ],
          [
            121.48345,
            25.069888
          ],
          [
            121.483662,
            25.069691
          ],
          [
            121.483835,
            25.069656
          ],
          [
            121.483357,
            25.069239
          ],
          [
            121.482922,
            25.068771
          ]
        ]
      },
      "properties": {
        "routeId": "new-taipei-241009",
        "city": "new-taipei",
        "source_file": "new-taipei/new-taipei-241009.geojson",
        "distance_km": 8.697,
        "duration_min": 22.0953,
        "valhalla_config": "valhalla.json"
      }
    }
  ]
}