{
  "type": "FeatureCollection",
  "features": [
    {
      "type": "Feature",
      "geometry": {
        "type": "LineString",
        "coordinates": [
          [
            121.943639,
            25.016539
          ],
          [
            121.943908,
            25.016571
          ],
          [
            121.944117,
            25.016596
          ],
          [
            121.94429,
            25.016616
          ],
          [
            121.944953,
            25.016727
          ],
          [
            121.945605,
            25.016842
          ],
          [
            121.945872,
            25.016877
          ],
          [
            121.945972,
            25.016886
          ],
          [
            121.946522,
            25.016953
          ],
          [
            121.946794,
            25.01699
          ],
          [
            121.946926,
            25.01703
          ],
          [
            121.947028,
            25.017067
          ],
          [
            121.947186,
            25.017124
          ],
          [
            121.947944,
            25.017492
          ],
          [
            121.94837,
            25.017677
          ],
          [
            121.94852,
            25.017749
          ],
          [
            121.94856,
            25.017768
          ],
          [
            121.948766,
            25.017857
          ],
          [
            121.948776,
            25.01786
          ],
          [
            121.948898,
            25.017905
          ],
          [
            121.94922,
            25.018004
          ],
          [
            121.949325,
            25.018034
          ],
          [
            121.949467,
            25.018065
          ],
          [
            121.949774,
            25.01812
          ],
          [
            121.949971,
            25.01816
          ],
          [
            121.950147,
            25.018209
          ],
          [
            121.950228,
            25.018239
          ],
          [
            121.950375,
            25.018332
          ],
          [
            121.950657,
            25.01862
          ],
          [
            121.951085,
            25.019337
          ],
          [
            121.951464,
            25.019972
          ],
          [
            121.951613,
            25.020153
          ],
          [
            121.951809,
            25.020316
          ],
          [
            121.95199,
            25.02043
          ],
          [
            121.952155,
            25.020511
          ],
          [
            121.952277,
            25.02056
          ],
          [
            121.952349,
            25.020592
          ],
          [
            121.952277,
            25.02056
          ],
          [
            121.952155,
            25.020511
          ],
          [
            121.95199,
            25.02043
          ],
          [
            121.951809,
            25.020316
          ],
          [
            121.951613,
            25.020153
          ],
          [
            121.951464,
            25.019972
          ],
          [
            121.951085,
            25.019337
          ],
          [
            121.950657,
            25.01862
          ],
          [
            121.950375,
            25.018332
          ],
          [
            121.950228,
            25.018239
          ],
          [
            121.950147,
            25.018209
          ],
          [
            121.949971,
            25.01816
          ],
          [
            121.949774,
            25.01812
          ],
          [
            121.949467,
            25.018065
          ],
          [
            121.949325,
            25.018034
          ],
          [
            121.94922,
            25.018004
          ],
          [
            121.948898,
            25.017905
          ],
          [
            121.948776,
            25.01786
          ],
          [
            121.948766,
            25.017857
          ],
          [
            121.94856,
            25.017768
          ],
          [
            121.94837,
            25.017677
          ],
          [
            121.947944,
            25.017492
          ],
          [
            121.947186,
            25.017124
          ],
          [
            121.947028,
            25.017067
          ],
          [
            121.946926,
            25.01703
          ],
          [
            121.946794,
            25.01699
          ],
          [
            121.946522,
            25.016953
          ],
          [
            121.945972,
            25.016886
          ],
          [
            121.945872,
            25.016877
          ],
          [
            121.945605,
            25.016842
          ],
          [
            121.944953,
            25.016727
          ],
          [
            121.94437,
            25.016629
          ],
          [
            121.94429,
            25.016616
          ],
          [
            121.944117,
            25.016596
          ],
          [
            121.943908,
            25.016571
          ],
          [
            121.943527,
            25.016525
          ],
          [
            121.943464,
            25.016518
          ],
          [
            121.943245,
            25.016506
          ],
          [
            121.943043,
            25.016507
          ],
          [
            121.942986,
            25.016512
          ],
          [
            121.942798,
            25.016554
          ],
          [
            121.942611,
            25.016592
          ],
          [
            121.94215,
            25.016751
          ],
          [
            121.941809,
            25.016921
          ],
          [
            121.941601,
            25.017042
          ],
          [
            121.941202,
            25.017319
          ],
          [
            121.940582,
            25.017792
          ],
          [
            121.940326,
            25.01796
          ],
          [
            121.940255,
            25.018007
          ],
          [
            121.939888,
            25.018171
          ],
          [
            121.939649,
            25.018281
          ],
          [
            121.939457,
            25.018348
          ],
          [
            121.939114,
            25.018392
          ],
          [
            121.938644,
            25.018403
          ],
          [
            121.938461,
            25.018405
          ],
          [
            121.937921,
            25.018357
          ],
          [
            121.937122,
            25.018281
          ],
          [
            121.93642,
            25.018228
          ],
          [
            121.935797,
            25.01823
          ],
          [
            121.935143,
            25.018313
          ],
          [
            121.934509,
            25.018428
          ],
          [
            121.934278,
            25.018493
          ],
          [
            121.933952,
            25.018629
          ],
          [
            121.933204,
            25.019001
          ],
          [
            121.933171,
            25.019018
          ],
          [
            121.933121,
            25.019042
          ],
          [
            121.932894,
            25.019152
          ],
          [
            121.932312,
            25.01942
          ],
          [
            121.931928,
            25.019628
          ],
          [
            121.931001,
            25.020289
          ],
          [
            121.93056,
            25.020599
          ],
          [
            121.930335,
            25.020817
          ],
          [
            121.929955,
            25.02109
          ],
          [
            121.92906,
            25.021738
          ],
          [
            121.928835,
            25.021905
          ],
          [
            121.928739,
            25.022031
          ],
          [
            121.928661,
            25.022151
          ],
          [
            121.928593,
            25.022308
          ],
          [
            121.928485,
            25.02281
          ],
          [
            121.928443,
            25.022959
          ],
          [
            121.928333,
            25.023153
          ],
          [
            121.928044,
            25.023483
          ],
          [
            121.927757,
            25.023699
          ],
          [
            121.927297,
            25.023941
          ],
          [
            121.926913,
            25.024131
          ],
          [
            121.926607,
            25.024387
          ],
          [
            121.926489,
            25.024537
          ],
          [
            121.926423,
            25.024661
          ],
          [
            121.926384,
            25.024782
          ],
          [
            121.926337,
            25.024968
          ],
          [
            121.926324,
            25.025072
          ],
          [
            121.926327,
            25.025129
          ],
          [
            121.926329,
            25.025171
          ],
          [
            121.926577,
            25.026147
          ],
          [
            121.926681,
            25.026526
          ],
          [
            121.926842,
            25.027109
          ],
          [
            121.927026,
            25.027422
          ],
          [
            121.927245,
            25.02774
          ],
          [
            121.927472,
            25.028056
          ],
          [
            121.927563,
            25.028181
          ],
          [
            121.928375,
            25.029399
          ],
          [
            121.928447,
            25.02951
          ],
          [
            121.928546,
            25.029665
          ],
          [
            121.928658,
            25.029884
          ],
          [
            121.928714,
            25.030012
          ],
          [
            121.928736,
            25.030081
          ],
          [
            121.929188,
            25.031505
          ],
          [
            121.929494,
            25.032511
          ],
          [
            121.929528,
            25.032775
          ],
          [
            121.929538,
            25.032855
          ],
          [
            121.929573,
            25.033115
          ],
          [
            121.929571,
            25.033437
          ],
          [
            121.929553,
            25.033635
          ],
          [
            121.929525,
            25.0339
          ],
          [
            121.929475,
            25.034095
          ],
          [
            121.929415,
            25.034274
          ],
          [
            121.929277,
            25.034624
          ],
          [
            121.929137,
            25.034879
          ],
          [
            121.928982,
            25.035166
          ],
          [
            121.928811,
            25.035494
          ],
          [
            121.928715,
            25.035678
          ],
          [
            121.928436,
            25.036191
          ],
          [
            121.928278,
            25.036506
          ],
          [
            121.928078,
            25.036883
          ],
          [
            121.927583,
            25.037823
          ],
          [
            121.927427,
            25.03818
          ],
          [
            121.926234,
            25.041238
          ],
          [
            121.926159,
            25.041384
          ],
          [
            121.925985,
            25.041873
          ],
          [
            121.925838,
            25.042513
          ],
          [
            121.92578,
            25.042946
          ],
          [
            121.925647,
            25.044987
          ],
          [
            121.925583,
            25.045352
          ],
          [
            121.925441,
            25.045792
          ],
          [
            121.925177,
            25.046394
          ],
          [
            121.92505,
            25.046614
          ],
          [
            121.924894,
            25.046856
          ],
          [
            121.924611,
            25.047232
          ],
          [
            121.924411,
            25.047453
          ],
          [
            121.924093,
            25.047764
          ],
          [
            121.924001,
            25.047849
          ],
          [
            121.923666,
            25.048098
          ],
          [
            121.923489,
            25.048249
          ],
          [
            121.92342,
            25.048307
          ],
          [
            121.923153,
            25.048595
          ],
          [
            121.923015,
            25.048802
          ],
          [
            121.922924,
            25.048986
          ],
          [
            121.92285,
            25.049157
          ],
          [
            121.922793,
            25.049279
          ],
          [
            121.922771,
            25.049481
          ],
          [
            121.922752,
            25.049832
          ],
          [
            121.922772,
            25.050032
          ],
          [
            121.92291,
            25.050791
          ],
          [
            121.922921,
            25.05085
          ],
          [
            121.923029,
            25.051317
          ],
          [
            121.923115,
            25.051596
          ],
          [
            121.92333,
            25.052197
          ],
          [
            121.923373,
            25.052304
          ],
          [
            121.923803,
            25.053391
          ],
          [
            121.924059,
            25.054085
          ],
          [
            121.92421,
            25.05445
          ],
          [
            121.924379,
            25.0549
          ],
          [
            121.924454,
            25.055045
          ],
          [
            121.924686,
            25.055495
          ],
          [
            121.924725,
            25.05559
          ],
          [
            121.924688,
            25.055737
          ],
          [
            121.924467,
            25.056366
          ],
          [
            121.924445,
            25.056512
          ],
          [
            121.924488,
            25.056624
          ],
          [
            121.925057,
            25.057745
          ],
          [
            121.925149,
            25.057985
          ],
          [
            121.925169,
            25.05814
          ],
          [
            121.925175,
            25.058219
          ],
          [
            121.925171,
            25.058618
          ],
          [
            121.925275,
            25.058825
          ],
          [
            121.92541,
            25.059052
          ],
          [
            121.925528,
            25.059203
          ],
          [
            121.925682,
            25.059344
          ],
          [
            121.925786,
            25.059422
          ],
          [
            121.925975,
            25.059528
          ],
          [
            121.92611,
            25.05958
          ],
          [
            121.926398,
            25.059643
          ],
          [
            121.927061,
            25.059717
          ],
          [
            121.927237,
            25.059766
          ],
          [
            121.927347,
            25.059831
          ],
          [
            121.927417,
            25.059881
          ],
          [
            121.928854,
            25.061151
          ],
          [
            121.929379,
            25.061656
          ],
          [
            121.929455,
            25.061725
          ],
          [
            121.929603,
            25.061886
          ],
          [
            121.92967,
            25.06203
          ],
          [
            121.929726,
            25.062219
          ],
          [
            121.929713,
            25.0624
          ],
          [
            121.929665,
            25.062514
          ],
          [
            121.9296,
            25.062642
          ],
          [
            121.929271,
            25.062866
          ],
          [
            121.928587,
            25.063269
          ],
          [
            121.928355,
            25.063465
          ],
          [
            121.928308,
            25.063505
          ],
          [
            121.927192,
            25.0646
          ],
          [
            121.926794,
            25.064989
          ],
          [
            121.926484,
            25.065265
          ],
          [
            121.926012,
            25.065694
          ],
          [
            121.925862,
            25.065801
          ],
          [
            121.925712,
            25.065866
          ],
          [
            121.924832,
            25.066144
          ],
          [
            121.924639,
            25.06623
          ],
          [
            121.924381,
            25.066445
          ],
          [
            121.924274,
            25.066616
          ],
          [
            121.924267,
            25.066653
          ],
          [
            121.924234,
            25.066837
          ],
          [
            121.924165,
            25.06738
          ],
          [
            121.924105,
            25.067634
          ],
          [
            121.924038,
            25.067754
          ],
          [
            121.923957,
            25.067863
          ],
          [
            121.923796,
            25.06804
          ],
          [
            121.923548,
            25.068375
          ],
          [
            121.923367,
            25.068828
          ],
          [
            121.923283,
            25.069177
          ],
          [
            121.923224,
            25.069463
          ],
          [
            121.923158,
            25.069599
          ],
          [
            121.92267,
            25.070341
          ],
          [
            121.922502,
            25.070727
          ],
          [
            121.922429,
            25.070865
          ],
          [
            121.922364,
            25.070972
          ],
          [
            121.922108,
            25.071202
          ],
          [
            121.921205,
            25.071852
          ],
          [
            121.921098,
            25.071917
          ],
          [
            121.920709,
            25.072045
          ],
          [
            121.92039,
            25.072153
          ],
          [
            121.919703,
            25.072367
          ],
          [
            121.919541,
            25.072448
          ],
          [
            121.919489,
            25.072475
          ],
          [
            121.919382,
            25.07256
          ],
          [
            121.919274,
            25.072646
          ],
          [
            121.918716,
            25.073397
          ],
          [
            121.918668,
            25.073462
          ],
          [
            121.918652,
            25.073483
          ],
          [
            121.918588,
            25.073569
          ],
          [
            121.918373,
            25.073848
          ],
          [
            121.918287,
            25.073959
          ],
          [
            121.918162,
            25.074073
          ],
          [
            121.918031,
            25.074157
          ],
          [
            121.917878,
            25.074234
          ],
          [
            121.917732,
            25.074285
          ],
          [
            121.917601,
            25.07432
          ],
          [
            121.916773,
            25.074335
          ],
          [
            121.916695,
            25.074337
          ],
          [
            121.916548,
            25.074341
          ],
          [
            121.91637,
            25.074351
          ],
          [
            121.916266,
            25.074374
          ],
          [
            121.916188,
            25.074402
          ],
          [
            121.916024,
            25.074487
          ],
          [
            121.916018,
            25.074492
          ],
          [
            121.915946,
            25.07454
          ],
          [
            121.915669,
            25.074727
          ],
          [
            121.915476,
            25.074856
          ],
          [
            121.915347,
            25.074965
          ],
          [
            121.91506,
            25.075167
          ],
          [
            121.914983,
            25.075221
          ],
          [
            121.914885,
            25.075336
          ],
          [
            121.914811,
            25.075436
          ],
          [
            121.91475,
            25.075623
          ],
          [
            121.914733,
            25.0758
          ],
          [
            121.914744,
            25.076118
          ],
          [
            121.914899,
            25.07699
          ],
          [
            121.914918,
            25.077259
          ],
          [
            121.914908,
            25.077609
          ],
          [
            121.914757,
            25.078434
          ],
          [
            121.914674,
            25.078825
          ],
          [
            121.91455,
            25.079246
          ],
          [
            121.914164,
            25.081053
          ],
          [
            121.914121,
            25.081355
          ],
          [
            121.914088,
            25.081736
          ],
          [
            121.914091,
            25.081934
          ],
          [
            121.914079,
            25.082438
          ],
          [
            121.914039,
            25.08267
          ],
          [
            121.913953,
            25.082955
          ],
          [
            121.913706,
            25.083746
          ],
          [
            121.913634,
            25.083908
          ],
          [
            121.913442,
            25.084182
          ],
          [
            121.913173,
            25.084405
          ],
          [
            121.912517,
            25.085037
          ],
          [
            121.912423,
            25.08514
          ],
          [
            121.912308,
            25.085304
          ],
          [
            121.912266,
            25.085524
          ],
          [
            121.912248,
            25.085751
          ],
          [
            121.912278,
            25.086114
          ],
          [
            121.912349,
            25.086841
          ],
          [
            121.912317,
            25.087182
          ],
          [
            121.9122,
            25.088379
          ],
          [
            121.912185,
            25.088531
          ],
          [
            121.912169,
            25.088691
          ],
          [
            121.912197,
            25.089051
          ],
          [
            121.9123,
            25.089319
          ],
          [
            121.912501,
            25.089783
          ],
          [
            121.912732,
            25.090213
          ],
          [
            121.912837,
            25.090348
          ],
          [
            121.913183,
            25.090728
          ],
          [
            121.913328,
            25.090853
          ],
          [
            121.913508,
            25.090967
          ],
          [
            121.913954,
            25.091218
          ],
          [
            121.91436,
            25.0914
          ],
          [
            121.914481,
            25.091485
          ],
          [
            121.914537,
            25.091524
          ],
          [
            121.914634,
            25.091698
          ],
          [
            121.914743,
            25.091996
          ],
          [
            121.914819,
            25.092308
          ],
          [
            121.914843,
            25.092784
          ],
          [
            121.914904,
            25.092991
          ],
          [
            121.914914,
            25.093024
          ],
          [
            121.914955,
            25.093167
          ],
          [
            121.915141,
            25.093511
          ],
          [
            121.915225,
            25.093637
          ],
          [
            121.915738,
            25.094399
          ],
          [
            121.916064,
            25.094842
          ],
          [
            121.916385,
            25.095203
          ],
          [
            121.916656,
            25.09552
          ],
          [
            121.916721,
            25.095649
          ],
          [
            121.916742,
            25.095713
          ],
          [
            121.916721,
            25.095863
          ],
          [
            121.916656,
            25.096207
          ],
          [
            121.916357,
            25.097194
          ],
          [
            121.916348,
            25.097324
          ],
          [
            121.916361,
            25.097577
          ],
          [
            121.91646,
            25.097867
          ],
          [
            121.916978,
            25.098739
          ],
          [
            121.917021,
            25.098953
          ],
          [
            121.91708,
            25.099213
          ],
          [
            121.917083,
            25.099514
          ],
          [
            121.917123,
            25.099853
          ],
          [
            121.917203,
            25.100063
          ],
          [
            121.917441,
            25.100617
          ],
          [
            121.917579,
            25.101201
          ],
          [
            121.917656,
            25.101413
          ],
          [
            121.917899,
            25.101946
          ],
          [
            121.918459,
            25.103309
          ],
          [
            121.918657,
            25.103576
          ],
          [
            121.918886,
            25.103766
          ],
          [
            121.919514,
            25.104156
          ],
          [
            121.919671,
            25.104318
          ],
          [
            121.919724,
            25.104399
          ],
          [
            121.919768,
            25.104489
          ],
          [
            121.919854,
            25.104725
          ],
          [
            121.919892,
            25.104979
          ],
          [
            121.919876,
            25.105493
          ],
          [
            121.919594,
            25.107389
          ],
          [
            121.919492,
            25.108468
          ],
          [
            121.919501,
            25.108714
          ],
          [
            121.91961,
            25.109032
          ],
          [
            121.920101,
            25.110161
          ],
          [
            121.920129,
            25.110328
          ],
          [
            121.920114,
            25.110438
          ],
          [
            121.92005,
            25.110559
          ],
          [
            121.91997,
            25.110633
          ],
          [
            121.919837,
            25.110705
          ],
          [
            121.919727,
            25.11074
          ],
          [
            121.919553,
            25.110737
          ],
          [
            121.919413,
            25.110686
          ],
          [
            121.919239,
            25.110559
          ],
          [
            121.919197,
            25.110475
          ],
          [
            121.919159,
            25.110409
          ],
          [
            121.919129,
            25.11027
          ],
          [
            121.919128,
            25.110041
          ],
          [
            121.919112,
            25.109856
          ],
          [
            121.919047,
            25.109683
          ],
          [
            121.918975,
            25.109595
          ],
          [
            121.918912,
            25.109551
          ],
          [
            121.918807,
            25.109499
          ],
          [
            121.918632,
            25.10947
          ],
          [
            121.918545,
            25.109489
          ],
          [
            121.917987,
            25.109596
          ],
          [
            121.917915,
            25.109586
          ],
          [
            121.917797,
            25.109557
          ],
          [
            121.917729,
            25.109532
          ],
          [
            121.917626,
            25.109448
          ],
          [
            121.917282,
            25.109066
          ],
          [
            121.917173,
            25.108975
          ],
          [
            121.917058,
            25.108883
          ],
          [
            121.916642,
            25.108629
          ],
          [
            121.916528,
            25.108609
          ],
          [
            121.91642,
            25.108588
          ],
          [
            121.916313,
            25.108609
          ],
          [
            121.916206,
            25.108631
          ],
          [
            121.916092,
            25.108707
          ],
          [
            121.916027,
            25.108762
          ],
          [
            121.915952,
            25.108875
          ],
          [
            121.915922,
            25.108926
          ],
          [
            121.915892,
            25.109007
          ],
          [
            121.915915,
            25.109117
          ],
          [
            121.915966,
            25.109262
          ],
          [
            121.91609,
            25.10944
          ],
          [
            121.91634,
            25.109643
          ],
          [
            121.916522,
            25.109844
          ],
          [
            121.916587,
            25.109964
          ],
          [
            121.916614,
            25.110047
          ],
          [
            121.916635,
            25.110133
          ],
          [
            121.916669,
            25.110306
          ],
          [
            121.916673,
            25.110499
          ],
          [
            121.916652,
            25.110632
          ],
          [
            121.916614,
            25.110733
          ],
          [
            121.916528,
            25.110841
          ],
          [
            121.916423,
            25.110913
          ],
          [
            121.916313,
            25.110948
          ],
          [
            121.916184,
            25.110969
          ],
          [
            121.915936,
            25.110974
          ],
          [
            121.915433,
            25.110969
          ],
          [
            121.915197,
            25.111011
          ],
          [
            121.91446,
            25.111353
          ],
          [
            121.913399,
            25.111771
          ],
          [
            121.912695,
            25.112015
          ],
          [
            121.912527,
            25.112091
          ],
          [
            121.912365,
            25.112229
          ],
          [
            121.912189,
            25.112512
          ],
          [
            121.912032,
            25.112865
          ],
          [
            121.911907,
            25.113177
          ],
          [
            121.911868,
            25.113288
          ],
          [
            121.911851,
            25.113377
          ],
          [
            121.911876,
            25.113522
          ],
          [
            121.911968,
            25.113671
          ],
          [
            121.912103,
            25.113786
          ],
          [
            121.912221,
            25.113707
          ],
          [
            121.912316,
            25.113661
          ],
          [
            121.912418,
            25.113613
          ],
          [
            121.91249,
            25.113544
          ],
          [
            121.912603,
            25.113339
          ],
          [
            121.912662,
            25.113232
          ],
          [
            121.912856,
            25.11299
          ],
          [
            121.913135,
            25.112709
          ],
          [
            121.913384,
            25.112545
          ],
          [
            121.913583,
            25.112407
          ],
          [
            121.914169,
            25.11216
          ],
          [
            121.914792,
            25.111845
          ],
          [
            121.915029,
            25.111757
          ],
          [
            121.915223,
            25.111716
          ],
          [
            121.915482,
            25.111692
          ],
          [
            121.915542,
            25.111672
          ],
          [
            121.915671,
            25.111645
          ],
          [
            121.91582,
            25.111613
          ],
          [
            121.91597,
            25.111613
          ],
          [
            121.916143,
            25.111646
          ],
          [
            121.916414,
            25.111714
          ],
          [
            121.916624,
            25.111714
          ],
          [
            121.916994,
            25.11167
          ],
          [
            121.91777,
            25.111715
          ],
          [
            121.917892,
            25.11172
          ],
          [
            121.918174,
            25.11172
          ],
          [
            121.918326,
            25.111782
          ],
          [
            121.918674,
            25.112107
          ],
          [
            121.919131,
            25.112422
          ],
          [
            121.919262,
            25.112501
          ],
          [
            121.919131,
            25.112422
          ],
          [
            121.918674,
            25.112107
          ],
          [
            121.918326,
            25.111782
          ],
          [
            121.918174,
            25.11172
          ],
          [
            121.917892,
            25.11172
          ],
          [
            121.91777,
            25.111715
          ],
          [
            121.916994,
            25.11167
          ],
          [
            121.916624,
            25.111714
          ],
          [
            121.916414,
            25.111714
          ],
          [
            121.916143,
            25.111646
          ],
          [
            121.91597,
            25.111613
          ],
          [
            121.91582,
            25.111613
          ],
          [
            121.915671,
            25.111645
          ],
          [
            121.915542,
            25.111672
          ],
          [
            121.915482,
            25.111692
          ],
          [
            121.915223,
            25.111716
          ],
          [
            121.915029,
            25.111757
          ],
          [
            121.914792,
            25.111845
          ],
          [
            121.914169,
            25.11216
          ],
          [
            121.913583,
            25.112407
          ],
          [
            121.913384,
            25.112545
          ],
          [
            121.913135,
            25.112709
          ],
          [
            121.912856,
            25.11299
          ],
          [
            121.912662,
            25.113232
          ],
          [
            121.91249,
            25.113544
          ],
          [
            121.912418,
            25.113613
          ],
          [
            121.912316,
            25.113661
          ],
          [
            121.912221,
            25.113707
          ],
          [
            121.912103,
            25.113786
          ],
          [
            121.912939,
            25.114664
          ],
          [
            121.913624,
            25.115461
          ],
          [
            121.913859,
            25.115737
          ],
          [
            121.914103,
            25.116012
          ],
          [
            121.914296,
            25.116199
          ],
          [
            121.914725,
            25.116592
          ],
          [
            121.915051,
            25.116877
          ],
          [
            121.915118,
            25.116935
          ],
          [
            121.915161,
            25.116973
          ],
          [
            121.915348,
            25.117085
          ],
          [
            121.915716,
            25.117274
          ],
          [
            121.915814,
            25.117325
          ],
          [
            121.915959,
            25.117401
          ],
          [
            121.916117,
            25.117484
          ],
          [
            121.916206,
            25.117531
          ],
          [
            121.91645,
            25.117659
          ],
          [
            121.916678,
            25.117814
          ],
          [
            121.917136,
            25.118224
          ],
          [
            121.916678,
            25.117814
          ],
          [
            121.91645,
            25.117659
          ],
          [
            121.916206,
            25.117531
          ],
          [
            121.916117,
            25.117484
          ],
          [
            121.915959,
            25.117401
          ],
          [
            121.915814,
            25.117325
          ],
          [
            121.915716,
            25.117274
          ],
          [
            121.915348,
            25.117085
          ],
          [
            121.915161,
            25.116973
          ],
          [
            121.915118,
            25.116935
          ],
          [
            121.915051,
            25.116877
          ],
          [
            121.914725,
            25.116592
          ],
          [
            121.914296,
            25.116199
          ],
          [
            121.914103,
            25.116012
          ],
          [
            121.913859,
            25.115737
          ],
          [
            121.913624,
            25.115461
          ],
          [
            121.912939,
            25.114664
          ],
          [
            121.912265,
            25.113956
          ],
          [
            121.912103,
            25.113786
          ],
          [
            121.911968,
            25.113671
          ],
          [
            121.911876,
            25.113522
          ],
          [
            121.911851,
            25.113377
          ],
          [
            121.911868,
            25.113288
          ],
          [
            121.911907,
            25.113177
          ],
          [
            121.912032,
            25.112865
          ],
          [
            121.912189,
            25.112512
          ],
          [
            121.912365,
            25.112229
          ],
          [
            121.912527,
            25.112091
          ],
          [
            121.912695,
            25.112015
          ],
          [
            121.913399,
            25.111771
          ],
          [
            121.91446,
            25.111353
          ],
          [
            121.915197,
            25.111011
          ],
          [
            121.915433,
            25.110969
          ],
          [
            121.915936,
            25.110974
          ],
          [
            121.916184,
            25.110969
          ],
          [
            121.916313,
            25.110948
          ],
          [
            121.916423,
            25.110913
          ],
          [
            121.916528,
            25.110841
          ],
          [
            121.916614,
            25.110733
          ],
          [
            121.916652,
            25.110632
          ],
          [
            121.916673,
            25.110499
          ],
          [
            121.916669,
            25.110306
          ],
          [
            121.916635,
            25.110133
          ],
          [
            121.916614,
            25.110047
          ],
          [
            121.916587,
            25.109964
          ],
          [
            121.916522,
            25.109844
          ],
          [
            121.91634,
            25.109643
          ],
          [
            121.91609,
            25.10944
          ],
          [
            121.915966,
            25.109262
          ],
          [
            121.915915,
            25.109117
          ],
          [
            121.915892,
            25.109007
          ],
          [
            121.915922,
            25.108926
          ],
          [
            121.915952,
            25.108875
          ],
          [
            121.916027,
            25.108762
          ],
          [
            121.916092,
            25.108707
          ],
          [
            121.916206,
            25.108631
          ],
          [
            121.916313,
            25.108609
          ],
          [
            121.91642,
            25.108588
          ],
          [
            121.916528,
            25.108609
          ],
          [
            121.916642,
            25.108629
          ],
          [
            121.917058,
            25.108883
          ],
          [
            121.917173,
            25.108975
          ],
          [
            121.917282,
            25.109066
          ],
          [
            121.917626,
            25.109448
          ],
          [
            121.917729,
            25.109532
          ],
          [
            121.917797,
            25.109557
          ],
          [
            121.917915,
            25.109586
          ],
          [
            121.917987,
            25.109596
          ],
          [
            121.918545,
            25.109489
          ],
          [
            121.918632,
            25.10947
          ],
          [
            121.918807,
            25.109499
          ],
          [
            121.918912,
            25.109551
          ],
          [
            121.918975,
            25.109595
          ],
          [
            121.919047,
            25.109683
          ],
          [
            121.919112,
            25.109856
          ],
          [
            121.919128,
            25.110041
          ],
          [
            121.919129,
            25.11027
          ],
          [
            121.919159,
            25.110409
          ],
          [
            121.919197,
            25.110475
          ],
          [
            121.919239,
            25.110559
          ],
          [
            121.919413,
            25.110686
          ],
          [
            121.919553,
            25.110737
          ],
          [
            121.919727,
            25.11074
          ],
          [
            121.919837,
            25.110705
          ],
          [
            121.91997,
            25.110633
          ],
          [
            121.92005,
            25.110559
          ],
          [
            121.920114,
            25.110438
          ],
          [
            121.920129,
            25.110328
          ],
          [
            121.920101,
            25.110161
          ],
          [
            121.91961,
            25.109032
          ],
          [
            121.919501,
            25.108714
          ],
          [
            121.919492,
            25.108468
          ],
          [
            121.919594,
            25.107389
          ],
          [
            121.919876,
            25.105493
          ],
          [
            121.919892,
            25.104979
          ],
          [
            121.919854,
            25.104725
          ],
          [
            121.919768,
            25.104489
          ],
          [
            121.919724,
            25.104399
          ],
          [
            121.919671,
            25.104318
          ],
          [
            121.919514,
            25.104156
          ],
          [
            121.918886,
            25.103766
          ],
          [
            121.918657,
            25.103576
          ],
          [
            121.918459,
            25.103309
          ],
          [
            121.917899,
            25.101946
          ],
          [
            121.917656,
            25.101413
          ],
          [
            121.917579,
            25.101201
          ],
          [
            121.917441,
            25.100617
          ],
          [
            121.917203,
            25.100063
          ],
          [
            121.917123,
            25.099853
          ],
          [
            121.917083,
            25.099514
          ],
          [
            121.91708,
            25.099213
          ],
          [
            121.917021,
            25.098953
          ],
          [
            121.916978,
            25.098739
          ],
          [
            121.91646,
            25.097867
          ],
          [
            121.916361,
            25.097577
          ],
          [
            121.916348,
            25.097324
          ],
          [
            121.916357,
            25.097194
          ],
          [
            121.916656,
            25.096207
          ],
          [
            121.916721,
            25.095863
          ],
          [
            121.916742,
            25.095713
          ],
          [
            121.916721,
            25.095649
          ],
          [
            121.916656,
            25.09552
          ],
          [
            121.916385,
            25.095203
          ],
          [
            121.916064,
            25.094842
          ],
          [
            121.915738,
            25.094399
          ],
          [
            121.915165,
            25.093546
          ],
          [
            121.915141,
            25.093511
          ],
          [
            121.914955,
            25.093167
          ],
          [
            121.914914,
            25.093024
          ],
          [
            121.914904,
            25.092991
          ],
          [
            121.914843,
            25.092784
          ],
          [
            121.914819,
            25.092308
          ],
          [
            121.914743,
            25.091996
          ],
          [
            121.914634,
            25.091698
          ],
          [
            121.914537,
            25.091524
          ],
          [
            121.914481,
            25.091485
          ],
          [
            121.91436,
            25.0914
          ],
          [
            121.913954,
            25.091218
          ],
          [
            121.913508,
            25.090967
          ],
          [
            121.913328,
            25.090853
          ],
          [
            121.913183,
            25.090728
          ],
          [
            121.912837,
            25.090348
          ],
          [
            121.912732,
            25.090213
          ],
          [
            121.912501,
            25.089783
          ],
          [
            121.9123,
            25.089319
          ],
          [
            121.912197,
            25.089051
          ],
          [
            121.912169,
            25.088691
          ],
          [
            121.912185,
            25.088531
          ],
          [
            121.9122,
            25.088379
          ],
          [
            121.912317,
            25.087182
          ],
          [
            121.912349,
            25.086841
          ],
          [
            121.912278,
            25.086114
          ],
          [
            121.912248,
            25.085751
          ],
          [
            121.912266,
            25.085524
          ],
          [
            121.912308,
            25.085304
          ],
          [
            121.912423,
            25.08514
          ],
          [
            121.912517,
            25.085037
          ],
          [
            121.913173,
            25.084405
          ],
          [
            121.913442,
            25.084182
          ],
          [
            121.913634,
            25.083908
          ],
          [
            121.913706,
            25.083746
          ],
          [
            121.913953,
            25.082955
          ],
          [
            121.913824,
            25.08291
          ],
          [
            121.913652,
            25.08286
          ],
          [
            121.913248,
            25.082713
          ],
          [
            121.912861,
            25.082594
          ],
          [
            121.912624,
            25.082556
          ],
          [
            121.912497,
            25.082525
          ],
          [
            121.912624,
            25.082556
          ],
          [
            121.912861,
            25.082594
          ],
          [
            121.913248,
            25.082713
          ],
          [
            121.913652,
            25.08286
          ],
          [
            121.913824,
            25.08291
          ],
          [
            121.913953,
            25.082955
          ],
          [
            121.914039,
            25.08267
          ],
          [
            121.914079,
            25.082438
          ],
          [
            121.914091,
            25.081934
          ],
          [
            121.914088,
            25.081736
          ],
          [
            121.914121,
            25.081355
          ],
          [
            121.914164,
            25.081053
          ],
          [
            121.91455,
            25.079246
          ],
          [
            121.914674,
            25.078825
          ],
          [
            121.914757,
            25.078434
          ],
          [
            121.914908,
            25.077609
          ],
          [
            121.914918,
            25.077259
          ],
          [
            121.914899,
            25.07699
          ],
          [
            121.914744,
            25.076118
          ],
          [
            121.914733,
            25.0758
          ],
          [
            121.91475,
            25.075623
          ],
          [
            121.914811,
            25.075436
          ],
          [
            121.914885,
            25.075336
          ],
          [
            121.914983,
            25.075221
          ],
          [
            121.91506,
            25.075167
          ],
          [
            121.915347,
            25.074965
          ],
          [
            121.91538,
            25.074938
          ],
          [
            121.915476,
            25.074856
          ],
          [
            121.915669,
            25.074727
          ],
          [
            121.915946,
            25.07454
          ],
          [
            121.916018,
            25.074492
          ],
          [
            121.916024,
            25.074487
          ],
          [
            121.916188,
            25.074402
          ],
          [
            121.916266,
            25.074374
          ],
          [
            121.91637,
            25.074351
          ],
          [
            121.916548,
            25.074341
          ],
          [
            121.916773,
            25.074335
          ],
          [
            121.917601,
            25.07432
          ],
          [
            121.917732,
            25.074285
          ],
          [
            121.917878,
            25.074234
          ],
          [
            121.918031,
            25.074157
          ],
          [
            121.918162,
            25.074073
          ],
          [
            121.918287,
            25.073959
          ],
          [
            121.918373,
            25.073848
          ],
          [
            121.918588,
            25.073569
          ],
          [
            121.918652,
            25.073483
          ],
          [
            121.918668,
            25.073462
          ],
          [
            121.918716,
            25.073397
          ],
          [
            121.919274,
            25.072646
          ],
          [
            121.91936,
            25.072578
          ],
          [
            121.919382,
            25.07256
          ],
          [
            121.919489,
            25.072475
          ],
          [
            121.919541,
            25.072448
          ],
          [
            121.919703,
            25.072367
          ],
          [
            121.92039,
            25.072153
          ],
          [
            121.920709,
            25.072045
          ],
          [
            121.921098,
            25.071917
          ],
          [
            121.921205,
            25.071852
          ],
          [
            121.922108,
            25.071202
          ],
          [
            121.922364,
            25.070972
          ],
          [
            121.922429,
            25.070865
          ],
          [
            121.922502,
            25.070727
          ],
          [
            121.92267,
            25.070341
          ],
          [
            121.923158,
            25.069599
          ],
          [
            121.923224,
            25.069463
          ],
          [
            121.923283,
            25.069177
          ],
          [
            121.923367,
            25.068828
          ],
          [
            121.923548,
            25.068375
          ],
          [
            121.923796,
            25.06804
          ],
          [
            121.923957,
            25.067863
          ],
          [
            121.924038,
            25.067754
          ],
          [
            121.924105,
            25.067634
          ],
          [
            121.924165,
            25.06738
          ],
          [
            121.924234,
            25.066837
          ],
          [
            121.924274,
            25.066616
          ],
          [
            121.924381,
            25.066445
          ],
          [
            121.924639,
            25.06623
          ],
          [
            121.924832,
            25.066144
          ],
          [
            121.925712,
            25.065866
          ],
          [
            121.925862,
            25.065801
          ],
          [
            121.926012,
            25.065694
          ],
          [
            121.926484,
            25.065265
          ],
          [
            121.926794,
            25.064989
          ],
          [
            121.927192,
            25.0646
          ],
          [
            121.928308,
            25.063505
          ],
          [
            121.928355,
            25.063465
          ],
          [
            121.928587,
            25.063269
          ],
          [
            121.929271,
            25.062866
          ],
          [
            121.9296,
            25.062642
          ],
          [
            121.929665,
            25.062514
          ],
          [
            121.929713,
            25.0624
          ],
          [
            121.929726,
            25.062219
          ],
          [
            121.92967,
            25.06203
          ],
          [
            121.929603,
            25.061886
          ],
          [
            121.929455,
            25.061725
          ],
          [
            121.929379,
            25.061656
          ],
          [
            121.928854,
            25.061151
          ],
          [
            121.927417,
            25.059881
          ],
          [
            121.927347,
            25.059831
          ],
          [
            121.927237,
            25.059766
          ],
          [
            121.927061,
            25.059717
          ],
          [
            121.926398,
            25.059643
          ],
          [
            121.92611,
            25.05958
          ],
          [
            121.925975,
            25.059528
          ],
          [
            121.925786,
            25.059422
          ],
          [
            121.925682,
            25.059344
          ],
          [
            121.925528,
            25.059203
          ],
          [
            121.92541,
            25.059052
          ],
          [
            121.925275,
            25.058825
          ],
          [
            121.925171,
            25.058618
          ],
          [
            121.925175,
            25.058219
          ],
          [
            121.925169,
            25.05814
          ],
          [
            121.925149,
            25.057985
          ],
          [
            121.925057,
            25.057745
          ],
          [
            121.924488,
            25.056624
          ],
          [
            121.924445,
            25.056512
          ],
          [
            121.924467,
            25.056366
          ],
          [
            121.924688,
            25.055737
          ],
          [
            121.924725,
            25.05559
          ],
          [
            121.924686,
            25.055495
          ],
          [
            121.924454,
            25.055045
          ],
          [
            121.924379,
            25.0549
          ],
          [
            121.92421,
            25.05445
          ],
          [
            121.924059,
            25.054085
          ],
          [
            121.923803,
            25.053391
          ],
          [
            121.923373,
            25.052304
          ],
          [
            121.92333,
            25.052197
          ],
          [
            121.923115,
            25.051596
          ],
          [
            121.923029,
            25.051317
          ],
          [
            121.922969,
            25.051059
          ]
        ]
      },
      "properties": {
        "routeId": "new-taipei-228003",
        "city": "new-taipei",
        "source_file": "new-taipei/new-taipei-228003.geojson",
        "distance_km": 29.778,
        "duration_min": 36.59251666666667,
        "valhalla_config": "valhalla.json"
      }
    }
  ]
}