{
  "type": "FeatureCollection",
  "features": [
    {
      "type": "Feature",
      "geometry": {
        "type": "LineString",
        "coordinates": [
          [
            121.453139,
            25.054334
          ],
          [
            121.453601,
            25.054337
          ],
          [
            121.453812,
            25.054339
          ],
          [
            121.45458,
            25.054344
          ],
          [
            121.455811,
            25.054353
          ],
          [
            121.455901,
            25.054354
          ],
          [
            121.456923,
            25.054361
          ],
          [
            121.457199,
            25.054363
          ],
          [
            121.457985,
            25.054369
          ],
          [
            121.457987,
            25.054018
          ],
          [
            121.457989,
            25.053714
          ],
          [
            121.457993,
            25.053407
          ],
          [
            121.457996,
            25.053124
          ],
          [
            121.458,
            25.05284
          ],
          [
            121.458004,
            25.052534
          ],
          [
            121.457951,
            25.052339
          ],
          [
            121.457359,
            25.052341
          ],
          [
            121.457361,
            25.052505
          ],
          [
            121.457362,
            25.052664
          ],
          [
            121.457443,
            25.052666
          ],
          [
            121.457362,
            25.052664
          ],
          [
            121.457362,
            25.05269
          ],
          [
            121.457363,
            25.052902
          ],
          [
            121.457444,
            25.052901
          ],
          [
            121.457363,
            25.052902
          ],
          [
            121.457364,
            25.052949
          ],
          [
            121.457372,
            25.053195
          ],
          [
            121.457376,
            25.053461
          ],
          [
            121.457371,
            25.053655
          ],
          [
            121.457369,
            25.053718
          ],
          [
            121.457222,
            25.053717
          ],
          [
            121.456755,
            25.053713
          ],
          [
            121.45675,
            25.053448
          ],
          [
            121.456754,
            25.053216
          ],
          [
            121.456749,
            25.053099
          ],
          [
            121.456717,
            25.052939
          ],
          [
            121.456734,
            25.052617
          ],
          [
            121.456738,
            25.052303
          ],
          [
            121.456635,
            25.0523
          ],
          [
            121.456268,
            25.052288
          ],
          [
            121.456095,
            25.052282
          ],
          [
            121.455543,
            25.052268
          ],
          [
            121.454788,
            25.052235
          ],
          [
            121.454771,
            25.052516
          ],
          [
            121.454733,
            25.053134
          ],
          [
            121.454642,
            25.053133
          ],
          [
            121.454337,
            25.053128
          ],
          [
            121.453811,
            25.05312
          ],
          [
            121.453705,
            25.053118
          ],
          [
            121.453316,
            25.053119
          ],
          [
            121.453102,
            25.053119
          ],
          [
            121.453056,
            25.053677
          ],
          [
            121.453059,
            25.05383
          ],
          [
            121.45307,
            25.054333
          ],
          [
            121.452472,
            25.054328
          ],
          [
            121.452467,
            25.054014
          ],
          [
            121.452467,
            25.053968
          ],
          [
            121.452464,
            25.053725
          ],
          [
            121.452486,
            25.053596
          ],
          [
            121.45257,
            25.05326
          ],
          [
            121.452594,
            25.053191
          ],
          [
            121.452612,
            25.053142
          ],
          [
            121.452666,
            25.052994
          ],
          [
            121.45272,
            25.052848
          ],
          [
            121.452744,
            25.052801
          ],
          [
            121.452822,
            25.052649
          ],
          [
            121.452869,
            25.052557
          ],
          [
            121.452943,
            25.052423
          ],
          [
            121.453499,
            25.052483
          ],
          [
            121.453715,
            25.052506
          ],
          [
            121.454771,
            25.052516
          ],
          [
            121.454775,
            25.052449
          ],
          [
            121.454771,
            25.052516
          ],
          [
            121.454733,
            25.053134
          ],
          [
            121.454635,
            25.053669
          ],
          [
            121.453667,
            25.053674
          ],
          [
            121.453659,
            25.053674
          ],
          [
            121.453582,
            25.053674
          ],
          [
            121.453601,
            25.054337
          ],
          [
            121.45307,
            25.054333
          ],
          [
            121.452472,
            25.054328
          ],
          [
            121.452467,
            25.054014
          ],
          [
            121.452464,
            25.053725
          ],
          [
            121.452486,
            25.053596
          ],
          [
            121.45257,
            25.05326
          ],
          [
            121.452612,
            25.053142
          ],
          [
            121.45272,
            25.052848
          ],
          [
            121.452822,
            25.052649
          ],
          [
            121.452869,
            25.052557
          ],
          [
            121.452943,
            25.052423
          ],
          [
            121.453106,
            25.052011
          ],
          [
            121.453209,
            25.051647
          ],
          [
            121.4533,
            25.051266
          ],
          [
            121.453318,
            25.050981
          ],
          [
            121.453319,
            25.050854
          ],
          [
            121.453308,
            25.050545
          ],
          [
            121.453303,
            25.050408
          ],
          [
            121.45327,
            25.050281
          ],
          [
            121.453179,
            25.049935
          ],
          [
            121.453537,
            25.049932
          ],
          [
            121.453547,
            25.049932
          ],
          [
            121.453874,
            25.049931
          ],
          [
            121.454102,
            25.049931
          ],
          [
            121.454101,
            25.050271
          ],
          [
            121.454108,
            25.050524
          ],
          [
            121.454108,
            25.050852
          ],
          [
            121.454179,
            25.05085
          ],
          [
            121.454514,
            25.050842
          ],
          [
            121.45484,
            25.050835
          ],
          [
            121.454867,
            25.050548
          ],
          [
            121.454867,
            25.05048
          ],
          [
            121.454867,
            25.050266
          ],
          [
            121.454867,
            25.049934
          ],
          [
            121.454948,
            25.049934
          ],
          [
            121.455518,
            25.049936
          ],
          [
            121.455514,
            25.050213
          ],
          [
            121.455513,
            25.050267
          ],
          [
            121.45551,
            25.050482
          ],
          [
            121.455509,
            25.050551
          ],
          [
            121.455507,
            25.050845
          ],
          [
            121.455566,
            25.050846
          ],
          [
            121.456084,
            25.050857
          ],
          [
            121.456129,
            25.050858
          ],
          [
            121.456126,
            25.050561
          ],
          [
            121.456122,
            25.050347
          ],
          [
            121.456121,
            25.050274
          ],
          [
            121.456121,
            25.049954
          ],
          [
            121.456746,
            25.04996
          ],
          [
            121.456734,
            25.049892
          ],
          [
            121.456746,
            25.04996
          ],
          [
            121.456772,
            25.050346
          ],
          [
            121.456772,
            25.050386
          ],
          [
            121.456771,
            25.050452
          ],
          [
            121.456765,
            25.050584
          ],
          [
            121.456765,
            25.050694
          ],
          [
            121.456766,
            25.050876
          ],
          [
            121.456819,
            25.050887
          ],
          [
            121.45701,
            25.050928
          ],
          [
            121.457224,
            25.051044
          ],
          [
            121.457267,
            25.050995
          ],
          [
            121.457399,
            25.050848
          ],
          [
            121.457442,
            25.050696
          ],
          [
            121.457449,
            25.050506
          ],
          [
            121.457451,
            25.050446
          ],
          [
            121.457443,
            25.049966
          ],
          [
            121.457314,
            25.049966
          ],
          [
            121.457145,
            25.049967
          ],
          [
            121.457001,
            25.049964
          ],
          [
            121.456746,
            25.04996
          ],
          [
            121.456121,
            25.049954
          ],
          [
            121.455862,
            25.049943
          ],
          [
            121.455864,
            25.049689
          ],
          [
            121.455616,
            25.049683
          ],
          [
            121.455496,
            25.049643
          ],
          [
            121.454439,
            25.049632
          ],
          [
            121.454375,
            25.049631
          ]
        ]
      },
      "properties": {
        "routeId": "new-taipei-242008",
        "city": "new-taipei",
        "source_file": "new-taipei/new-taipei-242008.geojson",
        "distance_km": 4.582,
        "duration_min": 12.9521,
        "valhalla_config": "valhalla.json"
      }
    }
  ]
}