{
  "type": "FeatureCollection",
  "features": [
    {
      "type": "Feature",
      "geometry": {
        "type": "LineString",
        "coordinates": [
          [
            121.504998,
            24.984088
          ],
          [
            121.504922,
            24.984063
          ],
          [
            121.504747,
            24.983991
          ],
          [
            121.504666,
            24.98393
          ],
          [
            121.504422,
            24.983604
          ],
          [
            121.504071,
            24.983149
          ],
          [
            121.503475,
            24.982374
          ],
          [
            121.503417,
            24.982229
          ],
          [
            121.503311,
            24.982065
          ],
          [
            121.503184,
            24.981926
          ],
          [
            121.503073,
            24.981857
          ],
          [
            121.502839,
            24.98172
          ],
          [
            121.502749,
            24.981665
          ],
          [
            121.502679,
            24.981607
          ],
          [
            121.502597,
            24.981539
          ],
          [
            121.502512,
            24.981486
          ],
          [
            121.502395,
            24.981431
          ],
          [
            121.502244,
            24.981368
          ],
          [
            121.502016,
            24.981266
          ],
          [
            121.501853,
            24.98118
          ],
          [
            121.501671,
            24.981025
          ],
          [
            121.501335,
            24.980777
          ],
          [
            121.501182,
            24.980643
          ],
          [
            121.50105,
            24.980528
          ],
          [
            121.500952,
            24.980436
          ],
          [
            121.500744,
            24.980306
          ],
          [
            121.500595,
            24.980266
          ],
          [
            121.500449,
            24.98024
          ],
          [
            121.500253,
            24.980179
          ],
          [
            121.500106,
            24.980118
          ],
          [
            121.49999,
            24.980067
          ],
          [
            121.499862,
            24.98008
          ],
          [
            121.499704,
            24.98008
          ],
          [
            121.499524,
            24.980063
          ],
          [
            121.499159,
            24.979975
          ],
          [
            121.498907,
            24.979878
          ],
          [
            121.498508,
            24.979729
          ],
          [
            121.498386,
            24.979742
          ],
          [
            121.497916,
            24.979702
          ],
          [
            121.497677,
            24.979659
          ],
          [
            121.497522,
            24.97962
          ],
          [
            121.497376,
            24.979572
          ],
          [
            121.497125,
            24.979553
          ],
          [
            121.497376,
            24.979572
          ],
          [
            121.497076,
            24.97945
          ],
          [
            121.496941,
            24.979363
          ],
          [
            121.496734,
            24.979096
          ],
          [
            121.496708,
            24.978969
          ],
          [
            121.496744,
            24.9788
          ],
          [
            121.496878,
            24.978553
          ],
          [
            121.496958,
            24.978361
          ],
          [
            121.496921,
            24.978246
          ],
          [
            121.496789,
            24.978127
          ],
          [
            121.496572,
            24.977925
          ],
          [
            121.496485,
            24.977823
          ],
          [
            121.496445,
            24.977764
          ],
          [
            121.496342,
            24.977617
          ],
          [
            121.496018,
            24.977374
          ],
          [
            121.495907,
            24.977298
          ],
          [
            121.495759,
            24.977199
          ],
          [
            121.495661,
            24.977033
          ],
          [
            121.495633,
            24.976931
          ],
          [
            121.49568,
            24.976774
          ],
          [
            121.495757,
            24.976639
          ],
          [
            121.495746,
            24.976471
          ],
          [
            121.495612,
            24.976338
          ],
          [
            121.495403,
            24.976299
          ],
          [
            121.495242,
            24.976335
          ],
          [
            121.495086,
            24.97633
          ],
          [
            121.494874,
            24.97618
          ],
          [
            121.49469,
            24.976066
          ],
          [
            121.494495,
            24.975872
          ],
          [
            121.494423,
            24.975786
          ],
          [
            121.494344,
            24.975759
          ],
          [
            121.494046,
            24.975655
          ],
          [
            121.493841,
            24.975532
          ],
          [
            121.493562,
            24.97534
          ],
          [
            121.493318,
            24.975204
          ],
          [
            121.493225,
            24.975136
          ],
          [
            121.493109,
            24.975077
          ],
          [
            121.492859,
            24.974988
          ],
          [
            121.492514,
            24.974696
          ],
          [
            121.492395,
            24.974522
          ],
          [
            121.492199,
            24.974237
          ],
          [
            121.492066,
            24.97413
          ],
          [
            121.491803,
            24.973978
          ],
          [
            121.491568,
            24.973853
          ],
          [
            121.491499,
            24.973825
          ],
          [
            121.491432,
            24.973798
          ],
          [
            121.491351,
            24.973787
          ],
          [
            121.491279,
            24.973803
          ],
          [
            121.491044,
            24.973926
          ],
          [
            121.491005,
            24.973942
          ],
          [
            121.490906,
            24.973913
          ],
          [
            121.490807,
            24.973814
          ],
          [
            121.490746,
            24.973723
          ],
          [
            121.490746,
            24.973642
          ],
          [
            121.490748,
            24.973586
          ],
          [
            121.490599,
            24.973497
          ],
          [
            121.490502,
            24.97349
          ],
          [
            121.490352,
            24.973496
          ],
          [
            121.489327,
            24.973521
          ],
          [
            121.489246,
            24.973503
          ],
          [
            121.489103,
            24.973445
          ],
          [
            121.488957,
            24.973254
          ],
          [
            121.48889,
            24.972762
          ],
          [
            121.488839,
            24.972821
          ],
          [
            121.48886,
            24.973072
          ],
          [
            121.488839,
            24.972821
          ],
          [
            121.48889,
            24.972762
          ],
          [
            121.488957,
            24.973254
          ],
          [
            121.489103,
            24.973445
          ],
          [
            121.489246,
            24.973503
          ],
          [
            121.489327,
            24.973521
          ],
          [
            121.490352,
            24.973496
          ],
          [
            121.490502,
            24.97349
          ],
          [
            121.490599,
            24.973497
          ],
          [
            121.490748,
            24.973586
          ],
          [
            121.490746,
            24.973642
          ],
          [
            121.490746,
            24.973723
          ],
          [
            121.490807,
            24.973814
          ],
          [
            121.490906,
            24.973913
          ],
          [
            121.491005,
            24.973942
          ],
          [
            121.491044,
            24.973926
          ],
          [
            121.491279,
            24.973803
          ],
          [
            121.491351,
            24.973787
          ],
          [
            121.491432,
            24.973798
          ],
          [
            121.491499,
            24.973825
          ],
          [
            121.491568,
            24.973853
          ],
          [
            121.491803,
            24.973978
          ],
          [
            121.492066,
            24.97413
          ],
          [
            121.492199,
            24.974237
          ],
          [
            121.492395,
            24.974522
          ],
          [
            121.492514,
            24.974696
          ],
          [
            121.492859,
            24.974988
          ],
          [
            121.493109,
            24.975077
          ],
          [
            121.493225,
            24.975136
          ],
          [
            121.493318,
            24.975204
          ],
          [
            121.493562,
            24.97534
          ],
          [
            121.493841,
            24.975532
          ],
          [
            121.494046,
            24.975655
          ],
          [
            121.494423,
            24.975786
          ],
          [
            121.494495,
            24.975872
          ],
          [
            121.49469,
            24.976066
          ],
          [
            121.494874,
            24.97618
          ],
          [
            121.495086,
            24.97633
          ],
          [
            121.495242,
            24.976335
          ],
          [
            121.495403,
            24.976299
          ],
          [
            121.495612,
            24.976338
          ],
          [
            121.495746,
            24.976471
          ],
          [
            121.495757,
            24.976639
          ],
          [
            121.49568,
            24.976774
          ],
          [
            121.495633,
            24.976931
          ],
          [
            121.495661,
            24.977033
          ],
          [
            121.495759,
            24.977199
          ],
          [
            121.495907,
            24.977298
          ],
          [
            121.496018,
            24.977374
          ],
          [
            121.496342,
            24.977617
          ],
          [
            121.496445,
            24.977764
          ],
          [
            121.496485,
            24.977823
          ],
          [
            121.496572,
            24.977925
          ],
          [
            121.496789,
            24.978127
          ],
          [
            121.496921,
            24.978246
          ],
          [
            121.496958,
            24.978361
          ],
          [
            121.496878,
            24.978553
          ],
          [
            121.496744,
            24.9788
          ],
          [
            121.496708,
            24.978969
          ],
          [
            121.496734,
            24.979096
          ],
          [
            121.496941,
            24.979363
          ],
          [
            121.497076,
            24.97945
          ],
          [
            121.497376,
            24.979572
          ],
          [
            121.497522,
            24.97962
          ],
          [
            121.497677,
            24.979659
          ],
          [
            121.497916,
            24.979702
          ],
          [
            121.498386,
            24.979742
          ],
          [
            121.498508,
            24.979729
          ],
          [
            121.498493,
            24.979643
          ],
          [
            121.498517,
            24.979575
          ],
          [
            121.49864,
            24.979417
          ],
          [
            121.498965,
            24.979097
          ],
          [
            121.498987,
            24.979075
          ],
          [
            121.499096,
            24.978944
          ],
          [
            121.49924,
            24.978861
          ],
          [
            121.499321,
            24.978869
          ],
          [
            121.499439,
            24.978913
          ],
          [
            121.49955,
            24.978907
          ],
          [
            121.499641,
            24.978814
          ],
          [
            121.499709,
            24.978711
          ],
          [
            121.499753,
            24.978634
          ],
          [
            121.499824,
            24.978508
          ],
          [
            121.499889,
            24.978442
          ],
          [
            121.499959,
            24.978421
          ],
          [
            121.500126,
            24.97839
          ],
          [
            121.500206,
            24.978319
          ],
          [
            121.500243,
            24.978224
          ],
          [
            121.500309,
            24.978096
          ],
          [
            121.500339,
            24.977902
          ],
          [
            121.50076,
            24.977526
          ],
          [
            121.500856,
            24.977427
          ],
          [
            121.50107,
            24.977164
          ],
          [
            121.50117,
            24.976725
          ],
          [
            121.501304,
            24.976104
          ],
          [
            121.501229,
            24.975846
          ],
          [
            121.50121,
            24.975605
          ],
          [
            121.501194,
            24.975351
          ],
          [
            121.501183,
            24.975239
          ],
          [
            121.501082,
            24.975024
          ],
          [
            121.501071,
            24.974957
          ],
          [
            121.501082,
            24.975024
          ],
          [
            121.501183,
            24.975239
          ],
          [
            121.501194,
            24.975351
          ],
          [
            121.50121,
            24.975605
          ],
          [
            121.501229,
            24.975846
          ],
          [
            121.501304,
            24.976104
          ],
          [
            121.50117,
            24.976725
          ],
          [
            121.50107,
            24.977164
          ],
          [
            121.500856,
            24.977427
          ],
          [
            121.50076,
            24.977526
          ],
          [
            121.500339,
            24.977902
          ],
          [
            121.500309,
            24.978096
          ],
          [
            121.500243,
            24.978224
          ],
          [
            121.500206,
            24.978319
          ],
          [
            121.500126,
            24.97839
          ],
          [
            121.499959,
            24.978421
          ],
          [
            121.499889,
            24.978442
          ],
          [
            121.499824,
            24.978508
          ],
          [
            121.499753,
            24.978634
          ],
          [
            121.499709,
            24.978711
          ],
          [
            121.499641,
            24.978814
          ],
          [
            121.49955,
            24.978907
          ],
          [
            121.499439,
            24.978913
          ],
          [
            121.499321,
            24.978869
          ],
          [
            121.49924,
            24.978861
          ],
          [
            121.499096,
            24.978944
          ],
          [
            121.498987,
            24.979075
          ],
          [
            121.49864,
            24.979417
          ],
          [
            121.498517,
            24.979575
          ],
          [
            121.498493,
            24.979643
          ],
          [
            121.498508,
            24.979729
          ],
          [
            121.498907,
            24.979878
          ],
          [
            121.499159,
            24.979975
          ],
          [
            121.499524,
            24.980063
          ],
          [
            121.499704,
            24.98008
          ],
          [
            121.499862,
            24.98008
          ],
          [
            121.49999,
            24.980067
          ],
          [
            121.500106,
            24.980118
          ],
          [
            121.500253,
            24.980179
          ],
          [
            121.500449,
            24.98024
          ],
          [
            121.500595,
            24.980266
          ],
          [
            121.500744,
            24.980306
          ],
          [
            121.500952,
            24.980436
          ],
          [
            121.50105,
            24.980528
          ],
          [
            121.501182,
            24.980643
          ],
          [
            121.501335,
            24.980777
          ],
          [
            121.501671,
            24.981025
          ],
          [
            121.501853,
            24.98118
          ],
          [
            121.502016,
            24.981266
          ],
          [
            121.502187,
            24.981308
          ],
          [
            121.502343,
            24.981348
          ],
          [
            121.502506,
            24.981363
          ],
          [
            121.502622,
            24.98136
          ],
          [
            121.502685,
            24.98137
          ],
          [
            121.50274,
            24.981409
          ],
          [
            121.502767,
            24.98148
          ],
          [
            121.502781,
            24.981553
          ],
          [
            121.502809,
            24.981612
          ],
          [
            121.502866,
            24.981671
          ],
          [
            121.503073,
            24.981857
          ],
          [
            121.503184,
            24.981926
          ],
          [
            121.503316,
            24.981998
          ],
          [
            121.503394,
            24.982076
          ],
          [
            121.503464,
            24.982191
          ],
          [
            121.503482,
            24.982176
          ],
          [
            121.503546,
            24.982035
          ],
          [
            121.503814,
            24.981394
          ],
          [
            121.50408,
            24.98074
          ],
          [
            121.504252,
            24.980296
          ],
          [
            121.50408,
            24.98074
          ],
          [
            121.503814,
            24.981394
          ],
          [
            121.503546,
            24.982035
          ],
          [
            121.503482,
            24.982176
          ],
          [
            121.503464,
            24.982191
          ],
          [
            121.503536,
            24.982339
          ],
          [
            121.50415,
            24.983117
          ],
          [
            121.504472,
            24.983559
          ],
          [
            121.504479,
            24.983568
          ],
          [
            121.504724,
            24.983896
          ],
          [
            121.504666,
            24.98393
          ],
          [
            121.504493,
            24.984061
          ],
          [
            121.504443,
            24.984149
          ],
          [
            121.504493,
            24.984061
          ],
          [
            121.504666,
            24.98393
          ],
          [
            121.504422,
            24.983604
          ],
          [
            121.504071,
            24.983149
          ],
          [
            121.503475,
            24.982374
          ],
          [
            121.503417,
            24.982229
          ],
          [
            121.503172,
            24.982304
          ],
          [
            121.503089,
            24.982391
          ],
          [
            121.502942,
            24.982546
          ],
          [
            121.502773,
            24.98267
          ],
          [
            121.50251,
            24.982967
          ],
          [
            121.502335,
            24.983151
          ],
          [
            121.502243,
            24.983263
          ],
          [
            121.502037,
            24.983274
          ],
          [
            121.501779,
            24.983494
          ],
          [
            121.501609,
            24.983721
          ],
          [
            121.501779,
            24.983494
          ],
          [
            121.502037,
            24.983274
          ],
          [
            121.502243,
            24.983263
          ],
          [
            121.502335,
            24.983151
          ],
          [
            121.50251,
            24.982967
          ],
          [
            121.502773,
            24.98267
          ],
          [
            121.503154,
            24.983055
          ],
          [
            121.503527,
            24.983462
          ],
          [
            121.503645,
            24.983524
          ],
          [
            121.503698,
            24.983541
          ],
          [
            121.503645,
            24.983524
          ],
          [
            121.503527,
            24.983462
          ],
          [
            121.504071,
            24.983149
          ],
          [
            121.50415,
            24.983117
          ],
          [
            121.505044,
            24.981062
          ],
          [
            121.505324,
            24.981217
          ],
          [
            121.505388,
            24.981213
          ],
          [
            121.505591,
            24.981294
          ],
          [
            121.505715,
            24.98137
          ],
          [
            121.505949,
            24.981483
          ],
          [
            121.506073,
            24.981568
          ],
          [
            121.50611,
            24.981592
          ],
          [
            121.506356,
            24.98175
          ],
          [
            121.506516,
            24.981302
          ],
          [
            121.506567,
            24.98103
          ],
          [
            121.506469,
            24.980831
          ],
          [
            121.506367,
            24.980462
          ],
          [
            121.506379,
            24.980358
          ],
          [
            121.506349,
            24.980112
          ],
          [
            121.506328,
            24.979897
          ],
          [
            121.506386,
            24.979272
          ],
          [
            121.506587,
            24.978986
          ],
          [
            121.506842,
            24.978788
          ],
          [
            121.506912,
            24.978819
          ],
          [
            121.506842,
            24.978788
          ],
          [
            121.506978,
            24.97868
          ],
          [
            121.507209,
            24.978597
          ],
          [
            121.507391,
            24.978531
          ],
          [
            121.507781,
            24.97852
          ],
          [
            121.508177,
            24.978578
          ],
          [
            121.508332,
            24.978853
          ],
          [
            121.508221,
            24.979262
          ],
          [
            121.508118,
            24.979581
          ],
          [
            121.507972,
            24.979833
          ],
          [
            121.50788,
            24.98003
          ],
          [
            121.507705,
            24.980411
          ],
          [
            121.507539,
            24.980741
          ],
          [
            121.507402,
            24.980966
          ],
          [
            121.507285,
            24.981065
          ],
          [
            121.507154,
            24.981166
          ],
          [
            121.506935,
            24.981312
          ],
          [
            121.506606,
            24.981841
          ],
          [
            121.50614,
            24.982786
          ],
          [
            121.506446,
            24.982922
          ],
          [
            121.506335,
            24.983155
          ],
          [
            121.506046,
            24.983726
          ],
          [
            121.506579,
            24.983969
          ],
          [
            121.506949,
            24.984155
          ],
          [
            121.50675,
            24.984546
          ],
          [
            121.50671,
            24.984632
          ],
          [
            121.50675,
            24.984546
          ],
          [
            121.506949,
            24.984155
          ],
          [
            121.506579,
            24.983969
          ],
          [
            121.506046,
            24.983726
          ],
          [
            121.506335,
            24.983155
          ],
          [
            121.506639,
            24.983301
          ],
          [
            121.506877,
            24.983421
          ],
          [
            121.507335,
            24.983563
          ],
          [
            121.507367,
            24.983493
          ],
          [
            121.507585,
            24.983032
          ],
          [
            121.507367,
            24.983493
          ],
          [
            121.507335,
            24.983563
          ],
          [
            121.506877,
            24.983421
          ],
          [
            121.506639,
            24.983301
          ]
        ]
      },
      "properties": {
        "routeId": "new-taipei-235016",
        "city": "new-taipei",
        "source_file": "new-taipei/new-taipei-235016.geojson",
        "distance_km": 9.746,
        "duration_min": 21.222383333333333,
        "valhalla_config": "valhalla.json"
      }
    }
  ]
}