{
  "type": "FeatureCollection",
  "features": [
    {
      "type": "Feature",
      "geometry": {
        "type": "LineString",
        "coordinates": [
          [
            121.464394,
            25.024926
          ],
          [
            121.464013,
            25.024727
          ],
          [
            121.463248,
            25.024327
          ],
          [
            121.463189,
            25.024419
          ],
          [
            121.463215,
            25.024221
          ],
          [
            121.463273,
            25.023778
          ],
          [
            121.463296,
            25.023603
          ],
          [
            121.463283,
            25.023397
          ],
          [
            121.463131,
            25.022925
          ],
          [
            121.463114,
            25.022874
          ],
          [
            121.463067,
            25.022749
          ],
          [
            121.463062,
            25.022601
          ],
          [
            121.463011,
            25.022333
          ],
          [
            121.462998,
            25.022262
          ],
          [
            121.462981,
            25.022142
          ],
          [
            121.462802,
            25.021658
          ],
          [
            121.462679,
            25.021325
          ],
          [
            121.462559,
            25.021367
          ],
          [
            121.462207,
            25.021982
          ],
          [
            121.461785,
            25.02175
          ],
          [
            121.461205,
            25.022684
          ],
          [
            121.460776,
            25.023401
          ],
          [
            121.460555,
            25.023286
          ],
          [
            121.460151,
            25.023077
          ],
          [
            121.460034,
            25.023016
          ],
          [
            121.459966,
            25.022957
          ],
          [
            121.459268,
            25.0226
          ],
          [
            121.459635,
            25.021967
          ],
          [
            121.459865,
            25.022174
          ],
          [
            121.459988,
            25.022021
          ],
          [
            121.459865,
            25.022174
          ],
          [
            121.459635,
            25.021967
          ],
          [
            121.46003,
            25.021494
          ],
          [
            121.459921,
            25.021311
          ],
          [
            121.45994,
            25.021221
          ],
          [
            121.45997,
            25.021162
          ],
          [
            121.460004,
            25.021094
          ],
          [
            121.460065,
            25.020954
          ],
          [
            121.460227,
            25.02093
          ],
          [
            121.460433,
            25.020631
          ],
          [
            121.460632,
            25.020343
          ],
          [
            121.46065,
            25.020316
          ],
          [
            121.460804,
            25.020093
          ],
          [
            121.46088,
            25.019982
          ],
          [
            121.460899,
            25.019929
          ],
          [
            121.461117,
            25.019324
          ],
          [
            121.461198,
            25.019098
          ],
          [
            121.461505,
            25.019199
          ],
          [
            121.461446,
            25.019336
          ],
          [
            121.461472,
            25.019274
          ],
          [
            121.461128,
            25.020067
          ],
          [
            121.461189,
            25.020086
          ],
          [
            121.461128,
            25.020067
          ],
          [
            121.460937,
            25.020399
          ],
          [
            121.460789,
            25.020662
          ],
          [
            121.460653,
            25.020902
          ],
          [
            121.460628,
            25.020945
          ],
          [
            121.460301,
            25.021524
          ],
          [
            121.460099,
            25.021883
          ],
          [
            121.459908,
            25.022121
          ],
          [
            121.460099,
            25.021883
          ],
          [
            121.460628,
            25.020945
          ],
          [
            121.461006,
            25.021116
          ],
          [
            121.46091,
            25.021275
          ],
          [
            121.4612,
            25.021436
          ],
          [
            121.461395,
            25.021543
          ],
          [
            121.461785,
            25.02175
          ],
          [
            121.461687,
            25.021908
          ],
          [
            121.461785,
            25.02175
          ],
          [
            121.461395,
            25.021543
          ],
          [
            121.461707,
            25.020979
          ],
          [
            121.461779,
            25.020849
          ],
          [
            121.461802,
            25.020799
          ],
          [
            121.461783,
            25.020765
          ],
          [
            121.461511,
            25.020641
          ],
          [
            121.46141,
            25.020833
          ],
          [
            121.461511,
            25.020641
          ],
          [
            121.461714,
            25.020255
          ],
          [
            121.461525,
            25.020192
          ],
          [
            121.461743,
            25.019688
          ],
          [
            121.461882,
            25.019366
          ],
          [
            121.461898,
            25.019328
          ],
          [
            121.4623,
            25.019446
          ],
          [
            121.462654,
            25.019579
          ],
          [
            121.462624,
            25.019686
          ],
          [
            121.462618,
            25.019795
          ],
          [
            121.462624,
            25.019934
          ],
          [
            121.462656,
            25.020131
          ],
          [
            121.462909,
            25.020039
          ],
          [
            121.463113,
            25.01988
          ],
          [
            121.463318,
            25.019718
          ],
          [
            121.463732,
            25.019391
          ],
          [
            121.463774,
            25.019363
          ],
          [
            121.464002,
            25.019652
          ],
          [
            121.464077,
            25.019602
          ],
          [
            121.46441,
            25.019383
          ],
          [
            121.464712,
            25.019183
          ],
          [
            121.464525,
            25.018952
          ],
          [
            121.464513,
            25.018938
          ],
          [
            121.46449,
            25.018892
          ],
          [
            121.464467,
            25.018844
          ],
          [
            121.464296,
            25.018644
          ],
          [
            121.463696,
            25.019035
          ],
          [
            121.463643,
            25.019017
          ],
          [
            121.463432,
            25.018948
          ],
          [
            121.463404,
            25.018939
          ],
          [
            121.462962,
            25.018794
          ],
          [
            121.463,
            25.018688
          ],
          [
            121.46306,
            25.018486
          ],
          [
            121.463072,
            25.018444
          ],
          [
            121.463107,
            25.01838
          ],
          [
            121.463247,
            25.018314
          ],
          [
            121.463416,
            25.018228
          ],
          [
            121.463493,
            25.018177
          ],
          [
            121.4636,
            25.01811
          ],
          [
            121.463802,
            25.017969
          ],
          [
            121.464003,
            25.017835
          ],
          [
            121.464035,
            25.017813
          ],
          [
            121.464075,
            25.017787
          ],
          [
            121.464145,
            25.017723
          ],
          [
            121.464098,
            25.017665
          ],
          [
            121.46407,
            25.017631
          ],
          [
            121.46386,
            25.01737
          ],
          [
            121.463523,
            25.016953
          ],
          [
            121.463417,
            25.016822
          ],
          [
            121.46334,
            25.016727
          ],
          [
            121.463157,
            25.0165
          ],
          [
            121.463079,
            25.016403
          ],
          [
            121.462991,
            25.016309
          ],
          [
            121.462913,
            25.016198
          ],
          [
            121.462882,
            25.01616
          ],
          [
            121.46256,
            25.015761
          ],
          [
            121.462277,
            25.015411
          ],
          [
            121.462239,
            25.015364
          ],
          [
            121.46194,
            25.014994
          ],
          [
            121.461403,
            25.01433
          ],
          [
            121.461351,
            25.014266
          ],
          [
            121.461339,
            25.014251
          ],
          [
            121.461314,
            25.01422
          ],
          [
            121.461257,
            25.014149
          ],
          [
            121.461103,
            25.013958
          ],
          [
            121.460906,
            25.014054
          ],
          [
            121.461103,
            25.013958
          ],
          [
            121.460783,
            25.013563
          ],
          [
            121.460498,
            25.01321
          ],
          [
            121.460441,
            25.013139
          ],
          [
            121.460281,
            25.012941
          ],
          [
            121.460214,
            25.01281
          ],
          [
            121.46013,
            25.012643
          ],
          [
            121.460286,
            25.012752
          ],
          [
            121.460425,
            25.012853
          ],
          [
            121.460452,
            25.012884
          ],
          [
            121.460504,
            25.013005
          ],
          [
            121.461366,
            25.014081
          ],
          [
            121.46142,
            25.014149
          ],
          [
            121.461458,
            25.014197
          ],
          [
            121.46151,
            25.014261
          ],
          [
            121.462379,
            25.015348
          ],
          [
            121.46301,
            25.016135
          ],
          [
            121.463133,
            25.016189
          ],
          [
            121.463185,
            25.016254
          ],
          [
            121.462991,
            25.016309
          ],
          [
            121.462913,
            25.016198
          ],
          [
            121.46256,
            25.015761
          ],
          [
            121.462277,
            25.015411
          ],
          [
            121.462239,
            25.015364
          ],
          [
            121.462174,
            25.015408
          ],
          [
            121.461734,
            25.015694
          ],
          [
            121.461518,
            25.015747
          ],
          [
            121.461577,
            25.01596
          ],
          [
            121.461631,
            25.016258
          ],
          [
            121.461696,
            25.016619
          ],
          [
            121.461763,
            25.01699
          ],
          [
            121.461811,
            25.01727
          ],
          [
            121.461694,
            25.01728
          ],
          [
            121.461811,
            25.01727
          ],
          [
            121.462083,
            25.017246
          ],
          [
            121.462456,
            25.017224
          ],
          [
            121.462657,
            25.017193
          ],
          [
            121.462889,
            25.017136
          ],
          [
            121.462957,
            25.01712
          ],
          [
            121.463217,
            25.017587
          ],
          [
            121.463286,
            25.01771
          ],
          [
            121.463178,
            25.017729
          ],
          [
            121.462865,
            25.017857
          ],
          [
            121.46268,
            25.017933
          ],
          [
            121.462577,
            25.017647
          ],
          [
            121.462565,
            25.017606
          ],
          [
            121.462456,
            25.017224
          ],
          [
            121.462276,
            25.01704
          ],
          [
            121.462223,
            25.016986
          ],
          [
            121.462086,
            25.016792
          ],
          [
            121.462047,
            25.01659
          ],
          [
            121.462207,
            25.016563
          ],
          [
            121.462629,
            25.016491
          ],
          [
            121.462792,
            25.016803
          ],
          [
            121.462957,
            25.01712
          ],
          [
            121.462657,
            25.017193
          ],
          [
            121.462456,
            25.017224
          ],
          [
            121.462083,
            25.017246
          ],
          [
            121.461811,
            25.01727
          ],
          [
            121.461132,
            25.017328
          ],
          [
            121.460995,
            25.01734
          ],
          [
            121.460902,
            25.017462
          ],
          [
            121.460882,
            25.017488
          ],
          [
            121.460825,
            25.017626
          ],
          [
            121.460916,
            25.017624
          ],
          [
            121.46151,
            25.017609
          ],
          [
            121.461511,
            25.017909
          ],
          [
            121.461129,
            25.017922
          ],
          [
            121.461511,
            25.017909
          ],
          [
            121.46151,
            25.017609
          ],
          [
            121.461721,
            25.017645
          ],
          [
            121.461692,
            25.017883
          ],
          [
            121.461721,
            25.017645
          ],
          [
            121.461755,
            25.017479
          ],
          [
            121.461811,
            25.01727
          ],
          [
            121.461763,
            25.01699
          ],
          [
            121.461193,
            25.017047
          ],
          [
            121.460885,
            25.017077
          ],
          [
            121.460842,
            25.01696
          ],
          [
            121.460826,
            25.016886
          ],
          [
            121.460862,
            25.016837
          ],
          [
            121.460891,
            25.016815
          ],
          [
            121.460931,
            25.016796
          ],
          [
            121.461042,
            25.016765
          ],
          [
            121.461136,
            25.016735
          ],
          [
            121.461237,
            25.016694
          ],
          [
            121.461261,
            25.016685
          ],
          [
            121.461277,
            25.016667
          ],
          [
            121.461281,
            25.01666
          ],
          [
            121.461288,
            25.016647
          ],
          [
            121.461352,
            25.016426
          ],
          [
            121.461359,
            25.01638
          ],
          [
            121.461358,
            25.01633
          ],
          [
            121.46135,
            25.01623
          ],
          [
            121.46134,
            25.016165
          ],
          [
            121.461297,
            25.016009
          ],
          [
            121.461297,
            25.015953
          ],
          [
            121.461307,
            25.015898
          ],
          [
            121.461339,
            25.015839
          ],
          [
            121.461383,
            25.015778
          ],
          [
            121.46143,
            25.015738
          ],
          [
            121.461446,
            25.015652
          ],
          [
            121.461426,
            25.015554
          ],
          [
            121.461373,
            25.015417
          ],
          [
            121.461285,
            25.015358
          ],
          [
            121.461209,
            25.015333
          ],
          [
            121.461082,
            25.015292
          ],
          [
            121.460979,
            25.015214
          ],
          [
            121.460939,
            25.015147
          ],
          [
            121.460839,
            25.014874
          ],
          [
            121.460792,
            25.014779
          ]
        ]
      },
      "properties": {
        "routeId": "new-taipei-220097",
        "city": "new-taipei",
        "source_file": "new-taipei/new-taipei-220097.geojson",
        "distance_km": 6.832000000000001,
        "duration_min": 19.609233333333332,
        "valhalla_config": "valhalla.json"
      }
    }
  ]
}