{
  "type": "FeatureCollection",
  "features": [
    {
      "type": "Feature",
      "geometry": {
        "type": "LineString",
        "coordinates": [
          [
            121.718198,
            24.909482
          ],
          [
            121.718172,
            24.909498
          ],
          [
            121.718014,
            24.909642
          ],
          [
            121.717816,
            24.909922
          ],
          [
            121.717768,
            24.91008
          ],
          [
            121.717777,
            24.910186
          ],
          [
            121.717894,
            24.910332
          ],
          [
            121.717962,
            24.910404
          ],
          [
            121.717987,
            24.910513
          ],
          [
            121.717987,
            24.910608
          ],
          [
            121.717953,
            24.910672
          ],
          [
            121.717879,
            24.91072
          ],
          [
            121.717697,
            24.910787
          ],
          [
            121.717512,
            24.91077
          ],
          [
            121.717287,
            24.910812
          ],
          [
            121.716392,
            24.911046
          ],
          [
            121.716224,
            24.911101
          ],
          [
            121.716022,
            24.911121
          ],
          [
            121.715525,
            24.911026
          ],
          [
            121.715347,
            24.91101
          ],
          [
            121.715216,
            24.910997
          ],
          [
            121.715056,
            24.911034
          ],
          [
            121.714925,
            24.911112
          ],
          [
            121.714792,
            24.911243
          ],
          [
            121.71471,
            24.911359
          ],
          [
            121.7147,
            24.911498
          ],
          [
            121.714746,
            24.911635
          ],
          [
            121.71482,
            24.911763
          ],
          [
            121.714965,
            24.911984
          ],
          [
            121.715012,
            24.912086
          ],
          [
            121.715003,
            24.912194
          ],
          [
            121.714965,
            24.912273
          ],
          [
            121.714631,
            24.912597
          ],
          [
            121.71358,
            24.913947
          ],
          [
            121.713215,
            24.914404
          ],
          [
            121.713046,
            24.914523
          ],
          [
            121.712682,
            24.914694
          ],
          [
            121.712346,
            24.914889
          ],
          [
            121.712206,
            24.914954
          ],
          [
            121.712103,
            24.914992
          ],
          [
            121.711927,
            24.914982
          ],
          [
            121.711638,
            24.914982
          ],
          [
            121.711337,
            24.914992
          ],
          [
            121.711199,
            24.915015
          ],
          [
            121.710999,
            24.915105
          ],
          [
            121.710881,
            24.915238
          ],
          [
            121.710778,
            24.915398
          ],
          [
            121.71073,
            24.915476
          ],
          [
            121.71066,
            24.915629
          ],
          [
            121.710614,
            24.91577
          ],
          [
            121.710567,
            24.916177
          ],
          [
            121.710539,
            24.916296
          ],
          [
            121.710471,
            24.916464
          ],
          [
            121.710396,
            24.916597
          ],
          [
            121.710319,
            24.916697
          ],
          [
            121.71002,
            24.916914
          ],
          [
            121.709828,
            24.917057
          ],
          [
            121.709733,
            24.917179
          ],
          [
            121.709712,
            24.91726
          ],
          [
            121.709721,
            24.917349
          ],
          [
            121.709746,
            24.917408
          ],
          [
            121.709842,
            24.917486
          ],
          [
            121.709996,
            24.9176
          ],
          [
            121.710071,
            24.917694
          ],
          [
            121.710086,
            24.917787
          ],
          [
            121.710071,
            24.917906
          ],
          [
            121.710024,
            24.917983
          ],
          [
            121.709925,
            24.918048
          ],
          [
            121.709731,
            24.91811
          ],
          [
            121.709383,
            24.918165
          ],
          [
            121.708802,
            24.918242
          ],
          [
            121.708615,
            24.918295
          ],
          [
            121.708536,
            24.918324
          ],
          [
            121.708437,
            24.918422
          ],
          [
            121.708362,
            24.918558
          ],
          [
            121.708347,
            24.918636
          ],
          [
            121.708359,
            24.918772
          ],
          [
            121.708381,
            24.918859
          ],
          [
            121.708382,
            24.918956
          ],
          [
            121.708365,
            24.919032
          ],
          [
            121.708325,
            24.919084
          ],
          [
            121.708263,
            24.919129
          ],
          [
            121.708169,
            24.919161
          ],
          [
            121.708085,
            24.919169
          ],
          [
            121.707844,
            24.919145
          ],
          [
            121.707591,
            24.919166
          ],
          [
            121.707257,
            24.919297
          ],
          [
            121.707046,
            24.919436
          ],
          [
            121.706877,
            24.919595
          ],
          [
            121.706817,
            24.919678
          ],
          [
            121.706695,
            24.919844
          ],
          [
            121.706541,
            24.920104
          ],
          [
            121.70647,
            24.92028
          ],
          [
            121.706353,
            24.920898
          ],
          [
            121.706378,
            24.921062
          ],
          [
            121.706449,
            24.921166
          ],
          [
            121.70656,
            24.921339
          ],
          [
            121.706607,
            24.921477
          ],
          [
            121.706575,
            24.921591
          ],
          [
            121.70648,
            24.921697
          ],
          [
            121.706316,
            24.921755
          ],
          [
            121.706185,
            24.921805
          ],
          [
            121.705876,
            24.921936
          ],
          [
            121.705577,
            24.922143
          ],
          [
            121.705492,
            24.922272
          ],
          [
            121.705427,
            24.922422
          ],
          [
            121.705384,
            24.922701
          ],
          [
            121.705406,
            24.922851
          ],
          [
            121.705535,
            24.923387
          ],
          [
            121.705577,
            24.923644
          ],
          [
            121.705642,
            24.923773
          ],
          [
            121.705685,
            24.923816
          ],
          [
            121.705749,
            24.923859
          ],
          [
            121.705921,
            24.92388
          ],
          [
            121.706039,
            24.923859
          ],
          [
            121.706156,
            24.92382
          ],
          [
            121.706248,
            24.923753
          ],
          [
            121.706422,
            24.923556
          ],
          [
            121.706521,
            24.923473
          ],
          [
            121.706597,
            24.923441
          ],
          [
            121.706661,
            24.923441
          ],
          [
            121.70674,
            24.923442
          ],
          [
            121.706795,
            24.923473
          ],
          [
            121.706863,
            24.923529
          ],
          [
            121.706871,
            24.923583
          ],
          [
            121.706905,
            24.923773
          ],
          [
            121.706929,
            24.923966
          ],
          [
            121.706994,
            24.924116
          ],
          [
            121.707036,
            24.92418
          ],
          [
            121.707144,
            24.924266
          ],
          [
            121.707233,
            24.924311
          ],
          [
            121.707407,
            24.924328
          ],
          [
            121.707533,
            24.924357
          ],
          [
            121.707606,
            24.924416
          ],
          [
            121.70767,
            24.924478
          ],
          [
            121.70772,
            24.924591
          ],
          [
            121.707866,
            24.92507
          ],
          [
            121.707953,
            24.925224
          ],
          [
            121.708046,
            24.925368
          ],
          [
            121.708654,
            24.926098
          ],
          [
            121.708687,
            24.926177
          ],
          [
            121.708694,
            24.926269
          ],
          [
            121.708687,
            24.926354
          ],
          [
            121.708651,
            24.926416
          ],
          [
            121.708401,
            24.926663
          ],
          [
            121.708313,
            24.926755
          ],
          [
            121.708258,
            24.926843
          ],
          [
            121.708212,
            24.926959
          ],
          [
            121.708195,
            24.927052
          ],
          [
            121.708326,
            24.927746
          ],
          [
            121.708443,
            24.928114
          ],
          [
            121.708453,
            24.928259
          ],
          [
            121.708433,
            24.92841
          ],
          [
            121.708397,
            24.928494
          ],
          [
            121.70827,
            24.928733
          ],
          [
            121.708232,
            24.928836
          ],
          [
            121.708202,
            24.928965
          ],
          [
            121.708212,
            24.92913
          ],
          [
            121.708262,
            24.92925
          ],
          [
            121.708441,
            24.929611
          ],
          [
            121.708466,
            24.929731
          ],
          [
            121.708434,
            24.92989
          ],
          [
            121.708312,
            24.930214
          ],
          [
            121.708181,
            24.930506
          ],
          [
            121.708098,
            24.930611
          ],
          [
            121.708029,
            24.930681
          ],
          [
            121.707919,
            24.930716
          ],
          [
            121.707828,
            24.930721
          ],
          [
            121.707645,
            24.93074
          ],
          [
            121.707587,
            24.93075
          ],
          [
            121.707527,
            24.930771
          ],
          [
            121.707404,
            24.93085
          ],
          [
            121.707266,
            24.931041
          ],
          [
            121.70717,
            24.931216
          ],
          [
            121.706904,
            24.931841
          ],
          [
            121.706857,
            24.932001
          ],
          [
            121.706848,
            24.932111
          ],
          [
            121.706846,
            24.932187
          ],
          [
            121.706869,
            24.932275
          ],
          [
            121.706917,
            24.932345
          ],
          [
            121.706955,
            24.932377
          ],
          [
            121.707008,
            24.932397
          ],
          [
            121.707144,
            24.932419
          ],
          [
            121.708161,
            24.932439
          ],
          [
            121.708321,
            24.93243
          ],
          [
            121.708506,
            24.93238
          ],
          [
            121.708937,
            24.932242
          ],
          [
            121.709084,
            24.932216
          ],
          [
            121.709222,
            24.932227
          ],
          [
            121.709324,
            24.932283
          ],
          [
            121.709432,
            24.932419
          ],
          [
            121.70991,
            24.933181
          ],
          [
            121.710092,
            24.933368
          ],
          [
            121.710251,
            24.933479
          ],
          [
            121.71058,
            24.933628
          ],
          [
            121.710733,
            24.933697
          ],
          [
            121.710873,
            24.933749
          ],
          [
            121.710927,
            24.933856
          ],
          [
            121.710959,
            24.933926
          ],
          [
            121.710963,
            24.934078
          ],
          [
            121.710801,
            24.934753
          ],
          [
            121.710743,
            24.934917
          ],
          [
            121.71071,
            24.934983
          ],
          [
            121.71063,
            24.935103
          ],
          [
            121.710551,
            24.935174
          ],
          [
            121.710442,
            24.935218
          ],
          [
            121.710359,
            24.935237
          ],
          [
            121.710272,
            24.935247
          ],
          [
            121.710195,
            24.935241
          ],
          [
            121.709523,
            24.935074
          ],
          [
            121.709225,
            24.935002
          ],
          [
            121.708345,
            24.934763
          ],
          [
            121.707425,
            24.934523
          ],
          [
            121.707215,
            24.934495
          ],
          [
            121.706976,
            24.934501
          ],
          [
            121.706756,
            24.934548
          ],
          [
            121.706594,
            24.934587
          ],
          [
            121.706378,
            24.934675
          ],
          [
            121.705407,
            24.935131
          ],
          [
            121.70449,
            24.935561
          ],
          [
            121.704389,
            24.935616
          ],
          [
            121.703167,
            24.936188
          ],
          [
            121.702936,
            24.936298
          ],
          [
            121.703167,
            24.936188
          ],
          [
            121.704389,
            24.935616
          ],
          [
            121.70449,
            24.935561
          ],
          [
            121.705407,
            24.935131
          ],
          [
            121.706378,
            24.934675
          ],
          [
            121.706594,
            24.934587
          ],
          [
            121.706756,
            24.934548
          ],
          [
            121.706976,
            24.934501
          ],
          [
            121.707215,
            24.934495
          ],
          [
            121.707425,
            24.934523
          ],
          [
            121.708345,
            24.934763
          ],
          [
            121.709225,
            24.935002
          ],
          [
            121.709463,
            24.935197
          ],
          [
            121.709759,
            24.935377
          ],
          [
            121.710062,
            24.935553
          ],
          [
            121.710365,
            24.935735
          ],
          [
            121.710514,
            24.935775
          ],
          [
            121.71067,
            24.935789
          ],
          [
            121.710742,
            24.935781
          ],
          [
            121.710784,
            24.935777
          ],
          [
            121.710922,
            24.935741
          ],
          [
            121.71113,
            24.935676
          ],
          [
            121.711287,
            24.935592
          ],
          [
            121.711446,
            24.935483
          ],
          [
            121.711507,
            24.935278
          ],
          [
            121.711527,
            24.935181
          ],
          [
            121.711689,
            24.935272
          ],
          [
            121.711819,
            24.935341
          ],
          [
            121.711898,
            24.935438
          ],
          [
            121.712196,
            24.935905
          ],
          [
            121.712453,
            24.93628
          ],
          [
            121.712539,
            24.936398
          ],
          [
            121.712401,
            24.936613
          ],
          [
            121.71218,
            24.937025
          ],
          [
            121.711772,
            24.937528
          ],
          [
            121.711704,
            24.937601
          ],
          [
            121.71165,
            24.93766
          ],
          [
            121.711621,
            24.937791
          ],
          [
            121.711678,
            24.937946
          ],
          [
            121.711755,
            24.938074
          ],
          [
            121.711829,
            24.93821
          ],
          [
            121.711851,
            24.938338
          ],
          [
            121.711853,
            24.938413
          ],
          [
            121.711837,
            24.938529
          ],
          [
            121.711786,
            24.938813
          ],
          [
            121.711727,
            24.938951
          ],
          [
            121.711646,
            24.939084
          ],
          [
            121.711569,
            24.93918
          ],
          [
            121.711469,
            24.939285
          ],
          [
            121.711313,
            24.939565
          ],
          [
            121.711253,
            24.939738
          ],
          [
            121.711218,
            24.93987
          ],
          [
            121.711221,
            24.940081
          ],
          [
            121.711237,
            24.940291
          ],
          [
            121.711281,
            24.940661
          ],
          [
            121.711306,
            24.940796
          ],
          [
            121.711371,
            24.940917
          ],
          [
            121.711478,
            24.941046
          ],
          [
            121.711628,
            24.941132
          ],
          [
            121.712001,
            24.941195
          ],
          [
            121.71219,
            24.941235
          ],
          [
            121.712269,
            24.941326
          ],
          [
            121.712309,
            24.941393
          ],
          [
            121.712309,
            24.941515
          ],
          [
            121.71219,
            24.941735
          ],
          [
            121.7118,
            24.942498
          ],
          [
            121.711819,
            24.942591
          ],
          [
            121.711769,
            24.942835
          ],
          [
            121.711715,
            24.942968
          ],
          [
            121.711613,
            24.94306
          ],
          [
            121.711596,
            24.943167
          ],
          [
            121.711581,
            24.943264
          ],
          [
            121.711593,
            24.943344
          ],
          [
            121.711625,
            24.943391
          ],
          [
            121.711717,
            24.943459
          ],
          [
            121.711779,
            24.943464
          ],
          [
            121.711967,
            24.943461
          ],
          [
            121.712164,
            24.943444
          ],
          [
            121.712286,
            24.943424
          ],
          [
            121.712423,
            24.943396
          ],
          [
            121.712551,
            24.943299
          ],
          [
            121.712745,
            24.943208
          ],
          [
            121.712937,
            24.943063
          ],
          [
            121.713023,
            24.942956
          ],
          [
            121.713088,
            24.942827
          ],
          [
            121.713186,
            24.942572
          ],
          [
            121.71329,
            24.942271
          ],
          [
            121.713186,
            24.942572
          ],
          [
            121.713088,
            24.942827
          ],
          [
            121.713023,
            24.942956
          ],
          [
            121.712937,
            24.943063
          ],
          [
            121.712745,
            24.943208
          ],
          [
            121.712551,
            24.943299
          ],
          [
            121.712423,
            24.943396
          ],
          [
            121.712286,
            24.943424
          ],
          [
            121.712164,
            24.943444
          ],
          [
            121.711967,
            24.943461
          ],
          [
            121.711779,
            24.943464
          ],
          [
            121.711717,
            24.943459
          ],
          [
            121.711625,
            24.943391
          ],
          [
            121.711593,
            24.943344
          ],
          [
            121.711581,
            24.943264
          ],
          [
            121.711596,
            24.943167
          ],
          [
            121.711613,
            24.94306
          ],
          [
            121.711726,
            24.942732
          ],
          [
            121.7118,
            24.942498
          ],
          [
            121.711692,
            24.942466
          ],
          [
            121.7118,
            24.942498
          ],
          [
            121.71219,
            24.941735
          ],
          [
            121.712309,
            24.941515
          ],
          [
            121.712309,
            24.941393
          ],
          [
            121.712269,
            24.941326
          ],
          [
            121.71219,
            24.941235
          ],
          [
            121.712001,
            24.941195
          ],
          [
            121.711628,
            24.941132
          ],
          [
            121.711478,
            24.941046
          ],
          [
            121.711371,
            24.940917
          ],
          [
            121.711306,
            24.940796
          ],
          [
            121.711281,
            24.940661
          ],
          [
            121.711237,
            24.940291
          ],
          [
            121.711221,
            24.940081
          ],
          [
            121.711218,
            24.93987
          ],
          [
            121.711253,
            24.939738
          ],
          [
            121.711313,
            24.939565
          ],
          [
            121.711469,
            24.939285
          ],
          [
            121.711569,
            24.93918
          ],
          [
            121.711646,
            24.939084
          ],
          [
            121.711727,
            24.938951
          ],
          [
            121.711786,
            24.938813
          ],
          [
            121.711837,
            24.938529
          ],
          [
            121.711853,
            24.938413
          ],
          [
            121.711851,
            24.938338
          ],
          [
            121.711829,
            24.93821
          ],
          [
            121.711755,
            24.938074
          ],
          [
            121.711678,
            24.937946
          ],
          [
            121.711621,
            24.937791
          ],
          [
            121.711518,
            24.937721
          ],
          [
            121.711448,
            24.937657
          ],
          [
            121.711406,
            24.937575
          ],
          [
            121.711405,
            24.937451
          ],
          [
            121.711445,
            24.937344
          ],
          [
            121.711559,
            24.937154
          ],
          [
            121.711636,
            24.937051
          ],
          [
            121.711751,
            24.936897
          ],
          [
            121.711889,
            24.936672
          ],
          [
            121.712028,
            24.936441
          ],
          [
            121.712033,
            24.936347
          ],
          [
            121.71199,
            24.936265
          ],
          [
            121.711914,
            24.936149
          ],
          [
            121.712196,
            24.935905
          ],
          [
            121.712453,
            24.93628
          ],
          [
            121.712539,
            24.936398
          ],
          [
            121.712578,
            24.936289
          ],
          [
            121.713002,
            24.935475
          ],
          [
            121.713047,
            24.935418
          ],
          [
            121.712856,
            24.935178
          ],
          [
            121.712516,
            24.934838
          ],
          [
            121.712156,
            24.934536
          ],
          [
            121.711943,
            24.934405
          ],
          [
            121.711567,
            24.934238
          ],
          [
            121.711467,
            24.934166
          ],
          [
            121.71142,
            24.934064
          ],
          [
            121.711401,
            24.934
          ]
        ]
      },
      "properties": {
        "routeId": "new-taipei-232011",
        "city": "new-taipei",
        "source_file": "new-taipei/new-taipei-232011.geojson",
        "distance_km": 9.258,
        "duration_min": 9.739766666666666,
        "valhalla_config": "valhalla.json"
      }
    }
  ]
}