{
  "type": "FeatureCollection",
  "features": [
    {
      "type": "Feature",
      "geometry": {
        "type": "LineString",
        "coordinates": [
          [
            121.434843,
            25.023654
          ],
          [
            121.43494,
            25.023607
          ],
          [
            121.435028,
            25.023565
          ],
          [
            121.435022,
            25.023703
          ],
          [
            121.435012,
            25.023936
          ],
          [
            121.435005,
            25.024132
          ],
          [
            121.434997,
            25.024318
          ],
          [
            121.434988,
            25.024556
          ],
          [
            121.434983,
            25.024805
          ],
          [
            121.434976,
            25.02506
          ],
          [
            121.434959,
            25.025569
          ],
          [
            121.434952,
            25.025829
          ],
          [
            121.434951,
            25.025863
          ],
          [
            121.434948,
            25.025995
          ],
          [
            121.434944,
            25.026106
          ],
          [
            121.434942,
            25.026157
          ],
          [
            121.434926,
            25.02663
          ],
          [
            121.434924,
            25.026701
          ],
          [
            121.434922,
            25.026778
          ],
          [
            121.434915,
            25.027087
          ],
          [
            121.434904,
            25.027301
          ],
          [
            121.434902,
            25.027344
          ],
          [
            121.434896,
            25.027545
          ],
          [
            121.434893,
            25.027624
          ],
          [
            121.43489,
            25.027709
          ],
          [
            121.434876,
            25.028105
          ],
          [
            121.434872,
            25.028244
          ],
          [
            121.434868,
            25.02834
          ],
          [
            121.434774,
            25.028338
          ],
          [
            121.43415,
            25.028314
          ],
          [
            121.433147,
            25.028276
          ],
          [
            121.433101,
            25.028274
          ],
          [
            121.432499,
            25.028179
          ],
          [
            121.432458,
            25.028169
          ],
          [
            121.432205,
            25.02811
          ],
          [
            121.431773,
            25.028007
          ],
          [
            121.431665,
            25.027981
          ],
          [
            121.431504,
            25.027932
          ],
          [
            121.430889,
            25.027745
          ],
          [
            121.430667,
            25.027677
          ],
          [
            121.430615,
            25.027661
          ],
          [
            121.429988,
            25.027473
          ],
          [
            121.429942,
            25.027459
          ],
          [
            121.429734,
            25.027396
          ],
          [
            121.429734,
            25.027396
          ],
          [
            121.429684,
            25.027381
          ],
          [
            121.429445,
            25.027309
          ],
          [
            121.428954,
            25.027161
          ],
          [
            121.428913,
            25.027275
          ],
          [
            121.428826,
            25.027515
          ],
          [
            121.428796,
            25.027603
          ],
          [
            121.428703,
            25.027871
          ],
          [
            121.428018,
            25.027669
          ],
          [
            121.428053,
            25.027566
          ],
          [
            121.428087,
            25.027466
          ],
          [
            121.428142,
            25.027309
          ],
          [
            121.428239,
            25.027026
          ],
          [
            121.428264,
            25.026953
          ],
          [
            121.427639,
            25.026767
          ],
          [
            121.427564,
            25.026744
          ],
          [
            121.427004,
            25.026574
          ],
          [
            121.426937,
            25.026554
          ],
          [
            121.42684,
            25.026868
          ],
          [
            121.426825,
            25.026917
          ],
          [
            121.426727,
            25.027236
          ],
          [
            121.426714,
            25.027279
          ],
          [
            121.427385,
            25.027482
          ],
          [
            121.427543,
            25.027529
          ],
          [
            121.428018,
            25.027669
          ],
          [
            121.42791,
            25.027983
          ],
          [
            121.427805,
            25.027952
          ],
          [
            121.427423,
            25.027839
          ],
          [
            121.426689,
            25.027623
          ],
          [
            121.426616,
            25.027601
          ],
          [
            121.426607,
            25.027629
          ],
          [
            121.42655,
            25.027835
          ],
          [
            121.42654,
            25.027876
          ],
          [
            121.426532,
            25.027909
          ],
          [
            121.426464,
            25.028208
          ],
          [
            121.426406,
            25.028481
          ],
          [
            121.426311,
            25.028924
          ],
          [
            121.426111,
            25.029478
          ],
          [
            121.426311,
            25.028924
          ],
          [
            121.426464,
            25.028208
          ],
          [
            121.426532,
            25.027909
          ],
          [
            121.42654,
            25.027876
          ],
          [
            121.42655,
            25.027835
          ],
          [
            121.426607,
            25.027629
          ],
          [
            121.426616,
            25.027601
          ],
          [
            121.426714,
            25.027279
          ],
          [
            121.426732,
            25.02722
          ],
          [
            121.426825,
            25.026917
          ],
          [
            121.426937,
            25.026554
          ],
          [
            121.426565,
            25.026442
          ],
          [
            121.426505,
            25.026423
          ],
          [
            121.426306,
            25.02697
          ],
          [
            121.426274,
            25.027057
          ],
          [
            121.426243,
            25.027143
          ],
          [
            121.426186,
            25.027304
          ],
          [
            121.426149,
            25.02741
          ],
          [
            121.426117,
            25.027502
          ],
          [
            121.426093,
            25.02757
          ],
          [
            121.426018,
            25.02755
          ],
          [
            121.425835,
            25.027502
          ],
          [
            121.425571,
            25.027432
          ],
          [
            121.425631,
            25.027199
          ],
          [
            121.425656,
            25.027148
          ],
          [
            121.425737,
            25.026904
          ],
          [
            121.425749,
            25.02687
          ],
          [
            121.425768,
            25.026815
          ],
          [
            121.425855,
            25.026563
          ],
          [
            121.425933,
            25.026329
          ],
          [
            121.425855,
            25.026563
          ],
          [
            121.425186,
            25.026372
          ],
          [
            121.425264,
            25.026148
          ],
          [
            121.425186,
            25.026372
          ],
          [
            121.425162,
            25.026442
          ],
          [
            121.425157,
            25.026456
          ],
          [
            121.42509,
            25.02665
          ],
          [
            121.42508,
            25.02668
          ],
          [
            121.425065,
            25.026724
          ],
          [
            121.42508,
            25.02668
          ],
          [
            121.42509,
            25.02665
          ],
          [
            121.425162,
            25.026442
          ],
          [
            121.425186,
            25.026372
          ],
          [
            121.425295,
            25.026058
          ],
          [
            121.425067,
            25.025989
          ],
          [
            121.424801,
            25.025872
          ],
          [
            121.42451,
            25.025702
          ],
          [
            121.424375,
            25.025588
          ],
          [
            121.424297,
            25.025521
          ],
          [
            121.424346,
            25.025437
          ],
          [
            121.424564,
            25.02506
          ],
          [
            121.424584,
            25.025027
          ],
          [
            121.424899,
            25.024455
          ],
          [
            121.424986,
            25.024308
          ],
          [
            121.425089,
            25.024118
          ],
          [
            121.425283,
            25.023859
          ],
          [
            121.425315,
            25.023814
          ],
          [
            121.42545,
            25.023618
          ],
          [
            121.425863,
            25.022938
          ],
          [
            121.426266,
            25.022287
          ],
          [
            121.426398,
            25.022446
          ],
          [
            121.426477,
            25.022536
          ],
          [
            121.426544,
            25.022639
          ],
          [
            121.426643,
            25.02279
          ],
          [
            121.426761,
            25.022937
          ],
          [
            121.42685,
            25.023049
          ],
          [
            121.426953,
            25.023177
          ],
          [
            121.426998,
            25.023233
          ],
          [
            121.427097,
            25.023347
          ],
          [
            121.427131,
            25.023386
          ],
          [
            121.427209,
            25.023476
          ],
          [
            121.427129,
            25.023592
          ],
          [
            121.427013,
            25.023761
          ],
          [
            121.426908,
            25.023914
          ],
          [
            121.426836,
            25.024017
          ],
          [
            121.42678,
            25.024098
          ],
          [
            121.426751,
            25.024141
          ],
          [
            121.426643,
            25.024298
          ],
          [
            121.427121,
            25.024579
          ],
          [
            121.427137,
            25.024589
          ],
          [
            121.427199,
            25.024625
          ],
          [
            121.427442,
            25.024767
          ],
          [
            121.427718,
            25.024928
          ],
          [
            121.428101,
            25.024379
          ],
          [
            121.428266,
            25.024125
          ],
          [
            121.427932,
            25.023928
          ],
          [
            121.428266,
            25.024125
          ],
          [
            121.428211,
            25.02421
          ],
          [
            121.428101,
            25.024379
          ],
          [
            121.428178,
            25.024471
          ],
          [
            121.428419,
            25.024641
          ],
          [
            121.428696,
            25.024837
          ],
          [
            121.428732,
            25.024862
          ],
          [
            121.428865,
            25.02495
          ],
          [
            121.429164,
            25.025145
          ],
          [
            121.429112,
            25.025222
          ],
          [
            121.42898,
            25.025417
          ],
          [
            121.428956,
            25.025452
          ],
          [
            121.428853,
            25.025604
          ],
          [
            121.42889,
            25.025675
          ],
          [
            121.4289,
            25.025708
          ],
          [
            121.428909,
            25.025754
          ],
          [
            121.428914,
            25.025809
          ],
          [
            121.428907,
            25.025897
          ],
          [
            121.428893,
            25.025971
          ],
          [
            121.429027,
            25.026009
          ],
          [
            121.429365,
            25.026104
          ],
          [
            121.429833,
            25.026236
          ],
          [
            121.42993,
            25.025961
          ],
          [
            121.429948,
            25.025912
          ],
          [
            121.42993,
            25.025961
          ],
          [
            121.429833,
            25.026236
          ],
          [
            121.429738,
            25.026497
          ],
          [
            121.429693,
            25.026622
          ],
          [
            121.429643,
            25.026761
          ],
          [
            121.42918,
            25.026625
          ],
          [
            121.429129,
            25.02661
          ],
          [
            121.428716,
            25.026489
          ],
          [
            121.428804,
            25.026231
          ],
          [
            121.428893,
            25.025971
          ],
          [
            121.428907,
            25.025897
          ],
          [
            121.428914,
            25.025809
          ],
          [
            121.428909,
            25.025754
          ],
          [
            121.4289,
            25.025708
          ],
          [
            121.428889,
            25.025675
          ],
          [
            121.428853,
            25.025604
          ],
          [
            121.428269,
            25.025256
          ],
          [
            121.428225,
            25.02523
          ],
          [
            121.427718,
            25.024928
          ],
          [
            121.427669,
            25.0249
          ],
          [
            121.427442,
            25.024767
          ],
          [
            121.42741,
            25.024748
          ],
          [
            121.427137,
            25.024589
          ],
          [
            121.427121,
            25.024579
          ],
          [
            121.426643,
            25.024298
          ],
          [
            121.426625,
            25.024287
          ],
          [
            121.426584,
            25.024346
          ],
          [
            121.426426,
            25.024568
          ],
          [
            121.426407,
            25.024595
          ],
          [
            121.426382,
            25.024635
          ],
          [
            121.42631,
            25.024747
          ],
          [
            121.426265,
            25.024851
          ],
          [
            121.426244,
            25.024909
          ],
          [
            121.426219,
            25.024977
          ],
          [
            121.426203,
            25.025019
          ],
          [
            121.42614,
            25.025188
          ],
          [
            121.42627,
            25.025225
          ],
          [
            121.426292,
            25.025231
          ],
          [
            121.426721,
            25.025351
          ],
          [
            121.426742,
            25.025285
          ],
          [
            121.42681,
            25.025077
          ],
          [
            121.426832,
            25.025037
          ],
          [
            121.426929,
            25.024862
          ],
          [
            121.426966,
            25.024808
          ],
          [
            121.427121,
            25.024579
          ],
          [
            121.427137,
            25.024589
          ],
          [
            121.427442,
            25.024767
          ],
          [
            121.427718,
            25.024928
          ],
          [
            121.427509,
            25.025223
          ],
          [
            121.42746,
            25.025293
          ],
          [
            121.427457,
            25.0253
          ],
          [
            121.427368,
            25.025542
          ],
          [
            121.427341,
            25.025611
          ],
          [
            121.427271,
            25.025794
          ],
          [
            121.427251,
            25.025847
          ],
          [
            121.427224,
            25.025917
          ],
          [
            121.42718,
            25.026035
          ],
          [
            121.427119,
            25.026017
          ],
          [
            121.42655,
            25.025851
          ],
          [
            121.426493,
            25.025833
          ],
          [
            121.426209,
            25.025744
          ],
          [
            121.426133,
            25.025773
          ],
          [
            121.426085,
            25.025906
          ],
          [
            121.426065,
            25.025962
          ],
          [
            121.425957,
            25.026258
          ],
          [
            121.426279,
            25.026356
          ],
          [
            121.426352,
            25.026378
          ],
          [
            121.426505,
            25.026423
          ],
          [
            121.426565,
            25.026442
          ],
          [
            121.426654,
            25.026469
          ],
          [
            121.426937,
            25.026554
          ],
          [
            121.427004,
            25.026574
          ],
          [
            121.427639,
            25.026767
          ],
          [
            121.427767,
            25.026437
          ],
          [
            121.427849,
            25.026224
          ],
          [
            121.427951,
            25.026255
          ],
          [
            121.428401,
            25.026393
          ],
          [
            121.427849,
            25.026224
          ],
          [
            121.427639,
            25.026767
          ],
          [
            121.427004,
            25.026574
          ],
          [
            121.426937,
            25.026554
          ],
          [
            121.426565,
            25.026442
          ],
          [
            121.426505,
            25.026423
          ],
          [
            121.426279,
            25.026356
          ],
          [
            121.425957,
            25.026258
          ],
          [
            121.425295,
            25.026058
          ],
          [
            121.425067,
            25.025989
          ],
          [
            121.424801,
            25.025872
          ],
          [
            121.42451,
            25.025702
          ],
          [
            121.424375,
            25.025588
          ],
          [
            121.424297,
            25.025521
          ],
          [
            121.424282,
            25.025544
          ],
          [
            121.424033,
            25.025945
          ],
          [
            121.423997,
            25.026001
          ],
          [
            121.423977,
            25.026031
          ],
          [
            121.423964,
            25.026051
          ],
          [
            121.423875,
            25.026188
          ],
          [
            121.423706,
            25.02644
          ],
          [
            121.423567,
            25.026675
          ],
          [
            121.423482,
            25.026819
          ],
          [
            121.423453,
            25.026868
          ],
          [
            121.423278,
            25.027208
          ],
          [
            121.423246,
            25.027271
          ],
          [
            121.423224,
            25.027324
          ],
          [
            121.423177,
            25.027454
          ],
          [
            121.423155,
            25.027514
          ],
          [
            121.423137,
            25.027562
          ],
          [
            121.423036,
            25.027835
          ],
          [
            121.422918,
            25.028199
          ],
          [
            121.422813,
            25.0285
          ],
          [
            121.422717,
            25.028783
          ],
          [
            121.422678,
            25.028879
          ],
          [
            121.422799,
            25.028917
          ],
          [
            121.42359,
            25.029167
          ],
          [
            121.424196,
            25.029358
          ],
          [
            121.425903,
            25.029897
          ],
          [
            121.425953,
            25.029912
          ],
          [
            121.426051,
            25.029941
          ],
          [
            121.426381,
            25.030038
          ],
          [
            121.427645,
            25.03044
          ],
          [
            121.428438,
            25.03069
          ],
          [
            121.428782,
            25.030801
          ],
          [
            121.429077,
            25.030895
          ],
          [
            121.42989,
            25.031154
          ],
          [
            121.430269,
            25.031274
          ],
          [
            121.431646,
            25.031712
          ],
          [
            121.431845,
            25.031776
          ],
          [
            121.432151,
            25.031873
          ],
          [
            121.432342,
            25.031933
          ],
          [
            121.433378,
            25.032262
          ],
          [
            121.433505,
            25.032304
          ],
          [
            121.433616,
            25.032339
          ],
          [
            121.433809,
            25.032396
          ],
          [
            121.434081,
            25.032458
          ],
          [
            121.434201,
            25.032478
          ],
          [
            121.435116,
            25.032632
          ],
          [
            121.435422,
            25.032684
          ],
          [
            121.436397,
            25.032847
          ],
          [
            121.436477,
            25.032858
          ],
          [
            121.436797,
            25.032911
          ],
          [
            121.437034,
            25.032951
          ],
          [
            121.437258,
            25.032984
          ],
          [
            121.437304,
            25.032991
          ],
          [
            121.437392,
            25.033001
          ],
          [
            121.437442,
            25.033015
          ],
          [
            121.437495,
            25.033024
          ],
          [
            121.437555,
            25.033034
          ],
          [
            121.437685,
            25.033054
          ],
          [
            121.438191,
            25.033139
          ],
          [
            121.439369,
            25.033336
          ],
          [
            121.43945,
            25.03335
          ],
          [
            121.439493,
            25.033358
          ],
          [
            121.440949,
            25.033623
          ],
          [
            121.440974,
            25.033628
          ],
          [
            121.441128,
            25.033664
          ],
          [
            121.441515,
            25.03374
          ],
          [
            121.441544,
            25.033745
          ],
          [
            121.441934,
            25.033818
          ],
          [
            121.442009,
            25.033832
          ],
          [
            121.442181,
            25.033869
          ],
          [
            121.442284,
            25.033887
          ],
          [
            121.442459,
            25.033928
          ],
          [
            121.442509,
            25.033939
          ],
          [
            121.442841,
            25.03401
          ]
        ]
      },
      "properties": {
        "routeId": "new-taipei-242036",
        "city": "new-taipei",
        "source_file": "new-taipei/new-taipei-242036.geojson",
        "distance_km": 9.188,
        "duration_min": 22.5096,
        "valhalla_config": "valhalla.json"
      }
    }
  ]
}