{
  "type": "FeatureCollection",
  "features": [
    {
      "type": "Feature",
      "geometry": {
        "type": "LineString",
        "coordinates": [
          [
            121.490129,
            25.067939
          ],
          [
            121.490651,
            25.0686
          ],
          [
            121.490546,
            25.068663
          ],
          [
            121.489523,
            25.067347
          ],
          [
            121.489364,
            25.067316
          ],
          [
            121.489116,
            25.067268
          ],
          [
            121.488872,
            25.067265
          ],
          [
            121.488663,
            25.067263
          ],
          [
            121.488687,
            25.067469
          ],
          [
            121.488682,
            25.067556
          ],
          [
            121.488658,
            25.067629
          ],
          [
            121.487905,
            25.067399
          ],
          [
            121.487783,
            25.067261
          ],
          [
            121.487717,
            25.067186
          ],
          [
            121.48767,
            25.067134
          ],
          [
            121.487837,
            25.067022
          ],
          [
            121.488779,
            25.066391
          ],
          [
            121.488842,
            25.066355
          ],
          [
            121.488933,
            25.066305
          ],
          [
            121.488888,
            25.066427
          ],
          [
            121.488675,
            25.066558
          ],
          [
            121.488427,
            25.06671
          ],
          [
            121.487913,
            25.067056
          ],
          [
            121.487717,
            25.067186
          ],
          [
            121.48702,
            25.067647
          ],
          [
            121.486409,
            25.068059
          ],
          [
            121.486064,
            25.068296
          ],
          [
            121.485352,
            25.068752
          ],
          [
            121.485053,
            25.068955
          ],
          [
            121.484049,
            25.069639
          ],
          [
            121.483835,
            25.069656
          ],
          [
            121.483983,
            25.069756
          ],
          [
            121.48434,
            25.069591
          ],
          [
            121.484374,
            25.069576
          ],
          [
            121.484448,
            25.069638
          ],
          [
            121.484601,
            25.069766
          ],
          [
            121.485228,
            25.069973
          ],
          [
            121.485664,
            25.070097
          ],
          [
            121.485742,
            25.069865
          ],
          [
            121.485794,
            25.069689
          ],
          [
            121.485864,
            25.06971
          ],
          [
            121.486692,
            25.069963
          ],
          [
            121.486666,
            25.070035
          ],
          [
            121.486871,
            25.070099
          ],
          [
            121.486666,
            25.070035
          ],
          [
            121.486692,
            25.069963
          ],
          [
            121.486794,
            25.069686
          ],
          [
            121.486899,
            25.069386
          ],
          [
            121.486977,
            25.069188
          ],
          [
            121.487082,
            25.068904
          ],
          [
            121.487012,
            25.068815
          ],
          [
            121.486531,
            25.068198
          ],
          [
            121.486409,
            25.068059
          ],
          [
            121.486064,
            25.068296
          ],
          [
            121.485352,
            25.068752
          ],
          [
            121.485409,
            25.068824
          ],
          [
            121.485436,
            25.068858
          ],
          [
            121.48555,
            25.0689
          ],
          [
            121.486859,
            25.069345
          ],
          [
            121.486899,
            25.069386
          ],
          [
            121.486794,
            25.069686
          ],
          [
            121.487493,
            25.069911
          ],
          [
            121.487921,
            25.070049
          ],
          [
            121.488077,
            25.070056
          ],
          [
            121.488337,
            25.070144
          ],
          [
            121.488233,
            25.070234
          ],
          [
            121.488102,
            25.070356
          ],
          [
            121.488005,
            25.070454
          ],
          [
            121.487861,
            25.070612
          ],
          [
            121.48758,
            25.070975
          ],
          [
            121.487337,
            25.071375
          ],
          [
            121.487307,
            25.071434
          ],
          [
            121.487238,
            25.071573
          ],
          [
            121.487094,
            25.071515
          ],
          [
            121.486248,
            25.071176
          ],
          [
            121.485555,
            25.07082
          ],
          [
            121.4854,
            25.070733
          ],
          [
            121.484945,
            25.07046
          ],
          [
            121.484494,
            25.070151
          ],
          [
            121.484134,
            25.069872
          ],
          [
            121.484494,
            25.070151
          ],
          [
            121.484945,
            25.07046
          ],
          [
            121.4854,
            25.070733
          ],
          [
            121.485555,
            25.07082
          ],
          [
            121.486248,
            25.071176
          ],
          [
            121.487094,
            25.071515
          ],
          [
            121.487238,
            25.071573
          ],
          [
            121.487307,
            25.071434
          ],
          [
            121.487337,
            25.071375
          ],
          [
            121.487354,
            25.071347
          ],
          [
            121.48758,
            25.070975
          ],
          [
            121.487861,
            25.070612
          ],
          [
            121.488005,
            25.070454
          ],
          [
            121.488102,
            25.070356
          ],
          [
            121.488233,
            25.070234
          ],
          [
            121.488337,
            25.070144
          ],
          [
            121.488502,
            25.070012
          ],
          [
            121.48841,
            25.069862
          ],
          [
            121.488077,
            25.06975
          ],
          [
            121.487963,
            25.06964
          ],
          [
            121.487855,
            25.069716
          ],
          [
            121.487963,
            25.06964
          ],
          [
            121.488268,
            25.069427
          ],
          [
            121.488411,
            25.069471
          ],
          [
            121.488268,
            25.069427
          ],
          [
            121.488537,
            25.069229
          ],
          [
            121.488934,
            25.069336
          ],
          [
            121.489354,
            25.069449
          ],
          [
            121.489657,
            25.069249
          ],
          [
            121.488368,
            25.068895
          ],
          [
            121.489657,
            25.069249
          ],
          [
            121.489994,
            25.069027
          ],
          [
            121.489534,
            25.068899
          ],
          [
            121.489464,
            25.068879
          ],
          [
            121.48841,
            25.068591
          ],
          [
            121.487329,
            25.06829
          ],
          [
            121.487082,
            25.068904
          ],
          [
            121.486668,
            25.068374
          ],
          [
            121.487082,
            25.068904
          ],
          [
            121.48713,
            25.068785
          ],
          [
            121.487329,
            25.06829
          ],
          [
            121.48841,
            25.068591
          ],
          [
            121.488554,
            25.068242
          ],
          [
            121.488517,
            25.068247
          ],
          [
            121.487751,
            25.068052
          ],
          [
            121.488517,
            25.068247
          ],
          [
            121.488554,
            25.068242
          ],
          [
            121.48841,
            25.068591
          ],
          [
            121.487329,
            25.06829
          ],
          [
            121.487187,
            25.068248
          ],
          [
            121.487047,
            25.068183
          ],
          [
            121.486802,
            25.068039
          ],
          [
            121.48735,
            25.067745
          ],
          [
            121.487494,
            25.067622
          ],
          [
            121.488029,
            25.067812
          ],
          [
            121.48851,
            25.067966
          ],
          [
            121.488029,
            25.067812
          ],
          [
            121.487494,
            25.067622
          ],
          [
            121.48735,
            25.067745
          ],
          [
            121.486802,
            25.068039
          ],
          [
            121.487047,
            25.068183
          ],
          [
            121.487187,
            25.068248
          ],
          [
            121.487329,
            25.06829
          ],
          [
            121.48841,
            25.068591
          ],
          [
            121.489464,
            25.068879
          ],
          [
            121.489994,
            25.069027
          ],
          [
            121.489657,
            25.069249
          ],
          [
            121.489354,
            25.069449
          ],
          [
            121.489033,
            25.06966
          ],
          [
            121.488786,
            25.069823
          ],
          [
            121.488959,
            25.070034
          ],
          [
            121.489217,
            25.070068
          ],
          [
            121.489296,
            25.070234
          ],
          [
            121.489217,
            25.070068
          ],
          [
            121.488959,
            25.070034
          ],
          [
            121.488786,
            25.069823
          ],
          [
            121.489033,
            25.06966
          ],
          [
            121.490077,
            25.06995
          ],
          [
            121.49016,
            25.069973
          ],
          [
            121.49056,
            25.070098
          ],
          [
            121.491089,
            25.070283
          ],
          [
            121.491242,
            25.070039
          ],
          [
            121.4914,
            25.069781
          ],
          [
            121.491276,
            25.069615
          ],
          [
            121.491066,
            25.069336
          ],
          [
            121.490701,
            25.068863
          ],
          [
            121.490546,
            25.068663
          ],
          [
            121.490221,
            25.068877
          ],
          [
            121.489994,
            25.069027
          ],
          [
            121.489657,
            25.069249
          ],
          [
            121.489354,
            25.069449
          ],
          [
            121.489511,
            25.069498
          ],
          [
            121.491242,
            25.070039
          ],
          [
            121.491089,
            25.070282
          ],
          [
            121.491015,
            25.0704
          ],
          [
            121.490882,
            25.070623
          ],
          [
            121.490858,
            25.070661
          ],
          [
            121.490711,
            25.070909
          ],
          [
            121.490582,
            25.071137
          ],
          [
            121.490542,
            25.071202
          ],
          [
            121.490458,
            25.071336
          ],
          [
            121.490309,
            25.071576
          ],
          [
            121.490284,
            25.071603
          ],
          [
            121.490989,
            25.071836
          ],
          [
            121.491101,
            25.071903
          ],
          [
            121.490217,
            25.072048
          ],
          [
            121.491101,
            25.071903
          ],
          [
            121.491297,
            25.071875
          ],
          [
            121.491845,
            25.071798
          ],
          [
            121.492026,
            25.071771
          ],
          [
            121.492069,
            25.071765
          ],
          [
            121.492603,
            25.071684
          ],
          [
            121.492818,
            25.071651
          ],
          [
            121.492905,
            25.07168
          ],
          [
            121.492596,
            25.071287
          ],
          [
            121.492489,
            25.07115
          ],
          [
            121.492419,
            25.071191
          ],
          [
            121.491682,
            25.070933
          ],
          [
            121.491052,
            25.070725
          ],
          [
            121.490858,
            25.070661
          ],
          [
            121.490711,
            25.070909
          ],
          [
            121.490582,
            25.071137
          ],
          [
            121.490581,
            25.071139
          ],
          [
            121.490582,
            25.071137
          ],
          [
            121.490711,
            25.070909
          ],
          [
            121.492203,
            25.071405
          ],
          [
            121.492235,
            25.071415
          ],
          [
            121.492641,
            25.071553
          ],
          [
            121.492672,
            25.07157
          ],
          [
            121.492818,
            25.071651
          ],
          [
            121.492603,
            25.071684
          ],
          [
            121.492069,
            25.071765
          ],
          [
            121.492026,
            25.071771
          ],
          [
            121.491845,
            25.071798
          ],
          [
            121.491297,
            25.071875
          ],
          [
            121.491101,
            25.071903
          ],
          [
            121.490104,
            25.072066
          ],
          [
            121.49,
            25.072083
          ],
          [
            121.489905,
            25.072084
          ],
          [
            121.489784,
            25.072087
          ],
          [
            121.489468,
            25.072083
          ],
          [
            121.489196,
            25.072075
          ],
          [
            121.488683,
            25.072002
          ],
          [
            121.488206,
            25.071904
          ],
          [
            121.487394,
            25.071628
          ],
          [
            121.487238,
            25.071573
          ],
          [
            121.487307,
            25.071434
          ],
          [
            121.487337,
            25.071375
          ],
          [
            121.48758,
            25.070975
          ],
          [
            121.487861,
            25.070612
          ],
          [
            121.488005,
            25.070454
          ],
          [
            121.488102,
            25.070356
          ],
          [
            121.488233,
            25.070234
          ],
          [
            121.488337,
            25.070144
          ],
          [
            121.488077,
            25.070056
          ],
          [
            121.488337,
            25.070144
          ],
          [
            121.488502,
            25.070012
          ],
          [
            121.488786,
            25.069823
          ],
          [
            121.489033,
            25.06966
          ],
          [
            121.489354,
            25.069449
          ],
          [
            121.489657,
            25.069249
          ],
          [
            121.489994,
            25.069027
          ],
          [
            121.490221,
            25.068877
          ],
          [
            121.490546,
            25.068663
          ],
          [
            121.489523,
            25.067347
          ],
          [
            121.489206,
            25.066902
          ],
          [
            121.489119,
            25.066784
          ],
          [
            121.489083,
            25.066734
          ],
          [
            121.488888,
            25.066427
          ],
          [
            121.488842,
            25.066355
          ],
          [
            121.488933,
            25.066305
          ],
          [
            121.489142,
            25.066631
          ]
        ]
      },
      "properties": {
        "routeId": "new-taipei-241019",
        "city": "new-taipei",
        "source_file": "new-taipei/new-taipei-241019.geojson",
        "distance_km": 9.915,
        "duration_min": 25.28173333333333,
        "valhalla_config": "valhalla.json"
      }
    }
  ]
}