{
  "type": "FeatureCollection",
  "features": [
    {
      "type": "Feature",
      "geometry": {
        "type": "LineString",
        "coordinates": [
          [
            121.660733,
            25.077132
          ],
          [
            121.660759,
            25.077147
          ],
          [
            121.661491,
            25.077701
          ],
          [
            121.661922,
            25.077991
          ],
          [
            121.662416,
            25.078298
          ],
          [
            121.662613,
            25.078395
          ],
          [
            121.662779,
            25.07847
          ],
          [
            121.6628,
            25.078484
          ],
          [
            121.66291,
            25.078555
          ],
          [
            121.662949,
            25.078604
          ],
          [
            121.662981,
            25.078673
          ],
          [
            121.663062,
            25.079015
          ],
          [
            121.663146,
            25.079212
          ],
          [
            121.662968,
            25.079271
          ],
          [
            121.663146,
            25.079212
          ],
          [
            121.663192,
            25.079292
          ],
          [
            121.663335,
            25.079439
          ],
          [
            121.663411,
            25.079506
          ],
          [
            121.663616,
            25.079636
          ],
          [
            121.663791,
            25.079729
          ],
          [
            121.663964,
            25.079797
          ],
          [
            121.664023,
            25.079795
          ],
          [
            121.664154,
            25.079778
          ],
          [
            121.664247,
            25.079776
          ],
          [
            121.664315,
            25.079789
          ],
          [
            121.664385,
            25.079809
          ],
          [
            121.664988,
            25.080122
          ],
          [
            121.665427,
            25.080384
          ],
          [
            121.665486,
            25.08042
          ],
          [
            121.665818,
            25.080615
          ],
          [
            121.666782,
            25.081218
          ],
          [
            121.666947,
            25.081304
          ],
          [
            121.66702,
            25.081326
          ],
          [
            121.667152,
            25.081328
          ],
          [
            121.667292,
            25.081334
          ],
          [
            121.667418,
            25.081368
          ],
          [
            121.667604,
            25.081477
          ],
          [
            121.667617,
            25.081486
          ],
          [
            121.667384,
            25.08199
          ],
          [
            121.667337,
            25.082006
          ],
          [
            121.666951,
            25.081869
          ],
          [
            121.666359,
            25.081596
          ],
          [
            121.66619,
            25.081515
          ],
          [
            121.66606,
            25.081419
          ],
          [
            121.665923,
            25.081349
          ],
          [
            121.665699,
            25.081307
          ],
          [
            121.665688,
            25.081306
          ],
          [
            121.665699,
            25.081307
          ],
          [
            121.665923,
            25.081349
          ],
          [
            121.66606,
            25.081419
          ],
          [
            121.66619,
            25.081515
          ],
          [
            121.666359,
            25.081596
          ],
          [
            121.666951,
            25.081869
          ],
          [
            121.667337,
            25.082006
          ],
          [
            121.667384,
            25.08199
          ],
          [
            121.667497,
            25.082083
          ],
          [
            121.667836,
            25.082331
          ],
          [
            121.668101,
            25.082454
          ],
          [
            121.66828,
            25.082568
          ],
          [
            121.668289,
            25.082649
          ],
          [
            121.66832,
            25.082836
          ],
          [
            121.668325,
            25.082907
          ],
          [
            121.66832,
            25.082836
          ],
          [
            121.668289,
            25.082649
          ],
          [
            121.668136,
            25.082675
          ],
          [
            121.668045,
            25.082679
          ],
          [
            121.667958,
            25.08266
          ],
          [
            121.667563,
            25.082494
          ],
          [
            121.667437,
            25.082442
          ],
          [
            121.667326,
            25.082435
          ],
          [
            121.667264,
            25.082448
          ],
          [
            121.667193,
            25.082485
          ],
          [
            121.667145,
            25.082526
          ],
          [
            121.6671,
            25.082599
          ],
          [
            121.667032,
            25.08279
          ],
          [
            121.667045,
            25.082816
          ],
          [
            121.667032,
            25.08279
          ],
          [
            121.6671,
            25.082599
          ],
          [
            121.667145,
            25.082526
          ],
          [
            121.667193,
            25.082485
          ],
          [
            121.667264,
            25.082448
          ],
          [
            121.667326,
            25.082435
          ],
          [
            121.667437,
            25.082442
          ],
          [
            121.667563,
            25.082494
          ],
          [
            121.667958,
            25.08266
          ],
          [
            121.668045,
            25.082679
          ],
          [
            121.668136,
            25.082675
          ],
          [
            121.668289,
            25.082649
          ],
          [
            121.66828,
            25.082568
          ],
          [
            121.668359,
            25.082285
          ],
          [
            121.668433,
            25.081993
          ],
          [
            121.668449,
            25.081915
          ],
          [
            121.668469,
            25.081854
          ],
          [
            121.668553,
            25.081599
          ],
          [
            121.668587,
            25.08149
          ],
          [
            121.668654,
            25.08128
          ],
          [
            121.66869,
            25.081164
          ],
          [
            121.668737,
            25.081211
          ],
          [
            121.66869,
            25.081164
          ],
          [
            121.668328,
            25.080877
          ],
          [
            121.66869,
            25.081164
          ],
          [
            121.668811,
            25.080636
          ],
          [
            121.668822,
            25.08059
          ],
          [
            121.668093,
            25.080168
          ],
          [
            121.66801,
            25.080387
          ],
          [
            121.667804,
            25.080299
          ],
          [
            121.667772,
            25.080282
          ],
          [
            121.667765,
            25.080252
          ],
          [
            121.667889,
            25.079977
          ],
          [
            121.667765,
            25.080252
          ],
          [
            121.667772,
            25.080282
          ],
          [
            121.667804,
            25.080299
          ],
          [
            121.66801,
            25.080387
          ],
          [
            121.667943,
            25.080555
          ],
          [
            121.668319,
            25.08087
          ],
          [
            121.66869,
            25.081164
          ],
          [
            121.668832,
            25.081306
          ],
          [
            121.668993,
            25.081511
          ],
          [
            121.669197,
            25.081762
          ],
          [
            121.669361,
            25.081886
          ],
          [
            121.669446,
            25.081944
          ],
          [
            121.669482,
            25.081965
          ],
          [
            121.669546,
            25.082003
          ],
          [
            121.669622,
            25.082049
          ],
          [
            121.669711,
            25.081845
          ],
          [
            121.66974,
            25.081765
          ],
          [
            121.669782,
            25.08149
          ],
          [
            121.669803,
            25.081347
          ],
          [
            121.669837,
            25.081243
          ],
          [
            121.670238,
            25.080228
          ],
          [
            121.670243,
            25.080153
          ],
          [
            121.670236,
            25.080065
          ],
          [
            121.670205,
            25.079964
          ],
          [
            121.670139,
            25.079873
          ],
          [
            121.670056,
            25.079789
          ],
          [
            121.669565,
            25.079469
          ],
          [
            121.669358,
            25.079351
          ],
          [
            121.669398,
            25.079271
          ],
          [
            121.669246,
            25.079194
          ],
          [
            121.669043,
            25.079028
          ],
          [
            121.668302,
            25.078588
          ],
          [
            121.668055,
            25.078469
          ],
          [
            121.667827,
            25.078396
          ],
          [
            121.667563,
            25.078263
          ],
          [
            121.667347,
            25.078113
          ],
          [
            121.667189,
            25.077969
          ],
          [
            121.666585,
            25.077393
          ],
          [
            121.666458,
            25.077259
          ],
          [
            121.666395,
            25.07718
          ],
          [
            121.666304,
            25.077009
          ],
          [
            121.666295,
            25.076993
          ],
          [
            121.666077,
            25.076589
          ],
          [
            121.666042,
            25.076523
          ],
          [
            121.665771,
            25.076018
          ],
          [
            121.665454,
            25.07532
          ],
          [
            121.665338,
            25.075028
          ],
          [
            121.665269,
            25.074835
          ],
          [
            121.665178,
            25.074578
          ],
          [
            121.665121,
            25.074407
          ],
          [
            121.665105,
            25.074219
          ],
          [
            121.665105,
            25.073917
          ],
          [
            121.665131,
            25.073617
          ],
          [
            121.665169,
            25.073452
          ],
          [
            121.66519,
            25.073324
          ],
          [
            121.665211,
            25.073168
          ],
          [
            121.665323,
            25.07314
          ],
          [
            121.665345,
            25.073354
          ],
          [
            121.665286,
            25.074046
          ],
          [
            121.665267,
            25.074238
          ],
          [
            121.665262,
            25.074387
          ],
          [
            121.665278,
            25.074505
          ],
          [
            121.665321,
            25.074627
          ],
          [
            121.665401,
            25.074788
          ],
          [
            121.665435,
            25.074859
          ],
          [
            121.665529,
            25.074974
          ],
          [
            121.665661,
            25.075097
          ],
          [
            121.665964,
            25.075366
          ],
          [
            121.666634,
            25.076057
          ],
          [
            121.666398,
            25.075578
          ],
          [
            121.666189,
            25.075214
          ],
          [
            121.666249,
            25.075154
          ],
          [
            121.666189,
            25.075214
          ],
          [
            121.666398,
            25.075578
          ],
          [
            121.666634,
            25.076057
          ],
          [
            121.666709,
            25.076141
          ],
          [
            121.666911,
            25.07638
          ],
          [
            121.66681,
            25.076452
          ],
          [
            121.66676,
            25.076487
          ],
          [
            121.666695,
            25.076415
          ],
          [
            121.666283,
            25.075964
          ],
          [
            121.66624,
            25.075907
          ],
          [
            121.666173,
            25.075659
          ],
          [
            121.666094,
            25.075569
          ],
          [
            121.665929,
            25.075391
          ],
          [
            121.665729,
            25.075207
          ],
          [
            121.665478,
            25.074989
          ],
          [
            121.665382,
            25.074873
          ],
          [
            121.665278,
            25.074652
          ],
          [
            121.665213,
            25.074413
          ],
          [
            121.665219,
            25.074186
          ],
          [
            121.665276,
            25.073597
          ],
          [
            121.665284,
            25.073366
          ],
          [
            121.665211,
            25.073168
          ],
          [
            121.66519,
            25.073024
          ],
          [
            121.665138,
            25.072658
          ],
          [
            121.665097,
            25.072393
          ],
          [
            121.664785,
            25.072493
          ],
          [
            121.664314,
            25.072645
          ],
          [
            121.663626,
            25.072859
          ],
          [
            121.662839,
            25.073115
          ],
          [
            121.662416,
            25.073244
          ],
          [
            121.661809,
            25.073334
          ],
          [
            121.66167,
            25.073355
          ],
          [
            121.661783,
            25.073964
          ],
          [
            121.662493,
            25.073819
          ],
          [
            121.662886,
            25.073738
          ],
          [
            121.663542,
            25.07362
          ],
          [
            121.663627,
            25.073594
          ],
          [
            121.663706,
            25.073519
          ],
          [
            121.663659,
            25.073114
          ],
          [
            121.663633,
            25.072909
          ],
          [
            121.663626,
            25.072859
          ],
          [
            121.664314,
            25.072645
          ],
          [
            121.665097,
            25.072393
          ],
          [
            121.664997,
            25.07208
          ],
          [
            121.664865,
            25.071763
          ],
          [
            121.664745,
            25.071546
          ],
          [
            121.664632,
            25.07134
          ],
          [
            121.664328,
            25.070945
          ],
          [
            121.66411,
            25.070715
          ],
          [
            121.663937,
            25.070571
          ]
        ]
      },
      "properties": {
        "routeId": "new-taipei-221015",
        "city": "new-taipei",
        "source_file": "new-taipei/new-taipei-221015.geojson",
        "distance_km": 6.212,
        "duration_min": 13.930633333333333,
        "valhalla_config": "valhalla.json"
      }
    }
  ]
}