{
  "type": "FeatureCollection",
  "features": [
    {
      "type": "Feature",
      "geometry": {
        "type": "LineString",
        "coordinates": [
          [
            121.367184,
            24.919423
          ],
          [
            121.367201,
            24.919442
          ],
          [
            121.367466,
            24.919695
          ],
          [
            121.367685,
            24.919825
          ],
          [
            121.367828,
            24.919882
          ],
          [
            121.367941,
            24.91991
          ],
          [
            121.368864,
            24.919996
          ],
          [
            121.368902,
            24.919997
          ],
          [
            121.369487,
            24.920052
          ],
          [
            121.369697,
            24.920111
          ],
          [
            121.369905,
            24.920196
          ],
          [
            121.370128,
            24.920358
          ],
          [
            121.370015,
            24.920146
          ],
          [
            121.369909,
            24.919949
          ],
          [
            121.369767,
            24.919683
          ],
          [
            121.369596,
            24.919365
          ],
          [
            121.369366,
            24.918956
          ],
          [
            121.369192,
            24.918634
          ],
          [
            121.36909,
            24.918459
          ],
          [
            121.369016,
            24.918276
          ],
          [
            121.368991,
            24.918154
          ],
          [
            121.368948,
            24.917944
          ],
          [
            121.368884,
            24.917677
          ],
          [
            121.36865,
            24.91714
          ],
          [
            121.368559,
            24.91684
          ],
          [
            121.36849,
            24.916606
          ],
          [
            121.368429,
            24.916371
          ],
          [
            121.368429,
            24.916371
          ],
          [
            121.368324,
            24.915864
          ],
          [
            121.368228,
            24.915372
          ],
          [
            121.36821,
            24.915281
          ],
          [
            121.368147,
            24.914862
          ],
          [
            121.368113,
            24.914397
          ],
          [
            121.368088,
            24.913946
          ],
          [
            121.368018,
            24.913465
          ],
          [
            121.36801,
            24.913365
          ],
          [
            121.368022,
            24.913267
          ],
          [
            121.368052,
            24.913186
          ],
          [
            121.368081,
            24.913112
          ],
          [
            121.368158,
            24.912965
          ],
          [
            121.368355,
            24.912638
          ],
          [
            121.368408,
            24.912573
          ],
          [
            121.368465,
            24.912522
          ],
          [
            121.368549,
            24.912482
          ],
          [
            121.368672,
            24.912459
          ],
          [
            121.368838,
            24.912445
          ],
          [
            121.369117,
            24.912424
          ],
          [
            121.369253,
            24.912413
          ],
          [
            121.369361,
            24.912403
          ],
          [
            121.3695,
            24.912374
          ],
          [
            121.370042,
            24.912247
          ],
          [
            121.370224,
            24.912228
          ],
          [
            121.370362,
            24.912208
          ],
          [
            121.370527,
            24.912176
          ],
          [
            121.370787,
            24.912114
          ],
          [
            121.370939,
            24.912071
          ],
          [
            121.371033,
            24.91205
          ],
          [
            121.371122,
            24.912038
          ],
          [
            121.371236,
            24.912036
          ],
          [
            121.371488,
            24.912063
          ],
          [
            121.372318,
            24.912207
          ],
          [
            121.373002,
            24.91234
          ],
          [
            121.373291,
            24.912418
          ],
          [
            121.373453,
            24.91245
          ],
          [
            121.373558,
            24.91246
          ],
          [
            121.373659,
            24.912456
          ],
          [
            121.373765,
            24.912444
          ],
          [
            121.374319,
            24.912335
          ],
          [
            121.374458,
            24.912315
          ],
          [
            121.374526,
            24.912311
          ],
          [
            121.374603,
            24.912314
          ],
          [
            121.374895,
            24.912367
          ],
          [
            121.375027,
            24.912387
          ],
          [
            121.375112,
            24.91239
          ],
          [
            121.375189,
            24.912383
          ],
          [
            121.375269,
            24.91236
          ],
          [
            121.375336,
            24.912326
          ],
          [
            121.375503,
            24.912177
          ],
          [
            121.375742,
            24.911964
          ],
          [
            121.375809,
            24.911918
          ],
          [
            121.375938,
            24.911847
          ],
          [
            121.376037,
            24.911809
          ],
          [
            121.37612,
            24.911785
          ],
          [
            121.376247,
            24.91176
          ],
          [
            121.376465,
            24.911724
          ],
          [
            121.376575,
            24.91171
          ],
          [
            121.376652,
            24.911715
          ],
          [
            121.376761,
            24.911753
          ],
          [
            121.377008,
            24.911881
          ],
          [
            121.377081,
            24.911903
          ],
          [
            121.377148,
            24.911908
          ],
          [
            121.377229,
            24.911899
          ],
          [
            121.377553,
            24.911811
          ],
          [
            121.377947,
            24.91168
          ],
          [
            121.37814,
            24.911607
          ],
          [
            121.37825,
            24.911548
          ],
          [
            121.378334,
            24.911502
          ],
          [
            121.378417,
            24.911468
          ],
          [
            121.378511,
            24.911441
          ],
          [
            121.378658,
            24.91141
          ],
          [
            121.378961,
            24.911361
          ],
          [
            121.378983,
            24.911357
          ],
          [
            121.378985,
            24.911315
          ],
          [
            121.378983,
            24.911357
          ],
          [
            121.379889,
            24.911213
          ],
          [
            121.379988,
            24.9112
          ],
          [
            121.380058,
            24.911203
          ],
          [
            121.380128,
            24.911218
          ],
          [
            121.380214,
            24.911237
          ],
          [
            121.380646,
            24.911346
          ],
          [
            121.380799,
            24.911388
          ],
          [
            121.380908,
            24.911441
          ],
          [
            121.381035,
            24.911531
          ],
          [
            121.381222,
            24.911685
          ],
          [
            121.381415,
            24.911832
          ],
          [
            121.381461,
            24.911867
          ],
          [
            121.381697,
            24.912008
          ],
          [
            121.381938,
            24.912115
          ],
          [
            121.382223,
            24.912193
          ],
          [
            121.382684,
            24.9123
          ],
          [
            121.382885,
            24.912341
          ],
          [
            121.382987,
            24.912349
          ],
          [
            121.383089,
            24.912344
          ],
          [
            121.383301,
            24.912302
          ],
          [
            121.383376,
            24.912293
          ],
          [
            121.383449,
            24.912293
          ],
          [
            121.38351,
            24.912298
          ],
          [
            121.383896,
            24.9124
          ],
          [
            121.384323,
            24.91251
          ],
          [
            121.384452,
            24.912543
          ],
          [
            121.384875,
            24.912626
          ],
          [
            121.385286,
            24.912689
          ],
          [
            121.385369,
            24.912701
          ],
          [
            121.38546,
            24.912706
          ],
          [
            121.385543,
            24.912697
          ],
          [
            121.385602,
            24.91268
          ],
          [
            121.385659,
            24.912648
          ],
          [
            121.385728,
            24.91259
          ],
          [
            121.385817,
            24.9125
          ],
          [
            121.385876,
            24.912439
          ],
          [
            121.385927,
            24.9124
          ],
          [
            121.386048,
            24.912341
          ],
          [
            121.38627,
            24.912251
          ],
          [
            121.386337,
            24.912234
          ],
          [
            121.38641,
            24.912232
          ],
          [
            121.386471,
            24.912234
          ],
          [
            121.386876,
            24.912281
          ],
          [
            121.386965,
            24.912288
          ],
          [
            121.38718,
            24.912302
          ],
          [
            121.387413,
            24.912315
          ],
          [
            121.387689,
            24.912329
          ],
          [
            121.387893,
            24.912339
          ],
          [
            121.387979,
            24.912339
          ],
          [
            121.388053,
            24.912334
          ],
          [
            121.38818,
            24.912324
          ],
          [
            121.388279,
            24.912322
          ],
          [
            121.388494,
            24.912332
          ],
          [
            121.38873,
            24.912341
          ],
          [
            121.388848,
            24.912334
          ],
          [
            121.389062,
            24.912285
          ],
          [
            121.389226,
            24.912237
          ],
          [
            121.389355,
            24.912161
          ],
          [
            121.389545,
            24.912032
          ],
          [
            121.38965,
            24.911952
          ],
          [
            121.389762,
            24.911845
          ],
          [
            121.389875,
            24.911736
          ],
          [
            121.389991,
            24.911623
          ],
          [
            121.390121,
            24.911489
          ],
          [
            121.390197,
            24.911415
          ],
          [
            121.39026,
            24.911345
          ],
          [
            121.390461,
            24.911081
          ],
          [
            121.391046,
            24.91067
          ],
          [
            121.391595,
            24.910308
          ],
          [
            121.391709,
            24.910241
          ],
          [
            121.391803,
            24.91018
          ],
          [
            121.391772,
            24.910141
          ],
          [
            121.391803,
            24.91018
          ],
          [
            121.391709,
            24.910241
          ],
          [
            121.391595,
            24.910308
          ],
          [
            121.391046,
            24.91067
          ],
          [
            121.390461,
            24.911081
          ],
          [
            121.39026,
            24.911345
          ],
          [
            121.390197,
            24.911415
          ],
          [
            121.390121,
            24.911489
          ],
          [
            121.389991,
            24.911623
          ],
          [
            121.389875,
            24.911736
          ],
          [
            121.389762,
            24.911845
          ],
          [
            121.38965,
            24.911952
          ],
          [
            121.389545,
            24.912032
          ],
          [
            121.389355,
            24.912161
          ],
          [
            121.389226,
            24.912237
          ],
          [
            121.389062,
            24.912285
          ],
          [
            121.388848,
            24.912334
          ],
          [
            121.38873,
            24.912341
          ],
          [
            121.388494,
            24.912332
          ],
          [
            121.388279,
            24.912322
          ],
          [
            121.38818,
            24.912324
          ],
          [
            121.388053,
            24.912334
          ],
          [
            121.387979,
            24.912339
          ],
          [
            121.387893,
            24.912339
          ],
          [
            121.387689,
            24.912329
          ],
          [
            121.387413,
            24.912315
          ],
          [
            121.38718,
            24.912302
          ],
          [
            121.386965,
            24.912288
          ],
          [
            121.386876,
            24.912281
          ],
          [
            121.386471,
            24.912234
          ],
          [
            121.38641,
            24.912232
          ],
          [
            121.386337,
            24.912234
          ],
          [
            121.38627,
            24.912251
          ],
          [
            121.386048,
            24.912341
          ],
          [
            121.385927,
            24.9124
          ],
          [
            121.385876,
            24.912439
          ],
          [
            121.385817,
            24.9125
          ],
          [
            121.385728,
            24.91259
          ],
          [
            121.385659,
            24.912648
          ],
          [
            121.385602,
            24.91268
          ],
          [
            121.385543,
            24.912697
          ],
          [
            121.38546,
            24.912706
          ],
          [
            121.385369,
            24.912701
          ],
          [
            121.385286,
            24.912689
          ],
          [
            121.384875,
            24.912626
          ],
          [
            121.384452,
            24.912543
          ],
          [
            121.384323,
            24.91251
          ],
          [
            121.383896,
            24.9124
          ],
          [
            121.38351,
            24.912298
          ],
          [
            121.383449,
            24.912293
          ],
          [
            121.383376,
            24.912293
          ],
          [
            121.383301,
            24.912302
          ],
          [
            121.383089,
            24.912344
          ],
          [
            121.382987,
            24.912349
          ],
          [
            121.382885,
            24.912341
          ],
          [
            121.382684,
            24.9123
          ],
          [
            121.382223,
            24.912193
          ],
          [
            121.381938,
            24.912115
          ],
          [
            121.381697,
            24.912008
          ],
          [
            121.381461,
            24.911867
          ],
          [
            121.381415,
            24.911832
          ],
          [
            121.381222,
            24.911685
          ],
          [
            121.381035,
            24.911531
          ],
          [
            121.380908,
            24.911441
          ],
          [
            121.380799,
            24.911388
          ],
          [
            121.380646,
            24.911346
          ],
          [
            121.380214,
            24.911237
          ],
          [
            121.380128,
            24.911218
          ],
          [
            121.380058,
            24.911203
          ],
          [
            121.379988,
            24.9112
          ],
          [
            121.379889,
            24.911213
          ],
          [
            121.378983,
            24.911357
          ],
          [
            121.378961,
            24.911361
          ],
          [
            121.378658,
            24.91141
          ],
          [
            121.378511,
            24.911441
          ],
          [
            121.378417,
            24.911468
          ],
          [
            121.378334,
            24.911502
          ],
          [
            121.37825,
            24.911548
          ],
          [
            121.37814,
            24.911607
          ],
          [
            121.377947,
            24.91168
          ],
          [
            121.377553,
            24.911811
          ],
          [
            121.377229,
            24.911899
          ],
          [
            121.377148,
            24.911908
          ],
          [
            121.377081,
            24.911903
          ],
          [
            121.377008,
            24.911881
          ],
          [
            121.376761,
            24.911753
          ],
          [
            121.376652,
            24.911715
          ],
          [
            121.376575,
            24.91171
          ],
          [
            121.376465,
            24.911724
          ],
          [
            121.376247,
            24.91176
          ],
          [
            121.37612,
            24.911785
          ],
          [
            121.376037,
            24.911809
          ],
          [
            121.375938,
            24.911847
          ],
          [
            121.375809,
            24.911918
          ],
          [
            121.375742,
            24.911964
          ],
          [
            121.375503,
            24.912177
          ],
          [
            121.375336,
            24.912326
          ],
          [
            121.375269,
            24.91236
          ],
          [
            121.375189,
            24.912383
          ],
          [
            121.375112,
            24.91239
          ],
          [
            121.375027,
            24.912387
          ],
          [
            121.374895,
            24.912367
          ],
          [
            121.374603,
            24.912314
          ],
          [
            121.374526,
            24.912311
          ],
          [
            121.374458,
            24.912315
          ],
          [
            121.374319,
            24.912335
          ],
          [
            121.373765,
            24.912444
          ],
          [
            121.373659,
            24.912456
          ],
          [
            121.373558,
            24.91246
          ],
          [
            121.373453,
            24.91245
          ],
          [
            121.373291,
            24.912418
          ],
          [
            121.373002,
            24.91234
          ],
          [
            121.372318,
            24.912207
          ],
          [
            121.371488,
            24.912063
          ],
          [
            121.371236,
            24.912036
          ],
          [
            121.371239,
            24.912113
          ],
          [
            121.371228,
            24.912156
          ],
          [
            121.371201,
            24.912203
          ],
          [
            121.371159,
            24.91224
          ],
          [
            121.370835,
            24.912457
          ],
          [
            121.37066,
            24.912579
          ],
          [
            121.370507,
            24.912712
          ],
          [
            121.370444,
            24.912778
          ],
          [
            121.370415,
            24.912832
          ],
          [
            121.370413,
            24.912886
          ],
          [
            121.370427,
            24.912932
          ],
          [
            121.370555,
            24.913217
          ],
          [
            121.370427,
            24.912932
          ],
          [
            121.370413,
            24.912886
          ],
          [
            121.370415,
            24.912832
          ],
          [
            121.370444,
            24.912778
          ],
          [
            121.370507,
            24.912712
          ],
          [
            121.37066,
            24.912579
          ],
          [
            121.370835,
            24.912457
          ],
          [
            121.371159,
            24.91224
          ],
          [
            121.371201,
            24.912203
          ],
          [
            121.371228,
            24.912156
          ],
          [
            121.371239,
            24.912113
          ],
          [
            121.371236,
            24.912036
          ],
          [
            121.371122,
            24.912038
          ],
          [
            121.371033,
            24.91205
          ],
          [
            121.370939,
            24.912071
          ],
          [
            121.370787,
            24.912114
          ],
          [
            121.370527,
            24.912176
          ],
          [
            121.370362,
            24.912208
          ],
          [
            121.370224,
            24.912228
          ],
          [
            121.370042,
            24.912247
          ],
          [
            121.3695,
            24.912374
          ],
          [
            121.369361,
            24.912403
          ],
          [
            121.369253,
            24.912413
          ],
          [
            121.369117,
            24.912424
          ],
          [
            121.368838,
            24.912445
          ],
          [
            121.368672,
            24.912459
          ],
          [
            121.368549,
            24.912482
          ],
          [
            121.368465,
            24.912522
          ],
          [
            121.368408,
            24.912573
          ],
          [
            121.368355,
            24.912638
          ],
          [
            121.368158,
            24.912965
          ],
          [
            121.368081,
            24.913112
          ],
          [
            121.368052,
            24.913186
          ],
          [
            121.368022,
            24.913267
          ],
          [
            121.36801,
            24.913365
          ],
          [
            121.368018,
            24.913465
          ],
          [
            121.368088,
            24.913946
          ],
          [
            121.368113,
            24.914397
          ],
          [
            121.368147,
            24.914862
          ],
          [
            121.36821,
            24.915281
          ],
          [
            121.368228,
            24.915372
          ],
          [
            121.368324,
            24.915864
          ],
          [
            121.368429,
            24.916371
          ],
          [
            121.36849,
            24.916606
          ],
          [
            121.368559,
            24.91684
          ],
          [
            121.36865,
            24.91714
          ],
          [
            121.368884,
            24.917677
          ],
          [
            121.368948,
            24.917944
          ],
          [
            121.368991,
            24.918154
          ],
          [
            121.369016,
            24.918276
          ],
          [
            121.36909,
            24.918459
          ],
          [
            121.369192,
            24.918634
          ],
          [
            121.369366,
            24.918956
          ],
          [
            121.369596,
            24.919365
          ],
          [
            121.369767,
            24.919683
          ],
          [
            121.369909,
            24.919949
          ],
          [
            121.370128,
            24.920358
          ],
          [
            121.370215,
            24.920461
          ],
          [
            121.370238,
            24.920488
          ],
          [
            121.370323,
            24.920662
          ],
          [
            121.370472,
            24.921178
          ],
          [
            121.370581,
            24.921615
          ],
          [
            121.370627,
            24.921796
          ],
          [
            121.370635,
            24.92183
          ],
          [
            121.370882,
            24.922805
          ],
          [
            121.371236,
            24.924202
          ],
          [
            121.371274,
            24.92436
          ],
          [
            121.371353,
            24.924688
          ],
          [
            121.371497,
            24.925245
          ],
          [
            121.371555,
            24.925508
          ],
          [
            121.371612,
            24.925765
          ],
          [
            121.371617,
            24.925789
          ],
          [
            121.371667,
            24.926009
          ],
          [
            121.371965,
            24.926926
          ],
          [
            121.372017,
            24.927043
          ],
          [
            121.372217,
            24.927462
          ],
          [
            121.372341,
            24.927693
          ],
          [
            121.372473,
            24.927891
          ],
          [
            121.372524,
            24.927873
          ],
          [
            121.372867,
            24.927752
          ],
          [
            121.372695,
            24.927379
          ],
          [
            121.372691,
            24.92737
          ],
          [
            121.372579,
            24.927031
          ],
          [
            121.37278,
            24.927003
          ],
          [
            121.373146,
            24.92697
          ],
          [
            121.373146,
            24.926731
          ],
          [
            121.373337,
            24.926725
          ],
          [
            121.37361,
            24.926732
          ],
          [
            121.373759,
            24.926751
          ],
          [
            121.373865,
            24.926765
          ],
          [
            121.374016,
            24.926798
          ],
          [
            121.374194,
            24.926848
          ],
          [
            121.37436,
            24.926381
          ],
          [
            121.374686,
            24.926534
          ],
          [
            121.375107,
            24.926742
          ],
          [
            121.375685,
            24.927019
          ],
          [
            121.376207,
            24.927284
          ],
          [
            121.376598,
            24.927528
          ],
          [
            121.376287,
            24.927919
          ],
          [
            121.376598,
            24.927528
          ],
          [
            121.376207,
            24.927284
          ],
          [
            121.375685,
            24.927019
          ],
          [
            121.375107,
            24.926742
          ],
          [
            121.374686,
            24.926534
          ],
          [
            121.37436,
            24.926381
          ],
          [
            121.374333,
            24.926457
          ],
          [
            121.374193,
            24.926848
          ],
          [
            121.374016,
            24.926798
          ],
          [
            121.373865,
            24.926765
          ],
          [
            121.373759,
            24.926751
          ],
          [
            121.37361,
            24.926732
          ],
          [
            121.373337,
            24.926725
          ],
          [
            121.373146,
            24.926731
          ],
          [
            121.372933,
            24.926749
          ],
          [
            121.372735,
            24.926767
          ],
          [
            121.372524,
            24.926794
          ],
          [
            121.372245,
            24.926854
          ],
          [
            121.372122,
            24.926885
          ],
          [
            121.372075,
            24.926897
          ],
          [
            121.371965,
            24.926926
          ],
          [
            121.372017,
            24.927043
          ],
          [
            121.372217,
            24.927462
          ],
          [
            121.372341,
            24.927693
          ],
          [
            121.372473,
            24.927891
          ],
          [
            121.372883,
            24.928391
          ],
          [
            121.372929,
            24.928436
          ],
          [
            121.373158,
            24.928671
          ],
          [
            121.373321,
            24.928813
          ],
          [
            121.373482,
            24.928934
          ],
          [
            121.37379,
            24.929162
          ],
          [
            121.374018,
            24.929333
          ],
          [
            121.374528,
            24.929714
          ],
          [
            121.374576,
            24.92975
          ],
          [
            121.374666,
            24.929816
          ],
          [
            121.374996,
            24.930057
          ],
          [
            121.375176,
            24.930192
          ],
          [
            121.375122,
            24.930251
          ],
          [
            121.374613,
            24.929874
          ],
          [
            121.374522,
            24.929806
          ],
          [
            121.374476,
            24.929773
          ],
          [
            121.374147,
            24.929528
          ],
          [
            121.374071,
            24.929472
          ],
          [
            121.373967,
            24.929394
          ],
          [
            121.373427,
            24.928991
          ],
          [
            121.373262,
            24.928861
          ],
          [
            121.37312,
            24.928745
          ],
          [
            121.372854,
            24.928492
          ],
          [
            121.372818,
            24.928453
          ],
          [
            121.37241,
            24.927956
          ],
          [
            121.372273,
            24.927746
          ],
          [
            121.372017,
            24.927261
          ],
          [
            121.371881,
            24.926941
          ],
          [
            121.371965,
            24.926926
          ],
          [
            121.372017,
            24.927043
          ],
          [
            121.372217,
            24.927462
          ],
          [
            121.372341,
            24.927693
          ],
          [
            121.372473,
            24.927891
          ],
          [
            121.372883,
            24.928391
          ],
          [
            121.372929,
            24.928436
          ],
          [
            121.373158,
            24.928671
          ],
          [
            121.373321,
            24.928813
          ],
          [
            121.373482,
            24.928934
          ],
          [
            121.37379,
            24.929162
          ],
          [
            121.374018,
            24.929333
          ],
          [
            121.374528,
            24.929714
          ],
          [
            121.374576,
            24.92975
          ],
          [
            121.374666,
            24.929816
          ],
          [
            121.374996,
            24.930057
          ],
          [
            121.375176,
            24.930192
          ],
          [
            121.375122,
            24.930251
          ],
          [
            121.374613,
            24.929874
          ],
          [
            121.374522,
            24.929806
          ],
          [
            121.374476,
            24.929773
          ],
          [
            121.374226,
            24.929586
          ],
          [
            121.374147,
            24.929528
          ],
          [
            121.373967,
            24.929394
          ],
          [
            121.373427,
            24.928991
          ],
          [
            121.373262,
            24.928861
          ],
          [
            121.37312,
            24.928745
          ],
          [
            121.372854,
            24.928492
          ],
          [
            121.372818,
            24.928453
          ],
          [
            121.37241,
            24.927956
          ],
          [
            121.372273,
            24.927746
          ],
          [
            121.372017,
            24.927261
          ],
          [
            121.371881,
            24.926941
          ],
          [
            121.371965,
            24.926926
          ],
          [
            121.372017,
            24.927043
          ],
          [
            121.372217,
            24.927462
          ],
          [
            121.372341,
            24.927693
          ],
          [
            121.372473,
            24.927891
          ],
          [
            121.372883,
            24.928391
          ],
          [
            121.372929,
            24.928436
          ],
          [
            121.373158,
            24.928671
          ],
          [
            121.373321,
            24.928813
          ],
          [
            121.373482,
            24.928934
          ],
          [
            121.37379,
            24.929162
          ],
          [
            121.374018,
            24.929333
          ],
          [
            121.374387,
            24.928871
          ],
          [
            121.374576,
            24.928998
          ],
          [
            121.37462,
            24.928955
          ],
          [
            121.374576,
            24.928998
          ],
          [
            121.374387,
            24.928871
          ],
          [
            121.374175,
            24.928705
          ],
          [
            121.37394,
            24.928535
          ],
          [
            121.373803,
            24.928421
          ],
          [
            121.373571,
            24.928204
          ],
          [
            121.373473,
            24.928087
          ],
          [
            121.373419,
            24.928001
          ],
          [
            121.373259,
            24.927661
          ],
          [
            121.37322,
            24.927546
          ],
          [
            121.373177,
            24.927298
          ],
          [
            121.373149,
            24.926997
          ],
          [
            121.373146,
            24.92697
          ],
          [
            121.37278,
            24.927003
          ],
          [
            121.372579,
            24.927031
          ],
          [
            121.372524,
            24.926794
          ],
          [
            121.372245,
            24.926854
          ],
          [
            121.372122,
            24.926885
          ],
          [
            121.372075,
            24.926897
          ],
          [
            121.371965,
            24.926926
          ],
          [
            121.371881,
            24.926941
          ],
          [
            121.371758,
            24.926957
          ],
          [
            121.371286,
            24.927016
          ],
          [
            121.370859,
            24.927079
          ],
          [
            121.370465,
            24.927126
          ],
          [
            121.370431,
            24.92713
          ],
          [
            121.370465,
            24.927126
          ],
          [
            121.370859,
            24.927079
          ],
          [
            121.371037,
            24.927592
          ],
          [
            121.371204,
            24.928094
          ],
          [
            121.371262,
            24.928263
          ],
          [
            121.371511,
            24.929009
          ],
          [
            121.371646,
            24.929486
          ],
          [
            121.371728,
            24.929765
          ],
          [
            121.371883,
            24.930081
          ],
          [
            121.372213,
            24.930565
          ],
          [
            121.372586,
            24.931027
          ],
          [
            121.372213,
            24.930565
          ],
          [
            121.372498,
            24.930309
          ],
          [
            121.372702,
            24.930148
          ],
          [
            121.372498,
            24.930309
          ],
          [
            121.372213,
            24.930565
          ],
          [
            121.371883,
            24.930081
          ],
          [
            121.372595,
            24.92958
          ],
          [
            121.372919,
            24.929358
          ],
          [
            121.37278,
            24.929241
          ],
          [
            121.372486,
            24.928953
          ],
          [
            121.372328,
            24.928717
          ]
        ]
      },
      "properties": {
        "routeId": "new-taipei-237008",
        "city": "new-taipei",
        "source_file": "new-taipei/new-taipei-237008.geojson",
        "distance_km": 13.874,
        "duration_min": 21.24458333333333,
        "valhalla_config": "valhalla.json"
      }
    }
  ]
}