{
  "type": "FeatureCollection",
  "features": [
    {
      "type": "Feature",
      "geometry": {
        "type": "LineString",
        "coordinates": [
          [
            121.441764,
            24.998863
          ],
          [
            121.441815,
            24.999104
          ],
          [
            121.441877,
            24.999379
          ],
          [
            121.441948,
            24.999689
          ],
          [
            121.441886,
            25.000117
          ],
          [
            121.441847,
            25.000393
          ],
          [
            121.441791,
            25.000786
          ],
          [
            121.441734,
            25.001182
          ],
          [
            121.441661,
            25.001177
          ],
          [
            121.441475,
            25.001165
          ],
          [
            121.441513,
            25.000826
          ],
          [
            121.441557,
            25.000433
          ],
          [
            121.441577,
            25.000254
          ],
          [
            121.441615,
            24.999914
          ],
          [
            121.441636,
            24.999726
          ],
          [
            121.441672,
            24.999408
          ],
          [
            121.441669,
            24.999356
          ],
          [
            121.441656,
            24.999092
          ],
          [
            121.441641,
            24.998777
          ],
          [
            121.441459,
            24.998719
          ],
          [
            121.441419,
            24.999083
          ],
          [
            121.441389,
            24.999352
          ],
          [
            121.441358,
            24.999629
          ],
          [
            121.441327,
            24.999826
          ],
          [
            121.441289,
            25.000066
          ],
          [
            121.441215,
            25.000532
          ],
          [
            121.441161,
            25.00087
          ],
          [
            121.441118,
            25.001142
          ],
          [
            121.441036,
            25.001148
          ],
          [
            121.441046,
            25.001415
          ],
          [
            121.441053,
            25.001702
          ],
          [
            121.441054,
            25.001731
          ],
          [
            121.441057,
            25.001771
          ],
          [
            121.44107,
            25.002005
          ],
          [
            121.441057,
            25.001771
          ],
          [
            121.441054,
            25.001731
          ],
          [
            121.441053,
            25.001702
          ],
          [
            121.441046,
            25.001415
          ],
          [
            121.441036,
            25.001148
          ],
          [
            121.440995,
            24.999873
          ],
          [
            121.440998,
            24.999694
          ],
          [
            121.440993,
            24.999332
          ],
          [
            121.441,
            24.998921
          ],
          [
            121.440999,
            24.998642
          ],
          [
            121.440995,
            24.998518
          ],
          [
            121.4411,
            24.998485
          ],
          [
            121.441229,
            24.99849
          ],
          [
            121.441283,
            24.998503
          ],
          [
            121.442207,
            24.998774
          ],
          [
            121.442479,
            24.998859
          ],
          [
            121.442592,
            24.998983
          ],
          [
            121.442589,
            24.999109
          ],
          [
            121.44322,
            25.001015
          ],
          [
            121.443294,
            25.001294
          ],
          [
            121.443092,
            25.00128
          ],
          [
            121.442946,
            25.001268
          ],
          [
            121.443092,
            25.00128
          ],
          [
            121.443294,
            25.001294
          ],
          [
            121.44322,
            25.001015
          ],
          [
            121.442589,
            24.999109
          ],
          [
            121.442592,
            24.998983
          ],
          [
            121.441983,
            24.998796
          ],
          [
            121.441779,
            24.998718
          ],
          [
            121.441459,
            24.998632
          ],
          [
            121.441265,
            24.998557
          ],
          [
            121.441127,
            24.998462
          ],
          [
            121.441036,
            24.998361
          ],
          [
            121.440954,
            24.998202
          ],
          [
            121.440926,
            24.998054
          ],
          [
            121.440958,
            24.996481
          ],
          [
            121.440956,
            24.995857
          ],
          [
            121.440953,
            24.995687
          ],
          [
            121.440935,
            24.995588
          ],
          [
            121.44091,
            24.995508
          ],
          [
            121.440877,
            24.995449
          ],
          [
            121.440845,
            24.995406
          ],
          [
            121.440772,
            24.995327
          ],
          [
            121.440731,
            24.995292
          ],
          [
            121.440685,
            24.995263
          ],
          [
            121.440589,
            24.995217
          ],
          [
            121.440499,
            24.995191
          ],
          [
            121.440399,
            24.995177
          ],
          [
            121.440291,
            24.995176
          ],
          [
            121.440221,
            24.995181
          ],
          [
            121.439184,
            24.995283
          ],
          [
            121.43849,
            24.995312
          ],
          [
            121.43824,
            24.995254
          ],
          [
            121.435554,
            24.995527
          ],
          [
            121.435331,
            24.995587
          ],
          [
            121.435093,
            24.995616
          ],
          [
            121.434968,
            24.995643
          ],
          [
            121.43379,
            24.995775
          ],
          [
            121.43275,
            24.995895
          ],
          [
            121.432451,
            24.995983
          ],
          [
            121.432281,
            24.996042
          ],
          [
            121.432172,
            24.9961
          ],
          [
            121.43211,
            24.996136
          ],
          [
            121.430975,
            24.996945
          ],
          [
            121.430839,
            24.997059
          ],
          [
            121.430669,
            24.997195
          ],
          [
            121.430341,
            24.99745
          ],
          [
            121.430286,
            24.997498
          ],
          [
            121.430187,
            24.997575
          ],
          [
            121.429815,
            24.997858
          ],
          [
            121.429772,
            24.99789
          ],
          [
            121.429713,
            24.997936
          ],
          [
            121.429578,
            24.997768
          ],
          [
            121.429502,
            24.997678
          ],
          [
            121.42932,
            24.99746
          ],
          [
            121.42914,
            24.997223
          ],
          [
            121.428869,
            24.996886
          ],
          [
            121.428742,
            24.996728
          ],
          [
            121.428546,
            24.996485
          ],
          [
            121.428371,
            24.996268
          ],
          [
            121.428289,
            24.996165
          ],
          [
            121.427662,
            24.995364
          ],
          [
            121.427638,
            24.995334
          ],
          [
            121.427597,
            24.995282
          ],
          [
            121.427565,
            24.99524
          ],
          [
            121.427255,
            24.994835
          ],
          [
            121.427181,
            24.994737
          ],
          [
            121.426963,
            24.994452
          ],
          [
            121.426698,
            24.994073
          ],
          [
            121.426539,
            24.993747
          ],
          [
            121.426515,
            24.993702
          ],
          [
            121.426574,
            24.993678
          ],
          [
            121.426664,
            24.993636
          ],
          [
            121.42705,
            24.993456
          ],
          [
            121.427392,
            24.993296
          ],
          [
            121.427723,
            24.993141
          ],
          [
            121.427777,
            24.993116
          ],
          [
            121.427909,
            24.99303
          ],
          [
            121.428044,
            24.992942
          ],
          [
            121.428579,
            24.992592
          ],
          [
            121.428618,
            24.992566
          ],
          [
            121.428694,
            24.99252
          ],
          [
            121.428753,
            24.992483
          ],
          [
            121.42891,
            24.992384
          ],
          [
            121.429137,
            24.992262
          ],
          [
            121.429164,
            24.992248
          ],
          [
            121.429264,
            24.992193
          ],
          [
            121.429356,
            24.992141
          ],
          [
            121.429609,
            24.992083
          ],
          [
            121.429825,
            24.992074
          ],
          [
            121.429841,
            24.992075
          ],
          [
            121.430158,
            24.992105
          ],
          [
            121.430437,
            24.992215
          ],
          [
            121.430597,
            24.992315
          ],
          [
            121.430694,
            24.992376
          ],
          [
            121.4308,
            24.992464
          ],
          [
            121.430879,
            24.992533
          ],
          [
            121.430965,
            24.992617
          ],
          [
            121.430923,
            24.992412
          ],
          [
            121.430706,
            24.992049
          ],
          [
            121.43114,
            24.991776
          ],
          [
            121.43124,
            24.991713
          ],
          [
            121.431476,
            24.991628
          ],
          [
            121.431505,
            24.991618
          ],
          [
            121.431415,
            24.991311
          ],
          [
            121.431397,
            24.991249
          ],
          [
            121.431365,
            24.991168
          ],
          [
            121.431255,
            24.990892
          ],
          [
            121.431114,
            24.990606
          ],
          [
            121.431099,
            24.990574
          ],
          [
            121.431063,
            24.990589
          ],
          [
            121.430747,
            24.990725
          ],
          [
            121.430617,
            24.990777
          ],
          [
            121.430469,
            24.99085
          ],
          [
            121.430141,
            24.990994
          ],
          [
            121.429735,
            24.991175
          ],
          [
            121.429638,
            24.991226
          ],
          [
            121.42933,
            24.991386
          ],
          [
            121.429279,
            24.991413
          ],
          [
            121.429232,
            24.991445
          ],
          [
            121.42919,
            24.991474
          ],
          [
            121.428844,
            24.991646
          ],
          [
            121.428452,
            24.991836
          ],
          [
            121.428209,
            24.991953
          ],
          [
            121.428156,
            24.991901
          ],
          [
            121.427991,
            24.991747
          ],
          [
            121.42833,
            24.991578
          ],
          [
            121.427981,
            24.9913
          ],
          [
            121.427935,
            24.991264
          ],
          [
            121.427564,
            24.990968
          ],
          [
            121.427553,
            24.990959
          ],
          [
            121.427531,
            24.990912
          ],
          [
            121.427534,
            24.990856
          ],
          [
            121.427587,
            24.990822
          ],
          [
            121.428061,
            24.990574
          ],
          [
            121.427931,
            24.990384
          ],
          [
            121.427825,
            24.990244
          ],
          [
            121.42823,
            24.989977
          ],
          [
            121.42837,
            24.989885
          ],
          [
            121.428137,
            24.989583
          ],
          [
            121.42884,
            24.989172
          ],
          [
            121.429291,
            24.988901
          ],
          [
            121.429266,
            24.988649
          ],
          [
            121.429215,
            24.988137
          ],
          [
            121.429164,
            24.988013
          ],
          [
            121.428831,
            24.988227
          ],
          [
            121.428356,
            24.988578
          ],
          [
            121.428206,
            24.988418
          ],
          [
            121.428081,
            24.988277
          ],
          [
            121.427985,
            24.988169
          ],
          [
            121.427969,
            24.988153
          ],
          [
            121.427883,
            24.988052
          ],
          [
            121.427865,
            24.988031
          ],
          [
            121.427778,
            24.98793
          ],
          [
            121.427683,
            24.987828
          ],
          [
            121.427647,
            24.987858
          ],
          [
            121.427683,
            24.987828
          ],
          [
            121.427467,
            24.987594
          ],
          [
            121.427222,
            24.987356
          ],
          [
            121.427637,
            24.987014
          ],
          [
            121.427667,
            24.986989
          ],
          [
            121.427913,
            24.987249
          ],
          [
            121.428115,
            24.987468
          ],
          [
            121.428155,
            24.987511
          ],
          [
            121.428222,
            24.987583
          ],
          [
            121.428317,
            24.987685
          ],
          [
            121.428443,
            24.987812
          ],
          [
            121.42857,
            24.987941
          ],
          [
            121.428702,
            24.988086
          ],
          [
            121.428831,
            24.988227
          ],
          [
            121.429164,
            24.988013
          ],
          [
            121.429105,
            24.987879
          ],
          [
            121.42901,
            24.987661
          ],
          [
            121.428858,
            24.987312
          ],
          [
            121.428801,
            24.987179
          ],
          [
            121.428668,
            24.987041
          ],
          [
            121.428434,
            24.986781
          ],
          [
            121.428441,
            24.986684
          ],
          [
            121.42851,
            24.986759
          ],
          [
            121.428911,
            24.9872
          ],
          [
            121.428924,
            24.987215
          ],
          [
            121.429253,
            24.987594
          ],
          [
            121.429466,
            24.987839
          ],
          [
            121.429391,
            24.987892
          ],
          [
            121.429006,
            24.987422
          ],
          [
            121.428877,
            24.987264
          ],
          [
            121.428801,
            24.987179
          ],
          [
            121.428668,
            24.987041
          ],
          [
            121.428434,
            24.986781
          ],
          [
            121.427826,
            24.986123
          ],
          [
            121.427584,
            24.985893
          ],
          [
            121.427534,
            24.985846
          ],
          [
            121.427588,
            24.985794
          ],
          [
            121.427628,
            24.985758
          ],
          [
            121.427832,
            24.985568
          ],
          [
            121.427628,
            24.985758
          ],
          [
            121.427588,
            24.985794
          ],
          [
            121.427628,
            24.985758
          ],
          [
            121.427939,
            24.985467
          ],
          [
            121.428015,
            24.985622
          ],
          [
            121.427939,
            24.985467
          ],
          [
            121.427628,
            24.985758
          ],
          [
            121.427588,
            24.985794
          ],
          [
            121.427534,
            24.985846
          ],
          [
            121.427388,
            24.985719
          ],
          [
            121.4271,
            24.98546
          ],
          [
            121.426505,
            24.984979
          ],
          [
            121.426123,
            24.984719
          ],
          [
            121.426045,
            24.984667
          ],
          [
            121.425995,
            24.984716
          ],
          [
            121.425805,
            24.984977
          ],
          [
            121.42567,
            24.985195
          ],
          [
            121.425444,
            24.985573
          ],
          [
            121.425239,
            24.985916
          ],
          [
            121.42514,
            24.986064
          ],
          [
            121.425164,
            24.986078
          ],
          [
            121.425267,
            24.986136
          ],
          [
            121.425554,
            24.98632
          ],
          [
            121.42631,
            24.986911
          ],
          [
            121.426561,
            24.986681
          ],
          [
            121.425752,
            24.985979
          ],
          [
            121.425828,
            24.985845
          ],
          [
            121.425752,
            24.985979
          ],
          [
            121.425942,
            24.986144
          ],
          [
            121.426182,
            24.986352
          ],
          [
            121.426561,
            24.986681
          ],
          [
            121.42631,
            24.986911
          ],
          [
            121.426049,
            24.987155
          ],
          [
            121.425957,
            24.987274
          ],
          [
            121.425898,
            24.987422
          ],
          [
            121.425857,
            24.987528
          ],
          [
            121.42546,
            24.987472
          ],
          [
            121.425401,
            24.987465
          ],
          [
            121.425158,
            24.987434
          ],
          [
            121.425156,
            24.987463
          ],
          [
            121.425125,
            24.98798
          ],
          [
            121.425057,
            24.987988
          ],
          [
            121.424776,
            24.988019
          ],
          [
            121.424623,
            24.988046
          ],
          [
            121.424776,
            24.988019
          ],
          [
            121.424817,
            24.987542
          ],
          [
            121.42482,
            24.987503
          ],
          [
            121.424919,
            24.987005
          ],
          [
            121.424919,
            24.987005
          ],
          [
            121.425075,
            24.986616
          ],
          [
            121.425267,
            24.986136
          ],
          [
            121.425554,
            24.98632
          ],
          [
            121.425527,
            24.986384
          ],
          [
            121.425371,
            24.986759
          ],
          [
            121.425804,
            24.986937
          ],
          [
            121.426049,
            24.987155
          ],
          [
            121.425957,
            24.987274
          ],
          [
            121.425898,
            24.987422
          ],
          [
            121.425857,
            24.987528
          ],
          [
            121.425863,
            24.987675
          ],
          [
            121.425874,
            24.987761
          ],
          [
            121.425905,
            24.987826
          ],
          [
            121.425977,
            24.987982
          ],
          [
            121.426054,
            24.988104
          ],
          [
            121.426191,
            24.988276
          ],
          [
            121.425929,
            24.988456
          ],
          [
            121.425427,
            24.988802
          ],
          [
            121.425357,
            24.988697
          ],
          [
            121.425293,
            24.988561
          ],
          [
            121.425308,
            24.988501
          ],
          [
            121.425348,
            24.98846
          ],
          [
            121.425642,
            24.988312
          ],
          [
            121.426054,
            24.988104
          ],
          [
            121.426191,
            24.988276
          ],
          [
            121.426382,
            24.988511
          ],
          [
            121.426562,
            24.988727
          ],
          [
            121.426791,
            24.989007
          ],
          [
            121.426889,
            24.989114
          ],
          [
            121.427184,
            24.989458
          ],
          [
            121.426856,
            24.989682
          ],
          [
            121.426715,
            24.989779
          ],
          [
            121.426335,
            24.990075
          ],
          [
            121.426149,
            24.99022
          ],
          [
            121.425785,
            24.989926
          ],
          [
            121.426081,
            24.989688
          ],
          [
            121.426165,
            24.989628
          ],
          [
            121.426381,
            24.989475
          ],
          [
            121.42646,
            24.989419
          ],
          [
            121.426889,
            24.989114
          ],
          [
            121.426791,
            24.989007
          ],
          [
            121.427259,
            24.988669
          ],
          [
            121.427051,
            24.988431
          ],
          [
            121.42701,
            24.988384
          ],
          [
            121.426612,
            24.988696
          ],
          [
            121.426562,
            24.988727
          ],
          [
            121.426191,
            24.988996
          ],
          [
            121.42578,
            24.989294
          ],
          [
            121.42561,
            24.989417
          ],
          [
            121.425413,
            24.98956
          ],
          [
            121.425374,
            24.989524
          ],
          [
            121.425215,
            24.989376
          ],
          [
            121.425182,
            24.989396
          ],
          [
            121.425145,
            24.989415
          ],
          [
            121.425107,
            24.989436
          ],
          [
            121.42506,
            24.989461
          ],
          [
            121.425022,
            24.989481
          ],
          [
            121.425004,
            24.989491
          ],
          [
            121.424921,
            24.989536
          ],
          [
            121.424878,
            24.98948
          ],
          [
            121.424657,
            24.989131
          ],
          [
            121.424564,
            24.988962
          ],
          [
            121.424431,
            24.988724
          ],
          [
            121.424368,
            24.988674
          ],
          [
            121.424322,
            24.98853
          ],
          [
            121.424211,
            24.988125
          ],
          [
            121.424175,
            24.987889
          ],
          [
            121.424161,
            24.987598
          ],
          [
            121.424155,
            24.987463
          ],
          [
            121.42407,
            24.987128
          ],
          [
            121.424069,
            24.987117
          ],
          [
            121.424063,
            24.987051
          ],
          [
            121.424365,
            24.987066
          ],
          [
            121.42451,
            24.987061
          ],
          [
            121.424494,
            24.987126
          ],
          [
            121.42446,
            24.987278
          ],
          [
            121.424445,
            24.987447
          ],
          [
            121.424435,
            24.98761
          ],
          [
            121.424444,
            24.987761
          ],
          [
            121.424491,
            24.988075
          ],
          [
            121.424541,
            24.98823
          ],
          [
            121.424582,
            24.988358
          ],
          [
            121.424704,
            24.988686
          ],
          [
            121.424739,
            24.988758
          ],
          [
            121.424835,
            24.988958
          ],
          [
            121.425095,
            24.989377
          ],
          [
            121.425107,
            24.989436
          ],
          [
            121.425145,
            24.989415
          ],
          [
            121.425182,
            24.989396
          ],
          [
            121.425215,
            24.989376
          ],
          [
            121.425315,
            24.989318
          ],
          [
            121.425359,
            24.989293
          ],
          [
            121.425606,
            24.989099
          ],
          [
            121.425976,
            24.988819
          ]
        ]
      },
      "properties": {
        "routeId": "new-taipei-220084",
        "city": "new-taipei",
        "source_file": "new-taipei/new-taipei-220084.geojson",
        "distance_km": 11.153,
        "duration_min": 27.114016666666664,
        "valhalla_config": "valhalla.json"
      }
    }
  ]
}