{
  "type": "FeatureCollection",
  "features": [
    {
      "type": "Feature",
      "geometry": {
        "type": "LineString",
        "coordinates": [
          [
            121.46031,
            25.006923
          ],
          [
            121.460341,
            25.006824
          ],
          [
            121.460383,
            25.006634
          ],
          [
            121.460401,
            25.00639
          ],
          [
            121.460482,
            25.006119
          ],
          [
            121.460503,
            25.006018
          ],
          [
            121.460605,
            25.005538
          ],
          [
            121.46062,
            25.005473
          ],
          [
            121.460723,
            25.004838
          ],
          [
            121.461256,
            25.004914
          ],
          [
            121.461451,
            25.004947
          ],
          [
            121.461795,
            25.005006
          ],
          [
            121.462166,
            25.005069
          ],
          [
            121.462289,
            25.004425
          ],
          [
            121.462483,
            25.004457
          ],
          [
            121.462743,
            25.0045
          ],
          [
            121.463359,
            25.004601
          ],
          [
            121.463678,
            25.004654
          ],
          [
            121.463627,
            25.004946
          ],
          [
            121.463152,
            25.004878
          ],
          [
            121.463144,
            25.004877
          ],
          [
            121.463105,
            25.004907
          ],
          [
            121.46309,
            25.005021
          ],
          [
            121.463062,
            25.005225
          ],
          [
            121.463708,
            25.005332
          ],
          [
            121.463995,
            25.00538
          ],
          [
            121.463874,
            25.006007
          ],
          [
            121.463572,
            25.005961
          ],
          [
            121.463384,
            25.005931
          ],
          [
            121.463322,
            25.005921
          ],
          [
            121.463015,
            25.005874
          ],
          [
            121.462511,
            25.005796
          ],
          [
            121.462041,
            25.005723
          ],
          [
            121.461978,
            25.006054
          ],
          [
            121.461973,
            25.006081
          ],
          [
            121.461927,
            25.006323
          ],
          [
            121.462348,
            25.006392
          ],
          [
            121.462434,
            25.006405
          ],
          [
            121.462523,
            25.006418
          ],
          [
            121.462908,
            25.006481
          ],
          [
            121.463341,
            25.006552
          ],
          [
            121.46376,
            25.006621
          ],
          [
            121.463644,
            25.007191
          ],
          [
            121.462967,
            25.007076
          ],
          [
            121.462844,
            25.007057
          ],
          [
            121.462458,
            25.006996
          ],
          [
            121.462079,
            25.006936
          ],
          [
            121.462076,
            25.006989
          ],
          [
            121.462079,
            25.006936
          ],
          [
            121.461817,
            25.006896
          ],
          [
            121.461827,
            25.006842
          ],
          [
            121.461927,
            25.006323
          ],
          [
            121.460768,
            25.006147
          ],
          [
            121.460704,
            25.006137
          ],
          [
            121.460482,
            25.006119
          ],
          [
            121.459605,
            25.005955
          ],
          [
            121.459663,
            25.005618
          ],
          [
            121.45967,
            25.005566
          ],
          [
            121.459797,
            25.004725
          ],
          [
            121.459833,
            25.004539
          ],
          [
            121.45986,
            25.00439
          ],
          [
            121.459915,
            25.004064
          ],
          [
            121.459932,
            25.00396
          ],
          [
            121.459984,
            25.003681
          ],
          [
            121.459998,
            25.003609
          ],
          [
            121.460017,
            25.003319
          ],
          [
            121.459979,
            25.003041
          ],
          [
            121.460114,
            25.00304
          ],
          [
            121.460116,
            25.00304
          ],
          [
            121.460595,
            25.003115
          ],
          [
            121.460848,
            25.003154
          ],
          [
            121.460985,
            25.003175
          ],
          [
            121.461035,
            25.003183
          ],
          [
            121.461625,
            25.003288
          ],
          [
            121.462476,
            25.00344
          ],
          [
            121.462381,
            25.003942
          ],
          [
            121.462731,
            25.003998
          ],
          [
            121.463327,
            25.004093
          ],
          [
            121.46371,
            25.004155
          ],
          [
            121.464217,
            25.004236
          ],
          [
            121.464297,
            25.003826
          ],
          [
            121.464395,
            25.00332
          ],
          [
            121.464416,
            25.003214
          ],
          [
            121.464473,
            25.002917
          ],
          [
            121.463941,
            25.003114
          ],
          [
            121.463892,
            25.003132
          ],
          [
            121.463453,
            25.003061
          ],
          [
            121.46308,
            25.003001
          ],
          [
            121.463086,
            25.002961
          ],
          [
            121.46308,
            25.003001
          ],
          [
            121.462907,
            25.002973
          ],
          [
            121.462823,
            25.002959
          ],
          [
            121.462576,
            25.002919
          ],
          [
            121.462396,
            25.00289
          ],
          [
            121.462316,
            25.002877
          ],
          [
            121.461848,
            25.002802
          ],
          [
            121.461466,
            25.002741
          ],
          [
            121.461131,
            25.002688
          ],
          [
            121.460861,
            25.002636
          ],
          [
            121.46052,
            25.002569
          ],
          [
            121.460035,
            25.00249
          ],
          [
            121.460005,
            25.002485
          ],
          [
            121.459794,
            25.002475
          ],
          [
            121.459709,
            25.002487
          ],
          [
            121.459604,
            25.002311
          ],
          [
            121.459324,
            25.001787
          ],
          [
            121.459311,
            25.001759
          ],
          [
            121.459831,
            25.001808
          ],
          [
            121.460042,
            25.001856
          ],
          [
            121.460334,
            25.001921
          ],
          [
            121.46067,
            25.001977
          ],
          [
            121.461083,
            25.002035
          ],
          [
            121.46127,
            25.002073
          ],
          [
            121.461464,
            25.002093
          ],
          [
            121.462093,
            25.002193
          ],
          [
            121.462702,
            25.002259
          ],
          [
            121.463188,
            25.002343
          ],
          [
            121.463745,
            25.002442
          ],
          [
            121.463899,
            25.00247
          ],
          [
            121.463967,
            25.002477
          ],
          [
            121.464541,
            25.002562
          ],
          [
            121.465139,
            25.002639
          ],
          [
            121.465278,
            25.002663
          ],
          [
            121.465635,
            25.002724
          ],
          [
            121.466205,
            25.002824
          ],
          [
            121.46619,
            25.00316
          ],
          [
            121.467367,
            25.003659
          ],
          [
            121.467592,
            25.003757
          ],
          [
            121.467367,
            25.003659
          ],
          [
            121.466814,
            25.003424
          ],
          [
            121.46619,
            25.00316
          ],
          [
            121.466191,
            25.003134
          ],
          [
            121.466205,
            25.002824
          ],
          [
            121.466071,
            25.002801
          ],
          [
            121.465635,
            25.002724
          ],
          [
            121.465278,
            25.002663
          ],
          [
            121.465139,
            25.002639
          ],
          [
            121.465098,
            25.002656
          ],
          [
            121.46497,
            25.002709
          ],
          [
            121.465074,
            25.002812
          ],
          [
            121.46495,
            25.00348
          ],
          [
            121.464872,
            25.003902
          ],
          [
            121.46484,
            25.003982
          ],
          [
            121.464652,
            25.00445
          ],
          [
            121.464737,
            25.004498
          ],
          [
            121.464564,
            25.005492
          ],
          [
            121.464479,
            25.005942
          ],
          [
            121.464424,
            25.006266
          ],
          [
            121.464537,
            25.006303
          ],
          [
            121.465076,
            25.006404
          ],
          [
            121.465066,
            25.006454
          ],
          [
            121.465076,
            25.006404
          ],
          [
            121.465112,
            25.006218
          ],
          [
            121.465259,
            25.006238
          ],
          [
            121.465328,
            25.005858
          ],
          [
            121.465447,
            25.005207
          ],
          [
            121.465475,
            25.005099
          ],
          [
            121.465651,
            25.004426
          ],
          [
            121.465695,
            25.00426
          ],
          [
            121.465833,
            25.003733
          ],
          [
            121.465871,
            25.003681
          ],
          [
            121.465872,
            25.003678
          ],
          [
            121.465871,
            25.003681
          ],
          [
            121.465833,
            25.003733
          ],
          [
            121.465895,
            25.003716
          ],
          [
            121.466233,
            25.003803
          ],
          [
            121.466309,
            25.003816
          ],
          [
            121.466554,
            25.003866
          ],
          [
            121.466865,
            25.003931
          ],
          [
            121.46719,
            25.003998
          ],
          [
            121.467158,
            25.004126
          ],
          [
            121.46711,
            25.004369
          ],
          [
            121.467086,
            25.004472
          ],
          [
            121.467038,
            25.004652
          ],
          [
            121.466966,
            25.004731
          ],
          [
            121.466668,
            25.004823
          ],
          [
            121.466678,
            25.004778
          ],
          [
            121.466668,
            25.004823
          ],
          [
            121.466287,
            25.004937
          ],
          [
            121.465998,
            25.005031
          ],
          [
            121.465889,
            25.005066
          ],
          [
            121.465791,
            25.005097
          ],
          [
            121.465447,
            25.005207
          ],
          [
            121.465001,
            25.005351
          ],
          [
            121.4648,
            25.005415
          ],
          [
            121.464564,
            25.005492
          ],
          [
            121.46454,
            25.005622
          ],
          [
            121.464564,
            25.005492
          ],
          [
            121.464599,
            25.005293
          ],
          [
            121.464665,
            25.004909
          ],
          [
            121.464737,
            25.004498
          ],
          [
            121.464686,
            25.004469
          ],
          [
            121.464652,
            25.00445
          ],
          [
            121.464834,
            25.003997
          ],
          [
            121.464872,
            25.003902
          ],
          [
            121.46495,
            25.00348
          ],
          [
            121.464958,
            25.003436
          ],
          [
            121.46495,
            25.00348
          ],
          [
            121.465233,
            25.003527
          ],
          [
            121.46534,
            25.003562
          ],
          [
            121.465469,
            25.003604
          ],
          [
            121.465508,
            25.003616
          ],
          [
            121.465338,
            25.00412
          ],
          [
            121.465306,
            25.004213
          ],
          [
            121.465215,
            25.004483
          ],
          [
            121.465205,
            25.004513
          ],
          [
            121.465137,
            25.004748
          ],
          [
            121.465014,
            25.005173
          ],
          [
            121.46501,
            25.005227
          ],
          [
            121.465001,
            25.005351
          ],
          [
            121.46505,
            25.005335
          ]
        ]
      },
      "properties": {
        "routeId": "new-taipei-220054",
        "city": "new-taipei",
        "source_file": "new-taipei/new-taipei-220054.geojson",
        "distance_km": 6.545,
        "duration_min": 16.79045,
        "valhalla_config": "valhalla.json"
      }
    }
  ]
}