{
  "type": "FeatureCollection",
  "features": [
    {
      "type": "Feature",
      "geometry": {
        "type": "LineString",
        "coordinates": [
          [
            121.45309,
            25.009963
          ],
          [
            121.453027,
            25.010037
          ],
          [
            121.45281,
            25.009977
          ],
          [
            121.452775,
            25.01007
          ],
          [
            121.452733,
            25.010205
          ],
          [
            121.452658,
            25.010432
          ],
          [
            121.452626,
            25.010513
          ],
          [
            121.452542,
            25.01077
          ],
          [
            121.452463,
            25.011048
          ],
          [
            121.452437,
            25.011131
          ],
          [
            121.453039,
            25.011262
          ],
          [
            121.453613,
            25.011416
          ],
          [
            121.45416,
            25.011564
          ],
          [
            121.454078,
            25.011853
          ],
          [
            121.453506,
            25.011711
          ],
          [
            121.452955,
            25.011566
          ],
          [
            121.452411,
            25.011444
          ],
          [
            121.452955,
            25.011566
          ],
          [
            121.452849,
            25.011872
          ],
          [
            121.452349,
            25.011733
          ],
          [
            121.452849,
            25.011872
          ],
          [
            121.452849,
            25.011877
          ],
          [
            121.453202,
            25.011969
          ],
          [
            121.453225,
            25.011975
          ],
          [
            121.453402,
            25.012017
          ],
          [
            121.453415,
            25.011977
          ],
          [
            121.453402,
            25.012017
          ],
          [
            121.453541,
            25.012053
          ],
          [
            121.453924,
            25.012145
          ],
          [
            121.453944,
            25.01215
          ],
          [
            121.453987,
            25.01216
          ],
          [
            121.453901,
            25.012431
          ],
          [
            121.45388,
            25.012502
          ],
          [
            121.453768,
            25.012871
          ],
          [
            121.453659,
            25.013163
          ],
          [
            121.452955,
            25.012996
          ],
          [
            121.453009,
            25.012726
          ],
          [
            121.45299,
            25.012682
          ],
          [
            121.452969,
            25.01268
          ],
          [
            121.452637,
            25.012654
          ],
          [
            121.452435,
            25.012626
          ],
          [
            121.452352,
            25.012843
          ],
          [
            121.452323,
            25.013108
          ],
          [
            121.452294,
            25.01334
          ],
          [
            121.45179,
            25.01341
          ],
          [
            121.45172,
            25.01342
          ],
          [
            121.452016,
            25.012519
          ],
          [
            121.452164,
            25.012051
          ],
          [
            121.452256,
            25.011762
          ],
          [
            121.452272,
            25.011712
          ],
          [
            121.452351,
            25.01143
          ],
          [
            121.452437,
            25.01113
          ],
          [
            121.452463,
            25.011048
          ],
          [
            121.452542,
            25.01077
          ],
          [
            121.452626,
            25.010513
          ],
          [
            121.452658,
            25.010432
          ],
          [
            121.452733,
            25.010205
          ],
          [
            121.452775,
            25.01007
          ],
          [
            121.45281,
            25.009977
          ],
          [
            121.452928,
            25.009554
          ],
          [
            121.452977,
            25.009379
          ],
          [
            121.453081,
            25.009041
          ],
          [
            121.453133,
            25.008865
          ],
          [
            121.453206,
            25.008618
          ],
          [
            121.45296,
            25.008217
          ],
          [
            121.452591,
            25.007617
          ],
          [
            121.45252,
            25.007522
          ],
          [
            121.452472,
            25.007417
          ],
          [
            121.452444,
            25.007315
          ],
          [
            121.452435,
            25.007212
          ],
          [
            121.452438,
            25.00713
          ],
          [
            121.452461,
            25.007044
          ],
          [
            121.452551,
            25.006889
          ],
          [
            121.452661,
            25.006701
          ],
          [
            121.45272,
            25.006599
          ],
          [
            121.452745,
            25.006555
          ],
          [
            121.452781,
            25.006493
          ],
          [
            121.452833,
            25.006425
          ],
          [
            121.453108,
            25.00608
          ],
          [
            121.453202,
            25.005964
          ],
          [
            121.453479,
            25.005512
          ],
          [
            121.453496,
            25.005472
          ],
          [
            121.453606,
            25.005216
          ],
          [
            121.45367,
            25.005066
          ],
          [
            121.453717,
            25.004955
          ],
          [
            121.453856,
            25.004632
          ],
          [
            121.453931,
            25.00445
          ],
          [
            121.453937,
            25.004438
          ],
          [
            121.454015,
            25.004274
          ],
          [
            121.454054,
            25.004281
          ],
          [
            121.454247,
            25.004339
          ],
          [
            121.454315,
            25.004361
          ],
          [
            121.454498,
            25.004419
          ],
          [
            121.454625,
            25.004458
          ],
          [
            121.454807,
            25.004516
          ],
          [
            121.454941,
            25.004559
          ],
          [
            121.45498,
            25.004529
          ],
          [
            121.454991,
            25.00452
          ],
          [
            121.455027,
            25.004497
          ],
          [
            121.455054,
            25.004543
          ],
          [
            121.45508,
            25.004591
          ],
          [
            121.455237,
            25.004893
          ],
          [
            121.455479,
            25.005361
          ],
          [
            121.455498,
            25.005397
          ],
          [
            121.455585,
            25.005565
          ],
          [
            121.455629,
            25.00565
          ],
          [
            121.455648,
            25.005683
          ],
          [
            121.456072,
            25.006438
          ],
          [
            121.456424,
            25.007124
          ],
          [
            121.456531,
            25.007318
          ],
          [
            121.456565,
            25.007379
          ],
          [
            121.456696,
            25.007618
          ],
          [
            121.456353,
            25.007875
          ],
          [
            121.456254,
            25.007951
          ],
          [
            121.456032,
            25.008074
          ],
          [
            121.455944,
            25.008116
          ],
          [
            121.455838,
            25.008162
          ],
          [
            121.455645,
            25.008243
          ],
          [
            121.455471,
            25.00831
          ],
          [
            121.455298,
            25.008371
          ],
          [
            121.455058,
            25.008453
          ],
          [
            121.454694,
            25.008577
          ],
          [
            121.454442,
            25.008657
          ],
          [
            121.454118,
            25.008663
          ],
          [
            121.453928,
            25.008657
          ],
          [
            121.453564,
            25.00864
          ],
          [
            121.453355,
            25.008627
          ],
          [
            121.453206,
            25.008618
          ],
          [
            121.452987,
            25.008607
          ],
          [
            121.452357,
            25.008587
          ],
          [
            121.45164,
            25.00857
          ],
          [
            121.450781,
            25.008525
          ],
          [
            121.450058,
            25.008499
          ],
          [
            121.449604,
            25.008466
          ],
          [
            121.449519,
            25.00846
          ],
          [
            121.449425,
            25.008455
          ],
          [
            121.44935,
            25.008446
          ],
          [
            121.449221,
            25.008431
          ],
          [
            121.448964,
            25.008351
          ],
          [
            121.448806,
            25.008298
          ],
          [
            121.448701,
            25.008251
          ],
          [
            121.448417,
            25.008081
          ],
          [
            121.448095,
            25.007807
          ],
          [
            121.447867,
            25.007481
          ],
          [
            121.447752,
            25.007243
          ],
          [
            121.44748,
            25.006146
          ],
          [
            121.44743,
            25.005932
          ],
          [
            121.447269,
            25.005274
          ],
          [
            121.44716,
            25.005137
          ],
          [
            121.447045,
            25.004684
          ],
          [
            121.446965,
            25.004337
          ],
          [
            121.446939,
            25.004259
          ],
          [
            121.447107,
            25.004228
          ],
          [
            121.447178,
            25.004546
          ],
          [
            121.448978,
            25.004137
          ],
          [
            121.448335,
            25.004283
          ],
          [
            121.447975,
            25.004365
          ],
          [
            121.447726,
            25.004421
          ],
          [
            121.447269,
            25.004525
          ],
          [
            121.447178,
            25.004546
          ],
          [
            121.447222,
            25.004721
          ],
          [
            121.4475,
            25.004654
          ],
          [
            121.447568,
            25.004663
          ],
          [
            121.448024,
            25.004807
          ],
          [
            121.4483,
            25.004897
          ],
          [
            121.448443,
            25.004955
          ],
          [
            121.448828,
            25.00517
          ],
          [
            121.449193,
            25.005374
          ],
          [
            121.449249,
            25.005405
          ],
          [
            121.449417,
            25.005503
          ],
          [
            121.449505,
            25.005554
          ],
          [
            121.449928,
            25.005479
          ],
          [
            121.450053,
            25.00546
          ],
          [
            121.450433,
            25.0054
          ],
          [
            121.450565,
            25.005379
          ],
          [
            121.450566,
            25.005357
          ],
          [
            121.450581,
            25.005077
          ],
          [
            121.450564,
            25.004768
          ],
          [
            121.450541,
            25.004573
          ],
          [
            121.450564,
            25.004768
          ],
          [
            121.450572,
            25.004921
          ],
          [
            121.450581,
            25.005077
          ],
          [
            121.45058,
            25.005089
          ],
          [
            121.450566,
            25.005357
          ],
          [
            121.450565,
            25.005379
          ],
          [
            121.450526,
            25.005776
          ],
          [
            121.450519,
            25.005841
          ],
          [
            121.450504,
            25.006242
          ],
          [
            121.450497,
            25.006438
          ],
          [
            121.450439,
            25.00668
          ],
          [
            121.450383,
            25.006913
          ],
          [
            121.450382,
            25.006919
          ],
          [
            121.450275,
            25.007449
          ],
          [
            121.450212,
            25.00776
          ],
          [
            121.450135,
            25.00813
          ],
          [
            121.450058,
            25.008499
          ],
          [
            121.450022,
            25.008725
          ],
          [
            121.449971,
            25.00907
          ],
          [
            121.449918,
            25.009383
          ],
          [
            121.449879,
            25.009748
          ],
          [
            121.449807,
            25.010556
          ],
          [
            121.44976,
            25.011055
          ],
          [
            121.449801,
            25.011045
          ],
          [
            121.450037,
            25.011049
          ],
          [
            121.450151,
            25.011643
          ],
          [
            121.450151,
            25.011882
          ],
          [
            121.449984,
            25.011967
          ],
          [
            121.449851,
            25.012319
          ],
          [
            121.449615,
            25.012811
          ],
          [
            121.449851,
            25.012319
          ],
          [
            121.449981,
            25.011974
          ],
          [
            121.449984,
            25.011967
          ],
          [
            121.450151,
            25.011882
          ],
          [
            121.450151,
            25.011643
          ],
          [
            121.450072,
            25.011229
          ],
          [
            121.450037,
            25.011049
          ],
          [
            121.449801,
            25.011045
          ],
          [
            121.44976,
            25.011055
          ],
          [
            121.449453,
            25.011121
          ],
          [
            121.449007,
            25.01121
          ],
          [
            121.448631,
            25.011288
          ],
          [
            121.448315,
            25.011355
          ],
          [
            121.447645,
            25.011509
          ],
          [
            121.44751,
            25.011578
          ],
          [
            121.447634,
            25.011917
          ],
          [
            121.447663,
            25.011998
          ],
          [
            121.447687,
            25.012064
          ],
          [
            121.44773,
            25.012185
          ],
          [
            121.447854,
            25.01246
          ],
          [
            121.447966,
            25.012762
          ],
          [
            121.448076,
            25.013048
          ],
          [
            121.448175,
            25.013306
          ],
          [
            121.448209,
            25.013367
          ],
          [
            121.448249,
            25.013453
          ],
          [
            121.448219,
            25.013595
          ],
          [
            121.448164,
            25.013752
          ],
          [
            121.448127,
            25.013804
          ],
          [
            121.448004,
            25.013833
          ],
          [
            121.447597,
            25.013883
          ],
          [
            121.447027,
            25.013953
          ],
          [
            121.446992,
            25.013661
          ],
          [
            121.447583,
            25.013591
          ],
          [
            121.447974,
            25.013545
          ],
          [
            121.448004,
            25.013833
          ],
          [
            121.448127,
            25.013804
          ],
          [
            121.448164,
            25.013752
          ],
          [
            121.448219,
            25.013595
          ],
          [
            121.448249,
            25.013453
          ],
          [
            121.448209,
            25.013367
          ],
          [
            121.448175,
            25.013306
          ],
          [
            121.448076,
            25.013048
          ],
          [
            121.447966,
            25.012762
          ],
          [
            121.447322,
            25.01283
          ],
          [
            121.446845,
            25.012881
          ],
          [
            121.446804,
            25.012615
          ],
          [
            121.446267,
            25.012689
          ],
          [
            121.446396,
            25.012671
          ],
          [
            121.446804,
            25.012615
          ],
          [
            121.446753,
            25.0123
          ],
          [
            121.446712,
            25.012031
          ],
          [
            121.446819,
            25.012018
          ],
          [
            121.447634,
            25.011917
          ],
          [
            121.44751,
            25.011578
          ],
          [
            121.447235,
            25.011214
          ],
          [
            121.447058,
            25.010973
          ],
          [
            121.446967,
            25.010846
          ],
          [
            121.446869,
            25.010685
          ],
          [
            121.446757,
            25.010504
          ],
          [
            121.446739,
            25.010468
          ],
          [
            121.446644,
            25.010061
          ],
          [
            121.446465,
            25.009416
          ],
          [
            121.446392,
            25.009169
          ],
          [
            121.446306,
            25.008902
          ],
          [
            121.446231,
            25.008739
          ],
          [
            121.446171,
            25.008551
          ],
          [
            121.446138,
            25.008448
          ],
          [
            121.446042,
            25.008219
          ],
          [
            121.445932,
            25.007894
          ],
          [
            121.445892,
            25.007713
          ],
          [
            121.445853,
            25.007573
          ],
          [
            121.445799,
            25.007314
          ],
          [
            121.445752,
            25.007086
          ],
          [
            121.445724,
            25.006954
          ],
          [
            121.445681,
            25.006732
          ],
          [
            121.445628,
            25.006415
          ],
          [
            121.445567,
            25.006117
          ],
          [
            121.4455,
            25.00582
          ],
          [
            121.445412,
            25.00541
          ],
          [
            121.445368,
            25.005203
          ],
          [
            121.445309,
            25.005111
          ],
          [
            121.445259,
            25.00508
          ],
          [
            121.445229,
            25.005061
          ],
          [
            121.445137,
            25.004876
          ],
          [
            121.445078,
            25.004757
          ],
          [
            121.444977,
            25.004493
          ],
          [
            121.444904,
            25.004289
          ],
          [
            121.444779,
            25.003963
          ],
          [
            121.446409,
            25.003542
          ],
          [
            121.446719,
            25.003462
          ],
          [
            121.446672,
            25.003282
          ],
          [
            121.446578,
            25.002938
          ],
          [
            121.446646,
            25.002855
          ],
          [
            121.446605,
            25.002675
          ],
          [
            121.446517,
            25.002405
          ],
          [
            121.446471,
            25.002278
          ],
          [
            121.446433,
            25.002173
          ],
          [
            121.44633,
            25.002003
          ],
          [
            121.446197,
            25.001813
          ],
          [
            121.446074,
            25.001642
          ],
          [
            121.44597,
            25.001503
          ],
          [
            121.445703,
            25.00117
          ],
          [
            121.44564,
            25.001093
          ],
          [
            121.445411,
            25.000794
          ],
          [
            121.445038,
            25.00032
          ],
          [
            121.444853,
            25.000116
          ],
          [
            121.444848,
            25.00011
          ],
          [
            121.444721,
            24.999955
          ],
          [
            121.444661,
            24.999884
          ],
          [
            121.444533,
            24.999733
          ],
          [
            121.444295,
            24.999525
          ],
          [
            121.44416,
            24.999435
          ],
          [
            121.444012,
            24.999364
          ],
          [
            121.443743,
            24.999254
          ],
          [
            121.443007,
            24.999058
          ],
          [
            121.442848,
            24.99905
          ]
        ]
      },
      "properties": {
        "routeId": "new-taipei-220081",
        "city": "new-taipei",
        "source_file": "new-taipei/new-taipei-220081.geojson",
        "distance_km": 9.49,
        "duration_min": 21.75245,
        "valhalla_config": "valhalla.json"
      }
    }
  ]
}