{
  "type": "FeatureCollection",
  "features": [
    {
      "type": "Feature",
      "geometry": {
        "type": "LineString",
        "coordinates": [
          [
            121.785622,
            25.101352
          ],
          [
            121.785613,
            25.101021
          ],
          [
            121.785494,
            25.100448
          ],
          [
            121.78536,
            25.100139
          ],
          [
            121.785295,
            25.099995
          ],
          [
            121.785128,
            25.09986
          ],
          [
            121.784922,
            25.099735
          ],
          [
            121.784665,
            25.099624
          ],
          [
            121.784399,
            25.099534
          ],
          [
            121.783853,
            25.099341
          ],
          [
            121.783785,
            25.099287
          ],
          [
            121.782983,
            25.09902
          ],
          [
            121.782736,
            25.098905
          ],
          [
            121.782519,
            25.098768
          ],
          [
            121.782383,
            25.098659
          ],
          [
            121.782008,
            25.098277
          ],
          [
            121.781874,
            25.098172
          ],
          [
            121.781797,
            25.098269
          ],
          [
            121.781695,
            25.098402
          ],
          [
            121.78168,
            25.098552
          ],
          [
            121.78168,
            25.098705
          ],
          [
            121.781615,
            25.099101
          ],
          [
            121.78168,
            25.098705
          ],
          [
            121.78168,
            25.098552
          ],
          [
            121.781695,
            25.098402
          ],
          [
            121.781797,
            25.098269
          ],
          [
            121.781874,
            25.098172
          ],
          [
            121.781599,
            25.097898
          ],
          [
            121.781377,
            25.097764
          ],
          [
            121.781172,
            25.097685
          ],
          [
            121.781123,
            25.097675
          ],
          [
            121.780979,
            25.097647
          ],
          [
            121.780813,
            25.097645
          ],
          [
            121.78059,
            25.0977
          ],
          [
            121.78042,
            25.097766
          ],
          [
            121.780252,
            25.097861
          ],
          [
            121.780106,
            25.09799
          ],
          [
            121.779719,
            25.098376
          ],
          [
            121.77969,
            25.098405
          ],
          [
            121.779429,
            25.098648
          ],
          [
            121.779074,
            25.098962
          ],
          [
            121.778935,
            25.099037
          ],
          [
            121.778702,
            25.099163
          ],
          [
            121.778644,
            25.099191
          ],
          [
            121.778343,
            25.099318
          ],
          [
            121.778644,
            25.099191
          ],
          [
            121.778702,
            25.099163
          ],
          [
            121.778935,
            25.099037
          ],
          [
            121.779074,
            25.098962
          ],
          [
            121.779429,
            25.098648
          ],
          [
            121.77969,
            25.098405
          ],
          [
            121.779719,
            25.098376
          ],
          [
            121.780106,
            25.09799
          ],
          [
            121.780252,
            25.097861
          ],
          [
            121.78042,
            25.097766
          ],
          [
            121.780538,
            25.09772
          ],
          [
            121.78059,
            25.0977
          ],
          [
            121.780813,
            25.097645
          ],
          [
            121.780979,
            25.097647
          ],
          [
            121.781123,
            25.097675
          ],
          [
            121.781172,
            25.097685
          ],
          [
            121.781377,
            25.097764
          ],
          [
            121.781599,
            25.097898
          ],
          [
            121.781819,
            25.097718
          ],
          [
            121.781842,
            25.0976
          ],
          [
            121.781928,
            25.097505
          ],
          [
            121.781987,
            25.097367
          ],
          [
            121.781976,
            25.097174
          ],
          [
            121.781824,
            25.096895
          ],
          [
            121.781572,
            25.096628
          ],
          [
            121.780905,
            25.096148
          ],
          [
            121.780585,
            25.095872
          ],
          [
            121.780497,
            25.095735
          ],
          [
            121.780415,
            25.095591
          ],
          [
            121.780376,
            25.095437
          ],
          [
            121.780351,
            25.0953
          ],
          [
            121.780325,
            25.09516
          ],
          [
            121.780277,
            25.095069
          ],
          [
            121.780159,
            25.094987
          ],
          [
            121.780034,
            25.094925
          ],
          [
            121.779861,
            25.094887
          ],
          [
            121.779675,
            25.094897
          ],
          [
            121.779556,
            25.094921
          ],
          [
            121.779431,
            25.094913
          ],
          [
            121.779248,
            25.094859
          ],
          [
            121.779089,
            25.094732
          ],
          [
            121.778971,
            25.09463
          ],
          [
            121.778775,
            25.094564
          ],
          [
            121.778439,
            25.094516
          ],
          [
            121.77825,
            25.094433
          ],
          [
            121.77817,
            25.094364
          ],
          [
            121.77825,
            25.094433
          ],
          [
            121.778439,
            25.094516
          ],
          [
            121.778775,
            25.094564
          ],
          [
            121.778971,
            25.09463
          ],
          [
            121.779089,
            25.094732
          ],
          [
            121.779248,
            25.094859
          ],
          [
            121.779431,
            25.094913
          ],
          [
            121.779556,
            25.094921
          ],
          [
            121.779675,
            25.094897
          ],
          [
            121.779861,
            25.094887
          ],
          [
            121.780034,
            25.094925
          ],
          [
            121.780159,
            25.094987
          ],
          [
            121.780277,
            25.095069
          ],
          [
            121.780325,
            25.09516
          ],
          [
            121.780351,
            25.0953
          ],
          [
            121.780376,
            25.095437
          ],
          [
            121.780415,
            25.095591
          ],
          [
            121.780497,
            25.095735
          ],
          [
            121.780585,
            25.095872
          ],
          [
            121.780905,
            25.096148
          ],
          [
            121.781572,
            25.096628
          ],
          [
            121.781824,
            25.096895
          ],
          [
            121.781976,
            25.097174
          ],
          [
            121.781987,
            25.097367
          ],
          [
            121.781928,
            25.097505
          ],
          [
            121.781842,
            25.0976
          ],
          [
            121.781819,
            25.097718
          ],
          [
            121.781599,
            25.097898
          ],
          [
            121.781874,
            25.098172
          ],
          [
            121.782008,
            25.098277
          ],
          [
            121.782047,
            25.098317
          ],
          [
            121.782383,
            25.098659
          ],
          [
            121.782519,
            25.098768
          ],
          [
            121.782736,
            25.098905
          ],
          [
            121.782983,
            25.09902
          ],
          [
            121.783785,
            25.099287
          ],
          [
            121.78387,
            25.099297
          ],
          [
            121.784432,
            25.099489
          ],
          [
            121.784939,
            25.099685
          ],
          [
            121.785222,
            25.099841
          ],
          [
            121.785338,
            25.099955
          ],
          [
            121.785408,
            25.100114
          ],
          [
            121.78553,
            25.100405
          ],
          [
            121.78567,
            25.100998
          ],
          [
            121.785689,
            25.101555
          ],
          [
            121.785678,
            25.102121
          ],
          [
            121.785635,
            25.102791
          ],
          [
            121.785591,
            25.102865
          ],
          [
            121.785586,
            25.102967
          ],
          [
            121.785584,
            25.103019
          ],
          [
            121.785581,
            25.103094
          ],
          [
            121.785593,
            25.103299
          ],
          [
            121.785663,
            25.10353
          ],
          [
            121.785768,
            25.103782
          ],
          [
            121.78621,
            25.104489
          ],
          [
            121.786255,
            25.104465
          ],
          [
            121.78682,
            25.104161
          ],
          [
            121.786972,
            25.104335
          ],
          [
            121.787186,
            25.104496
          ],
          [
            121.787326,
            25.104723
          ],
          [
            121.787403,
            25.104832
          ],
          [
            121.787452,
            25.104955
          ],
          [
            121.787865,
            25.105288
          ],
          [
            121.788353,
            25.105472
          ],
          [
            121.788502,
            25.105604
          ],
          [
            121.788565,
            25.105762
          ],
          [
            121.788544,
            25.106182
          ],
          [
            121.788447,
            25.106257
          ],
          [
            121.788378,
            25.10631
          ],
          [
            121.787999,
            25.106604
          ],
          [
            121.787647,
            25.106801
          ],
          [
            121.787677,
            25.10685
          ],
          [
            121.788186,
            25.10772
          ],
          [
            121.788403,
            25.108077
          ],
          [
            121.788603,
            25.108407
          ],
          [
            121.788629,
            25.108433
          ],
          [
            121.788864,
            25.108672
          ],
          [
            121.789179,
            25.108997
          ],
          [
            121.789575,
            25.109322
          ],
          [
            121.789644,
            25.109377
          ],
          [
            121.789704,
            25.109412
          ],
          [
            121.789924,
            25.109541
          ],
          [
            121.790318,
            25.109723
          ],
          [
            121.790393,
            25.109752
          ],
          [
            121.790928,
            25.109988
          ],
          [
            121.791339,
            25.110169
          ],
          [
            121.791364,
            25.110179
          ],
          [
            121.791638,
            25.110288
          ],
          [
            121.792062,
            25.110389
          ],
          [
            121.792263,
            25.110411
          ],
          [
            121.792445,
            25.110426
          ],
          [
            121.792651,
            25.110442
          ],
          [
            121.79285,
            25.110457
          ],
          [
            121.79327,
            25.110477
          ],
          [
            121.793187,
            25.110238
          ],
          [
            121.793169,
            25.110088
          ],
          [
            121.793187,
            25.110238
          ],
          [
            121.79327,
            25.110477
          ],
          [
            121.793579,
            25.110499
          ],
          [
            121.793718,
            25.110512
          ],
          [
            121.794155,
            25.110533
          ],
          [
            121.794265,
            25.11053
          ],
          [
            121.794375,
            25.110527
          ],
          [
            121.794618,
            25.110487
          ],
          [
            121.794962,
            25.110403
          ],
          [
            121.795235,
            25.110337
          ],
          [
            121.795525,
            25.110274
          ],
          [
            121.796108,
            25.110146
          ],
          [
            121.79631,
            25.110102
          ],
          [
            121.796653,
            25.110029
          ],
          [
            121.797152,
            25.109881
          ],
          [
            121.797329,
            25.109801
          ],
          [
            121.797152,
            25.109881
          ],
          [
            121.796653,
            25.110029
          ],
          [
            121.79659,
            25.110042
          ],
          [
            121.79631,
            25.110102
          ],
          [
            121.795525,
            25.110274
          ],
          [
            121.795235,
            25.110337
          ],
          [
            121.794962,
            25.110403
          ],
          [
            121.794618,
            25.110487
          ],
          [
            121.794375,
            25.110527
          ],
          [
            121.794265,
            25.11053
          ],
          [
            121.794155,
            25.110533
          ],
          [
            121.793718,
            25.110512
          ],
          [
            121.793579,
            25.110499
          ],
          [
            121.793571,
            25.110601
          ],
          [
            121.793579,
            25.110499
          ],
          [
            121.79327,
            25.110477
          ],
          [
            121.79285,
            25.110457
          ],
          [
            121.792651,
            25.110442
          ],
          [
            121.792605,
            25.110438
          ],
          [
            121.792263,
            25.110411
          ],
          [
            121.792062,
            25.110389
          ],
          [
            121.791638,
            25.110288
          ],
          [
            121.791364,
            25.110179
          ],
          [
            121.791339,
            25.110169
          ],
          [
            121.790928,
            25.109988
          ],
          [
            121.790393,
            25.109752
          ],
          [
            121.790318,
            25.109723
          ],
          [
            121.789924,
            25.109541
          ],
          [
            121.789644,
            25.109377
          ],
          [
            121.789575,
            25.109322
          ],
          [
            121.789179,
            25.108997
          ],
          [
            121.788864,
            25.108672
          ],
          [
            121.788629,
            25.108433
          ],
          [
            121.788603,
            25.108407
          ],
          [
            121.78852,
            25.108271
          ],
          [
            121.788603,
            25.108407
          ],
          [
            121.788629,
            25.108433
          ],
          [
            121.788864,
            25.108672
          ],
          [
            121.789179,
            25.108997
          ],
          [
            121.789575,
            25.109322
          ],
          [
            121.789644,
            25.109377
          ],
          [
            121.789924,
            25.109541
          ],
          [
            121.790318,
            25.109723
          ],
          [
            121.790393,
            25.109752
          ],
          [
            121.790928,
            25.109988
          ],
          [
            121.791339,
            25.110169
          ],
          [
            121.791364,
            25.110179
          ],
          [
            121.791638,
            25.110288
          ],
          [
            121.792062,
            25.110389
          ],
          [
            121.792263,
            25.110411
          ],
          [
            121.792651,
            25.110442
          ],
          [
            121.79285,
            25.110457
          ],
          [
            121.79327,
            25.110477
          ],
          [
            121.793579,
            25.110499
          ],
          [
            121.793718,
            25.110512
          ],
          [
            121.794155,
            25.110533
          ],
          [
            121.794265,
            25.11053
          ],
          [
            121.794375,
            25.110527
          ],
          [
            121.794618,
            25.110487
          ],
          [
            121.794962,
            25.110403
          ],
          [
            121.795235,
            25.110337
          ],
          [
            121.795525,
            25.110274
          ],
          [
            121.79631,
            25.110102
          ],
          [
            121.796653,
            25.110029
          ],
          [
            121.797152,
            25.109881
          ],
          [
            121.797351,
            25.109791
          ],
          [
            121.7983,
            25.109234
          ],
          [
            121.798462,
            25.109123
          ],
          [
            121.798652,
            25.108932
          ],
          [
            121.798767,
            25.10881
          ],
          [
            121.798804,
            25.108754
          ],
          [
            121.798876,
            25.108616
          ],
          [
            121.79912,
            25.108034
          ],
          [
            121.799249,
            25.107823
          ],
          [
            121.799382,
            25.107658
          ],
          [
            121.799519,
            25.107537
          ],
          [
            121.79994,
            25.107234
          ],
          [
            121.800294,
            25.106997
          ],
          [
            121.800387,
            25.106948
          ],
          [
            121.800475,
            25.106901
          ],
          [
            121.800797,
            25.106806
          ],
          [
            121.801572,
            25.106662
          ],
          [
            121.801796,
            25.106618
          ],
          [
            121.801996,
            25.106581
          ],
          [
            121.802189,
            25.106536
          ],
          [
            121.80246,
            25.106487
          ],
          [
            121.802615,
            25.10646
          ],
          [
            121.803177,
            25.106357
          ],
          [
            121.803595,
            25.106276
          ],
          [
            121.803951,
            25.106221
          ],
          [
            121.804081,
            25.106201
          ],
          [
            121.804196,
            25.106192
          ],
          [
            121.80432,
            25.106186
          ],
          [
            121.804579,
            25.106131
          ],
          [
            121.804763,
            25.106088
          ],
          [
            121.804869,
            25.106065
          ],
          [
            121.805293,
            25.105975
          ],
          [
            121.805496,
            25.105871
          ],
          [
            121.805894,
            25.105618
          ],
          [
            121.80596,
            25.105571
          ],
          [
            121.806466,
            25.105271
          ],
          [
            121.806486,
            25.105267
          ],
          [
            121.806547,
            25.105252
          ],
          [
            121.806769,
            25.105197
          ],
          [
            121.807131,
            25.105188
          ],
          [
            121.807279,
            25.105187
          ],
          [
            121.80811,
            25.105144
          ],
          [
            121.808118,
            25.104819
          ],
          [
            121.808169,
            25.104602
          ],
          [
            121.808231,
            25.104494
          ],
          [
            121.80831,
            25.104436
          ],
          [
            121.808394,
            25.104411
          ],
          [
            121.809207,
            25.104526
          ],
          [
            121.809266,
            25.104485
          ],
          [
            121.809294,
            25.104412
          ],
          [
            121.809266,
            25.104239
          ],
          [
            121.809167,
            25.104004
          ],
          [
            121.809143,
            25.103793
          ],
          [
            121.809146,
            25.103717
          ],
          [
            121.809167,
            25.103658
          ],
          [
            121.809457,
            25.103511
          ],
          [
            121.809505,
            25.103462
          ],
          [
            121.809484,
            25.103416
          ],
          [
            121.809416,
            25.103365
          ],
          [
            121.809318,
            25.103416
          ],
          [
            121.809164,
            25.103496
          ],
          [
            121.808971,
            25.103499
          ],
          [
            121.809164,
            25.103496
          ],
          [
            121.809318,
            25.103416
          ],
          [
            121.809416,
            25.103365
          ],
          [
            121.809484,
            25.103416
          ],
          [
            121.809505,
            25.103462
          ],
          [
            121.809457,
            25.103511
          ],
          [
            121.809167,
            25.103658
          ],
          [
            121.809146,
            25.103717
          ],
          [
            121.809143,
            25.103793
          ],
          [
            121.809167,
            25.104004
          ],
          [
            121.809266,
            25.104239
          ],
          [
            121.809294,
            25.104412
          ],
          [
            121.809266,
            25.104485
          ],
          [
            121.809207,
            25.104526
          ],
          [
            121.808394,
            25.104411
          ],
          [
            121.80831,
            25.104436
          ],
          [
            121.808231,
            25.104494
          ],
          [
            121.808169,
            25.104602
          ],
          [
            121.808118,
            25.104819
          ],
          [
            121.80811,
            25.105144
          ],
          [
            121.808246,
            25.105178
          ],
          [
            121.808354,
            25.105228
          ],
          [
            121.808487,
            25.105301
          ],
          [
            121.80862,
            25.105373
          ],
          [
            121.808823,
            25.105553
          ],
          [
            121.808965,
            25.105787
          ],
          [
            121.80897,
            25.105796
          ],
          [
            121.809049,
            25.105977
          ],
          [
            121.809058,
            25.106004
          ],
          [
            121.809089,
            25.106181
          ],
          [
            121.809338,
            25.107275
          ],
          [
            121.809367,
            25.107432
          ],
          [
            121.809233,
            25.107325
          ],
          [
            121.809074,
            25.107199
          ],
          [
            121.808925,
            25.107096
          ],
          [
            121.808906,
            25.107084
          ],
          [
            121.808874,
            25.107063
          ],
          [
            121.808582,
            25.107065
          ],
          [
            121.807984,
            25.107088
          ],
          [
            121.808088,
            25.107452
          ],
          [
            121.808152,
            25.107686
          ],
          [
            121.807954,
            25.107728
          ],
          [
            121.807913,
            25.107737
          ],
          [
            121.807646,
            25.107799
          ],
          [
            121.807521,
            25.107827
          ],
          [
            121.807118,
            25.107915
          ],
          [
            121.807068,
            25.107926
          ],
          [
            121.806381,
            25.108082
          ],
          [
            121.806196,
            25.108124
          ],
          [
            121.806068,
            25.108155
          ],
          [
            121.805801,
            25.108216
          ],
          [
            121.805745,
            25.108229
          ],
          [
            121.805723,
            25.108235
          ],
          [
            121.804992,
            25.108394
          ],
          [
            121.804742,
            25.108448
          ],
          [
            121.804578,
            25.108487
          ],
          [
            121.804348,
            25.108543
          ],
          [
            121.804295,
            25.108555
          ],
          [
            121.804168,
            25.108585
          ],
          [
            121.804099,
            25.108603
          ],
          [
            121.804003,
            25.108624
          ],
          [
            121.80395,
            25.108638
          ],
          [
            121.803871,
            25.108731
          ],
          [
            121.803864,
            25.108741
          ],
          [
            121.803842,
            25.108775
          ],
          [
            121.803807,
            25.108836
          ],
          [
            121.803794,
            25.108888
          ],
          [
            121.803776,
            25.10926
          ],
          [
            121.803767,
            25.109335
          ],
          [
            121.803758,
            25.109367
          ],
          [
            121.803735,
            25.109418
          ],
          [
            121.803675,
            25.109498
          ],
          [
            121.803117,
            25.109683
          ],
          [
            121.803077,
            25.109654
          ],
          [
            121.803012,
            25.109517
          ],
          [
            121.803284,
            25.109211
          ],
          [
            121.803463,
            25.109057
          ],
          [
            121.80362,
            25.10893
          ],
          [
            121.803838,
            25.108737
          ],
          [
            121.80395,
            25.108638
          ],
          [
            121.804003,
            25.108624
          ],
          [
            121.804099,
            25.108603
          ],
          [
            121.804168,
            25.108585
          ],
          [
            121.804348,
            25.108543
          ],
          [
            121.804578,
            25.108487
          ],
          [
            121.804742,
            25.108448
          ],
          [
            121.804992,
            25.108394
          ],
          [
            121.804829,
            25.107801
          ],
          [
            121.805019,
            25.107754
          ],
          [
            121.805369,
            25.107668
          ],
          [
            121.805559,
            25.107621
          ],
          [
            121.805909,
            25.107545
          ],
          [
            121.806035,
            25.107518
          ],
          [
            121.80697,
            25.107317
          ],
          [
            121.807303,
            25.107244
          ],
          [
            121.807357,
            25.107232
          ],
          [
            121.807499,
            25.107199
          ],
          [
            121.8077,
            25.107155
          ],
          [
            121.807756,
            25.107142
          ],
          [
            121.807984,
            25.107088
          ],
          [
            121.807977,
            25.107004
          ],
          [
            121.80794,
            25.106859
          ],
          [
            121.807895,
            25.106686
          ],
          [
            121.807838,
            25.106486
          ],
          [
            121.80741,
            25.10657
          ],
          [
            121.807335,
            25.106586
          ],
          [
            121.807275,
            25.106599
          ],
          [
            121.807134,
            25.10663
          ],
          [
            121.807067,
            25.106644
          ],
          [
            121.806797,
            25.1067
          ],
          [
            121.806817,
            25.106772
          ],
          [
            121.80697,
            25.107316
          ],
          [
            121.80711,
            25.107873
          ],
          [
            121.807118,
            25.107915
          ],
          [
            121.807521,
            25.107827
          ],
          [
            121.807646,
            25.107799
          ],
          [
            121.807954,
            25.107728
          ],
          [
            121.808152,
            25.107686
          ],
          [
            121.808544,
            25.107599
          ],
          [
            121.808684,
            25.10757
          ],
          [
            121.809201,
            25.107464
          ],
          [
            121.809269,
            25.107453
          ],
          [
            121.809367,
            25.107432
          ],
          [
            121.809338,
            25.107275
          ],
          [
            121.809089,
            25.106181
          ],
          [
            121.809058,
            25.106004
          ],
          [
            121.809049,
            25.105977
          ],
          [
            121.80897,
            25.105796
          ],
          [
            121.808823,
            25.105553
          ],
          [
            121.80862,
            25.105373
          ],
          [
            121.808487,
            25.105301
          ],
          [
            121.808354,
            25.105228
          ],
          [
            121.808246,
            25.105178
          ],
          [
            121.80811,
            25.105144
          ],
          [
            121.807279,
            25.105187
          ],
          [
            121.807131,
            25.105188
          ],
          [
            121.806769,
            25.105197
          ],
          [
            121.806486,
            25.105267
          ],
          [
            121.806466,
            25.105271
          ],
          [
            121.806399,
            25.105311
          ],
          [
            121.80596,
            25.105571
          ],
          [
            121.805894,
            25.105618
          ],
          [
            121.805496,
            25.105871
          ],
          [
            121.805293,
            25.105975
          ],
          [
            121.804763,
            25.106088
          ],
          [
            121.804579,
            25.106131
          ],
          [
            121.80432,
            25.106186
          ],
          [
            121.80422,
            25.106191
          ],
          [
            121.804196,
            25.106192
          ],
          [
            121.804081,
            25.106201
          ],
          [
            121.803595,
            25.106276
          ],
          [
            121.80327,
            25.106339
          ],
          [
            121.803177,
            25.106357
          ],
          [
            121.802615,
            25.10646
          ],
          [
            121.80246,
            25.106487
          ],
          [
            121.802189,
            25.106536
          ],
          [
            121.801996,
            25.106581
          ],
          [
            121.801796,
            25.106618
          ],
          [
            121.801572,
            25.106662
          ],
          [
            121.801595,
            25.106739
          ],
          [
            121.801572,
            25.106662
          ],
          [
            121.800797,
            25.106806
          ],
          [
            121.800827,
            25.106884
          ],
          [
            121.800797,
            25.106806
          ],
          [
            121.800475,
            25.106901
          ],
          [
            121.800294,
            25.106997
          ],
          [
            121.79994,
            25.107234
          ],
          [
            121.799877,
            25.107279
          ]
        ]
      },
      "properties": {
        "routeId": "new-taipei-224006",
        "city": "new-taipei",
        "source_file": "new-taipei/new-taipei-224006.geojson",
        "distance_km": 13.196,
        "duration_min": 22.86385,
        "valhalla_config": "valhalla.json"
      }
    }
  ]
}