{
  "type": "FeatureCollection",
  "features": [
    {
      "type": "Feature",
      "geometry": {
        "type": "LineString",
        "coordinates": [
          [
            121.463537,
            25.079802
          ],
          [
            121.463712,
            25.079988
          ],
          [
            121.463824,
            25.080105
          ],
          [
            121.464151,
            25.080406
          ],
          [
            121.463728,
            25.080871
          ],
          [
            121.46375,
            25.080884
          ],
          [
            121.464166,
            25.081154
          ],
          [
            121.464181,
            25.081164
          ],
          [
            121.464581,
            25.081436
          ],
          [
            121.46468,
            25.081327
          ],
          [
            121.464581,
            25.081436
          ],
          [
            121.464181,
            25.081164
          ],
          [
            121.464166,
            25.081154
          ],
          [
            121.464801,
            25.080465
          ],
          [
            121.464166,
            25.081154
          ],
          [
            121.46375,
            25.080884
          ],
          [
            121.463728,
            25.080871
          ],
          [
            121.46336,
            25.080644
          ],
          [
            121.463052,
            25.080416
          ],
          [
            121.462839,
            25.08021
          ],
          [
            121.462654,
            25.080031
          ],
          [
            121.463348,
            25.079601
          ],
          [
            121.464041,
            25.079165
          ],
          [
            121.463875,
            25.078992
          ],
          [
            121.46309,
            25.078172
          ],
          [
            121.463278,
            25.078039
          ],
          [
            121.463381,
            25.078012
          ],
          [
            121.46411,
            25.078147
          ],
          [
            121.464278,
            25.078179
          ],
          [
            121.464322,
            25.078286
          ],
          [
            121.464692,
            25.078696
          ],
          [
            121.464619,
            25.078749
          ],
          [
            121.464041,
            25.079165
          ],
          [
            121.464326,
            25.079478
          ],
          [
            121.464662,
            25.079847
          ],
          [
            121.464326,
            25.079478
          ],
          [
            121.464041,
            25.079165
          ],
          [
            121.464692,
            25.078696
          ],
          [
            121.464968,
            25.078979
          ],
          [
            121.465047,
            25.079059
          ],
          [
            121.465418,
            25.079455
          ],
          [
            121.465455,
            25.079494
          ],
          [
            121.465418,
            25.079455
          ],
          [
            121.465047,
            25.079059
          ],
          [
            121.464968,
            25.078979
          ],
          [
            121.464692,
            25.078696
          ],
          [
            121.464322,
            25.078286
          ],
          [
            121.464278,
            25.078179
          ],
          [
            121.46411,
            25.078147
          ],
          [
            121.463381,
            25.078012
          ],
          [
            121.463278,
            25.078039
          ],
          [
            121.46309,
            25.078172
          ],
          [
            121.462443,
            25.078558
          ],
          [
            121.462658,
            25.078847
          ],
          [
            121.462685,
            25.078877
          ],
          [
            121.462911,
            25.079124
          ],
          [
            121.463089,
            25.079319
          ],
          [
            121.463216,
            25.079457
          ],
          [
            121.463348,
            25.079601
          ],
          [
            121.462654,
            25.080031
          ],
          [
            121.46201,
            25.080498
          ],
          [
            121.462253,
            25.080767
          ],
          [
            121.462384,
            25.080897
          ],
          [
            121.462635,
            25.081084
          ],
          [
            121.462844,
            25.081241
          ],
          [
            121.463407,
            25.081609
          ],
          [
            121.463713,
            25.081736
          ],
          [
            121.463893,
            25.08181
          ],
          [
            121.464062,
            25.081891
          ],
          [
            121.464323,
            25.081805
          ],
          [
            121.464445,
            25.081829
          ],
          [
            121.464673,
            25.081888
          ],
          [
            121.464717,
            25.081952
          ],
          [
            121.464847,
            25.081996
          ],
          [
            121.465107,
            25.082084
          ],
          [
            121.465454,
            25.082179
          ],
          [
            121.465552,
            25.082204
          ],
          [
            121.465805,
            25.081908
          ],
          [
            121.466021,
            25.081647
          ],
          [
            121.466124,
            25.081532
          ],
          [
            121.466341,
            25.081284
          ],
          [
            121.466641,
            25.08093
          ],
          [
            121.467315,
            25.080176
          ],
          [
            121.467541,
            25.079899
          ],
          [
            121.467521,
            25.079882
          ],
          [
            121.467095,
            25.079691
          ],
          [
            121.467521,
            25.079882
          ],
          [
            121.467541,
            25.079899
          ],
          [
            121.467757,
            25.079644
          ],
          [
            121.467894,
            25.079482
          ],
          [
            121.468059,
            25.07933
          ],
          [
            121.468297,
            25.079246
          ],
          [
            121.468388,
            25.079247
          ],
          [
            121.469358,
            25.079163
          ],
          [
            121.469122,
            25.078457
          ],
          [
            121.468785,
            25.077575
          ],
          [
            121.46868,
            25.077266
          ],
          [
            121.468638,
            25.07722
          ],
          [
            121.468579,
            25.076998
          ],
          [
            121.468395,
            25.076433
          ],
          [
            121.468193,
            25.076494
          ],
          [
            121.46795,
            25.076544
          ],
          [
            121.467851,
            25.076568
          ],
          [
            121.467763,
            25.076601
          ],
          [
            121.467637,
            25.076694
          ],
          [
            121.467576,
            25.076769
          ],
          [
            121.467311,
            25.077024
          ],
          [
            121.467242,
            25.077082
          ],
          [
            121.467115,
            25.077155
          ],
          [
            121.466617,
            25.077368
          ],
          [
            121.466068,
            25.077578
          ],
          [
            121.466267,
            25.077961
          ],
          [
            121.466461,
            25.078324
          ],
          [
            121.466559,
            25.07851
          ],
          [
            121.466607,
            25.078603
          ],
          [
            121.466443,
            25.078676
          ],
          [
            121.466409,
            25.078701
          ],
          [
            121.46618,
            25.078875
          ],
          [
            121.465418,
            25.079455
          ],
          [
            121.465794,
            25.079857
          ],
          [
            121.465418,
            25.079455
          ],
          [
            121.465047,
            25.079059
          ],
          [
            121.464968,
            25.078979
          ],
          [
            121.464692,
            25.078696
          ],
          [
            121.464322,
            25.078286
          ],
          [
            121.464278,
            25.078179
          ],
          [
            121.464544,
            25.07819
          ],
          [
            121.466068,
            25.077578
          ],
          [
            121.466617,
            25.077368
          ],
          [
            121.467114,
            25.077155
          ],
          [
            121.467242,
            25.077082
          ],
          [
            121.467311,
            25.077024
          ],
          [
            121.467576,
            25.076769
          ],
          [
            121.467637,
            25.076694
          ],
          [
            121.467763,
            25.076601
          ],
          [
            121.467851,
            25.076568
          ],
          [
            121.46795,
            25.076544
          ],
          [
            121.468193,
            25.076494
          ],
          [
            121.468395,
            25.076433
          ],
          [
            121.468449,
            25.076353
          ],
          [
            121.468504,
            25.076461
          ],
          [
            121.468591,
            25.07662
          ],
          [
            121.468808,
            25.076812
          ],
          [
            121.468839,
            25.076855
          ],
          [
            121.46886,
            25.076912
          ],
          [
            121.468831,
            25.077021
          ],
          [
            121.468746,
            25.077118
          ],
          [
            121.46868,
            25.077266
          ],
          [
            121.468785,
            25.077575
          ],
          [
            121.469073,
            25.078328
          ],
          [
            121.468785,
            25.077575
          ],
          [
            121.46868,
            25.077266
          ],
          [
            121.468638,
            25.07722
          ],
          [
            121.468579,
            25.076998
          ],
          [
            121.468395,
            25.076433
          ],
          [
            121.468193,
            25.076494
          ],
          [
            121.46795,
            25.076544
          ],
          [
            121.467851,
            25.076568
          ],
          [
            121.467763,
            25.076601
          ],
          [
            121.467637,
            25.076694
          ],
          [
            121.467576,
            25.076769
          ],
          [
            121.467784,
            25.077382
          ],
          [
            121.467917,
            25.077776
          ],
          [
            121.467709,
            25.077854
          ],
          [
            121.467589,
            25.077899
          ],
          [
            121.467283,
            25.078015
          ],
          [
            121.466461,
            25.078324
          ],
          [
            121.465959,
            25.078585
          ],
          [
            121.465422,
            25.078864
          ],
          [
            121.465047,
            25.079059
          ],
          [
            121.464968,
            25.078979
          ],
          [
            121.464692,
            25.078696
          ],
          [
            121.46521,
            25.078454
          ],
          [
            121.464692,
            25.078696
          ],
          [
            121.464322,
            25.078286
          ],
          [
            121.464278,
            25.078179
          ],
          [
            121.464544,
            25.07819
          ],
          [
            121.465928,
            25.077634
          ],
          [
            121.466068,
            25.077578
          ],
          [
            121.466617,
            25.077368
          ],
          [
            121.467114,
            25.077155
          ],
          [
            121.467242,
            25.077082
          ],
          [
            121.467311,
            25.077024
          ],
          [
            121.467576,
            25.076769
          ],
          [
            121.467637,
            25.076694
          ],
          [
            121.467763,
            25.076601
          ],
          [
            121.467851,
            25.076568
          ],
          [
            121.46795,
            25.076544
          ],
          [
            121.468193,
            25.076494
          ],
          [
            121.468395,
            25.076433
          ],
          [
            121.468449,
            25.076353
          ],
          [
            121.468504,
            25.076461
          ],
          [
            121.468591,
            25.07662
          ],
          [
            121.468808,
            25.076812
          ],
          [
            121.468839,
            25.076855
          ],
          [
            121.46886,
            25.076912
          ],
          [
            121.468831,
            25.077021
          ],
          [
            121.468746,
            25.077118
          ],
          [
            121.46868,
            25.077266
          ],
          [
            121.468785,
            25.077575
          ],
          [
            121.469122,
            25.078457
          ],
          [
            121.469358,
            25.079163
          ],
          [
            121.468388,
            25.079247
          ],
          [
            121.468297,
            25.079246
          ],
          [
            121.468059,
            25.07933
          ],
          [
            121.467894,
            25.079482
          ],
          [
            121.467757,
            25.079644
          ],
          [
            121.467541,
            25.079899
          ],
          [
            121.467315,
            25.080176
          ],
          [
            121.466641,
            25.08093
          ],
          [
            121.466341,
            25.081284
          ],
          [
            121.466124,
            25.081532
          ],
          [
            121.466021,
            25.081647
          ],
          [
            121.465805,
            25.081908
          ],
          [
            121.465552,
            25.082204
          ],
          [
            121.465454,
            25.082179
          ],
          [
            121.465107,
            25.082084
          ],
          [
            121.464717,
            25.081952
          ],
          [
            121.464673,
            25.081888
          ],
          [
            121.4651,
            25.08141
          ],
          [
            121.466112,
            25.080279
          ],
          [
            121.466074,
            25.080163
          ],
          [
            121.465865,
            25.079881
          ],
          [
            121.4661,
            25.079615
          ],
          [
            121.466111,
            25.079538
          ],
          [
            121.466193,
            25.079373
          ],
          [
            121.466354,
            25.079205
          ],
          [
            121.466525,
            25.079124
          ],
          [
            121.466548,
            25.079112
          ],
          [
            121.466621,
            25.07905
          ],
          [
            121.46679,
            25.078953
          ],
          [
            121.467279,
            25.078739
          ],
          [
            121.467573,
            25.078604
          ],
          [
            121.467645,
            25.078585
          ],
          [
            121.468212,
            25.078532
          ],
          [
            121.468009,
            25.078117
          ],
          [
            121.467985,
            25.078029
          ],
          [
            121.467917,
            25.077776
          ],
          [
            121.467883,
            25.077675
          ],
          [
            121.467576,
            25.076769
          ],
          [
            121.467311,
            25.077024
          ],
          [
            121.467242,
            25.077082
          ],
          [
            121.467114,
            25.077155
          ],
          [
            121.466617,
            25.077368
          ],
          [
            121.466068,
            25.077578
          ],
          [
            121.464544,
            25.07819
          ],
          [
            121.464278,
            25.078179
          ],
          [
            121.464322,
            25.078286
          ],
          [
            121.464692,
            25.078696
          ],
          [
            121.464041,
            25.079165
          ],
          [
            121.464165,
            25.079301
          ],
          [
            121.464326,
            25.079478
          ],
          [
            121.46469,
            25.079878
          ],
          [
            121.464707,
            25.079896
          ],
          [
            121.464744,
            25.079937
          ],
          [
            121.464794,
            25.079988
          ],
          [
            121.465023,
            25.080224
          ],
          [
            121.465364,
            25.080573
          ],
          [
            121.464581,
            25.081436
          ],
          [
            121.464358,
            25.081731
          ],
          [
            121.464112,
            25.081864
          ]
        ]
      },
      "properties": {
        "routeId": "new-taipei-247026",
        "city": "new-taipei",
        "source_file": "new-taipei/new-taipei-247026.geojson",
        "distance_km": 9.588000000000001,
        "duration_min": 22.857366666666667,
        "valhalla_config": "valhalla.json"
      }
    }
  ]
}