{
  "type": "FeatureCollection",
  "features": [
    {
      "type": "Feature",
      "geometry": {
        "type": "LineString",
        "coordinates": [
          [
            120.294924,
            22.800211
          ],
          [
            120.294828,
            22.800285
          ],
          [
            120.294915,
            22.800454
          ],
          [
            120.295075,
            22.800742
          ],
          [
            120.295201,
            22.801012
          ],
          [
            120.29562,
            22.800737
          ],
          [
            120.296286,
            22.800301
          ],
          [
            120.296335,
            22.800362
          ],
          [
            120.296501,
            22.800568
          ],
          [
            120.296973,
            22.800832
          ],
          [
            120.297656,
            22.801215
          ],
          [
            120.297392,
            22.801632
          ],
          [
            120.297111,
            22.802082
          ],
          [
            120.296846,
            22.801934
          ],
          [
            120.297111,
            22.802082
          ],
          [
            120.297605,
            22.802338
          ],
          [
            120.297753,
            22.802106
          ],
          [
            120.297858,
            22.801944
          ],
          [
            120.297927,
            22.801847
          ],
          [
            120.297981,
            22.801875
          ],
          [
            120.297927,
            22.801847
          ],
          [
            120.298163,
            22.801492
          ],
          [
            120.297656,
            22.801215
          ],
          [
            120.297392,
            22.801632
          ],
          [
            120.296747,
            22.801251
          ],
          [
            120.296703,
            22.801231
          ],
          [
            120.296747,
            22.801251
          ],
          [
            120.297392,
            22.801632
          ],
          [
            120.297656,
            22.801215
          ],
          [
            120.297952,
            22.800744
          ],
          [
            120.297525,
            22.800512
          ],
          [
            120.297952,
            22.800744
          ],
          [
            120.298222,
            22.800318
          ],
          [
            120.297776,
            22.800043
          ],
          [
            120.298222,
            22.800318
          ],
          [
            120.298521,
            22.799907
          ],
          [
            120.298813,
            22.799449
          ],
          [
            120.299119,
            22.798994
          ],
          [
            120.299165,
            22.798885
          ],
          [
            120.299175,
            22.798818
          ],
          [
            120.29933,
            22.798883
          ],
          [
            120.299175,
            22.798818
          ],
          [
            120.29913,
            22.798726
          ],
          [
            120.29896,
            22.798491
          ],
          [
            120.298682,
            22.798192
          ],
          [
            120.29914,
            22.797821
          ],
          [
            120.299509,
            22.797506
          ],
          [
            120.299388,
            22.797423
          ],
          [
            120.299456,
            22.797341
          ],
          [
            120.299388,
            22.797423
          ],
          [
            120.299509,
            22.797506
          ],
          [
            120.29914,
            22.797821
          ],
          [
            120.298682,
            22.798192
          ],
          [
            120.298563,
            22.798274
          ],
          [
            120.298072,
            22.798614
          ],
          [
            120.297911,
            22.798725
          ],
          [
            120.297568,
            22.798314
          ],
          [
            120.297167,
            22.798629
          ],
          [
            120.29713,
            22.798642
          ],
          [
            120.296738,
            22.798918
          ],
          [
            120.29713,
            22.798642
          ],
          [
            120.297167,
            22.798629
          ],
          [
            120.297509,
            22.79836
          ],
          [
            120.297568,
            22.798314
          ],
          [
            120.298321,
            22.797775
          ],
          [
            120.297935,
            22.797329
          ],
          [
            120.295878,
            22.798845
          ],
          [
            120.295392,
            22.799197
          ],
          [
            120.295087,
            22.799418
          ],
          [
            120.295051,
            22.799444
          ],
          [
            120.294824,
            22.799608
          ],
          [
            120.294685,
            22.799714
          ],
          [
            120.294567,
            22.799816
          ],
          [
            120.294414,
            22.79994
          ],
          [
            120.293176,
            22.800942
          ],
          [
            120.292908,
            22.80116
          ],
          [
            120.292556,
            22.801447
          ],
          [
            120.292534,
            22.801467
          ],
          [
            120.292501,
            22.801497
          ],
          [
            120.292331,
            22.801652
          ],
          [
            120.292229,
            22.801751
          ],
          [
            120.292031,
            22.80161
          ],
          [
            120.2919,
            22.801563
          ],
          [
            120.291809,
            22.80153
          ],
          [
            120.291436,
            22.801397
          ],
          [
            120.291271,
            22.801338
          ],
          [
            120.291169,
            22.801303
          ],
          [
            120.289846,
            22.800851
          ],
          [
            120.289344,
            22.80068
          ],
          [
            120.289222,
            22.800638
          ],
          [
            120.28912,
            22.800605
          ],
          [
            120.287395,
            22.800054
          ],
          [
            120.287341,
            22.800036
          ],
          [
            120.286854,
            22.799876
          ],
          [
            120.286798,
            22.799858
          ],
          [
            120.286718,
            22.799831
          ],
          [
            120.286723,
            22.799719
          ],
          [
            120.286739,
            22.799612
          ],
          [
            120.286744,
            22.799578
          ],
          [
            120.287103,
            22.798963
          ],
          [
            120.287296,
            22.798547
          ],
          [
            120.287195,
            22.798505
          ],
          [
            120.287296,
            22.798547
          ],
          [
            120.287497,
            22.798177
          ],
          [
            120.287536,
            22.798105
          ],
          [
            120.287158,
            22.797931
          ],
          [
            120.286981,
            22.797838
          ],
          [
            120.286855,
            22.797745
          ],
          [
            120.286748,
            22.797646
          ],
          [
            120.286553,
            22.797405
          ],
          [
            120.286424,
            22.797506
          ],
          [
            120.286553,
            22.797405
          ],
          [
            120.286703,
            22.79759
          ],
          [
            120.286553,
            22.797405
          ],
          [
            120.287042,
            22.796992
          ],
          [
            120.287374,
            22.796674
          ],
          [
            120.28745,
            22.796596
          ],
          [
            120.287797,
            22.796257
          ],
          [
            120.288374,
            22.795668
          ],
          [
            120.288419,
            22.795607
          ],
          [
            120.288374,
            22.795668
          ],
          [
            120.287797,
            22.796257
          ],
          [
            120.28745,
            22.796596
          ],
          [
            120.287374,
            22.796674
          ],
          [
            120.287042,
            22.796992
          ],
          [
            120.286975,
            22.796921
          ],
          [
            120.287042,
            22.796992
          ],
          [
            120.286553,
            22.797405
          ],
          [
            120.286015,
            22.796723
          ],
          [
            120.285977,
            22.79668
          ],
          [
            120.285911,
            22.796604
          ],
          [
            120.285848,
            22.796648
          ],
          [
            120.285335,
            22.797011
          ],
          [
            120.284858,
            22.797348
          ],
          [
            120.28449,
            22.797633
          ],
          [
            120.284342,
            22.797786
          ],
          [
            120.283946,
            22.798203
          ],
          [
            120.283683,
            22.79848
          ],
          [
            120.28366,
            22.798504
          ],
          [
            120.283541,
            22.79863
          ],
          [
            120.283449,
            22.79874
          ],
          [
            120.283344,
            22.798859
          ],
          [
            120.281368,
            22.801088
          ],
          [
            120.280929,
            22.801582
          ],
          [
            120.280226,
            22.802389
          ],
          [
            120.280174,
            22.802447
          ],
          [
            120.280077,
            22.802555
          ],
          [
            120.279676,
            22.802997
          ],
          [
            120.279477,
            22.803271
          ],
          [
            120.279323,
            22.803583
          ],
          [
            120.279317,
            22.803594
          ],
          [
            120.279286,
            22.803661
          ],
          [
            120.279252,
            22.803734
          ],
          [
            120.279207,
            22.803854
          ],
          [
            120.279198,
            22.803878
          ],
          [
            120.279155,
            22.803991
          ],
          [
            120.279056,
            22.804171
          ],
          [
            120.278924,
            22.804278
          ],
          [
            120.277576,
            22.804898
          ],
          [
            120.277536,
            22.804916
          ],
          [
            120.277402,
            22.804978
          ],
          [
            120.277346,
            22.805002
          ],
          [
            120.277282,
            22.805027
          ],
          [
            120.27723,
            22.805047
          ],
          [
            120.276491,
            22.805336
          ],
          [
            120.276022,
            22.80547
          ],
          [
            120.275982,
            22.805481
          ],
          [
            120.275972,
            22.805484
          ],
          [
            120.275892,
            22.805548
          ],
          [
            120.275901,
            22.805652
          ],
          [
            120.276081,
            22.807745
          ],
          [
            120.276153,
            22.808572
          ],
          [
            120.27611,
            22.808649
          ],
          [
            120.276219,
            22.808788
          ],
          [
            120.276317,
            22.808977
          ],
          [
            120.276424,
            22.809094
          ],
          [
            120.276642,
            22.809247
          ],
          [
            120.276775,
            22.80938
          ],
          [
            120.276855,
            22.809576
          ],
          [
            120.276885,
            22.809719
          ],
          [
            120.276875,
            22.809854
          ],
          [
            120.276807,
            22.810017
          ],
          [
            120.276723,
            22.810108
          ],
          [
            120.276564,
            22.810205
          ],
          [
            120.27639,
            22.810245
          ],
          [
            120.276217,
            22.810237
          ],
          [
            120.276051,
            22.810258
          ],
          [
            120.275934,
            22.810294
          ],
          [
            120.275812,
            22.810382
          ],
          [
            120.275722,
            22.810507
          ],
          [
            120.275669,
            22.81062
          ],
          [
            120.275625,
            22.810919
          ],
          [
            120.275489,
            22.811751
          ],
          [
            120.275435,
            22.812106
          ],
          [
            120.275359,
            22.81216
          ],
          [
            120.274933,
            22.812468
          ],
          [
            120.273268,
            22.813516
          ],
          [
            120.273935,
            22.814484
          ],
          [
            120.275055,
            22.815985
          ],
          [
            120.275136,
            22.81605
          ],
          [
            120.27509,
            22.816092
          ],
          [
            120.274594,
            22.816531
          ],
          [
            120.269912,
            22.820671
          ],
          [
            120.270034,
            22.82082
          ],
          [
            120.270911,
            22.820116
          ],
          [
            120.270526,
            22.820426
          ],
          [
            120.270034,
            22.82082
          ],
          [
            120.269912,
            22.820671
          ],
          [
            120.269863,
            22.820716
          ],
          [
            120.269621,
            22.820937
          ],
          [
            120.269544,
            22.820845
          ],
          [
            120.269783,
            22.820617
          ],
          [
            120.269822,
            22.820592
          ],
          [
            120.275009,
            22.816024
          ],
          [
            120.275055,
            22.815985
          ],
          [
            120.275906,
            22.815221
          ],
          [
            120.279612,
            22.811831
          ],
          [
            120.281293,
            22.810379
          ],
          [
            120.281803,
            22.809932
          ],
          [
            120.281871,
            22.80988
          ],
          [
            120.283365,
            22.808663
          ],
          [
            120.284667,
            22.807602
          ],
          [
            120.285053,
            22.807288
          ],
          [
            120.286056,
            22.806471
          ],
          [
            120.28743,
            22.805351
          ],
          [
            120.287474,
            22.805306
          ],
          [
            120.287785,
            22.805046
          ],
          [
            120.28782,
            22.805016
          ],
          [
            120.288803,
            22.804218
          ],
          [
            120.288892,
            22.804146
          ],
          [
            120.289072,
            22.804334
          ],
          [
            120.288991,
            22.804401
          ],
          [
            120.288033,
            22.80518
          ],
          [
            120.287738,
            22.805426
          ],
          [
            120.287592,
            22.805549
          ],
          [
            120.286593,
            22.806356
          ],
          [
            120.285219,
            22.807466
          ],
          [
            120.284586,
            22.807978
          ],
          [
            120.28232,
            22.809829
          ],
          [
            120.282061,
            22.810041
          ],
          [
            120.281989,
            22.810108
          ],
          [
            120.281437,
            22.810566
          ],
          [
            120.281514,
            22.81067
          ],
          [
            120.281801,
            22.811162
          ],
          [
            120.281514,
            22.81067
          ],
          [
            120.281437,
            22.810566
          ],
          [
            120.279793,
            22.812005
          ],
          [
            120.280454,
            22.812633
          ],
          [
            120.281206,
            22.813375
          ],
          [
            120.281624,
            22.813773
          ],
          [
            120.281815,
            22.813955
          ],
          [
            120.281861,
            22.813984
          ],
          [
            120.281903,
            22.813984
          ],
          [
            120.281953,
            22.813971
          ],
          [
            120.282322,
            22.813722
          ],
          [
            120.282663,
            22.813491
          ],
          [
            120.282967,
            22.813306
          ],
          [
            120.282989,
            22.813279
          ],
          [
            120.283001,
            22.81325
          ],
          [
            120.283062,
            22.813316
          ],
          [
            120.283081,
            22.813402
          ],
          [
            120.283076,
            22.813527
          ],
          [
            120.283057,
            22.813939
          ],
          [
            120.283039,
            22.814336
          ],
          [
            120.282474,
            22.814431
          ],
          [
            120.282515,
            22.814623
          ],
          [
            120.282555,
            22.814741
          ],
          [
            120.282515,
            22.814623
          ],
          [
            120.282474,
            22.814431
          ],
          [
            120.283039,
            22.814336
          ],
          [
            120.283076,
            22.813527
          ],
          [
            120.283081,
            22.813402
          ],
          [
            120.283062,
            22.813316
          ],
          [
            120.283001,
            22.81325
          ],
          [
            120.282997,
            22.813219
          ],
          [
            120.28272,
            22.81273
          ],
          [
            120.282451,
            22.812274
          ],
          [
            120.282007,
            22.81152
          ],
          [
            120.282755,
            22.810937
          ],
          [
            120.282793,
            22.810915
          ],
          [
            120.282821,
            22.810913
          ],
          [
            120.282856,
            22.810922
          ],
          [
            120.282881,
            22.810943
          ],
          [
            120.283091,
            22.811236
          ],
          [
            120.28318,
            22.811361
          ],
          [
            120.283091,
            22.811236
          ],
          [
            120.282881,
            22.810943
          ],
          [
            120.282856,
            22.810922
          ],
          [
            120.282821,
            22.810913
          ],
          [
            120.282793,
            22.810915
          ],
          [
            120.282755,
            22.810937
          ],
          [
            120.282007,
            22.81152
          ],
          [
            120.281963,
            22.811438
          ],
          [
            120.281514,
            22.81067
          ],
          [
            120.281437,
            22.810566
          ],
          [
            120.280313,
            22.81155
          ],
          [
            120.279793,
            22.812005
          ],
          [
            120.279612,
            22.811831
          ],
          [
            120.281293,
            22.810379
          ],
          [
            120.281803,
            22.809932
          ],
          [
            120.281315,
            22.809423
          ],
          [
            120.281211,
            22.809314
          ],
          [
            120.280785,
            22.809648
          ],
          [
            120.28049,
            22.809881
          ],
          [
            120.280892,
            22.810284
          ],
          [
            120.28049,
            22.809881
          ],
          [
            120.280785,
            22.809648
          ],
          [
            120.281211,
            22.809314
          ],
          [
            120.28076,
            22.808857
          ],
          [
            120.280811,
            22.808803
          ],
          [
            120.281373,
            22.809374
          ],
          [
            120.281871,
            22.80988
          ],
          [
            120.282061,
            22.810041
          ],
          [
            120.281989,
            22.810108
          ],
          [
            120.281803,
            22.809932
          ],
          [
            120.281657,
            22.80978
          ],
          [
            120.281315,
            22.809423
          ],
          [
            120.281211,
            22.809314
          ],
          [
            120.280785,
            22.809648
          ],
          [
            120.28049,
            22.809881
          ],
          [
            120.280435,
            22.809824
          ],
          [
            120.28049,
            22.809881
          ],
          [
            120.280785,
            22.809648
          ],
          [
            120.281211,
            22.809314
          ],
          [
            120.28076,
            22.808857
          ],
          [
            120.280722,
            22.808818
          ],
          [
            120.279889,
            22.807972
          ],
          [
            120.279809,
            22.807868
          ],
          [
            120.279643,
            22.807492
          ],
          [
            120.279619,
            22.807456
          ],
          [
            120.279562,
            22.807373
          ],
          [
            120.279049,
            22.806825
          ],
          [
            120.277485,
            22.80515
          ],
          [
            120.277413,
            22.805074
          ],
          [
            120.277346,
            22.805002
          ],
          [
            120.277282,
            22.805027
          ],
          [
            120.27723,
            22.805047
          ],
          [
            120.27659,
            22.805297
          ],
          [
            120.27723,
            22.805047
          ],
          [
            120.277282,
            22.805027
          ],
          [
            120.277346,
            22.805002
          ],
          [
            120.277402,
            22.804978
          ],
          [
            120.277536,
            22.804916
          ],
          [
            120.277576,
            22.804898
          ],
          [
            120.278924,
            22.804278
          ],
          [
            120.279056,
            22.804171
          ],
          [
            120.279155,
            22.803991
          ],
          [
            120.279198,
            22.803878
          ],
          [
            120.279207,
            22.803854
          ],
          [
            120.279252,
            22.803734
          ],
          [
            120.279286,
            22.803661
          ],
          [
            120.279317,
            22.803594
          ],
          [
            120.279323,
            22.803583
          ],
          [
            120.279477,
            22.803271
          ],
          [
            120.279676,
            22.802997
          ],
          [
            120.280077,
            22.802555
          ],
          [
            120.280174,
            22.802447
          ],
          [
            120.280226,
            22.802389
          ],
          [
            120.280929,
            22.801582
          ],
          [
            120.281368,
            22.801088
          ],
          [
            120.283344,
            22.798859
          ],
          [
            120.283449,
            22.79874
          ],
          [
            120.283541,
            22.79863
          ],
          [
            120.28366,
            22.798504
          ],
          [
            120.283683,
            22.79848
          ],
          [
            120.283844,
            22.798311
          ],
          [
            120.283946,
            22.798203
          ],
          [
            120.284342,
            22.797786
          ],
          [
            120.28449,
            22.797633
          ],
          [
            120.284858,
            22.797348
          ],
          [
            120.285335,
            22.797011
          ],
          [
            120.285286,
            22.796921
          ],
          [
            120.285335,
            22.797011
          ],
          [
            120.285848,
            22.796648
          ],
          [
            120.285911,
            22.796604
          ],
          [
            120.286039,
            22.796517
          ],
          [
            120.286867,
            22.795955
          ],
          [
            120.287106,
            22.795793
          ],
          [
            120.287239,
            22.795703
          ],
          [
            120.287213,
            22.795607
          ],
          [
            120.287239,
            22.795703
          ],
          [
            120.288046,
            22.795155
          ],
          [
            120.288106,
            22.794575
          ],
          [
            120.288109,
            22.794545
          ],
          [
            120.287972,
            22.794535
          ],
          [
            120.287671,
            22.794512
          ],
          [
            120.287602,
            22.794507
          ],
          [
            120.287477,
            22.794498
          ],
          [
            120.287418,
            22.794493
          ],
          [
            120.28695,
            22.794457
          ],
          [
            120.286957,
            22.794297
          ],
          [
            120.286953,
            22.79416
          ],
          [
            120.287059,
            22.794154
          ],
          [
            120.286953,
            22.79416
          ],
          [
            120.286952,
            22.794124
          ],
          [
            120.286954,
            22.794008
          ],
          [
            120.286937,
            22.793993
          ],
          [
            120.286849,
            22.79387
          ],
          [
            120.286816,
            22.793851
          ],
          [
            120.286769,
            22.79384
          ],
          [
            120.286737,
            22.79384
          ],
          [
            120.286697,
            22.793849
          ],
          [
            120.286547,
            22.793907
          ],
          [
            120.286281,
            22.79401
          ],
          [
            120.286239,
            22.794036
          ],
          [
            120.286216,
            22.794046
          ],
          [
            120.286209,
            22.794064
          ],
          [
            120.286188,
            22.79409
          ],
          [
            120.286026,
            22.794357
          ],
          [
            120.285927,
            22.79456
          ],
          [
            120.285827,
            22.794766
          ],
          [
            120.285864,
            22.794978
          ],
          [
            120.285888,
            22.795104
          ],
          [
            120.28591,
            22.795197
          ],
          [
            120.286069,
            22.795195
          ],
          [
            120.286195,
            22.795194
          ],
          [
            120.286229,
            22.795199
          ],
          [
            120.286256,
            22.795219
          ],
          [
            120.286385,
            22.795392
          ],
          [
            120.286417,
            22.795402
          ],
          [
            120.286474,
            22.795397
          ],
          [
            120.287091,
            22.79532
          ],
          [
            120.287104,
            22.795345
          ],
          [
            120.28712,
            22.795417
          ],
          [
            120.287133,
            22.795493
          ],
          [
            120.287149,
            22.79552
          ],
          [
            120.287208,
            22.795587
          ],
          [
            120.287239,
            22.795703
          ],
          [
            120.287106,
            22.795793
          ],
          [
            120.286867,
            22.795955
          ],
          [
            120.286662,
            22.795976
          ],
          [
            120.286867,
            22.795955
          ],
          [
            120.286039,
            22.796517
          ],
          [
            120.285911,
            22.796604
          ],
          [
            120.285977,
            22.79668
          ],
          [
            120.286015,
            22.796723
          ],
          [
            120.286553,
            22.797405
          ],
          [
            120.286328,
            22.797581
          ],
          [
            120.286136,
            22.797798
          ],
          [
            120.286107,
            22.797842
          ],
          [
            120.286093,
            22.797887
          ],
          [
            120.286091,
            22.797917
          ],
          [
            120.286096,
            22.797949
          ],
          [
            120.286096,
            22.797949
          ],
          [
            120.286218,
            22.79831
          ],
          [
            120.286218,
            22.798334
          ],
          [
            120.286207,
            22.798362
          ],
          [
            120.286119,
            22.798526
          ],
          [
            120.28576,
            22.798381
          ],
          [
            120.285147,
            22.798147
          ],
          [
            120.285004,
            22.798067
          ],
          [
            120.284971,
            22.798049
          ],
          [
            120.284669,
            22.797876
          ],
          [
            120.284606,
            22.797793
          ],
          [
            120.28457,
            22.797839
          ],
          [
            120.284542,
            22.797895
          ],
          [
            120.284517,
            22.797995
          ],
          [
            120.284518,
            22.798089
          ],
          [
            120.284522,
            22.798186
          ],
          [
            120.284543,
            22.798304
          ],
          [
            120.284553,
            22.798363
          ],
          [
            120.284543,
            22.798304
          ],
          [
            120.284163,
            22.798328
          ],
          [
            120.284125,
            22.798316
          ],
          [
            120.284088,
            22.798296
          ],
          [
            120.283946,
            22.798203
          ],
          [
            120.284342,
            22.797786
          ],
          [
            120.28449,
            22.797633
          ],
          [
            120.284858,
            22.797348
          ],
          [
            120.285335,
            22.797011
          ],
          [
            120.285848,
            22.796648
          ],
          [
            120.285911,
            22.796604
          ],
          [
            120.285977,
            22.79668
          ],
          [
            120.286015,
            22.796723
          ],
          [
            120.286553,
            22.797405
          ],
          [
            120.286748,
            22.797646
          ],
          [
            120.286855,
            22.797745
          ],
          [
            120.286981,
            22.797838
          ],
          [
            120.286798,
            22.798231
          ],
          [
            120.286981,
            22.797838
          ],
          [
            120.286855,
            22.797745
          ],
          [
            120.286748,
            22.797646
          ],
          [
            120.286553,
            22.797405
          ],
          [
            120.286015,
            22.796723
          ],
          [
            120.285977,
            22.79668
          ],
          [
            120.285911,
            22.796604
          ],
          [
            120.285848,
            22.796648
          ],
          [
            120.285335,
            22.797011
          ],
          [
            120.284858,
            22.797348
          ],
          [
            120.28449,
            22.797633
          ],
          [
            120.284342,
            22.797786
          ],
          [
            120.28414,
            22.797999
          ],
          [
            120.283946,
            22.798203
          ],
          [
            120.283683,
            22.79848
          ],
          [
            120.28366,
            22.798504
          ],
          [
            120.283541,
            22.79863
          ],
          [
            120.283449,
            22.79874
          ],
          [
            120.283344,
            22.798859
          ],
          [
            120.283209,
            22.799011
          ],
          [
            120.283344,
            22.798859
          ],
          [
            120.283449,
            22.79874
          ],
          [
            120.283541,
            22.79863
          ],
          [
            120.28366,
            22.798504
          ],
          [
            120.283683,
            22.79848
          ],
          [
            120.283864,
            22.798289
          ],
          [
            120.283946,
            22.798203
          ],
          [
            120.284342,
            22.797786
          ],
          [
            120.28449,
            22.797633
          ],
          [
            120.284858,
            22.797348
          ],
          [
            120.284623,
            22.796979
          ],
          [
            120.284545,
            22.797034
          ],
          [
            120.284623,
            22.796979
          ],
          [
            120.284482,
            22.796758
          ],
          [
            120.284291,
            22.796534
          ],
          [
            120.284183,
            22.796409
          ],
          [
            120.284291,
            22.796534
          ],
          [
            120.284809,
            22.796198
          ],
          [
            120.284837,
            22.796183
          ],
          [
            120.284871,
            22.796192
          ],
          [
            120.284999,
            22.79635
          ],
          [
            120.285025,
            22.796383
          ],
          [
            120.285075,
            22.796351
          ],
          [
            120.285267,
            22.796228
          ],
          [
            120.285515,
            22.796071
          ],
          [
            120.285243,
            22.795705
          ],
          [
            120.28519,
            22.795633
          ],
          [
            120.284929,
            22.795293
          ],
          [
            120.284717,
            22.794991
          ],
          [
            120.284527,
            22.794694
          ],
          [
            120.284471,
            22.794475
          ],
          [
            120.284459,
            22.79434
          ],
          [
            120.284447,
            22.794231
          ],
          [
            120.283835,
            22.794456
          ],
          [
            120.284029,
            22.794886
          ],
          [
            120.284296,
            22.794843
          ],
          [
            120.284029,
            22.794886
          ],
          [
            120.283835,
            22.794456
          ],
          [
            120.284447,
            22.794231
          ],
          [
            120.284519,
            22.79364
          ],
          [
            120.284594,
            22.793023
          ],
          [
            120.28441,
            22.793006
          ],
          [
            120.284594,
            22.793023
          ],
          [
            120.284519,
            22.79364
          ],
          [
            120.284447,
            22.794231
          ],
          [
            120.284459,
            22.79434
          ],
          [
            120.284471,
            22.794475
          ],
          [
            120.284486,
            22.794535
          ],
          [
            120.284471,
            22.794475
          ],
          [
            120.284459,
            22.79434
          ],
          [
            120.284447,
            22.794231
          ],
          [
            120.284519,
            22.79364
          ],
          [
            120.284594,
            22.793023
          ],
          [
            120.284693,
            22.792252
          ],
          [
            120.284799,
            22.791434
          ],
          [
            120.284827,
            22.791217
          ],
          [
            120.28413,
            22.790167
          ],
          [
            120.283835,
            22.790133
          ],
          [
            120.283345,
            22.790076
          ],
          [
            120.283359,
            22.790125
          ],
          [
            120.283378,
            22.790211
          ],
          [
            120.283297,
            22.790904
          ],
          [
            120.283159,
            22.792091
          ],
          [
            120.28313,
            22.792338
          ],
          [
            120.283099,
            22.792602
          ],
          [
            120.283066,
            22.792885
          ],
          [
            120.283053,
            22.793
          ],
          [
            120.282993,
            22.793522
          ],
          [
            120.283397,
            22.793554
          ],
          [
            120.283408,
            22.793459
          ],
          [
            120.283397,
            22.793554
          ],
          [
            120.283735,
            22.79358
          ],
          [
            120.284073,
            22.793606
          ],
          [
            120.284085,
            22.793502
          ],
          [
            120.284073,
            22.793606
          ],
          [
            120.284519,
            22.79364
          ],
          [
            120.284881,
            22.793668
          ],
          [
            120.285042,
            22.79368
          ],
          [
            120.285106,
            22.793685
          ],
          [
            120.285042,
            22.79368
          ],
          [
            120.284881,
            22.793668
          ],
          [
            120.284519,
            22.79364
          ],
          [
            120.284447,
            22.794231
          ],
          [
            120.284459,
            22.79434
          ],
          [
            120.284471,
            22.794475
          ],
          [
            120.284527,
            22.794694
          ],
          [
            120.284717,
            22.794991
          ],
          [
            120.284929,
            22.795293
          ],
          [
            120.28519,
            22.795633
          ],
          [
            120.285243,
            22.795705
          ],
          [
            120.285515,
            22.796071
          ],
          [
            120.285719,
            22.796345
          ],
          [
            120.285831,
            22.796496
          ],
          [
            120.285867,
            22.796544
          ],
          [
            120.285911,
            22.796604
          ],
          [
            120.286039,
            22.796517
          ],
          [
            120.286867,
            22.795955
          ],
          [
            120.287106,
            22.795793
          ],
          [
            120.287239,
            22.795703
          ],
          [
            120.288046,
            22.795155
          ],
          [
            120.288106,
            22.794575
          ],
          [
            120.288539,
            22.794451
          ],
          [
            120.288569,
            22.794442
          ],
          [
            120.288588,
            22.794449
          ],
          [
            120.288595,
            22.794483
          ],
          [
            120.288621,
            22.794604
          ],
          [
            120.288632,
            22.79464
          ],
          [
            120.288649,
            22.794665
          ],
          [
            120.288712,
            22.794757
          ],
          [
            120.289759,
            22.794131
          ],
          [
            120.289783,
            22.794077
          ],
          [
            120.290032,
            22.793504
          ],
          [
            120.290099,
            22.793599
          ],
          [
            120.28991,
            22.794038
          ],
          [
            120.289759,
            22.794131
          ],
          [
            120.288712,
            22.794757
          ],
          [
            120.288437,
            22.794921
          ],
          [
            120.288046,
            22.795155
          ],
          [
            120.287239,
            22.795703
          ],
          [
            120.287106,
            22.795793
          ],
          [
            120.286867,
            22.795955
          ],
          [
            120.286211,
            22.7964
          ]
        ]
      },
      "properties": {
        "routeId": "kaohsiung-905-vh-14ee30",
        "city": "kaohsiung",
        "source_file": "kaohsiung/kaohsiung-905-vh-14ee30.geojson",
        "distance_km": 25.656,
        "duration_min": 53.21581666666666,
        "valhalla_config": "valhalla.json"
      }
    }
  ]
}