{
  "type": "FeatureCollection",
  "features": [
    {
      "type": "Feature",
      "geometry": {
        "type": "LineString",
        "coordinates": [
          [
            120.327429,
            22.883487
          ],
          [
            120.327,
            22.883209
          ],
          [
            120.32732,
            22.882752
          ],
          [
            120.327341,
            22.882721
          ],
          [
            120.327392,
            22.882649
          ],
          [
            120.327502,
            22.882505
          ],
          [
            120.327526,
            22.882474
          ],
          [
            120.328039,
            22.881803
          ],
          [
            120.328668,
            22.880922
          ],
          [
            120.328158,
            22.880941
          ],
          [
            120.327551,
            22.880898
          ],
          [
            120.327126,
            22.880868
          ],
          [
            120.327034,
            22.881109
          ],
          [
            120.327126,
            22.880868
          ],
          [
            120.327551,
            22.880898
          ],
          [
            120.328158,
            22.880941
          ],
          [
            120.328668,
            22.880922
          ],
          [
            120.328941,
            22.880861
          ],
          [
            120.329305,
            22.880817
          ],
          [
            120.329038,
            22.880165
          ],
          [
            120.328886,
            22.880264
          ],
          [
            120.328826,
            22.880316
          ],
          [
            120.328657,
            22.880389
          ],
          [
            120.328609,
            22.880419
          ],
          [
            120.32851,
            22.880449
          ],
          [
            120.328451,
            22.880471
          ],
          [
            120.328379,
            22.880482
          ],
          [
            120.328241,
            22.880471
          ],
          [
            120.32808,
            22.880413
          ],
          [
            120.327912,
            22.880353
          ],
          [
            120.327783,
            22.880315
          ],
          [
            120.327606,
            22.880273
          ],
          [
            120.327539,
            22.880251
          ],
          [
            120.327348,
            22.880159
          ],
          [
            120.327539,
            22.880251
          ],
          [
            120.327606,
            22.880273
          ],
          [
            120.327783,
            22.880315
          ],
          [
            120.327912,
            22.880353
          ],
          [
            120.32808,
            22.880413
          ],
          [
            120.328241,
            22.880471
          ],
          [
            120.328379,
            22.880482
          ],
          [
            120.328451,
            22.880471
          ],
          [
            120.32851,
            22.880449
          ],
          [
            120.328609,
            22.880419
          ],
          [
            120.328657,
            22.880389
          ],
          [
            120.328826,
            22.880316
          ],
          [
            120.328886,
            22.880264
          ],
          [
            120.329038,
            22.880165
          ],
          [
            120.328992,
            22.880063
          ],
          [
            120.328957,
            22.88
          ],
          [
            120.328784,
            22.879571
          ],
          [
            120.329479,
            22.879579
          ],
          [
            120.329488,
            22.879423
          ],
          [
            120.329495,
            22.879296
          ],
          [
            120.329511,
            22.879025
          ],
          [
            120.329517,
            22.878959
          ],
          [
            120.329679,
            22.878975
          ],
          [
            120.330109,
            22.878986
          ],
          [
            120.330151,
            22.878987
          ],
          [
            120.330248,
            22.878989
          ],
          [
            120.330414,
            22.879002
          ],
          [
            120.330847,
            22.879021
          ],
          [
            120.331918,
            22.879079
          ],
          [
            120.332014,
            22.879141
          ],
          [
            120.33206,
            22.879223
          ],
          [
            120.332261,
            22.880044
          ],
          [
            120.332279,
            22.880098
          ],
          [
            120.332282,
            22.880208
          ],
          [
            120.332302,
            22.880511
          ],
          [
            120.332304,
            22.880539
          ],
          [
            120.332311,
            22.880654
          ],
          [
            120.332394,
            22.880631
          ],
          [
            120.333043,
            22.880679
          ],
          [
            120.333449,
            22.880728
          ],
          [
            120.334222,
            22.880816
          ],
          [
            120.33465,
            22.880882
          ],
          [
            120.336028,
            22.881081
          ],
          [
            120.337403,
            22.8813
          ],
          [
            120.339129,
            22.881576
          ],
          [
            120.339495,
            22.881622
          ],
          [
            120.340129,
            22.881713
          ],
          [
            120.340341,
            22.881725
          ],
          [
            120.340329,
            22.8818
          ],
          [
            120.340524,
            22.882181
          ],
          [
            120.340589,
            22.88228
          ],
          [
            120.340672,
            22.882424
          ],
          [
            120.340688,
            22.882436
          ],
          [
            120.340672,
            22.882424
          ],
          [
            120.340589,
            22.88228
          ],
          [
            120.340524,
            22.882181
          ],
          [
            120.340329,
            22.8818
          ],
          [
            120.340341,
            22.881725
          ],
          [
            120.340856,
            22.881741
          ],
          [
            120.341477,
            22.881734
          ],
          [
            120.34179,
            22.881712
          ],
          [
            120.341993,
            22.88167
          ],
          [
            120.342586,
            22.881521
          ],
          [
            120.343926,
            22.881166
          ],
          [
            120.343982,
            22.881154
          ],
          [
            120.344659,
            22.881003
          ],
          [
            120.345362,
            22.880859
          ],
          [
            120.345636,
            22.880765
          ],
          [
            120.345929,
            22.880636
          ],
          [
            120.346183,
            22.880487
          ],
          [
            120.346294,
            22.880423
          ],
          [
            120.346557,
            22.880275
          ],
          [
            120.346527,
            22.880233
          ],
          [
            120.34653,
            22.880196
          ],
          [
            120.346604,
            22.880078
          ],
          [
            120.346622,
            22.880024
          ],
          [
            120.34661,
            22.879967
          ],
          [
            120.346564,
            22.879916
          ],
          [
            120.345253,
            22.87893
          ],
          [
            120.345296,
            22.878819
          ],
          [
            120.345361,
            22.878643
          ],
          [
            120.345487,
            22.878445
          ],
          [
            120.345577,
            22.878331
          ],
          [
            120.345849,
            22.878068
          ],
          [
            120.345969,
            22.877946
          ],
          [
            120.346261,
            22.877745
          ],
          [
            120.346332,
            22.877675
          ],
          [
            120.346261,
            22.877745
          ],
          [
            120.345969,
            22.877946
          ],
          [
            120.345849,
            22.878068
          ],
          [
            120.345577,
            22.878331
          ],
          [
            120.345487,
            22.878445
          ],
          [
            120.345361,
            22.878643
          ],
          [
            120.345296,
            22.878819
          ],
          [
            120.345253,
            22.87893
          ],
          [
            120.346564,
            22.879916
          ],
          [
            120.34661,
            22.879967
          ],
          [
            120.346622,
            22.880024
          ],
          [
            120.346604,
            22.880078
          ],
          [
            120.34653,
            22.880196
          ],
          [
            120.346527,
            22.880233
          ],
          [
            120.346557,
            22.880275
          ],
          [
            120.348012,
            22.879382
          ],
          [
            120.348723,
            22.878946
          ],
          [
            120.349458,
            22.878525
          ],
          [
            120.350106,
            22.878108
          ],
          [
            120.350368,
            22.87794
          ],
          [
            120.35094,
            22.87759
          ],
          [
            120.351939,
            22.876986
          ],
          [
            120.352029,
            22.876931
          ],
          [
            120.352093,
            22.876889
          ],
          [
            120.352159,
            22.87698
          ],
          [
            120.352095,
            22.877022
          ],
          [
            120.351882,
            22.877157
          ],
          [
            120.350392,
            22.878024
          ],
          [
            120.349501,
            22.878589
          ],
          [
            120.348782,
            22.879034
          ],
          [
            120.348176,
            22.879399
          ],
          [
            120.348538,
            22.879914
          ],
          [
            120.347876,
            22.88025
          ],
          [
            120.348538,
            22.879914
          ],
          [
            120.348176,
            22.879399
          ],
          [
            120.3466,
            22.88034
          ],
          [
            120.346557,
            22.880275
          ],
          [
            120.348723,
            22.878946
          ],
          [
            120.349458,
            22.878525
          ],
          [
            120.350368,
            22.87794
          ],
          [
            120.35094,
            22.87759
          ],
          [
            120.352029,
            22.876931
          ],
          [
            120.352093,
            22.876889
          ],
          [
            120.352159,
            22.87698
          ],
          [
            120.352271,
            22.87713
          ],
          [
            120.352405,
            22.87725
          ],
          [
            120.352536,
            22.877458
          ],
          [
            120.352665,
            22.877623
          ],
          [
            120.353023,
            22.877977
          ],
          [
            120.353054,
            22.878006
          ],
          [
            120.353001,
            22.878086
          ],
          [
            120.352913,
            22.878183
          ],
          [
            120.353472,
            22.878724
          ],
          [
            120.353521,
            22.87876
          ],
          [
            120.353877,
            22.879023
          ],
          [
            120.354202,
            22.879248
          ],
          [
            120.354255,
            22.879301
          ],
          [
            120.354283,
            22.879355
          ],
          [
            120.354308,
            22.87945
          ],
          [
            120.354355,
            22.879767
          ],
          [
            120.354375,
            22.879902
          ],
          [
            120.35439,
            22.879964
          ],
          [
            120.354375,
            22.879902
          ],
          [
            120.354355,
            22.879767
          ],
          [
            120.354129,
            22.879786
          ],
          [
            120.354109,
            22.879795
          ],
          [
            120.3541,
            22.879816
          ],
          [
            120.35405,
            22.880348
          ],
          [
            120.354037,
            22.880404
          ],
          [
            120.354011,
            22.880451
          ],
          [
            120.353968,
            22.880501
          ],
          [
            120.353806,
            22.880724
          ],
          [
            120.354003,
            22.880988
          ],
          [
            120.354223,
            22.881284
          ],
          [
            120.354713,
            22.881942
          ],
          [
            120.354223,
            22.881284
          ],
          [
            120.354003,
            22.880988
          ],
          [
            120.353806,
            22.880724
          ],
          [
            120.353598,
            22.88044
          ],
          [
            120.353552,
            22.88041
          ],
          [
            120.353503,
            22.880401
          ],
          [
            120.353546,
            22.880256
          ],
          [
            120.353556,
            22.880233
          ],
          [
            120.353552,
            22.880203
          ],
          [
            120.353467,
            22.880077
          ],
          [
            120.353332,
            22.879877
          ],
          [
            120.352921,
            22.879381
          ],
          [
            120.352536,
            22.878159
          ],
          [
            120.35281,
            22.878147
          ],
          [
            120.352875,
            22.878155
          ],
          [
            120.352913,
            22.878183
          ],
          [
            120.353001,
            22.878086
          ],
          [
            120.352944,
            22.878033
          ],
          [
            120.352602,
            22.877673
          ],
          [
            120.35232,
            22.877297
          ],
          [
            120.352198,
            22.877184
          ],
          [
            120.352123,
            22.877152
          ],
          [
            120.352039,
            22.877131
          ],
          [
            120.351882,
            22.877157
          ],
          [
            120.350392,
            22.878024
          ],
          [
            120.350368,
            22.87794
          ],
          [
            120.35032,
            22.877843
          ],
          [
            120.350268,
            22.87753
          ],
          [
            120.350258,
            22.877188
          ],
          [
            120.350258,
            22.87686
          ],
          [
            120.350292,
            22.876696
          ],
          [
            120.350319,
            22.87657
          ],
          [
            120.350417,
            22.876294
          ],
          [
            120.350466,
            22.876132
          ],
          [
            120.350476,
            22.876084
          ],
          [
            120.350478,
            22.875988
          ],
          [
            120.350451,
            22.874769
          ],
          [
            120.349809,
            22.874562
          ],
          [
            120.349604,
            22.874538
          ],
          [
            120.349459,
            22.874512
          ],
          [
            120.349405,
            22.874512
          ],
          [
            120.348941,
            22.874587
          ],
          [
            120.348293,
            22.87465
          ],
          [
            120.347779,
            22.874795
          ],
          [
            120.347472,
            22.874704
          ],
          [
            120.347779,
            22.874795
          ],
          [
            120.348293,
            22.87465
          ],
          [
            120.348114,
            22.873969
          ],
          [
            120.348114,
            22.873887
          ],
          [
            120.348088,
            22.873313
          ],
          [
            120.348095,
            22.873258
          ],
          [
            120.348222,
            22.872949
          ],
          [
            120.348273,
            22.872703
          ],
          [
            120.348269,
            22.872609
          ],
          [
            120.348269,
            22.872599
          ],
          [
            120.348291,
            22.872523
          ],
          [
            120.348405,
            22.872299
          ],
          [
            120.348473,
            22.872306
          ],
          [
            120.348634,
            22.872318
          ],
          [
            120.348687,
            22.872298
          ],
          [
            120.348719,
            22.872269
          ],
          [
            120.34874,
            22.8722
          ],
          [
            120.348804,
            22.871838
          ],
          [
            120.348969,
            22.871879
          ],
          [
            120.349666,
            22.872143
          ],
          [
            120.350238,
            22.872423
          ],
          [
            120.350366,
            22.872501
          ],
          [
            120.350663,
            22.872725
          ],
          [
            120.350713,
            22.872755
          ],
          [
            120.350907,
            22.872871
          ],
          [
            120.351314,
            22.873064
          ],
          [
            120.351845,
            22.873306
          ],
          [
            120.352701,
            22.873595
          ],
          [
            120.35245,
            22.873969
          ],
          [
            120.35242,
            22.874012
          ],
          [
            120.352398,
            22.874094
          ],
          [
            120.35242,
            22.874012
          ],
          [
            120.35245,
            22.873969
          ],
          [
            120.352701,
            22.873595
          ],
          [
            120.35316,
            22.873748
          ],
          [
            120.353417,
            22.873835
          ],
          [
            120.353808,
            22.873926
          ],
          [
            120.35433,
            22.874038
          ],
          [
            120.354549,
            22.874092
          ],
          [
            120.354834,
            22.874136
          ],
          [
            120.355187,
            22.874178
          ],
          [
            120.356093,
            22.874275
          ],
          [
            120.356293,
            22.874303
          ],
          [
            120.356452,
            22.874326
          ],
          [
            120.356287,
            22.874413
          ],
          [
            120.355988,
            22.874594
          ],
          [
            120.354941,
            22.875239
          ],
          [
            120.354871,
            22.875334
          ],
          [
            120.3548,
            22.875532
          ],
          [
            120.354871,
            22.875334
          ],
          [
            120.354941,
            22.875239
          ],
          [
            120.355988,
            22.874594
          ],
          [
            120.356287,
            22.874413
          ],
          [
            120.356452,
            22.874326
          ],
          [
            120.356093,
            22.874275
          ],
          [
            120.355187,
            22.874178
          ],
          [
            120.354834,
            22.874136
          ],
          [
            120.354549,
            22.874092
          ],
          [
            120.35433,
            22.874038
          ],
          [
            120.353808,
            22.873926
          ],
          [
            120.353417,
            22.873835
          ],
          [
            120.353347,
            22.874013
          ],
          [
            120.353333,
            22.874049
          ],
          [
            120.3533,
            22.874143
          ],
          [
            120.35296,
            22.874998
          ],
          [
            120.352523,
            22.876006
          ],
          [
            120.35252,
            22.876034
          ],
          [
            120.352525,
            22.87606
          ],
          [
            120.352562,
            22.876091
          ],
          [
            120.35287,
            22.876291
          ],
          [
            120.352987,
            22.876367
          ],
          [
            120.353151,
            22.876279
          ],
          [
            120.353183,
            22.876343
          ],
          [
            120.353098,
            22.876404
          ],
          [
            120.35365,
            22.87667
          ],
          [
            120.353708,
            22.876761
          ],
          [
            120.353748,
            22.876824
          ],
          [
            120.353852,
            22.877208
          ],
          [
            120.35388,
            22.877272
          ],
          [
            120.353885,
            22.877292
          ],
          [
            120.353886,
            22.877298
          ],
          [
            120.353884,
            22.877477
          ],
          [
            120.353892,
            22.877502
          ],
          [
            120.35391,
            22.877523
          ],
          [
            120.354081,
            22.87759
          ],
          [
            120.354111,
            22.877614
          ],
          [
            120.354158,
            22.877672
          ],
          [
            120.354176,
            22.877736
          ],
          [
            120.354159,
            22.877881
          ],
          [
            120.354041,
            22.878208
          ],
          [
            120.353986,
            22.878341
          ],
          [
            120.353932,
            22.878406
          ],
          [
            120.3539,
            22.878427
          ],
          [
            120.353846,
            22.878446
          ],
          [
            120.353751,
            22.878436
          ],
          [
            120.353656,
            22.878379
          ],
          [
            120.353488,
            22.878243
          ],
          [
            120.353102,
            22.877928
          ],
          [
            120.353054,
            22.878006
          ],
          [
            120.353001,
            22.878086
          ],
          [
            120.352944,
            22.878033
          ],
          [
            120.352602,
            22.877673
          ],
          [
            120.35232,
            22.877297
          ],
          [
            120.352198,
            22.877184
          ],
          [
            120.352123,
            22.877152
          ],
          [
            120.352039,
            22.877131
          ],
          [
            120.351882,
            22.877157
          ],
          [
            120.350392,
            22.878024
          ],
          [
            120.349501,
            22.878589
          ],
          [
            120.349304,
            22.878711
          ],
          [
            120.348782,
            22.879034
          ],
          [
            120.348176,
            22.879399
          ],
          [
            120.346887,
            22.880169
          ],
          [
            120.3466,
            22.88034
          ],
          [
            120.346334,
            22.880487
          ],
          [
            120.346216,
            22.88055
          ],
          [
            120.34593,
            22.880708
          ],
          [
            120.345636,
            22.880844
          ],
          [
            120.345399,
            22.880922
          ],
          [
            120.344693,
            22.88107
          ],
          [
            120.343965,
            22.881228
          ],
          [
            120.342604,
            22.881575
          ],
          [
            120.343,
            22.882115
          ],
          [
            120.34319,
            22.882262
          ],
          [
            120.343263,
            22.882308
          ],
          [
            120.343371,
            22.882403
          ],
          [
            120.343418,
            22.882446
          ],
          [
            120.343482,
            22.88252
          ],
          [
            120.343557,
            22.882613
          ],
          [
            120.344255,
            22.883764
          ],
          [
            120.344322,
            22.883876
          ],
          [
            120.344537,
            22.88435
          ],
          [
            120.344637,
            22.884519
          ],
          [
            120.344807,
            22.884711
          ],
          [
            120.344837,
            22.884767
          ],
          [
            120.344905,
            22.884991
          ],
          [
            120.344923,
            22.885037
          ],
          [
            120.344951,
            22.885068
          ],
          [
            120.344997,
            22.885093
          ],
          [
            120.345412,
            22.885161
          ],
          [
            120.345604,
            22.885177
          ],
          [
            120.345659,
            22.88518
          ],
          [
            120.345733,
            22.885174
          ],
          [
            120.346457,
            22.884959
          ],
          [
            120.346537,
            22.884934
          ],
          [
            120.346602,
            22.884925
          ],
          [
            120.34686,
            22.884898
          ],
          [
            120.346897,
            22.884901
          ],
          [
            120.346925,
            22.884915
          ],
          [
            120.347715,
            22.885694
          ],
          [
            120.347708,
            22.885787
          ],
          [
            120.347741,
            22.885883
          ],
          [
            120.347796,
            22.885937
          ],
          [
            120.347799,
            22.886025
          ],
          [
            120.347742,
            22.886106
          ],
          [
            120.347597,
            22.886256
          ],
          [
            120.34761,
            22.886332
          ],
          [
            120.347744,
            22.886686
          ],
          [
            120.34761,
            22.886332
          ],
          [
            120.347597,
            22.886256
          ],
          [
            120.347742,
            22.886106
          ],
          [
            120.347799,
            22.886025
          ],
          [
            120.347796,
            22.885937
          ],
          [
            120.347741,
            22.885883
          ],
          [
            120.347708,
            22.885787
          ],
          [
            120.347715,
            22.885694
          ],
          [
            120.346925,
            22.884915
          ],
          [
            120.346897,
            22.884901
          ],
          [
            120.34686,
            22.884898
          ],
          [
            120.346602,
            22.884925
          ],
          [
            120.346537,
            22.884934
          ],
          [
            120.346457,
            22.884959
          ],
          [
            120.345733,
            22.885174
          ],
          [
            120.345659,
            22.88518
          ],
          [
            120.345604,
            22.885177
          ],
          [
            120.345412,
            22.885161
          ],
          [
            120.344997,
            22.885093
          ],
          [
            120.344951,
            22.885068
          ],
          [
            120.344923,
            22.885037
          ],
          [
            120.344905,
            22.884991
          ],
          [
            120.344837,
            22.884767
          ],
          [
            120.344807,
            22.884711
          ],
          [
            120.344637,
            22.884519
          ],
          [
            120.344537,
            22.88435
          ],
          [
            120.344322,
            22.883876
          ],
          [
            120.344255,
            22.883764
          ],
          [
            120.343557,
            22.882613
          ],
          [
            120.343482,
            22.88252
          ],
          [
            120.343448,
            22.882362
          ],
          [
            120.343354,
            22.882169
          ],
          [
            120.343291,
            22.882037
          ],
          [
            120.343291,
            22.882014
          ],
          [
            120.343326,
            22.881981
          ],
          [
            120.343605,
            22.881853
          ],
          [
            120.343326,
            22.881981
          ],
          [
            120.343291,
            22.882014
          ],
          [
            120.343291,
            22.882037
          ],
          [
            120.343354,
            22.882169
          ],
          [
            120.343448,
            22.882362
          ],
          [
            120.343482,
            22.88252
          ],
          [
            120.343418,
            22.882446
          ],
          [
            120.343371,
            22.882403
          ],
          [
            120.343263,
            22.882308
          ],
          [
            120.34319,
            22.882262
          ],
          [
            120.343,
            22.882115
          ],
          [
            120.342604,
            22.881575
          ],
          [
            120.342573,
            22.881583
          ],
          [
            120.341999,
            22.881724
          ],
          [
            120.341797,
            22.881766
          ],
          [
            120.341584,
            22.881783
          ],
          [
            120.341249,
            22.881802
          ],
          [
            120.340819,
            22.881811
          ],
          [
            120.340329,
            22.8818
          ],
          [
            120.340122,
            22.881783
          ],
          [
            120.339482,
            22.881684
          ],
          [
            120.339106,
            22.881629
          ],
          [
            120.33903,
            22.881959
          ],
          [
            120.339106,
            22.881629
          ],
          [
            120.337391,
            22.881362
          ],
          [
            120.335963,
            22.881162
          ],
          [
            120.334641,
            22.88095
          ],
          [
            120.334205,
            22.880875
          ],
          [
            120.333442,
            22.880785
          ],
          [
            120.333033,
            22.880738
          ],
          [
            120.332536,
            22.8807
          ],
          [
            120.332485,
            22.880696
          ],
          [
            120.332392,
            22.880688
          ],
          [
            120.332311,
            22.880654
          ],
          [
            120.332308,
            22.880725
          ],
          [
            120.332284,
            22.881284
          ],
          [
            120.332268,
            22.881663
          ],
          [
            120.332296,
            22.882256
          ],
          [
            120.332303,
            22.882521
          ],
          [
            120.332303,
            22.882552
          ],
          [
            120.332306,
            22.882687
          ],
          [
            120.332254,
            22.882715
          ],
          [
            120.332243,
            22.882635
          ],
          [
            120.33224,
            22.882556
          ],
          [
            120.332218,
            22.881997
          ],
          [
            120.332134,
            22.881997
          ],
          [
            120.331541,
            22.881997
          ],
          [
            120.331521,
            22.881705
          ],
          [
            120.331204,
            22.881735
          ],
          [
            120.331178,
            22.881147
          ],
          [
            120.330832,
            22.881145
          ],
          [
            120.330796,
            22.881162
          ],
          [
            120.330832,
            22.881145
          ],
          [
            120.331178,
            22.881147
          ],
          [
            120.3312,
            22.881635
          ],
          [
            120.331204,
            22.881735
          ],
          [
            120.331132,
            22.881736
          ],
          [
            120.331031,
            22.881731
          ],
          [
            120.330851,
            22.881691
          ],
          [
            120.330808,
            22.882202
          ],
          [
            120.330754,
            22.882243
          ],
          [
            120.3308,
            22.882439
          ],
          [
            120.330602,
            22.882531
          ],
          [
            120.330371,
            22.882593
          ],
          [
            120.330602,
            22.882531
          ],
          [
            120.330572,
            22.882417
          ],
          [
            120.330547,
            22.881618
          ],
          [
            120.33003,
            22.881508
          ],
          [
            120.330134,
            22.880916
          ],
          [
            120.330164,
            22.880755
          ],
          [
            120.329305,
            22.880817
          ],
          [
            120.328941,
            22.880861
          ],
          [
            120.328668,
            22.880922
          ],
          [
            120.328039,
            22.881803
          ],
          [
            120.327962,
            22.881904
          ],
          [
            120.328039,
            22.881803
          ],
          [
            120.328668,
            22.880922
          ],
          [
            120.328158,
            22.880941
          ],
          [
            120.328121,
            22.880938
          ],
          [
            120.327551,
            22.880898
          ],
          [
            120.327126,
            22.880868
          ],
          [
            120.326939,
            22.880854
          ],
          [
            120.326808,
            22.880842
          ],
          [
            120.32652,
            22.880813
          ],
          [
            120.325878,
            22.880751
          ],
          [
            120.324757,
            22.880638
          ]
        ]
      },
      "properties": {
        "routeId": "kaohsiung-keh-6671-ea671e",
        "city": "kaohsiung",
        "source_file": "kaohsiung/kaohsiung-keh-6671-ea671e.geojson",
        "distance_km": 18.348,
        "duration_min": 34.051050000000004,
        "valhalla_config": "valhalla.json"
      }
    }
  ]
}