{
  "type": "FeatureCollection",
  "features": [
    {
      "type": "Feature",
      "geometry": {
        "type": "LineString",
        "coordinates": [
          [
            120.312028,
            22.68206
          ],
          [
            120.312147,
            22.68218
          ],
          [
            120.312428,
            22.681921
          ],
          [
            120.312453,
            22.681898
          ],
          [
            120.312564,
            22.681792
          ],
          [
            120.312733,
            22.681758
          ],
          [
            120.312766,
            22.681752
          ],
          [
            120.313188,
            22.681667
          ],
          [
            120.313412,
            22.681622
          ],
          [
            120.313742,
            22.681555
          ],
          [
            120.313889,
            22.681519
          ],
          [
            120.314028,
            22.681485
          ],
          [
            120.314462,
            22.681371
          ],
          [
            120.314493,
            22.681437
          ],
          [
            120.31451,
            22.681472
          ],
          [
            120.314542,
            22.68153
          ],
          [
            120.314802,
            22.682008
          ],
          [
            120.315054,
            22.682524
          ],
          [
            120.314681,
            22.682693
          ],
          [
            120.314648,
            22.682707
          ],
          [
            120.314496,
            22.682771
          ],
          [
            120.314432,
            22.682663
          ],
          [
            120.314412,
            22.682631
          ],
          [
            120.314253,
            22.682344
          ],
          [
            120.314412,
            22.682631
          ],
          [
            120.314432,
            22.682663
          ],
          [
            120.314496,
            22.682771
          ],
          [
            120.314366,
            22.68285
          ],
          [
            120.314327,
            22.682873
          ],
          [
            120.313977,
            22.683084
          ],
          [
            120.31394,
            22.683107
          ],
          [
            120.313811,
            22.683185
          ],
          [
            120.313881,
            22.683257
          ],
          [
            120.313899,
            22.683277
          ],
          [
            120.314052,
            22.683436
          ],
          [
            120.31487,
            22.684284
          ],
          [
            120.315017,
            22.684176
          ],
          [
            120.31487,
            22.684284
          ],
          [
            120.315588,
            22.685018
          ],
          [
            120.31487,
            22.684284
          ],
          [
            120.315292,
            22.683975
          ],
          [
            120.315404,
            22.683893
          ],
          [
            120.315465,
            22.683961
          ],
          [
            120.315495,
            22.683995
          ],
          [
            120.316069,
            22.684635
          ],
          [
            120.316088,
            22.684657
          ],
          [
            120.316245,
            22.684833
          ],
          [
            120.316316,
            22.684904
          ],
          [
            120.316333,
            22.68492
          ],
          [
            120.31696,
            22.68555
          ],
          [
            120.316563,
            22.68587
          ],
          [
            120.316468,
            22.685947
          ],
          [
            120.317171,
            22.686697
          ],
          [
            120.317884,
            22.687445
          ],
          [
            120.318152,
            22.687742
          ],
          [
            120.318171,
            22.687807
          ],
          [
            120.318162,
            22.687857
          ],
          [
            120.318136,
            22.687896
          ],
          [
            120.318083,
            22.687935
          ],
          [
            120.318012,
            22.68797
          ],
          [
            120.317865,
            22.688042
          ],
          [
            120.317789,
            22.688079
          ],
          [
            120.317723,
            22.688117
          ],
          [
            120.31764,
            22.688164
          ],
          [
            120.317527,
            22.68823
          ],
          [
            120.317332,
            22.687958
          ],
          [
            120.317307,
            22.687926
          ],
          [
            120.317273,
            22.687888
          ],
          [
            120.317177,
            22.687789
          ],
          [
            120.317112,
            22.687846
          ],
          [
            120.317061,
            22.687895
          ],
          [
            120.317045,
            22.687911
          ],
          [
            120.316906,
            22.688044
          ],
          [
            120.316744,
            22.688199
          ],
          [
            120.316594,
            22.688344
          ],
          [
            120.316579,
            22.688358
          ],
          [
            120.316509,
            22.688426
          ],
          [
            120.316451,
            22.688484
          ],
          [
            120.316434,
            22.688502
          ],
          [
            120.316068,
            22.688873
          ],
          [
            120.316054,
            22.688888
          ],
          [
            120.315947,
            22.688997
          ],
          [
            120.315887,
            22.689061
          ],
          [
            120.315835,
            22.689121
          ],
          [
            120.31582,
            22.689138
          ],
          [
            120.315567,
            22.689433
          ],
          [
            120.315346,
            22.689699
          ],
          [
            120.315308,
            22.689747
          ],
          [
            120.31524,
            22.689834
          ],
          [
            120.315341,
            22.689899
          ],
          [
            120.31537,
            22.689915
          ],
          [
            120.315459,
            22.689966
          ],
          [
            120.315653,
            22.690073
          ],
          [
            120.315809,
            22.69014
          ],
          [
            120.31597,
            22.690186
          ],
          [
            120.315869,
            22.690665
          ],
          [
            120.315738,
            22.691248
          ],
          [
            120.316059,
            22.691324
          ],
          [
            120.316209,
            22.691359
          ],
          [
            120.316501,
            22.691402
          ],
          [
            120.316605,
            22.691411
          ],
          [
            120.316691,
            22.691416
          ],
          [
            120.316769,
            22.69142
          ],
          [
            120.316882,
            22.691421
          ],
          [
            120.316985,
            22.691415
          ],
          [
            120.317025,
            22.691413
          ],
          [
            120.317284,
            22.691379
          ],
          [
            120.317529,
            22.691307
          ],
          [
            120.317802,
            22.691188
          ],
          [
            120.317862,
            22.691148
          ],
          [
            120.317924,
            22.691094
          ],
          [
            120.317972,
            22.691044
          ],
          [
            120.317991,
            22.690995
          ],
          [
            120.317998,
            22.690925
          ],
          [
            120.317969,
            22.690783
          ],
          [
            120.317943,
            22.690659
          ],
          [
            120.31791,
            22.690522
          ],
          [
            120.317864,
            22.690204
          ],
          [
            120.317856,
            22.69015
          ],
          [
            120.317978,
            22.690116
          ],
          [
            120.318344,
            22.690014
          ],
          [
            120.318249,
            22.689838
          ],
          [
            120.318344,
            22.690014
          ],
          [
            120.318769,
            22.689886
          ],
          [
            120.319511,
            22.689584
          ],
          [
            120.319648,
            22.689528
          ],
          [
            120.319742,
            22.689454
          ],
          [
            120.31977,
            22.689339
          ],
          [
            120.319764,
            22.689243
          ],
          [
            120.319642,
            22.688983
          ],
          [
            120.319482,
            22.689052
          ],
          [
            120.319642,
            22.688983
          ],
          [
            120.319471,
            22.688648
          ],
          [
            120.319443,
            22.688584
          ],
          [
            120.319395,
            22.688479
          ],
          [
            120.319349,
            22.688387
          ],
          [
            120.319291,
            22.688272
          ],
          [
            120.319266,
            22.688225
          ],
          [
            120.319116,
            22.687963
          ],
          [
            120.318975,
            22.687736
          ],
          [
            120.318921,
            22.68765
          ],
          [
            120.31887,
            22.687578
          ],
          [
            120.318793,
            22.687478
          ],
          [
            120.318425,
            22.687004
          ],
          [
            120.318291,
            22.686834
          ],
          [
            120.317712,
            22.686274
          ],
          [
            120.3174,
            22.685969
          ],
          [
            120.317355,
            22.685924
          ],
          [
            120.317979,
            22.68536
          ],
          [
            120.318237,
            22.685629
          ],
          [
            120.318096,
            22.68581
          ],
          [
            120.317939,
            22.686002
          ],
          [
            120.318096,
            22.68581
          ],
          [
            120.318237,
            22.685629
          ],
          [
            120.318381,
            22.68578
          ],
          [
            120.31846,
            22.685862
          ],
          [
            120.318919,
            22.686313
          ],
          [
            120.319439,
            22.686833
          ],
          [
            120.318919,
            22.686313
          ],
          [
            120.318471,
            22.685872
          ],
          [
            120.31846,
            22.685862
          ],
          [
            120.318895,
            22.685509
          ],
          [
            120.318947,
            22.685439
          ],
          [
            120.318952,
            22.685334
          ],
          [
            120.318909,
            22.685263
          ],
          [
            120.318896,
            22.685249
          ],
          [
            120.318481,
            22.684802
          ],
          [
            120.318773,
            22.684549
          ],
          [
            120.319018,
            22.684337
          ],
          [
            120.318761,
            22.684
          ],
          [
            120.318709,
            22.683931
          ],
          [
            120.318509,
            22.683672
          ],
          [
            120.318272,
            22.68336
          ],
          [
            120.318214,
            22.683283
          ],
          [
            120.31819,
            22.68315
          ],
          [
            120.318113,
            22.682714
          ],
          [
            120.318034,
            22.682262
          ],
          [
            120.317995,
            22.681974
          ],
          [
            120.318034,
            22.682262
          ],
          [
            120.318113,
            22.682714
          ],
          [
            120.318252,
            22.682689
          ],
          [
            120.319192,
            22.682523
          ],
          [
            120.319291,
            22.683095
          ],
          [
            120.319645,
            22.684721
          ],
          [
            120.319614,
            22.684726
          ],
          [
            120.319489,
            22.684708
          ],
          [
            120.31929,
            22.684608
          ],
          [
            120.31918,
            22.68453
          ],
          [
            120.319018,
            22.684337
          ],
          [
            120.318773,
            22.684549
          ],
          [
            120.318843,
            22.68462
          ],
          [
            120.318773,
            22.684549
          ],
          [
            120.318481,
            22.684802
          ],
          [
            120.318099,
            22.685144
          ],
          [
            120.317925,
            22.685299
          ],
          [
            120.317564,
            22.684946
          ],
          [
            120.317265,
            22.684655
          ],
          [
            120.31714,
            22.684507
          ],
          [
            120.317265,
            22.684655
          ],
          [
            120.317564,
            22.684946
          ],
          [
            120.318406,
            22.68428
          ],
          [
            120.318731,
            22.684023
          ],
          [
            120.318761,
            22.684
          ],
          [
            120.319018,
            22.684337
          ],
          [
            120.31918,
            22.68453
          ],
          [
            120.31929,
            22.684608
          ],
          [
            120.319489,
            22.684708
          ],
          [
            120.319614,
            22.684726
          ],
          [
            120.319645,
            22.684721
          ],
          [
            120.319291,
            22.683095
          ],
          [
            120.319267,
            22.682955
          ],
          [
            120.319291,
            22.683095
          ],
          [
            120.3197,
            22.683025
          ],
          [
            120.319744,
            22.683017
          ],
          [
            120.319827,
            22.683003
          ],
          [
            120.319794,
            22.682837
          ],
          [
            120.319655,
            22.682153
          ],
          [
            120.31965,
            22.682127
          ],
          [
            120.319647,
            22.682113
          ],
          [
            120.319645,
            22.682105
          ],
          [
            120.319626,
            22.682
          ],
          [
            120.319602,
            22.681891
          ],
          [
            120.319438,
            22.681164
          ],
          [
            120.319425,
            22.681107
          ],
          [
            120.319415,
            22.681064
          ],
          [
            120.319403,
            22.680993
          ],
          [
            120.319376,
            22.68085
          ],
          [
            120.319345,
            22.680687
          ],
          [
            120.319324,
            22.680573
          ],
          [
            120.319318,
            22.680543
          ],
          [
            120.319311,
            22.68051
          ],
          [
            120.319295,
            22.68041
          ],
          [
            120.319354,
            22.680399
          ],
          [
            120.319437,
            22.680385
          ],
          [
            120.319521,
            22.680362
          ],
          [
            120.319543,
            22.680478
          ],
          [
            120.319559,
            22.680559
          ],
          [
            120.319597,
            22.680761
          ],
          [
            120.319606,
            22.680809
          ],
          [
            120.319646,
            22.681022
          ],
          [
            120.319656,
            22.681065
          ],
          [
            120.319808,
            22.681795
          ],
          [
            120.319821,
            22.681853
          ],
          [
            120.319844,
            22.681964
          ],
          [
            120.319899,
            22.681955
          ],
          [
            120.319927,
            22.68195
          ],
          [
            120.319967,
            22.681944
          ],
          [
            120.319927,
            22.68195
          ],
          [
            120.319899,
            22.681955
          ],
          [
            120.319844,
            22.681964
          ],
          [
            120.319866,
            22.682074
          ],
          [
            120.320001,
            22.682758
          ],
          [
            120.320009,
            22.682801
          ],
          [
            120.320014,
            22.682827
          ],
          [
            120.320042,
            22.682968
          ],
          [
            120.320055,
            22.683033
          ],
          [
            120.320152,
            22.683524
          ],
          [
            120.320347,
            22.684544
          ],
          [
            120.320506,
            22.685371
          ],
          [
            120.320748,
            22.686639
          ],
          [
            120.320878,
            22.68661
          ],
          [
            120.321209,
            22.686538
          ],
          [
            120.321269,
            22.686828
          ],
          [
            120.321332,
            22.687139
          ],
          [
            120.321391,
            22.687434
          ],
          [
            120.321496,
            22.687415
          ],
          [
            120.321391,
            22.687434
          ],
          [
            120.321332,
            22.687139
          ],
          [
            120.321269,
            22.686828
          ],
          [
            120.321209,
            22.686538
          ],
          [
            120.32115,
            22.686233
          ],
          [
            120.321137,
            22.686168
          ],
          [
            120.321051,
            22.685743
          ],
          [
            120.321015,
            22.685496
          ],
          [
            120.320987,
            22.685299
          ],
          [
            120.32091,
            22.684803
          ],
          [
            120.320827,
            22.684369
          ],
          [
            120.320736,
            22.68388
          ],
          [
            120.320831,
            22.683865
          ],
          [
            120.320736,
            22.68388
          ],
          [
            120.320645,
            22.683415
          ],
          [
            120.32056,
            22.682965
          ],
          [
            120.320352,
            22.682017
          ],
          [
            120.320339,
            22.68196
          ],
          [
            120.32032,
            22.681887
          ],
          [
            120.320207,
            22.681412
          ],
          [
            120.320113,
            22.680949
          ],
          [
            120.320058,
            22.680547
          ],
          [
            120.320051,
            22.680505
          ],
          [
            120.320058,
            22.680547
          ],
          [
            120.320981,
            22.68036
          ],
          [
            120.321083,
            22.680339
          ],
          [
            120.321476,
            22.68029
          ],
          [
            120.321445,
            22.680084
          ],
          [
            120.321421,
            22.680008
          ],
          [
            120.321184,
            22.679605
          ],
          [
            120.321777,
            22.679343
          ],
          [
            120.321781,
            22.679246
          ],
          [
            120.321787,
            22.678997
          ],
          [
            120.321792,
            22.678804
          ],
          [
            120.321804,
            22.678318
          ],
          [
            120.321723,
            22.678359
          ],
          [
            120.320738,
            22.678857
          ],
          [
            120.320962,
            22.67923
          ],
          [
            120.321008,
            22.679307
          ],
          [
            120.321184,
            22.679605
          ],
          [
            120.32134,
            22.679536
          ],
          [
            120.321184,
            22.679605
          ],
          [
            120.320783,
            22.679807
          ],
          [
            120.320581,
            22.67991
          ],
          [
            120.320347,
            22.680023
          ],
          [
            120.320005,
            22.680232
          ],
          [
            120.319749,
            22.680301
          ],
          [
            120.319643,
            22.680329
          ],
          [
            120.319605,
            22.680339
          ],
          [
            120.319521,
            22.680362
          ],
          [
            120.319543,
            22.680478
          ],
          [
            120.319597,
            22.680761
          ],
          [
            120.319606,
            22.680809
          ],
          [
            120.319646,
            22.681022
          ],
          [
            120.319656,
            22.681065
          ],
          [
            120.319808,
            22.681795
          ],
          [
            120.319821,
            22.681853
          ],
          [
            120.319844,
            22.681964
          ],
          [
            120.319866,
            22.682074
          ],
          [
            120.320001,
            22.682758
          ],
          [
            120.320009,
            22.682801
          ],
          [
            120.320042,
            22.682968
          ],
          [
            120.320055,
            22.683033
          ],
          [
            120.320152,
            22.683524
          ],
          [
            120.320645,
            22.683415
          ],
          [
            120.321675,
            22.683232
          ],
          [
            120.321674,
            22.683338
          ],
          [
            120.32181,
            22.683342
          ],
          [
            120.321946,
            22.683343
          ],
          [
            120.321962,
            22.682865
          ],
          [
            120.322131,
            22.682868
          ],
          [
            120.322128,
            22.682971
          ],
          [
            120.322117,
            22.683344
          ],
          [
            120.322249,
            22.683344
          ],
          [
            120.322369,
            22.683348
          ],
          [
            120.32265,
            22.683352
          ],
          [
            120.322689,
            22.683364
          ],
          [
            120.322724,
            22.683387
          ],
          [
            120.322689,
            22.683364
          ],
          [
            120.32265,
            22.683352
          ],
          [
            120.322369,
            22.683348
          ],
          [
            120.322249,
            22.683344
          ],
          [
            120.322117,
            22.683344
          ],
          [
            120.322018,
            22.683343
          ],
          [
            120.321946,
            22.683343
          ],
          [
            120.32181,
            22.683342
          ],
          [
            120.321674,
            22.683338
          ],
          [
            120.321643,
            22.683732
          ],
          [
            120.321666,
            22.684239
          ],
          [
            120.32174,
            22.684673
          ],
          [
            120.321838,
            22.685149
          ],
          [
            120.32193,
            22.68559
          ],
          [
            120.32201,
            22.686077
          ],
          [
            120.322189,
            22.686046
          ],
          [
            120.323145,
            22.685883
          ],
          [
            120.323201,
            22.686214
          ],
          [
            120.323256,
            22.686499
          ],
          [
            120.322307,
            22.686651
          ],
          [
            120.322135,
            22.686679
          ],
          [
            120.322193,
            22.686972
          ],
          [
            120.32225,
            22.687281
          ],
          [
            120.322323,
            22.687633
          ],
          [
            120.322353,
            22.687766
          ],
          [
            120.322407,
            22.688
          ],
          [
            120.321652,
            22.68907
          ],
          [
            120.321583,
            22.688636
          ],
          [
            120.321472,
            22.6879
          ],
          [
            120.321452,
            22.68777
          ],
          [
            120.321093,
            22.687809
          ],
          [
            120.321045,
            22.687817
          ],
          [
            120.320968,
            22.68783
          ],
          [
            120.320858,
            22.687848
          ],
          [
            120.320777,
            22.687913
          ],
          [
            120.320763,
            22.687833
          ],
          [
            120.320733,
            22.687691
          ],
          [
            120.32065,
            22.68729
          ],
          [
            120.320534,
            22.686697
          ],
          [
            120.32027,
            22.685138
          ],
          [
            120.320164,
            22.684646
          ],
          [
            120.319927,
            22.683127
          ],
          [
            120.319916,
            22.683052
          ],
          [
            120.319906,
            22.68299
          ],
          [
            120.319873,
            22.682824
          ],
          [
            120.319739,
            22.682145
          ],
          [
            120.319729,
            22.682095
          ],
          [
            120.319707,
            22.681986
          ],
          [
            120.319781,
            22.681974
          ],
          [
            120.319844,
            22.681964
          ],
          [
            120.319866,
            22.682074
          ],
          [
            120.320001,
            22.682758
          ],
          [
            120.320009,
            22.682801
          ],
          [
            120.320042,
            22.682968
          ],
          [
            120.320055,
            22.683033
          ],
          [
            120.320152,
            22.683524
          ],
          [
            120.320645,
            22.683415
          ],
          [
            120.321609,
            22.683244
          ],
          [
            120.321675,
            22.683232
          ],
          [
            120.32168,
            22.68273
          ],
          [
            120.321701,
            22.681802
          ],
          [
            120.321703,
            22.681681
          ],
          [
            120.321728,
            22.681179
          ],
          [
            120.321638,
            22.68118
          ]
        ]
      },
      "properties": {
        "routeId": "kaohsiung-kef-5835-48a510",
        "city": "kaohsiung",
        "source_file": "kaohsiung/kaohsiung-kef-5835-48a510.geojson",
        "distance_km": 12.181000000000001,
        "duration_min": 30.864783333333328,
        "valhalla_config": "valhalla.json"
      }
    }
  ]
}