{
  "type": "FeatureCollection",
  "features": [
    {
      "type": "Feature",
      "geometry": {
        "type": "LineString",
        "coordinates": [
          [
            120.344471,
            22.612352
          ],
          [
            120.344298,
            22.612335
          ],
          [
            120.344244,
            22.612993
          ],
          [
            120.343448,
            22.612943
          ],
          [
            120.343188,
            22.61293
          ],
          [
            120.342455,
            22.612894
          ],
          [
            120.341404,
            22.612839
          ],
          [
            120.340574,
            22.612816
          ],
          [
            120.340198,
            22.612805
          ],
          [
            120.340136,
            22.612804
          ],
          [
            120.339359,
            22.612782
          ],
          [
            120.338607,
            22.612762
          ],
          [
            120.338567,
            22.61291
          ],
          [
            120.338607,
            22.612762
          ],
          [
            120.337203,
            22.612659
          ],
          [
            120.337254,
            22.612287
          ],
          [
            120.337259,
            22.61225
          ],
          [
            120.337274,
            22.612135
          ],
          [
            120.337302,
            22.611935
          ],
          [
            120.337312,
            22.611861
          ],
          [
            120.337346,
            22.611609
          ],
          [
            120.33736,
            22.611503
          ],
          [
            120.337407,
            22.611127
          ],
          [
            120.337607,
            22.611149
          ],
          [
            120.337407,
            22.611127
          ],
          [
            120.33736,
            22.611503
          ],
          [
            120.337346,
            22.611609
          ],
          [
            120.337312,
            22.611861
          ],
          [
            120.337302,
            22.611935
          ],
          [
            120.337274,
            22.612135
          ],
          [
            120.337259,
            22.61225
          ],
          [
            120.337254,
            22.612287
          ],
          [
            120.337237,
            22.612413
          ],
          [
            120.337203,
            22.612659
          ],
          [
            120.338607,
            22.612762
          ],
          [
            120.339359,
            22.612782
          ],
          [
            120.340136,
            22.612804
          ],
          [
            120.340198,
            22.612805
          ],
          [
            120.340574,
            22.612816
          ],
          [
            120.341404,
            22.612839
          ],
          [
            120.342455,
            22.612894
          ],
          [
            120.343188,
            22.61293
          ],
          [
            120.343448,
            22.612943
          ],
          [
            120.344244,
            22.612993
          ],
          [
            120.344776,
            22.613057
          ],
          [
            120.344849,
            22.613064
          ],
          [
            120.345321,
            22.613084
          ],
          [
            120.345434,
            22.613088
          ],
          [
            120.345431,
            22.612935
          ],
          [
            120.345414,
            22.612131
          ],
          [
            120.345414,
            22.612089
          ],
          [
            120.345412,
            22.611955
          ],
          [
            120.345411,
            22.611904
          ],
          [
            120.345401,
            22.611154
          ],
          [
            120.345268,
            22.611143
          ],
          [
            120.344976,
            22.611119
          ],
          [
            120.344693,
            22.611096
          ],
          [
            120.344386,
            22.611064
          ],
          [
            120.343824,
            22.611006
          ],
          [
            120.343871,
            22.610446
          ],
          [
            120.343887,
            22.610264
          ],
          [
            120.343871,
            22.610446
          ],
          [
            120.343332,
            22.610417
          ],
          [
            120.34337,
            22.610013
          ],
          [
            120.343385,
            22.609861
          ],
          [
            120.34283,
            22.609816
          ],
          [
            120.342227,
            22.609767
          ],
          [
            120.341948,
            22.609744
          ],
          [
            120.342227,
            22.609767
          ],
          [
            120.34219,
            22.610346
          ],
          [
            120.342058,
            22.610712
          ],
          [
            120.341984,
            22.610685
          ],
          [
            120.341739,
            22.610672
          ],
          [
            120.341596,
            22.610665
          ],
          [
            120.341085,
            22.610636
          ],
          [
            120.340722,
            22.610613
          ],
          [
            120.340593,
            22.610609
          ],
          [
            120.340155,
            22.61074
          ],
          [
            120.340187,
            22.610886
          ],
          [
            120.340155,
            22.61074
          ],
          [
            120.339813,
            22.610837
          ],
          [
            120.339575,
            22.610903
          ],
          [
            120.339459,
            22.611919
          ],
          [
            120.339432,
            22.612134
          ],
          [
            120.339459,
            22.611919
          ],
          [
            120.340216,
            22.612063
          ],
          [
            120.340576,
            22.612123
          ],
          [
            120.340722,
            22.611829
          ],
          [
            120.340808,
            22.611573
          ],
          [
            120.340883,
            22.611345
          ],
          [
            120.341515,
            22.611585
          ],
          [
            120.3415,
            22.611752
          ],
          [
            120.341455,
            22.612265
          ],
          [
            120.34163,
            22.612269
          ],
          [
            120.341455,
            22.612265
          ],
          [
            120.341404,
            22.612839
          ],
          [
            120.341329,
            22.614154
          ],
          [
            120.3413,
            22.614757
          ],
          [
            120.341272,
            22.615335
          ],
          [
            120.34118,
            22.616903
          ],
          [
            120.338775,
            22.616656
          ],
          [
            120.33869,
            22.616648
          ],
          [
            120.338458,
            22.616625
          ],
          [
            120.33869,
            22.616648
          ],
          [
            120.338775,
            22.616656
          ],
          [
            120.338826,
            22.616269
          ],
          [
            120.33887,
            22.615954
          ],
          [
            120.33891,
            22.615653
          ],
          [
            120.338952,
            22.615343
          ],
          [
            120.338998,
            22.615022
          ],
          [
            120.33904,
            22.614736
          ],
          [
            120.339149,
            22.61404
          ],
          [
            120.339238,
            22.613478
          ],
          [
            120.339359,
            22.612782
          ],
          [
            120.339671,
            22.612791
          ],
          [
            120.340136,
            22.612804
          ],
          [
            120.340198,
            22.612805
          ],
          [
            120.340574,
            22.612816
          ],
          [
            120.341404,
            22.612839
          ],
          [
            120.342455,
            22.612894
          ],
          [
            120.343188,
            22.61293
          ],
          [
            120.343448,
            22.612943
          ],
          [
            120.344244,
            22.612993
          ],
          [
            120.344454,
            22.613018
          ],
          [
            120.344776,
            22.613057
          ],
          [
            120.344849,
            22.613064
          ],
          [
            120.344883,
            22.612861
          ],
          [
            120.344894,
            22.612744
          ],
          [
            120.344928,
            22.612397
          ],
          [
            120.344945,
            22.612049
          ],
          [
            120.345184,
            22.612069
          ],
          [
            120.344945,
            22.612049
          ],
          [
            120.344308,
            22.61197
          ],
          [
            120.344046,
            22.611836
          ],
          [
            120.343714,
            22.611605
          ],
          [
            120.342984,
            22.611159
          ],
          [
            120.342821,
            22.611509
          ],
          [
            120.342782,
            22.611592
          ],
          [
            120.342672,
            22.611856
          ],
          [
            120.342621,
            22.611978
          ],
          [
            120.343189,
            22.61226
          ],
          [
            120.343516,
            22.612458
          ],
          [
            120.343579,
            22.612384
          ],
          [
            120.344046,
            22.611836
          ],
          [
            120.343714,
            22.611605
          ],
          [
            120.342984,
            22.611159
          ],
          [
            120.342505,
            22.610907
          ],
          [
            120.342604,
            22.610914
          ],
          [
            120.343284,
            22.610965
          ],
          [
            120.343332,
            22.610417
          ],
          [
            120.343478,
            22.610425
          ],
          [
            120.343871,
            22.610446
          ],
          [
            120.343824,
            22.611006
          ],
          [
            120.343765,
            22.611002
          ],
          [
            120.343734,
            22.611374
          ],
          [
            120.343765,
            22.611002
          ],
          [
            120.343824,
            22.611006
          ],
          [
            120.344228,
            22.611048
          ],
          [
            120.344386,
            22.611064
          ],
          [
            120.344693,
            22.611096
          ],
          [
            120.344976,
            22.611119
          ],
          [
            120.345401,
            22.611154
          ],
          [
            120.345396,
            22.610118
          ],
          [
            120.345395,
            22.610026
          ],
          [
            120.345474,
            22.610032
          ],
          [
            120.345546,
            22.610038
          ],
          [
            120.345614,
            22.610047
          ],
          [
            120.345663,
            22.610048
          ],
          [
            120.345953,
            22.610054
          ],
          [
            120.346073,
            22.61006
          ],
          [
            120.346152,
            22.610077
          ],
          [
            120.346185,
            22.610084
          ],
          [
            120.346237,
            22.6101
          ],
          [
            120.346305,
            22.610155
          ],
          [
            120.346406,
            22.610242
          ],
          [
            120.346567,
            22.610434
          ],
          [
            120.347007,
            22.610902
          ],
          [
            120.347384,
            22.610635
          ],
          [
            120.347767,
            22.610386
          ],
          [
            120.348027,
            22.610242
          ],
          [
            120.348709,
            22.609882
          ],
          [
            120.348794,
            22.609832
          ],
          [
            120.349295,
            22.610752
          ],
          [
            120.349479,
            22.611057
          ],
          [
            120.349753,
            22.611512
          ],
          [
            120.349794,
            22.61158
          ],
          [
            120.349927,
            22.61177
          ],
          [
            120.350152,
            22.611972
          ],
          [
            120.350456,
            22.612252
          ],
          [
            120.350621,
            22.612396
          ],
          [
            120.350861,
            22.612609
          ],
          [
            120.350999,
            22.61277
          ],
          [
            120.35122,
            22.613075
          ],
          [
            120.351411,
            22.613339
          ],
          [
            120.351714,
            22.613751
          ],
          [
            120.351951,
            22.614085
          ],
          [
            120.352149,
            22.614358
          ],
          [
            120.353271,
            22.615876
          ],
          [
            120.353311,
            22.615922
          ],
          [
            120.353399,
            22.616023
          ],
          [
            120.35347,
            22.616112
          ],
          [
            120.353529,
            22.616191
          ],
          [
            120.353343,
            22.616314
          ],
          [
            120.352825,
            22.616646
          ],
          [
            120.352797,
            22.616664
          ],
          [
            120.352696,
            22.616728
          ],
          [
            120.352691,
            22.616607
          ],
          [
            120.352676,
            22.616521
          ],
          [
            120.352654,
            22.616498
          ],
          [
            120.352298,
            22.616483
          ]
        ]
      },
      "properties": {
        "routeId": "kaohsiung-keb-7767-da4ffa",
        "city": "kaohsiung",
        "source_file": "kaohsiung/kaohsiung-keb-7767-da4ffa.geojson",
        "distance_km": 8.615,
        "duration_min": 20.67575,
        "valhalla_config": "valhalla.json"
      }
    }
  ]
}