{
  "type": "FeatureCollection",
  "features": [
    {
      "type": "Feature",
      "geometry": {
        "type": "LineString",
        "coordinates": [
          [
            120.461152,
            22.843575
          ],
          [
            120.461182,
            22.843591
          ],
          [
            120.461229,
            22.843591
          ],
          [
            120.461357,
            22.843545
          ],
          [
            120.461453,
            22.843617
          ],
          [
            120.461454,
            22.843666
          ],
          [
            120.461456,
            22.843686
          ],
          [
            120.461526,
            22.843782
          ],
          [
            120.4616,
            22.843901
          ],
          [
            120.46164,
            22.843995
          ],
          [
            120.461697,
            22.844138
          ],
          [
            120.461744,
            22.844227
          ],
          [
            120.461858,
            22.844331
          ],
          [
            120.461982,
            22.844418
          ],
          [
            120.462204,
            22.844611
          ],
          [
            120.462238,
            22.844667
          ],
          [
            120.462242,
            22.844711
          ],
          [
            120.462236,
            22.844771
          ],
          [
            120.462222,
            22.844869
          ],
          [
            120.462244,
            22.844933
          ],
          [
            120.46239,
            22.845188
          ],
          [
            120.462448,
            22.845346
          ],
          [
            120.462526,
            22.84555
          ],
          [
            120.462634,
            22.845732
          ],
          [
            120.462721,
            22.845905
          ],
          [
            120.46278,
            22.8461
          ],
          [
            120.462867,
            22.846349
          ],
          [
            120.462982,
            22.846583
          ],
          [
            120.463017,
            22.846633
          ],
          [
            120.463203,
            22.846811
          ],
          [
            120.463457,
            22.847107
          ],
          [
            120.463476,
            22.847144
          ],
          [
            120.463476,
            22.847209
          ],
          [
            120.463464,
            22.847383
          ],
          [
            120.463495,
            22.847491
          ],
          [
            120.46369,
            22.847678
          ],
          [
            120.46439,
            22.848254
          ],
          [
            120.464428,
            22.848313
          ],
          [
            120.46444,
            22.848396
          ],
          [
            120.464464,
            22.848559
          ],
          [
            120.464493,
            22.84864
          ],
          [
            120.464524,
            22.848738
          ],
          [
            120.464474,
            22.84877
          ],
          [
            120.464359,
            22.848857
          ],
          [
            120.464198,
            22.849016
          ],
          [
            120.464008,
            22.849219
          ],
          [
            120.463785,
            22.849412
          ],
          [
            120.463603,
            22.84954
          ],
          [
            120.463494,
            22.849674
          ],
          [
            120.463398,
            22.849895
          ],
          [
            120.463335,
            22.850025
          ],
          [
            120.463289,
            22.850121
          ],
          [
            120.463213,
            22.850372
          ],
          [
            120.463217,
            22.85049
          ],
          [
            120.463184,
            22.85078
          ],
          [
            120.463172,
            22.851008
          ],
          [
            120.463045,
            22.851355
          ],
          [
            120.46287,
            22.851689
          ],
          [
            120.462825,
            22.851757
          ],
          [
            120.462789,
            22.851812
          ],
          [
            120.46266,
            22.851971
          ],
          [
            120.462789,
            22.851812
          ],
          [
            120.462825,
            22.851757
          ],
          [
            120.46287,
            22.851689
          ],
          [
            120.463045,
            22.851355
          ],
          [
            120.463172,
            22.851008
          ],
          [
            120.463184,
            22.85078
          ],
          [
            120.463217,
            22.85049
          ],
          [
            120.463213,
            22.850372
          ],
          [
            120.463289,
            22.850121
          ],
          [
            120.463335,
            22.850025
          ],
          [
            120.463398,
            22.849895
          ],
          [
            120.463494,
            22.849674
          ],
          [
            120.463603,
            22.84954
          ],
          [
            120.463785,
            22.849412
          ],
          [
            120.464008,
            22.849219
          ],
          [
            120.464198,
            22.849016
          ],
          [
            120.464359,
            22.848857
          ],
          [
            120.464474,
            22.84877
          ],
          [
            120.464524,
            22.848738
          ],
          [
            120.464592,
            22.848705
          ],
          [
            120.464689,
            22.84868
          ],
          [
            120.464935,
            22.848687
          ],
          [
            120.46521,
            22.848669
          ],
          [
            120.465505,
            22.848615
          ],
          [
            120.465655,
            22.848576
          ],
          [
            120.4659,
            22.848504
          ],
          [
            120.466,
            22.848474
          ],
          [
            120.465964,
            22.848386
          ],
          [
            120.465951,
            22.848357
          ],
          [
            120.465694,
            22.847766
          ],
          [
            120.465597,
            22.84751
          ],
          [
            120.46551,
            22.847248
          ],
          [
            120.465459,
            22.847068
          ],
          [
            120.465126,
            22.845986
          ],
          [
            120.464473,
            22.846053
          ],
          [
            120.46395,
            22.846151
          ],
          [
            120.463481,
            22.846281
          ],
          [
            120.46395,
            22.846151
          ],
          [
            120.464473,
            22.846053
          ],
          [
            120.465126,
            22.845986
          ],
          [
            120.46511,
            22.845934
          ],
          [
            120.465005,
            22.8456
          ],
          [
            120.464504,
            22.843987
          ],
          [
            120.46424,
            22.843158
          ],
          [
            120.464218,
            22.843085
          ],
          [
            120.464134,
            22.842902
          ],
          [
            120.463627,
            22.841196
          ],
          [
            120.463122,
            22.839551
          ],
          [
            120.462835,
            22.838557
          ],
          [
            120.462766,
            22.838294
          ],
          [
            120.462581,
            22.837652
          ],
          [
            120.462544,
            22.837397
          ],
          [
            120.462524,
            22.83727
          ],
          [
            120.462398,
            22.836077
          ],
          [
            120.462339,
            22.835458
          ],
          [
            120.462023,
            22.83551
          ],
          [
            120.461857,
            22.835556
          ],
          [
            120.461655,
            22.835683
          ],
          [
            120.461559,
            22.835726
          ],
          [
            120.461464,
            22.835745
          ],
          [
            120.46144,
            22.835746
          ],
          [
            120.461451,
            22.835917
          ],
          [
            120.461451,
            22.835917
          ],
          [
            120.46144,
            22.835746
          ],
          [
            120.461464,
            22.835745
          ],
          [
            120.461559,
            22.835726
          ],
          [
            120.461655,
            22.835683
          ],
          [
            120.461857,
            22.835556
          ],
          [
            120.462023,
            22.83551
          ],
          [
            120.462339,
            22.835458
          ],
          [
            120.462271,
            22.834748
          ],
          [
            120.462277,
            22.834549
          ],
          [
            120.462407,
            22.833442
          ],
          [
            120.462514,
            22.832426
          ],
          [
            120.462394,
            22.832431
          ],
          [
            120.462306,
            22.832405
          ],
          [
            120.46198,
            22.83232
          ],
          [
            120.461825,
            22.832301
          ],
          [
            120.461616,
            22.832297
          ],
          [
            120.461488,
            22.832288
          ],
          [
            120.461067,
            22.832235
          ],
          [
            120.460756,
            22.832193
          ],
          [
            120.460689,
            22.832001
          ],
          [
            120.460667,
            22.831945
          ],
          [
            120.460689,
            22.83172
          ],
          [
            120.460695,
            22.831645
          ],
          [
            120.460699,
            22.83159
          ],
          [
            120.46077,
            22.831469
          ],
          [
            120.460855,
            22.831283
          ],
          [
            120.460883,
            22.831175
          ],
          [
            120.461098,
            22.831186
          ],
          [
            120.461544,
            22.831288
          ],
          [
            120.461768,
            22.831315
          ],
          [
            120.461803,
            22.83114
          ],
          [
            120.461806,
            22.831055
          ],
          [
            120.461809,
            22.830982
          ],
          [
            120.462025,
            22.831011
          ],
          [
            120.462106,
            22.831011
          ],
          [
            120.462613,
            22.830878
          ],
          [
            120.462517,
            22.830084
          ],
          [
            120.462356,
            22.829141
          ],
          [
            120.462347,
            22.829073
          ],
          [
            120.462341,
            22.829009
          ],
          [
            120.462337,
            22.828887
          ],
          [
            120.462332,
            22.828317
          ],
          [
            120.462349,
            22.827847
          ],
          [
            120.462356,
            22.827076
          ],
          [
            120.462353,
            22.826926
          ],
          [
            120.46235,
            22.824577
          ],
          [
            120.462354,
            22.823608
          ],
          [
            120.462307,
            22.823004
          ],
          [
            120.462197,
            22.821624
          ],
          [
            120.46219,
            22.821531
          ],
          [
            120.462131,
            22.820791
          ],
          [
            120.461907,
            22.818102
          ],
          [
            120.461795,
            22.817041
          ],
          [
            120.461552,
            22.815624
          ],
          [
            120.461502,
            22.815213
          ],
          [
            120.461509,
            22.814968
          ],
          [
            120.461705,
            22.813809
          ],
          [
            120.461805,
            22.813157
          ],
          [
            120.461789,
            22.812779
          ],
          [
            120.461476,
            22.808761
          ],
          [
            120.46147,
            22.80868
          ],
          [
            120.461467,
            22.80865
          ],
          [
            120.461399,
            22.807768
          ],
          [
            120.461337,
            22.807278
          ],
          [
            120.461029,
            22.806374
          ],
          [
            120.460799,
            22.805545
          ],
          [
            120.46054,
            22.804764
          ],
          [
            120.460052,
            22.803169
          ],
          [
            120.459427,
            22.801244
          ],
          [
            120.459147,
            22.800384
          ],
          [
            120.459046,
            22.800041
          ],
          [
            120.458865,
            22.799426
          ],
          [
            120.458855,
            22.799375
          ],
          [
            120.458796,
            22.799396
          ],
          [
            120.458403,
            22.799539
          ],
          [
            120.458244,
            22.799597
          ],
          [
            120.458128,
            22.799652
          ],
          [
            120.457973,
            22.79981
          ],
          [
            120.457978,
            22.799976
          ],
          [
            120.457984,
            22.800145
          ],
          [
            120.457975,
            22.800315
          ],
          [
            120.457896,
            22.800607
          ],
          [
            120.457884,
            22.800649
          ],
          [
            120.457873,
            22.800696
          ],
          [
            120.457912,
            22.800807
          ],
          [
            120.457931,
            22.801035
          ],
          [
            120.457921,
            22.801155
          ],
          [
            120.457908,
            22.801281
          ],
          [
            120.457939,
            22.801431
          ],
          [
            120.458026,
            22.801583
          ],
          [
            120.45807,
            22.801658
          ],
          [
            120.458155,
            22.801738
          ],
          [
            120.458271,
            22.801859
          ],
          [
            120.458451,
            22.801974
          ],
          [
            120.458584,
            22.802034
          ],
          [
            120.458668,
            22.802127
          ],
          [
            120.458722,
            22.802225
          ],
          [
            120.458769,
            22.802576
          ],
          [
            120.458797,
            22.802774
          ],
          [
            120.458836,
            22.802851
          ],
          [
            120.458888,
            22.80299
          ],
          [
            120.458954,
            22.803083
          ],
          [
            120.459138,
            22.803227
          ],
          [
            120.459281,
            22.803288
          ],
          [
            120.459421,
            22.803315
          ],
          [
            120.45952,
            22.803313
          ],
          [
            120.459552,
            22.803312
          ],
          [
            120.459673,
            22.803304
          ],
          [
            120.459792,
            22.803277
          ],
          [
            120.459974,
            22.803207
          ],
          [
            120.460052,
            22.803169
          ],
          [
            120.459427,
            22.801244
          ],
          [
            120.459147,
            22.800384
          ],
          [
            120.458865,
            22.799426
          ],
          [
            120.458855,
            22.799375
          ],
          [
            120.458808,
            22.799227
          ],
          [
            120.458779,
            22.799131
          ],
          [
            120.458773,
            22.799113
          ],
          [
            120.458722,
            22.798951
          ],
          [
            120.458621,
            22.798727
          ],
          [
            120.458543,
            22.798488
          ],
          [
            120.458505,
            22.798367
          ],
          [
            120.458461,
            22.798229
          ],
          [
            120.458416,
            22.798092
          ],
          [
            120.458071,
            22.796879
          ],
          [
            120.458041,
            22.796784
          ],
          [
            120.458013,
            22.7967
          ],
          [
            120.457972,
            22.796576
          ],
          [
            120.457884,
            22.796335
          ],
          [
            120.457818,
            22.796
          ],
          [
            120.45776,
            22.795516
          ],
          [
            120.457723,
            22.794904
          ],
          [
            120.457658,
            22.794499
          ],
          [
            120.457518,
            22.79405
          ],
          [
            120.456946,
            22.792585
          ],
          [
            120.456502,
            22.791315
          ],
          [
            120.456314,
            22.790747
          ],
          [
            120.456124,
            22.790319
          ],
          [
            120.455762,
            22.789535
          ],
          [
            120.455526,
            22.788784
          ],
          [
            120.455294,
            22.787862
          ],
          [
            120.455055,
            22.786727
          ],
          [
            120.454932,
            22.786141
          ],
          [
            120.454853,
            22.785668
          ],
          [
            120.454732,
            22.784899
          ],
          [
            120.454615,
            22.784328
          ],
          [
            120.454516,
            22.78386
          ],
          [
            120.454404,
            22.783518
          ],
          [
            120.454222,
            22.783091
          ],
          [
            120.453938,
            22.782462
          ],
          [
            120.453658,
            22.781737
          ],
          [
            120.453587,
            22.781573
          ],
          [
            120.453435,
            22.781279
          ],
          [
            120.453296,
            22.781029
          ],
          [
            120.453158,
            22.78109
          ],
          [
            120.453058,
            22.781183
          ],
          [
            120.453039,
            22.781204
          ],
          [
            120.453058,
            22.781183
          ],
          [
            120.453158,
            22.78109
          ],
          [
            120.453296,
            22.781029
          ],
          [
            120.453034,
            22.780581
          ],
          [
            120.452765,
            22.780143
          ],
          [
            120.452491,
            22.779625
          ],
          [
            120.451788,
            22.778203
          ],
          [
            120.451295,
            22.777179
          ],
          [
            120.450951,
            22.776453
          ],
          [
            120.450809,
            22.776115
          ],
          [
            120.450529,
            22.775305
          ],
          [
            120.450484,
            22.775163
          ],
          [
            120.450439,
            22.775005
          ],
          [
            120.450425,
            22.774973
          ],
          [
            120.450254,
            22.77444
          ],
          [
            120.450117,
            22.774327
          ],
          [
            120.449744,
            22.774009
          ],
          [
            120.449562,
            22.773901
          ],
          [
            120.449418,
            22.773824
          ],
          [
            120.449307,
            22.774596
          ],
          [
            120.449255,
            22.775004
          ],
          [
            120.449308,
            22.775063
          ],
          [
            120.449344,
            22.77516
          ],
          [
            120.449356,
            22.775307
          ],
          [
            120.449328,
            22.775442
          ],
          [
            120.449259,
            22.775805
          ],
          [
            120.44923,
            22.775854
          ],
          [
            120.448977,
            22.775967
          ],
          [
            120.448934,
            22.775962
          ],
          [
            120.448934,
            22.775962
          ],
          [
            120.448934,
            22.775962
          ],
          [
            120.448977,
            22.775967
          ],
          [
            120.44923,
            22.775854
          ],
          [
            120.449259,
            22.775805
          ],
          [
            120.449328,
            22.775442
          ],
          [
            120.449356,
            22.775307
          ],
          [
            120.449344,
            22.77516
          ],
          [
            120.449308,
            22.775063
          ],
          [
            120.449255,
            22.775004
          ],
          [
            120.449307,
            22.774596
          ],
          [
            120.449418,
            22.773824
          ],
          [
            120.449562,
            22.773901
          ],
          [
            120.449744,
            22.774009
          ],
          [
            120.450117,
            22.774327
          ],
          [
            120.450254,
            22.77444
          ],
          [
            120.450365,
            22.774411
          ],
          [
            120.450542,
            22.774938
          ],
          [
            120.450548,
            22.774959
          ],
          [
            120.450597,
            22.775137
          ],
          [
            120.450637,
            22.775268
          ],
          [
            120.450529,
            22.775305
          ],
          [
            120.450484,
            22.775163
          ],
          [
            120.450439,
            22.775005
          ],
          [
            120.450425,
            22.774973
          ],
          [
            120.450399,
            22.774891
          ],
          [
            120.450254,
            22.77444
          ],
          [
            120.450117,
            22.774327
          ],
          [
            120.449744,
            22.774009
          ],
          [
            120.449562,
            22.773901
          ],
          [
            120.449418,
            22.773824
          ],
          [
            120.449156,
            22.773668
          ],
          [
            120.449045,
            22.773597
          ],
          [
            120.448909,
            22.77352
          ],
          [
            120.448805,
            22.773472
          ],
          [
            120.448752,
            22.773441
          ],
          [
            120.448672,
            22.773412
          ],
          [
            120.448613,
            22.77339
          ],
          [
            120.448539,
            22.773375
          ],
          [
            120.447732,
            22.773282
          ],
          [
            120.447581,
            22.77325
          ],
          [
            120.447191,
            22.773199
          ],
          [
            120.446696,
            22.773199
          ],
          [
            120.446376,
            22.773216
          ],
          [
            120.445858,
            22.773256
          ],
          [
            120.444703,
            22.773316
          ],
          [
            120.444585,
            22.773322
          ],
          [
            120.444322,
            22.773348
          ],
          [
            120.442048,
            22.773573
          ],
          [
            120.441872,
            22.773582
          ],
          [
            120.441772,
            22.773587
          ],
          [
            120.441649,
            22.773536
          ],
          [
            120.441506,
            22.773458
          ],
          [
            120.441314,
            22.773309
          ],
          [
            120.441012,
            22.773194
          ],
          [
            120.44071,
            22.773146
          ],
          [
            120.440361,
            22.77316
          ],
          [
            120.440064,
            22.773202
          ],
          [
            120.439893,
            22.77321
          ],
          [
            120.439719,
            22.773252
          ],
          [
            120.439576,
            22.773241
          ],
          [
            120.439382,
            22.773079
          ],
          [
            120.439153,
            22.773026
          ],
          [
            120.438744,
            22.773134
          ],
          [
            120.438682,
            22.773153
          ],
          [
            120.438285,
            22.773256
          ],
          [
            120.437599,
            22.773435
          ],
          [
            120.436755,
            22.773656
          ],
          [
            120.435999,
            22.773747
          ],
          [
            120.43527,
            22.773883
          ],
          [
            120.434411,
            22.774098
          ],
          [
            120.434105,
            22.774143
          ],
          [
            120.432834,
            22.774268
          ],
          [
            120.432714,
            22.774268
          ],
          [
            120.432115,
            22.774268
          ],
          [
            120.431845,
            22.77425
          ],
          [
            120.431694,
            22.774232
          ],
          [
            120.431705,
            22.774159
          ],
          [
            120.431845,
            22.774178
          ],
          [
            120.43197,
            22.774186
          ],
          [
            120.432131,
            22.774203
          ],
          [
            120.432906,
            22.774165
          ],
          [
            120.434135,
            22.774046
          ],
          [
            120.434398,
            22.774011
          ],
          [
            120.435269,
            22.773789
          ],
          [
            120.435625,
            22.77371
          ],
          [
            120.436031,
            22.773627
          ],
          [
            120.436796,
            22.773542
          ],
          [
            120.437587,
            22.773371
          ],
          [
            120.438657,
            22.773069
          ],
          [
            120.438715,
            22.773052
          ],
          [
            120.438899,
            22.773
          ],
          [
            120.439351,
            22.772884
          ],
          [
            120.439385,
            22.772875
          ],
          [
            120.440114,
            22.772688
          ],
          [
            120.440341,
            22.772635
          ],
          [
            120.440623,
            22.772584
          ],
          [
            120.441046,
            22.772502
          ],
          [
            120.441506,
            22.772468
          ],
          [
            120.442056,
            22.772413
          ],
          [
            120.44278,
            22.772304
          ],
          [
            120.443383,
            22.77222
          ],
          [
            120.443563,
            22.772198
          ],
          [
            120.443752,
            22.772189
          ],
          [
            120.443898,
            22.772193
          ],
          [
            120.444054,
            22.772206
          ],
          [
            120.444443,
            22.772287
          ],
          [
            120.444508,
            22.772299
          ],
          [
            120.444761,
            22.772354
          ],
          [
            120.445075,
            22.772403
          ],
          [
            120.445178,
            22.772412
          ],
          [
            120.44528,
            22.772409
          ],
          [
            120.445722,
            22.772375
          ],
          [
            120.446186,
            22.772352
          ],
          [
            120.446811,
            22.772319
          ],
          [
            120.446958,
            22.772308
          ],
          [
            120.447056,
            22.772291
          ],
          [
            120.44713,
            22.772273
          ],
          [
            120.447192,
            22.772247
          ],
          [
            120.447279,
            22.772207
          ],
          [
            120.447362,
            22.77216
          ],
          [
            120.447673,
            22.771907
          ],
          [
            120.447857,
            22.771756
          ],
          [
            120.44794,
            22.77169
          ],
          [
            120.448033,
            22.771621
          ],
          [
            120.448156,
            22.771552
          ],
          [
            120.448283,
            22.77149
          ],
          [
            120.448802,
            22.77126
          ],
          [
            120.449134,
            22.771145
          ],
          [
            120.44926,
            22.7711
          ],
          [
            120.449294,
            22.771199
          ],
          [
            120.449415,
            22.771513
          ],
          [
            120.449436,
            22.771564
          ],
          [
            120.449843,
            22.772791
          ],
          [
            120.449862,
            22.772848
          ],
          [
            120.449888,
            22.772929
          ],
          [
            120.450365,
            22.774411
          ],
          [
            120.450542,
            22.774938
          ],
          [
            120.450548,
            22.774959
          ],
          [
            120.450597,
            22.775137
          ],
          [
            120.450637,
            22.775268
          ],
          [
            120.450779,
            22.775641
          ],
          [
            120.45089,
            22.776076
          ],
          [
            120.451028,
            22.776389
          ],
          [
            120.451228,
            22.776799
          ],
          [
            120.451677,
            22.777746
          ],
          [
            120.451855,
            22.77811
          ],
          [
            120.452152,
            22.778739
          ],
          [
            120.452597,
            22.779581
          ],
          [
            120.452753,
            22.779908
          ],
          [
            120.452993,
            22.780344
          ],
          [
            120.453394,
            22.780984
          ],
          [
            120.453528,
            22.781274
          ],
          [
            120.45373,
            22.781646
          ],
          [
            120.45386,
            22.78196
          ],
          [
            120.454303,
            22.783096
          ],
          [
            120.454577,
            22.783771
          ],
          [
            120.45467,
            22.784177
          ],
          [
            120.454839,
            22.785042
          ],
          [
            120.455163,
            22.786692
          ],
          [
            120.455407,
            22.787834
          ],
          [
            120.455656,
            22.788771
          ],
          [
            120.455904,
            22.789493
          ],
          [
            120.456045,
            22.7898
          ],
          [
            120.456197,
            22.790126
          ],
          [
            120.456371,
            22.790529
          ],
          [
            120.45651,
            22.790876
          ],
          [
            120.456634,
            22.791281
          ],
          [
            120.456985,
            22.792258
          ],
          [
            120.457683,
            22.794177
          ],
          [
            120.457763,
            22.794421
          ],
          [
            120.457779,
            22.794471
          ],
          [
            120.457825,
            22.794896
          ],
          [
            120.457841,
            22.79538
          ],
          [
            120.457878,
            22.795837
          ],
          [
            120.457912,
            22.796084
          ],
          [
            120.45798,
            22.796341
          ],
          [
            120.458097,
            22.796679
          ],
          [
            120.458128,
            22.796761
          ],
          [
            120.458157,
            22.796856
          ],
          [
            120.45858,
            22.7982
          ],
          [
            120.458653,
            22.798473
          ],
          [
            120.458841,
            22.799092
          ],
          [
            120.45888,
            22.799211
          ],
          [
            120.45893,
            22.799351
          ],
          [
            120.458946,
            22.799405
          ],
          [
            120.460115,
            22.803126
          ],
          [
            120.460297,
            22.803684
          ],
          [
            120.460897,
            22.805523
          ],
          [
            120.461269,
            22.806553
          ],
          [
            120.461416,
            22.807246
          ],
          [
            120.461506,
            22.807756
          ],
          [
            120.461579,
            22.808669
          ],
          [
            120.461586,
            22.80875
          ],
          [
            120.461912,
            22.812828
          ],
          [
            120.461911,
            22.813173
          ],
          [
            120.46182,
            22.813623
          ],
          [
            120.461788,
            22.813829
          ],
          [
            120.46167,
            22.814745
          ],
          [
            120.461611,
            22.815295
          ],
          [
            120.46165,
            22.815627
          ],
          [
            120.4619,
            22.817059
          ],
          [
            120.46201,
            22.818044
          ],
          [
            120.462233,
            22.820782
          ],
          [
            120.462283,
            22.821454
          ],
          [
            120.46229,
            22.821547
          ],
          [
            120.462396,
            22.822988
          ],
          [
            120.462307,
            22.823004
          ],
          [
            120.462279,
            22.82303
          ],
          [
            120.462258,
            22.82304
          ],
          [
            120.461529,
            22.823044
          ],
          [
            120.461457,
            22.823033
          ],
          [
            120.461382,
            22.823014
          ],
          [
            120.461322,
            22.82299
          ],
          [
            120.461277,
            22.822975
          ],
          [
            120.461221,
            22.82296
          ],
          [
            120.46117,
            22.822969
          ],
          [
            120.461128,
            22.822984
          ],
          [
            120.461086,
            22.823021
          ],
          [
            120.461051,
            22.823092
          ],
          [
            120.461006,
            22.823182
          ],
          [
            120.460967,
            22.823274
          ],
          [
            120.460936,
            22.823328
          ],
          [
            120.460892,
            22.823384
          ],
          [
            120.460817,
            22.823453
          ],
          [
            120.460731,
            22.823522
          ],
          [
            120.460686,
            22.823553
          ],
          [
            120.460653,
            22.823577
          ],
          [
            120.460525,
            22.823692
          ],
          [
            120.460448,
            22.823815
          ],
          [
            120.460353,
            22.824087
          ],
          [
            120.460323,
            22.824179
          ],
          [
            120.460248,
            22.82449
          ],
          [
            120.460236,
            22.824512
          ],
          [
            120.46021,
            22.824529
          ],
          [
            120.460175,
            22.824535
          ],
          [
            120.460021,
            22.824565
          ],
          [
            120.459954,
            22.824565
          ],
          [
            120.459818,
            22.82456
          ],
          [
            120.459743,
            22.824552
          ],
          [
            120.459655,
            22.824547
          ],
          [
            120.459582,
            22.824556
          ],
          [
            120.459455,
            22.824585
          ],
          [
            120.459191,
            22.824695
          ],
          [
            120.459151,
            22.82473
          ],
          [
            120.459191,
            22.824695
          ],
          [
            120.459455,
            22.824585
          ],
          [
            120.459582,
            22.824556
          ],
          [
            120.459655,
            22.824547
          ],
          [
            120.459743,
            22.824552
          ],
          [
            120.459818,
            22.82456
          ],
          [
            120.459954,
            22.824565
          ],
          [
            120.460021,
            22.824565
          ],
          [
            120.460175,
            22.824535
          ],
          [
            120.46021,
            22.824529
          ],
          [
            120.460236,
            22.824512
          ],
          [
            120.460248,
            22.82449
          ],
          [
            120.460323,
            22.824179
          ],
          [
            120.460353,
            22.824087
          ],
          [
            120.460448,
            22.823815
          ],
          [
            120.460525,
            22.823692
          ],
          [
            120.460653,
            22.823577
          ],
          [
            120.460686,
            22.823553
          ],
          [
            120.460731,
            22.823522
          ],
          [
            120.460817,
            22.823453
          ],
          [
            120.460892,
            22.823384
          ],
          [
            120.460936,
            22.823328
          ],
          [
            120.460967,
            22.823274
          ],
          [
            120.461006,
            22.823182
          ],
          [
            120.461051,
            22.823092
          ],
          [
            120.461086,
            22.823021
          ],
          [
            120.461128,
            22.822984
          ],
          [
            120.46117,
            22.822969
          ],
          [
            120.461221,
            22.82296
          ],
          [
            120.461277,
            22.822975
          ],
          [
            120.461322,
            22.82299
          ],
          [
            120.461382,
            22.823014
          ],
          [
            120.461457,
            22.823033
          ],
          [
            120.461529,
            22.823044
          ],
          [
            120.462258,
            22.82304
          ],
          [
            120.462279,
            22.82303
          ],
          [
            120.462307,
            22.823004
          ],
          [
            120.462197,
            22.821624
          ],
          [
            120.46219,
            22.821531
          ],
          [
            120.462131,
            22.820791
          ],
          [
            120.461907,
            22.818102
          ],
          [
            120.461795,
            22.817041
          ],
          [
            120.461552,
            22.815624
          ],
          [
            120.461502,
            22.815213
          ],
          [
            120.461509,
            22.814968
          ],
          [
            120.461705,
            22.813809
          ],
          [
            120.461805,
            22.813157
          ],
          [
            120.461789,
            22.812779
          ],
          [
            120.461476,
            22.808761
          ],
          [
            120.46147,
            22.80868
          ],
          [
            120.461467,
            22.80865
          ],
          [
            120.461399,
            22.807768
          ],
          [
            120.461337,
            22.807278
          ],
          [
            120.461029,
            22.806374
          ],
          [
            120.460799,
            22.805545
          ],
          [
            120.46054,
            22.804764
          ],
          [
            120.460052,
            22.803169
          ],
          [
            120.459427,
            22.801244
          ],
          [
            120.459147,
            22.800384
          ],
          [
            120.458865,
            22.799426
          ],
          [
            120.458855,
            22.799375
          ],
          [
            120.458808,
            22.799227
          ],
          [
            120.458773,
            22.799113
          ],
          [
            120.458722,
            22.798951
          ],
          [
            120.458621,
            22.798727
          ],
          [
            120.458543,
            22.798488
          ],
          [
            120.458505,
            22.798367
          ],
          [
            120.458461,
            22.798229
          ],
          [
            120.458416,
            22.798092
          ],
          [
            120.458071,
            22.796879
          ],
          [
            120.458041,
            22.796784
          ],
          [
            120.458013,
            22.7967
          ],
          [
            120.457972,
            22.796576
          ],
          [
            120.457884,
            22.796335
          ],
          [
            120.457818,
            22.796
          ],
          [
            120.45776,
            22.795516
          ],
          [
            120.457723,
            22.794904
          ],
          [
            120.457658,
            22.794499
          ],
          [
            120.457518,
            22.79405
          ],
          [
            120.456946,
            22.792585
          ],
          [
            120.456502,
            22.791315
          ],
          [
            120.456314,
            22.790747
          ],
          [
            120.456124,
            22.790319
          ],
          [
            120.455762,
            22.789535
          ],
          [
            120.455526,
            22.788784
          ],
          [
            120.455294,
            22.787862
          ],
          [
            120.455055,
            22.786727
          ],
          [
            120.454932,
            22.786141
          ],
          [
            120.454853,
            22.785668
          ],
          [
            120.454732,
            22.784899
          ],
          [
            120.454615,
            22.784328
          ],
          [
            120.454516,
            22.78386
          ],
          [
            120.454404,
            22.783518
          ],
          [
            120.454222,
            22.783091
          ],
          [
            120.453938,
            22.782462
          ],
          [
            120.453658,
            22.781737
          ],
          [
            120.453587,
            22.781573
          ],
          [
            120.453435,
            22.781279
          ],
          [
            120.453296,
            22.781029
          ],
          [
            120.453034,
            22.780581
          ],
          [
            120.452765,
            22.780143
          ],
          [
            120.452491,
            22.779625
          ],
          [
            120.451788,
            22.778203
          ],
          [
            120.451295,
            22.777179
          ],
          [
            120.450951,
            22.776453
          ],
          [
            120.450809,
            22.776115
          ],
          [
            120.450529,
            22.775305
          ],
          [
            120.450484,
            22.775163
          ],
          [
            120.450439,
            22.775005
          ],
          [
            120.450425,
            22.774973
          ],
          [
            120.450254,
            22.77444
          ],
          [
            120.450117,
            22.774327
          ],
          [
            120.449744,
            22.774009
          ],
          [
            120.449562,
            22.773901
          ],
          [
            120.449418,
            22.773824
          ],
          [
            120.449324,
            22.77448
          ],
          [
            120.449418,
            22.773824
          ],
          [
            120.449562,
            22.773901
          ],
          [
            120.449744,
            22.774009
          ],
          [
            120.450117,
            22.774327
          ],
          [
            120.450254,
            22.77444
          ],
          [
            120.450365,
            22.774411
          ],
          [
            120.450542,
            22.774938
          ],
          [
            120.450548,
            22.774959
          ],
          [
            120.450597,
            22.775137
          ],
          [
            120.450637,
            22.775268
          ],
          [
            120.450779,
            22.775641
          ],
          [
            120.45089,
            22.776076
          ],
          [
            120.451028,
            22.776389
          ],
          [
            120.451228,
            22.776799
          ],
          [
            120.451677,
            22.777746
          ],
          [
            120.451855,
            22.77811
          ],
          [
            120.452152,
            22.778739
          ],
          [
            120.452597,
            22.779581
          ],
          [
            120.452753,
            22.779908
          ],
          [
            120.452993,
            22.780344
          ],
          [
            120.453394,
            22.780984
          ],
          [
            120.453528,
            22.781274
          ],
          [
            120.45373,
            22.781646
          ],
          [
            120.45386,
            22.78196
          ],
          [
            120.454303,
            22.783096
          ],
          [
            120.454577,
            22.783771
          ],
          [
            120.45467,
            22.784177
          ],
          [
            120.454839,
            22.785042
          ],
          [
            120.455163,
            22.786692
          ],
          [
            120.455407,
            22.787834
          ],
          [
            120.455656,
            22.788771
          ],
          [
            120.455904,
            22.789493
          ],
          [
            120.456045,
            22.7898
          ],
          [
            120.456197,
            22.790126
          ],
          [
            120.456371,
            22.790529
          ],
          [
            120.45651,
            22.790876
          ],
          [
            120.456634,
            22.791281
          ],
          [
            120.456985,
            22.792258
          ],
          [
            120.457683,
            22.794177
          ],
          [
            120.457763,
            22.794421
          ],
          [
            120.457779,
            22.794471
          ],
          [
            120.457825,
            22.794896
          ],
          [
            120.457841,
            22.79538
          ],
          [
            120.457878,
            22.795837
          ],
          [
            120.457912,
            22.796084
          ],
          [
            120.45798,
            22.796341
          ],
          [
            120.458097,
            22.796679
          ],
          [
            120.458128,
            22.796761
          ],
          [
            120.458157,
            22.796856
          ],
          [
            120.45858,
            22.7982
          ],
          [
            120.458653,
            22.798473
          ],
          [
            120.458841,
            22.799092
          ],
          [
            120.45888,
            22.799211
          ],
          [
            120.45893,
            22.799351
          ],
          [
            120.458946,
            22.799405
          ],
          [
            120.460115,
            22.803126
          ],
          [
            120.460052,
            22.803169
          ],
          [
            120.459427,
            22.801244
          ],
          [
            120.459147,
            22.800384
          ],
          [
            120.459071,
            22.800127
          ],
          [
            120.458865,
            22.799426
          ],
          [
            120.458855,
            22.799375
          ],
          [
            120.458796,
            22.799396
          ],
          [
            120.458244,
            22.799597
          ],
          [
            120.458128,
            22.799652
          ],
          [
            120.457973,
            22.79981
          ],
          [
            120.457978,
            22.799976
          ],
          [
            120.457984,
            22.800145
          ],
          [
            120.457975,
            22.800315
          ],
          [
            120.457896,
            22.800607
          ],
          [
            120.457884,
            22.800649
          ],
          [
            120.457873,
            22.800696
          ],
          [
            120.457912,
            22.800807
          ],
          [
            120.457931,
            22.801035
          ],
          [
            120.457921,
            22.801155
          ],
          [
            120.457908,
            22.801281
          ],
          [
            120.457939,
            22.801431
          ],
          [
            120.458026,
            22.801583
          ],
          [
            120.45807,
            22.801658
          ],
          [
            120.458155,
            22.801738
          ],
          [
            120.458271,
            22.801859
          ],
          [
            120.458451,
            22.801974
          ],
          [
            120.458584,
            22.802034
          ],
          [
            120.458668,
            22.802127
          ],
          [
            120.458722,
            22.802225
          ],
          [
            120.458769,
            22.802576
          ],
          [
            120.458797,
            22.802774
          ],
          [
            120.458836,
            22.802851
          ],
          [
            120.458888,
            22.80299
          ],
          [
            120.458954,
            22.803083
          ],
          [
            120.459138,
            22.803227
          ],
          [
            120.459281,
            22.803288
          ],
          [
            120.459421,
            22.803315
          ],
          [
            120.459552,
            22.803312
          ],
          [
            120.459673,
            22.803304
          ],
          [
            120.459792,
            22.803277
          ],
          [
            120.459974,
            22.803207
          ],
          [
            120.460052,
            22.803169
          ],
          [
            120.460115,
            22.803126
          ],
          [
            120.460297,
            22.803684
          ],
          [
            120.460897,
            22.805523
          ],
          [
            120.461269,
            22.806553
          ],
          [
            120.461416,
            22.807246
          ],
          [
            120.461506,
            22.807756
          ],
          [
            120.461579,
            22.808669
          ],
          [
            120.461586,
            22.80875
          ],
          [
            120.461912,
            22.812828
          ],
          [
            120.461911,
            22.813173
          ],
          [
            120.46182,
            22.813623
          ],
          [
            120.461788,
            22.813829
          ],
          [
            120.46167,
            22.814745
          ],
          [
            120.461611,
            22.815295
          ],
          [
            120.46165,
            22.815627
          ],
          [
            120.4619,
            22.817059
          ],
          [
            120.46201,
            22.818044
          ],
          [
            120.462233,
            22.820782
          ],
          [
            120.462283,
            22.821454
          ],
          [
            120.46229,
            22.821547
          ],
          [
            120.462396,
            22.822988
          ],
          [
            120.462448,
            22.823595
          ],
          [
            120.462465,
            22.824618
          ],
          [
            120.462437,
            22.826945
          ],
          [
            120.462431,
            22.828314
          ],
          [
            120.462417,
            22.828915
          ],
          [
            120.462422,
            22.829008
          ],
          [
            120.462431,
            22.829091
          ],
          [
            120.462609,
            22.830073
          ],
          [
            120.46271,
            22.830985
          ],
          [
            120.462709,
            22.83128
          ],
          [
            120.462646,
            22.831975
          ],
          [
            120.46249,
            22.83345
          ],
          [
            120.46274,
            22.833473
          ],
          [
            120.462777,
            22.833496
          ],
          [
            120.462798,
            22.83353
          ],
          [
            120.463041,
            22.833922
          ],
          [
            120.463129,
            22.833525
          ],
          [
            120.463041,
            22.833922
          ],
          [
            120.463119,
            22.83402
          ],
          [
            120.463176,
            22.834157
          ],
          [
            120.463119,
            22.83402
          ],
          [
            120.463041,
            22.833922
          ],
          [
            120.462798,
            22.83353
          ],
          [
            120.462777,
            22.833496
          ],
          [
            120.46274,
            22.833473
          ],
          [
            120.46249,
            22.83345
          ],
          [
            120.462358,
            22.834564
          ],
          [
            120.462345,
            22.834742
          ],
          [
            120.462413,
            22.835455
          ],
          [
            120.462469,
            22.836046
          ],
          [
            120.462604,
            22.837263
          ],
          [
            120.462625,
            22.83738
          ],
          [
            120.46266,
            22.837638
          ],
          [
            120.462857,
            22.838276
          ],
          [
            120.462917,
            22.838545
          ],
          [
            120.463113,
            22.839176
          ],
          [
            120.463239,
            22.839555
          ],
          [
            120.464058,
            22.839482
          ],
          [
            120.464871,
            22.83945
          ],
          [
            120.46481,
            22.839403
          ],
          [
            120.464807,
            22.839344
          ],
          [
            120.465218,
            22.839199
          ],
          [
            120.465381,
            22.83915
          ],
          [
            120.466727,
            22.838743
          ],
          [
            120.466405,
            22.83831
          ],
          [
            120.466259,
            22.838123
          ],
          [
            120.465822,
            22.837464
          ],
          [
            120.4657,
            22.837225
          ],
          [
            120.465822,
            22.837464
          ],
          [
            120.466259,
            22.838123
          ],
          [
            120.466405,
            22.83831
          ],
          [
            120.466702,
            22.83816
          ],
          [
            120.466934,
            22.838093
          ],
          [
            120.467007,
            22.838063
          ],
          [
            120.46704,
            22.838037
          ],
          [
            120.467044,
            22.837995
          ],
          [
            120.466983,
            22.837886
          ],
          [
            120.467044,
            22.837995
          ],
          [
            120.46704,
            22.838037
          ],
          [
            120.467007,
            22.838063
          ],
          [
            120.466934,
            22.838093
          ],
          [
            120.466702,
            22.83816
          ],
          [
            120.466405,
            22.83831
          ],
          [
            120.466727,
            22.838743
          ],
          [
            120.466995,
            22.839149
          ],
          [
            120.467049,
            22.839226
          ],
          [
            120.467118,
            22.839318
          ],
          [
            120.467216,
            22.839481
          ],
          [
            120.467262,
            22.839576
          ],
          [
            120.467343,
            22.839664
          ],
          [
            120.467492,
            22.839801
          ],
          [
            120.467585,
            22.839919
          ],
          [
            120.467821,
            22.840219
          ],
          [
            120.468504,
            22.84106
          ],
          [
            120.468614,
            22.841178
          ],
          [
            120.46873,
            22.841283
          ],
          [
            120.469063,
            22.841585
          ],
          [
            120.469351,
            22.841828
          ],
          [
            120.469506,
            22.842
          ],
          [
            120.469653,
            22.842185
          ],
          [
            120.469811,
            22.84238
          ],
          [
            120.470015,
            22.842652
          ],
          [
            120.470271,
            22.842986
          ],
          [
            120.470366,
            22.843086
          ],
          [
            120.47055,
            22.843255
          ],
          [
            120.470714,
            22.843403
          ],
          [
            120.470914,
            22.843561
          ],
          [
            120.471232,
            22.843866
          ],
          [
            120.471414,
            22.843997
          ],
          [
            120.471232,
            22.843866
          ],
          [
            120.470914,
            22.843561
          ],
          [
            120.470714,
            22.843403
          ],
          [
            120.47055,
            22.843255
          ],
          [
            120.470366,
            22.843086
          ],
          [
            120.470271,
            22.842986
          ],
          [
            120.470015,
            22.842652
          ],
          [
            120.469811,
            22.84238
          ],
          [
            120.469653,
            22.842185
          ],
          [
            120.469506,
            22.842
          ],
          [
            120.469351,
            22.841828
          ],
          [
            120.469063,
            22.841585
          ],
          [
            120.468614,
            22.841178
          ],
          [
            120.468504,
            22.84106
          ],
          [
            120.467821,
            22.840219
          ],
          [
            120.467492,
            22.839801
          ],
          [
            120.467343,
            22.839664
          ],
          [
            120.467262,
            22.839576
          ],
          [
            120.467216,
            22.839481
          ],
          [
            120.467118,
            22.839318
          ],
          [
            120.467049,
            22.839226
          ],
          [
            120.466995,
            22.839149
          ],
          [
            120.466727,
            22.838743
          ],
          [
            120.466405,
            22.83831
          ],
          [
            120.466259,
            22.838123
          ],
          [
            120.46587,
            22.837537
          ],
          [
            120.466259,
            22.838123
          ],
          [
            120.466405,
            22.83831
          ],
          [
            120.466727,
            22.838743
          ],
          [
            120.466995,
            22.839149
          ],
          [
            120.467049,
            22.839226
          ],
          [
            120.467118,
            22.839318
          ],
          [
            120.467216,
            22.839481
          ],
          [
            120.467262,
            22.839576
          ],
          [
            120.467343,
            22.839664
          ],
          [
            120.467492,
            22.839801
          ],
          [
            120.467821,
            22.840219
          ],
          [
            120.468504,
            22.84106
          ],
          [
            120.468614,
            22.841178
          ],
          [
            120.469063,
            22.841585
          ],
          [
            120.469351,
            22.841828
          ],
          [
            120.469506,
            22.842
          ],
          [
            120.469653,
            22.842185
          ],
          [
            120.469811,
            22.84238
          ],
          [
            120.470015,
            22.842652
          ],
          [
            120.470271,
            22.842986
          ],
          [
            120.470651,
            22.842835
          ],
          [
            120.470271,
            22.842986
          ],
          [
            120.470366,
            22.843086
          ],
          [
            120.47055,
            22.843255
          ],
          [
            120.470714,
            22.843403
          ],
          [
            120.470914,
            22.843561
          ],
          [
            120.471232,
            22.843866
          ],
          [
            120.471448,
            22.844022
          ],
          [
            120.47177,
            22.844208
          ],
          [
            120.471871,
            22.84418
          ],
          [
            120.47177,
            22.844208
          ],
          [
            120.472015,
            22.844341
          ],
          [
            120.472111,
            22.844426
          ],
          [
            120.472224,
            22.844579
          ],
          [
            120.472312,
            22.844674
          ],
          [
            120.472401,
            22.84478
          ],
          [
            120.472898,
            22.845086
          ],
          [
            120.473284,
            22.845324
          ],
          [
            120.473866,
            22.845683
          ],
          [
            120.473969,
            22.845747
          ],
          [
            120.474266,
            22.845934
          ],
          [
            120.474288,
            22.845963
          ],
          [
            120.474294,
            22.846001
          ],
          [
            120.474276,
            22.846054
          ],
          [
            120.474214,
            22.846154
          ],
          [
            120.473856,
            22.846531
          ],
          [
            120.473843,
            22.847057
          ],
          [
            120.473834,
            22.847834
          ],
          [
            120.473842,
            22.848523
          ],
          [
            120.473837,
            22.848847
          ],
          [
            120.473813,
            22.84906
          ],
          [
            120.473141,
            22.84893
          ],
          [
            120.472807,
            22.848846
          ],
          [
            120.472166,
            22.848683
          ],
          [
            120.472098,
            22.848514
          ],
          [
            120.472089,
            22.848426
          ],
          [
            120.472106,
            22.848314
          ],
          [
            120.472214,
            22.84745
          ],
          [
            120.47228,
            22.846934
          ],
          [
            120.472341,
            22.846527
          ],
          [
            120.472345,
            22.846432
          ],
          [
            120.47234,
            22.846368
          ],
          [
            120.472281,
            22.846303
          ],
          [
            120.471964,
            22.845827
          ],
          [
            120.471851,
            22.845722
          ],
          [
            120.471634,
            22.845609
          ],
          [
            120.47148,
            22.845548
          ],
          [
            120.471296,
            22.845449
          ],
          [
            120.470939,
            22.845245
          ],
          [
            120.470498,
            22.84497
          ],
          [
            120.469618,
            22.84426
          ],
          [
            120.469476,
            22.844482
          ],
          [
            120.469618,
            22.84426
          ],
          [
            120.469223,
            22.84392
          ],
          [
            120.46891,
            22.843577
          ],
          [
            120.46881,
            22.843463
          ],
          [
            120.468453,
            22.843021
          ],
          [
            120.468263,
            22.842797
          ],
          [
            120.468152,
            22.842671
          ],
          [
            120.46805,
            22.842529
          ],
          [
            120.46773,
            22.842093
          ],
          [
            120.467582,
            22.842028
          ],
          [
            120.467447,
            22.841756
          ],
          [
            120.467323,
            22.841639
          ],
          [
            120.466874,
            22.841198
          ],
          [
            120.466577,
            22.840917
          ],
          [
            120.46637,
            22.840754
          ],
          [
            120.4662,
            22.840667
          ],
          [
            120.466063,
            22.840576
          ],
          [
            120.465916,
            22.840444
          ],
          [
            120.465743,
            22.840238
          ],
          [
            120.465341,
            22.839871
          ],
          [
            120.465028,
            22.839536
          ],
          [
            120.464944,
            22.839472
          ],
          [
            120.464871,
            22.83945
          ],
          [
            120.464058,
            22.839482
          ],
          [
            120.463239,
            22.839555
          ],
          [
            120.463722,
            22.84119
          ],
          [
            120.464235,
            22.842865
          ],
          [
            120.464308,
            22.843091
          ],
          [
            120.464327,
            22.843151
          ],
          [
            120.464577,
            22.843974
          ],
          [
            120.465081,
            22.845578
          ],
          [
            120.465182,
            22.845916
          ],
          [
            120.465198,
            22.845968
          ],
          [
            120.465533,
            22.847047
          ],
          [
            120.465626,
            22.847359
          ],
          [
            120.465787,
            22.847774
          ],
          [
            120.465792,
            22.847786
          ],
          [
            120.466014,
            22.848316
          ],
          [
            120.466035,
            22.848362
          ],
          [
            120.466073,
            22.848449
          ],
          [
            120.466127,
            22.848438
          ],
          [
            120.466244,
            22.848391
          ],
          [
            120.466509,
            22.848366
          ],
          [
            120.466547,
            22.848366
          ],
          [
            120.466927,
            22.848362
          ],
          [
            120.467237,
            22.848297
          ],
          [
            120.467274,
            22.848288
          ],
          [
            120.467605,
            22.848173
          ],
          [
            120.467769,
            22.84809
          ],
          [
            120.46781,
            22.848067
          ],
          [
            120.467829,
            22.848027
          ],
          [
            120.467781,
            22.847724
          ],
          [
            120.467747,
            22.847599
          ],
          [
            120.467624,
            22.847329
          ],
          [
            120.467477,
            22.847202
          ],
          [
            120.467403,
            22.847147
          ],
          [
            120.467267,
            22.847142
          ],
          [
            120.467008,
            22.847204
          ],
          [
            120.466919,
            22.847199
          ],
          [
            120.466882,
            22.847125
          ],
          [
            120.46686,
            22.847082
          ],
          [
            120.466859,
            22.846809
          ],
          [
            120.466902,
            22.846567
          ],
          [
            120.467053,
            22.846624
          ],
          [
            120.46729,
            22.846701
          ],
          [
            120.46753,
            22.846743
          ],
          [
            120.467989,
            22.846789
          ],
          [
            120.468371,
            22.84688
          ],
          [
            120.468877,
            22.847042
          ],
          [
            120.469055,
            22.847132
          ],
          [
            120.469138,
            22.847167
          ],
          [
            120.469176,
            22.847175
          ],
          [
            120.469345,
            22.847155
          ],
          [
            120.469628,
            22.847144
          ],
          [
            120.469989,
            22.847249
          ],
          [
            120.469982,
            22.847316
          ],
          [
            120.46997,
            22.847442
          ],
          [
            120.46997,
            22.84753
          ],
          [
            120.469995,
            22.847564
          ],
          [
            120.470069,
            22.847607
          ],
          [
            120.470633,
            22.847754
          ],
          [
            120.470882,
            22.847854
          ],
          [
            120.471218,
            22.848018
          ],
          [
            120.472098,
            22.848514
          ],
          [
            120.472166,
            22.848683
          ],
          [
            120.472236,
            22.848905
          ],
          [
            120.472329,
            22.849053
          ],
          [
            120.473035,
            22.849994
          ],
          [
            120.473209,
            22.849873
          ],
          [
            120.473689,
            22.84954
          ],
          [
            120.474181,
            22.849204
          ],
          [
            120.474454,
            22.849274
          ],
          [
            120.474554,
            22.849299
          ],
          [
            120.474759,
            22.849352
          ],
          [
            120.4749,
            22.849388
          ],
          [
            120.475374,
            22.849509
          ],
          [
            120.475451,
            22.849528
          ],
          [
            120.475455,
            22.849365
          ],
          [
            120.475456,
            22.849315
          ],
          [
            120.475435,
            22.849103
          ],
          [
            120.475385,
            22.84888
          ],
          [
            120.475381,
            22.848814
          ],
          [
            120.475455,
            22.848346
          ],
          [
            120.474913,
            22.848711
          ],
          [
            120.47486,
            22.848746
          ],
          [
            120.474751,
            22.84882
          ],
          [
            120.474181,
            22.849204
          ],
          [
            120.473689,
            22.84954
          ],
          [
            120.473035,
            22.849994
          ],
          [
            120.47323,
            22.85047
          ],
          [
            120.473616,
            22.851355
          ],
          [
            120.473751,
            22.851669
          ],
          [
            120.47385,
            22.852012
          ],
          [
            120.473878,
            22.852148
          ],
          [
            120.473737,
            22.852241
          ],
          [
            120.473878,
            22.852148
          ],
          [
            120.473901,
            22.852344
          ],
          [
            120.473919,
            22.852474
          ],
          [
            120.473952,
            22.852597
          ],
          [
            120.473996,
            22.852698
          ],
          [
            120.474185,
            22.853157
          ],
          [
            120.474303,
            22.853434
          ],
          [
            120.47397,
            22.85356
          ],
          [
            120.47384,
            22.853639
          ],
          [
            120.473771,
            22.853755
          ],
          [
            120.473753,
            22.853773
          ],
          [
            120.473734,
            22.853792
          ],
          [
            120.473519,
            22.853886
          ],
          [
            120.473271,
            22.854021
          ],
          [
            120.473222,
            22.854081
          ],
          [
            120.472723,
            22.853358
          ],
          [
            120.473222,
            22.854081
          ],
          [
            120.473076,
            22.854339
          ],
          [
            120.472983,
            22.854405
          ],
          [
            120.472737,
            22.854457
          ],
          [
            120.472697,
            22.854466
          ],
          [
            120.472692,
            22.854394
          ],
          [
            120.472697,
            22.854466
          ],
          [
            120.472498,
            22.854549
          ],
          [
            120.472437,
            22.855019
          ],
          [
            120.472413,
            22.855224
          ],
          [
            120.472391,
            22.85536
          ],
          [
            120.472399,
            22.855427
          ],
          [
            120.472419,
            22.855529
          ],
          [
            120.472586,
            22.855519
          ],
          [
            120.472458,
            22.855625
          ],
          [
            120.472458,
            22.855625
          ],
          [
            120.472586,
            22.855519
          ],
          [
            120.4731,
            22.855489
          ],
          [
            120.473328,
            22.855497
          ],
          [
            120.473373,
            22.855471
          ],
          [
            120.473548,
            22.855649
          ],
          [
            120.473677,
            22.855908
          ],
          [
            120.473859,
            22.856363
          ],
          [
            120.474017,
            22.856299
          ],
          [
            120.473992,
            22.856174
          ],
          [
            120.473968,
            22.856018
          ],
          [
            120.473962,
            22.855446
          ],
          [
            120.473971,
            22.855246
          ],
          [
            120.473991,
            22.855145
          ],
          [
            120.474193,
            22.854601
          ],
          [
            120.474346,
            22.854681
          ],
          [
            120.47447,
            22.854707
          ],
          [
            120.474598,
            22.854707
          ],
          [
            120.474757,
            22.854707
          ],
          [
            120.474824,
            22.854716
          ],
          [
            120.474927,
            22.854759
          ],
          [
            120.475305,
            22.854915
          ],
          [
            120.475369,
            22.854932
          ],
          [
            120.475462,
            22.854934
          ],
          [
            120.475536,
            22.854928
          ],
          [
            120.475975,
            22.854814
          ],
          [
            120.476339,
            22.8547
          ],
          [
            120.476587,
            22.854589
          ],
          [
            120.476893,
            22.85437
          ],
          [
            120.476972,
            22.854335
          ],
          [
            120.477082,
            22.854315
          ],
          [
            120.477188,
            22.854309
          ],
          [
            120.477638,
            22.854397
          ],
          [
            120.477652,
            22.854402
          ],
          [
            120.477719,
            22.854237
          ],
          [
            120.477728,
            22.854113
          ],
          [
            120.477719,
            22.853497
          ],
          [
            120.477737,
            22.853308
          ],
          [
            120.477847,
            22.852867
          ],
          [
            120.477843,
            22.85276
          ],
          [
            120.477847,
            22.852645
          ],
          [
            120.477934,
            22.852205
          ],
          [
            120.478063,
            22.851556
          ],
          [
            120.478063,
            22.851448
          ],
          [
            120.478041,
            22.851243
          ],
          [
            120.477941,
            22.850992
          ],
          [
            120.477619,
            22.850976
          ],
          [
            120.477484,
            22.851028
          ],
          [
            120.47738,
            22.851048
          ],
          [
            120.477297,
            22.851037
          ],
          [
            120.47721,
            22.851011
          ],
          [
            120.477135,
            22.851
          ],
          [
            120.477147,
            22.851096
          ],
          [
            120.47711,
            22.85125
          ],
          [
            120.476928,
            22.851772
          ],
          [
            120.476789,
            22.852243
          ],
          [
            120.476767,
            22.852316
          ],
          [
            120.476702,
            22.852424
          ],
          [
            120.476634,
            22.852469
          ],
          [
            120.476581,
            22.85249
          ],
          [
            120.476526,
            22.852488
          ],
          [
            120.476446,
            22.852476
          ],
          [
            120.475876,
            22.852288
          ],
          [
            120.475753,
            22.852271
          ],
          [
            120.475543,
            22.852276
          ],
          [
            120.475483,
            22.852285
          ],
          [
            120.474926,
            22.852369
          ],
          [
            120.474865,
            22.852361
          ],
          [
            120.474475,
            22.852041
          ],
          [
            120.474363,
            22.851899
          ],
          [
            120.474261,
            22.851768
          ],
          [
            120.474225,
            22.851819
          ],
          [
            120.473901,
            22.852344
          ],
          [
            120.473919,
            22.852474
          ],
          [
            120.473952,
            22.852597
          ],
          [
            120.473996,
            22.852698
          ],
          [
            120.474185,
            22.853157
          ],
          [
            120.474303,
            22.853434
          ],
          [
            120.474428,
            22.853682
          ],
          [
            120.474463,
            22.853782
          ],
          [
            120.47446,
            22.853874
          ],
          [
            120.474427,
            22.853958
          ],
          [
            120.474303,
            22.854276
          ],
          [
            120.474193,
            22.854601
          ],
          [
            120.473991,
            22.855145
          ],
          [
            120.473971,
            22.855246
          ],
          [
            120.473962,
            22.855446
          ],
          [
            120.473968,
            22.856018
          ],
          [
            120.473992,
            22.856174
          ],
          [
            120.474017,
            22.856299
          ],
          [
            120.47426,
            22.857406
          ],
          [
            120.474269,
            22.857471
          ],
          [
            120.475085,
            22.857259
          ],
          [
            120.475584,
            22.857122
          ],
          [
            120.47609,
            22.857057
          ],
          [
            120.476437,
            22.857021
          ],
          [
            120.476357,
            22.85658
          ]
        ]
      },
      "properties": {
        "routeId": "kaohsiung-kep-5759-5f2222",
        "city": "kaohsiung",
        "source_file": "kaohsiung/kaohsiung-kep-5759-5f2222.geojson",
        "distance_km": 51.691,
        "duration_min": 70.52426666666666,
        "valhalla_config": "valhalla.json"
      }
    }
  ]
}