{
  "type": "FeatureCollection",
  "features": [
    {
      "type": "Feature",
      "geometry": {
        "type": "LineString",
        "coordinates": [
          [
            120.417667,
            22.640695
          ],
          [
            120.417342,
            22.641565
          ],
          [
            120.41805,
            22.641397
          ],
          [
            120.418437,
            22.641305
          ],
          [
            120.418461,
            22.641383
          ],
          [
            120.41847,
            22.641414
          ],
          [
            120.418461,
            22.641905
          ],
          [
            120.418456,
            22.642012
          ],
          [
            120.418617,
            22.642301
          ],
          [
            120.418646,
            22.642349
          ],
          [
            120.418821,
            22.642695
          ],
          [
            120.419034,
            22.643081
          ],
          [
            120.419424,
            22.644156
          ],
          [
            120.419478,
            22.644318
          ],
          [
            120.419424,
            22.644156
          ],
          [
            120.419034,
            22.643081
          ],
          [
            120.418821,
            22.642695
          ],
          [
            120.418794,
            22.642642
          ],
          [
            120.418646,
            22.642349
          ],
          [
            120.418617,
            22.642301
          ],
          [
            120.418456,
            22.642012
          ],
          [
            120.418881,
            22.642086
          ],
          [
            120.418926,
            22.642095
          ],
          [
            120.419962,
            22.642301
          ],
          [
            120.420487,
            22.64248
          ],
          [
            120.420688,
            22.642552
          ],
          [
            120.420992,
            22.64266
          ],
          [
            120.421113,
            22.642392
          ],
          [
            120.421194,
            22.642212
          ],
          [
            120.421297,
            22.642238
          ],
          [
            120.421528,
            22.64227
          ],
          [
            120.421889,
            22.642319
          ],
          [
            120.421904,
            22.642175
          ],
          [
            120.421926,
            22.641922
          ],
          [
            120.421938,
            22.641679
          ],
          [
            120.421943,
            22.641576
          ],
          [
            120.421974,
            22.641431
          ],
          [
            120.421721,
            22.641268
          ],
          [
            120.421599,
            22.641241
          ],
          [
            120.42128,
            22.641044
          ],
          [
            120.42136,
            22.641006
          ],
          [
            120.421317,
            22.640964
          ],
          [
            120.421298,
            22.6409
          ],
          [
            120.421312,
            22.640811
          ],
          [
            120.421349,
            22.640732
          ],
          [
            120.421411,
            22.640641
          ],
          [
            120.421477,
            22.640531
          ],
          [
            120.421552,
            22.640384
          ],
          [
            120.421625,
            22.640262
          ],
          [
            120.421691,
            22.640139
          ],
          [
            120.421755,
            22.640125
          ],
          [
            120.421799,
            22.640111
          ],
          [
            120.421755,
            22.640125
          ],
          [
            120.421691,
            22.640139
          ],
          [
            120.421625,
            22.640262
          ],
          [
            120.421552,
            22.640384
          ],
          [
            120.421477,
            22.640531
          ],
          [
            120.421638,
            22.640609
          ],
          [
            120.42155,
            22.64079
          ],
          [
            120.421535,
            22.64087
          ],
          [
            120.421532,
            22.640928
          ],
          [
            120.42163,
            22.640903
          ],
          [
            120.421733,
            22.640901
          ],
          [
            120.421845,
            22.640925
          ],
          [
            120.421861,
            22.640933
          ],
          [
            120.42195,
            22.640979
          ],
          [
            120.422102,
            22.641067
          ],
          [
            120.422157,
            22.640984
          ],
          [
            120.422102,
            22.641067
          ],
          [
            120.422295,
            22.64117
          ],
          [
            120.42202,
            22.641392
          ],
          [
            120.421974,
            22.641431
          ],
          [
            120.421943,
            22.641576
          ],
          [
            120.421938,
            22.641679
          ],
          [
            120.421926,
            22.641922
          ],
          [
            120.421904,
            22.642175
          ],
          [
            120.421889,
            22.642319
          ],
          [
            120.421528,
            22.64227
          ],
          [
            120.421297,
            22.642238
          ],
          [
            120.421194,
            22.642212
          ],
          [
            120.420908,
            22.642117
          ],
          [
            120.420856,
            22.6421
          ],
          [
            120.420792,
            22.642273
          ],
          [
            120.420856,
            22.6421
          ],
          [
            120.42075,
            22.642064
          ],
          [
            120.420856,
            22.6421
          ],
          [
            120.420908,
            22.642117
          ],
          [
            120.421076,
            22.64156
          ],
          [
            120.421007,
            22.641554
          ],
          [
            120.42093,
            22.641561
          ],
          [
            120.420908,
            22.641563
          ],
          [
            120.420849,
            22.641578
          ],
          [
            120.42079,
            22.641588
          ],
          [
            120.420734,
            22.641588
          ],
          [
            120.420592,
            22.641586
          ],
          [
            120.420471,
            22.641591
          ],
          [
            120.420244,
            22.641535
          ],
          [
            120.420268,
            22.641454
          ],
          [
            120.420276,
            22.641427
          ],
          [
            120.420308,
            22.641359
          ],
          [
            120.420542,
            22.641211
          ],
          [
            120.4207,
            22.641118
          ],
          [
            120.420869,
            22.641032
          ],
          [
            120.420837,
            22.640996
          ],
          [
            120.420812,
            22.64093
          ],
          [
            120.420778,
            22.640826
          ],
          [
            120.420748,
            22.640728
          ],
          [
            120.4207,
            22.64059
          ],
          [
            120.420975,
            22.64021
          ],
          [
            120.420882,
            22.640148
          ],
          [
            120.420975,
            22.64021
          ],
          [
            120.421191,
            22.639901
          ],
          [
            120.421163,
            22.639889
          ],
          [
            120.421235,
            22.639773
          ],
          [
            120.421163,
            22.639889
          ],
          [
            120.421191,
            22.639901
          ],
          [
            120.421298,
            22.639947
          ],
          [
            120.421463,
            22.640021
          ],
          [
            120.421465,
            22.640022
          ],
          [
            120.421691,
            22.640139
          ],
          [
            120.421625,
            22.640262
          ],
          [
            120.421552,
            22.640384
          ],
          [
            120.421477,
            22.640531
          ],
          [
            120.421567,
            22.640574
          ],
          [
            120.421638,
            22.640609
          ],
          [
            120.421568,
            22.640752
          ],
          [
            120.421638,
            22.640609
          ],
          [
            120.421477,
            22.640531
          ],
          [
            120.421552,
            22.640384
          ],
          [
            120.421625,
            22.640262
          ],
          [
            120.421691,
            22.640139
          ],
          [
            120.421755,
            22.640125
          ],
          [
            120.421833,
            22.6401
          ],
          [
            120.421922,
            22.640052
          ],
          [
            120.422032,
            22.639966
          ],
          [
            120.422122,
            22.63986
          ],
          [
            120.422215,
            22.639761
          ],
          [
            120.422294,
            22.639682
          ],
          [
            120.422369,
            22.639628
          ],
          [
            120.422489,
            22.639546
          ],
          [
            120.422574,
            22.63949
          ],
          [
            120.422656,
            22.639461
          ],
          [
            120.422722,
            22.639404
          ],
          [
            120.422726,
            22.639334
          ],
          [
            120.422787,
            22.639309
          ],
          [
            120.422848,
            22.639289
          ],
          [
            120.422889,
            22.639318
          ],
          [
            120.422961,
            22.63946
          ],
          [
            120.423087,
            22.639682
          ],
          [
            120.42321,
            22.639893
          ],
          [
            120.423382,
            22.64017
          ],
          [
            120.423495,
            22.640397
          ],
          [
            120.423607,
            22.640551
          ],
          [
            120.423741,
            22.640744
          ],
          [
            120.42383,
            22.640908
          ],
          [
            120.42391,
            22.641036
          ],
          [
            120.423935,
            22.641071
          ],
          [
            120.423957,
            22.641104
          ],
          [
            120.424021,
            22.641201
          ],
          [
            120.424089,
            22.641286
          ],
          [
            120.423946,
            22.641344
          ],
          [
            120.423856,
            22.641345
          ],
          [
            120.423756,
            22.64134
          ],
          [
            120.423674,
            22.641322
          ],
          [
            120.423585,
            22.641464
          ],
          [
            120.423586,
            22.64147
          ],
          [
            120.423585,
            22.641464
          ],
          [
            120.423674,
            22.641322
          ],
          [
            120.423521,
            22.64129
          ],
          [
            120.423381,
            22.641298
          ],
          [
            120.423162,
            22.641346
          ],
          [
            120.423095,
            22.641356
          ],
          [
            120.422983,
            22.641356
          ],
          [
            120.422898,
            22.641324
          ],
          [
            120.422456,
            22.641191
          ],
          [
            120.422295,
            22.64117
          ],
          [
            120.422102,
            22.641067
          ],
          [
            120.42195,
            22.640979
          ],
          [
            120.421845,
            22.640925
          ],
          [
            120.421733,
            22.640901
          ],
          [
            120.42163,
            22.640903
          ],
          [
            120.421532,
            22.640928
          ],
          [
            120.42136,
            22.641006
          ],
          [
            120.42128,
            22.641044
          ],
          [
            120.421171,
            22.641082
          ],
          [
            120.421081,
            22.641087
          ],
          [
            120.421006,
            22.641078
          ],
          [
            120.420932,
            22.641058
          ],
          [
            120.420869,
            22.641032
          ],
          [
            120.420837,
            22.640996
          ],
          [
            120.420812,
            22.64093
          ],
          [
            120.420778,
            22.640826
          ],
          [
            120.420748,
            22.640728
          ],
          [
            120.4207,
            22.64059
          ],
          [
            120.420678,
            22.64056
          ],
          [
            120.420453,
            22.640405
          ],
          [
            120.420286,
            22.640296
          ],
          [
            120.420252,
            22.640275
          ],
          [
            120.420005,
            22.640146
          ],
          [
            120.41996,
            22.640111
          ],
          [
            120.419898,
            22.640025
          ],
          [
            120.419836,
            22.639978
          ],
          [
            120.419627,
            22.639874
          ],
          [
            120.419278,
            22.639703
          ],
          [
            120.419198,
            22.639928
          ],
          [
            120.419102,
            22.640225
          ],
          [
            120.419198,
            22.639928
          ],
          [
            120.419278,
            22.639703
          ],
          [
            120.418879,
            22.639487
          ],
          [
            120.418587,
            22.639353
          ],
          [
            120.418409,
            22.63927
          ],
          [
            120.418432,
            22.639192
          ],
          [
            120.418479,
            22.639032
          ],
          [
            120.418641,
            22.638472
          ],
          [
            120.418809,
            22.637872
          ],
          [
            120.418892,
            22.637581
          ],
          [
            120.418991,
            22.637155
          ],
          [
            120.419117,
            22.63672
          ],
          [
            120.419257,
            22.636223
          ],
          [
            120.419828,
            22.634333
          ],
          [
            120.419705,
            22.634119
          ],
          [
            120.419235,
            22.630837
          ],
          [
            120.419198,
            22.630657
          ],
          [
            120.419066,
            22.630331
          ],
          [
            120.418766,
            22.629589
          ],
          [
            120.418732,
            22.629526
          ],
          [
            120.418677,
            22.629469
          ],
          [
            120.418609,
            22.629427
          ],
          [
            120.418486,
            22.629362
          ],
          [
            120.41837,
            22.629443
          ],
          [
            120.418119,
            22.629528
          ],
          [
            120.417953,
            22.629534
          ],
          [
            120.417759,
            22.629535
          ],
          [
            120.417694,
            22.629002
          ],
          [
            120.417701,
            22.628947
          ],
          [
            120.417763,
            22.628763
          ],
          [
            120.417744,
            22.628514
          ],
          [
            120.417674,
            22.627926
          ],
          [
            120.417642,
            22.627886
          ],
          [
            120.416591,
            22.627028
          ],
          [
            120.416549,
            22.626969
          ],
          [
            120.416503,
            22.626712
          ],
          [
            120.416354,
            22.625641
          ],
          [
            120.416107,
            22.623872
          ],
          [
            120.417159,
            22.623739
          ],
          [
            120.417695,
            22.623686
          ],
          [
            120.418111,
            22.623654
          ],
          [
            120.418273,
            22.623632
          ],
          [
            120.419023,
            22.623533
          ],
          [
            120.419256,
            22.625224
          ],
          [
            120.419425,
            22.625997
          ],
          [
            120.419362,
            22.626063
          ],
          [
            120.419172,
            22.626088
          ],
          [
            120.419082,
            22.626096
          ],
          [
            120.418986,
            22.626081
          ],
          [
            120.418868,
            22.626014
          ],
          [
            120.418519,
            22.626087
          ],
          [
            120.41823,
            22.626148
          ],
          [
            120.418311,
            22.626697
          ],
          [
            120.418409,
            22.626636
          ],
          [
            120.418565,
            22.626588
          ],
          [
            120.418683,
            22.626551
          ],
          [
            120.418821,
            22.626539
          ],
          [
            120.419003,
            22.626521
          ],
          [
            120.419384,
            22.626414
          ],
          [
            120.419423,
            22.626409
          ],
          [
            120.419546,
            22.626395
          ],
          [
            120.419658,
            22.626393
          ],
          [
            120.419727,
            22.626417
          ],
          [
            120.419828,
            22.6265
          ],
          [
            120.419955,
            22.626536
          ],
          [
            120.419942,
            22.626631
          ],
          [
            120.419975,
            22.626685
          ],
          [
            120.419759,
            22.62688
          ],
          [
            120.419975,
            22.626685
          ],
          [
            120.42036,
            22.626923
          ],
          [
            120.420419,
            22.626935
          ],
          [
            120.42072,
            22.626874
          ],
          [
            120.420943,
            22.626809
          ],
          [
            120.421171,
            22.626713
          ],
          [
            120.420943,
            22.626809
          ],
          [
            120.42072,
            22.626874
          ],
          [
            120.420419,
            22.626935
          ],
          [
            120.42036,
            22.626923
          ],
          [
            120.419975,
            22.626685
          ],
          [
            120.419728,
            22.626908
          ],
          [
            120.419329,
            22.627286
          ],
          [
            120.419221,
            22.627297
          ],
          [
            120.41903,
            22.62722
          ],
          [
            120.418874,
            22.627203
          ],
          [
            120.418702,
            22.627278
          ],
          [
            120.418451,
            22.627323
          ],
          [
            120.418197,
            22.6274
          ],
          [
            120.418142,
            22.627443
          ],
          [
            120.418117,
            22.627491
          ],
          [
            120.418117,
            22.627548
          ],
          [
            120.418117,
            22.627491
          ],
          [
            120.418142,
            22.627443
          ],
          [
            120.418197,
            22.6274
          ],
          [
            120.418451,
            22.627323
          ],
          [
            120.41822,
            22.626803
          ],
          [
            120.417652,
            22.626984
          ],
          [
            120.417545,
            22.626971
          ],
          [
            120.417325,
            22.626913
          ],
          [
            120.416503,
            22.626712
          ],
          [
            120.416107,
            22.623872
          ],
          [
            120.417159,
            22.623739
          ],
          [
            120.417695,
            22.623686
          ],
          [
            120.418111,
            22.623654
          ],
          [
            120.419023,
            22.623533
          ],
          [
            120.42084,
            22.623295
          ],
          [
            120.421422,
            22.623245
          ],
          [
            120.423026,
            22.623034
          ],
          [
            120.423058,
            22.622972
          ],
          [
            120.423108,
            22.622614
          ],
          [
            120.423058,
            22.622972
          ],
          [
            120.423026,
            22.623034
          ],
          [
            120.421422,
            22.623245
          ],
          [
            120.42084,
            22.623295
          ],
          [
            120.421108,
            22.625089
          ],
          [
            120.42112,
            22.625241
          ],
          [
            120.421105,
            22.625443
          ],
          [
            120.420967,
            22.626403
          ],
          [
            120.420376,
            22.626462
          ],
          [
            120.420231,
            22.626484
          ],
          [
            120.419955,
            22.626536
          ],
          [
            120.419942,
            22.626631
          ],
          [
            120.419975,
            22.626685
          ],
          [
            120.419728,
            22.626908
          ],
          [
            120.41941,
            22.627209
          ],
          [
            120.419728,
            22.626908
          ],
          [
            120.419975,
            22.626685
          ],
          [
            120.42036,
            22.626923
          ],
          [
            120.419855,
            22.627407
          ],
          [
            120.41933,
            22.627911
          ],
          [
            120.419241,
            22.627817
          ],
          [
            120.419149,
            22.627709
          ],
          [
            120.419066,
            22.627598
          ],
          [
            120.419131,
            22.627557
          ],
          [
            120.41921,
            22.627371
          ],
          [
            120.419221,
            22.627297
          ],
          [
            120.41903,
            22.62722
          ],
          [
            120.418874,
            22.627203
          ],
          [
            120.418702,
            22.627278
          ],
          [
            120.418451,
            22.627323
          ],
          [
            120.418197,
            22.6274
          ],
          [
            120.418142,
            22.627443
          ],
          [
            120.418117,
            22.627491
          ],
          [
            120.418117,
            22.627559
          ],
          [
            120.41815,
            22.627735
          ],
          [
            120.418193,
            22.627967
          ],
          [
            120.41815,
            22.627735
          ],
          [
            120.418117,
            22.627559
          ],
          [
            120.418117,
            22.627491
          ],
          [
            120.418142,
            22.627443
          ],
          [
            120.418197,
            22.6274
          ],
          [
            120.418451,
            22.627323
          ],
          [
            120.418702,
            22.627278
          ],
          [
            120.418874,
            22.627203
          ],
          [
            120.41903,
            22.62722
          ],
          [
            120.419221,
            22.627297
          ],
          [
            120.41921,
            22.627371
          ],
          [
            120.419131,
            22.627557
          ],
          [
            120.419066,
            22.627598
          ],
          [
            120.419149,
            22.627709
          ],
          [
            120.419241,
            22.627817
          ],
          [
            120.41933,
            22.627911
          ],
          [
            120.419515,
            22.62806
          ],
          [
            120.419627,
            22.628207
          ],
          [
            120.419675,
            22.628362
          ],
          [
            120.419864,
            22.62818
          ],
          [
            120.420039,
            22.628105
          ],
          [
            120.420111,
            22.628066
          ],
          [
            120.420206,
            22.627984
          ],
          [
            120.420479,
            22.627718
          ],
          [
            120.420492,
            22.627708
          ],
          [
            120.420479,
            22.627718
          ],
          [
            120.420206,
            22.627984
          ],
          [
            120.420111,
            22.628066
          ],
          [
            120.420039,
            22.628105
          ],
          [
            120.419864,
            22.62818
          ],
          [
            120.419675,
            22.628362
          ],
          [
            120.419727,
            22.628643
          ],
          [
            120.419729,
            22.628759
          ],
          [
            120.419724,
            22.628916
          ],
          [
            120.419698,
            22.628956
          ],
          [
            120.419505,
            22.628946
          ],
          [
            120.419206,
            22.628942
          ],
          [
            120.418997,
            22.628939
          ],
          [
            120.418937,
            22.628954
          ],
          [
            120.418854,
            22.628992
          ],
          [
            120.41874,
            22.629082
          ],
          [
            120.418588,
            22.629239
          ],
          [
            120.418486,
            22.629362
          ],
          [
            120.41837,
            22.629443
          ],
          [
            120.418119,
            22.629528
          ],
          [
            120.417953,
            22.629534
          ],
          [
            120.417899,
            22.628968
          ],
          [
            120.417864,
            22.62857
          ],
          [
            120.418152,
            22.628537
          ],
          [
            120.417864,
            22.62857
          ],
          [
            120.417899,
            22.628968
          ],
          [
            120.417953,
            22.629534
          ],
          [
            120.418119,
            22.629528
          ],
          [
            120.41837,
            22.629443
          ],
          [
            120.418486,
            22.629362
          ],
          [
            120.418588,
            22.629239
          ],
          [
            120.41874,
            22.629082
          ],
          [
            120.418854,
            22.628992
          ],
          [
            120.418937,
            22.628954
          ],
          [
            120.418997,
            22.628939
          ],
          [
            120.419206,
            22.628942
          ],
          [
            120.419505,
            22.628946
          ],
          [
            120.419698,
            22.628956
          ],
          [
            120.41976,
            22.62906
          ],
          [
            120.419861,
            22.629239
          ],
          [
            120.41978,
            22.6293
          ],
          [
            120.419861,
            22.629239
          ],
          [
            120.420095,
            22.629578
          ],
          [
            120.420589,
            22.629747
          ],
          [
            120.420635,
            22.629763
          ],
          [
            120.421119,
            22.629882
          ],
          [
            120.421201,
            22.629606
          ],
          [
            120.421314,
            22.629163
          ],
          [
            120.421413,
            22.628737
          ],
          [
            120.421542,
            22.628462
          ],
          [
            120.421461,
            22.628383
          ],
          [
            120.421324,
            22.628297
          ],
          [
            120.421185,
            22.628205
          ],
          [
            120.421088,
            22.628187
          ],
          [
            120.421057,
            22.628189
          ],
          [
            120.420967,
            22.628196
          ],
          [
            120.420901,
            22.628249
          ],
          [
            120.420832,
            22.628305
          ],
          [
            120.420503,
            22.628774
          ],
          [
            120.420447,
            22.628811
          ],
          [
            120.420364,
            22.628817
          ],
          [
            120.420075,
            22.62882
          ],
          [
            120.420116,
            22.62876
          ],
          [
            120.420075,
            22.62882
          ],
          [
            120.419724,
            22.628916
          ],
          [
            120.419729,
            22.628759
          ],
          [
            120.419727,
            22.628643
          ],
          [
            120.419675,
            22.628362
          ],
          [
            120.419627,
            22.628207
          ],
          [
            120.419515,
            22.62806
          ],
          [
            120.41933,
            22.627911
          ],
          [
            120.419241,
            22.627817
          ],
          [
            120.419149,
            22.627709
          ],
          [
            120.419066,
            22.627598
          ],
          [
            120.419131,
            22.627557
          ],
          [
            120.41921,
            22.627371
          ],
          [
            120.419221,
            22.627297
          ],
          [
            120.41903,
            22.62722
          ],
          [
            120.418874,
            22.627203
          ],
          [
            120.418702,
            22.627278
          ],
          [
            120.418451,
            22.627323
          ],
          [
            120.41822,
            22.626803
          ],
          [
            120.417652,
            22.626984
          ],
          [
            120.417545,
            22.626971
          ],
          [
            120.417325,
            22.626913
          ],
          [
            120.416503,
            22.626712
          ],
          [
            120.414386,
            22.626178
          ],
          [
            120.413806,
            22.626025
          ],
          [
            120.412218,
            22.625636
          ],
          [
            120.411812,
            22.625533
          ],
          [
            120.411481,
            22.626658
          ],
          [
            120.411428,
            22.626866
          ],
          [
            120.411481,
            22.626658
          ],
          [
            120.411653,
            22.626073
          ],
          [
            120.411812,
            22.625533
          ],
          [
            120.41141,
            22.625549
          ],
          [
            120.411244,
            22.626128
          ],
          [
            120.41113,
            22.626445
          ],
          [
            120.411012,
            22.626733
          ],
          [
            120.410777,
            22.62722
          ],
          [
            120.410412,
            22.62785
          ],
          [
            120.409954,
            22.628473
          ],
          [
            120.409858,
            22.628589
          ],
          [
            120.409783,
            22.62868
          ],
          [
            120.409567,
            22.628939
          ],
          [
            120.408988,
            22.629511
          ],
          [
            120.407944,
            22.630547
          ],
          [
            120.407856,
            22.630634
          ],
          [
            120.40657,
            22.631866
          ],
          [
            120.404854,
            22.63356
          ],
          [
            120.40598,
            22.634482
          ],
          [
            120.407394,
            22.635745
          ],
          [
            120.406052,
            22.636808
          ],
          [
            120.406586,
            22.636913
          ],
          [
            120.408173,
            22.637225
          ],
          [
            120.409863,
            22.637572
          ],
          [
            120.40951,
            22.639031
          ],
          [
            120.409332,
            22.639766
          ],
          [
            120.409232,
            22.640228
          ],
          [
            120.409332,
            22.639766
          ],
          [
            120.409661,
            22.63983
          ],
          [
            120.409636,
            22.639934
          ],
          [
            120.409661,
            22.63983
          ],
          [
            120.411692,
            22.64022
          ],
          [
            120.41192,
            22.640264
          ],
          [
            120.413029,
            22.640355
          ],
          [
            120.413835,
            22.640417
          ],
          [
            120.413825,
            22.640566
          ],
          [
            120.413835,
            22.640417
          ],
          [
            120.412856,
            22.639738
          ],
          [
            120.411401,
            22.638644
          ],
          [
            120.411013,
            22.638352
          ],
          [
            120.410573,
            22.638051
          ],
          [
            120.410254,
            22.637832
          ],
          [
            120.410093,
            22.637722
          ],
          [
            120.410252,
            22.637535
          ],
          [
            120.410093,
            22.637722
          ],
          [
            120.409863,
            22.637572
          ],
          [
            120.409983,
            22.637028
          ],
          [
            120.410097,
            22.636821
          ],
          [
            120.409791,
            22.636491
          ],
          [
            120.409702,
            22.636417
          ],
          [
            120.40968,
            22.636399
          ],
          [
            120.409585,
            22.636347
          ],
          [
            120.409518,
            22.636311
          ],
          [
            120.409467,
            22.636293
          ],
          [
            120.409352,
            22.636276
          ],
          [
            120.409283,
            22.636252
          ],
          [
            120.409238,
            22.636207
          ],
          [
            120.40905,
            22.635991
          ],
          [
            120.409288,
            22.635718
          ],
          [
            120.409321,
            22.635705
          ],
          [
            120.409356,
            22.635711
          ],
          [
            120.409436,
            22.635758
          ],
          [
            120.409356,
            22.635711
          ],
          [
            120.409321,
            22.635705
          ],
          [
            120.409288,
            22.635718
          ],
          [
            120.40905,
            22.635991
          ],
          [
            120.409238,
            22.636207
          ],
          [
            120.409283,
            22.636252
          ],
          [
            120.409352,
            22.636276
          ],
          [
            120.409467,
            22.636293
          ],
          [
            120.409518,
            22.636311
          ],
          [
            120.409585,
            22.636347
          ],
          [
            120.40968,
            22.636399
          ],
          [
            120.409791,
            22.636491
          ],
          [
            120.410097,
            22.636821
          ],
          [
            120.410145,
            22.636733
          ],
          [
            120.410353,
            22.636405
          ],
          [
            120.410823,
            22.635627
          ],
          [
            120.41146,
            22.634775
          ],
          [
            120.411989,
            22.634141
          ],
          [
            120.410644,
            22.632944
          ],
          [
            120.407944,
            22.630547
          ],
          [
            120.407892,
            22.63044
          ],
          [
            120.407114,
            22.629761
          ],
          [
            120.407082,
            22.629791
          ],
          [
            120.405563,
            22.63126
          ],
          [
            120.404163,
            22.632637
          ],
          [
            120.404023,
            22.632545
          ],
          [
            120.403922,
            22.632478
          ],
          [
            120.402537,
            22.631522
          ],
          [
            120.401982,
            22.631739
          ],
          [
            120.401643,
            22.631866
          ],
          [
            120.401234,
            22.631998
          ],
          [
            120.400895,
            22.632089
          ],
          [
            120.400503,
            22.632162
          ],
          [
            120.400645,
            22.632605
          ],
          [
            120.400824,
            22.63316
          ],
          [
            120.400961,
            22.633115
          ],
          [
            120.400824,
            22.63316
          ],
          [
            120.400704,
            22.632789
          ],
          [
            120.400645,
            22.632605
          ],
          [
            120.400589,
            22.632431
          ],
          [
            120.400645,
            22.632605
          ],
          [
            120.400824,
            22.63316
          ],
          [
            120.400967,
            22.633606
          ],
          [
            120.400832,
            22.633623
          ],
          [
            120.400764,
            22.633809
          ],
          [
            120.40068,
            22.634036
          ],
          [
            120.400832,
            22.633623
          ],
          [
            120.400611,
            22.633629
          ],
          [
            120.400447,
            22.633637
          ],
          [
            120.400332,
            22.633663
          ],
          [
            120.400132,
            22.633739
          ],
          [
            120.399972,
            22.63375
          ],
          [
            120.399703,
            22.633693
          ],
          [
            120.399464,
            22.633586
          ],
          [
            120.399324,
            22.633884
          ],
          [
            120.399264,
            22.634093
          ],
          [
            120.39915,
            22.634245
          ],
          [
            120.399038,
            22.634248
          ],
          [
            120.398818,
            22.634279
          ],
          [
            120.398456,
            22.634349
          ],
          [
            120.398203,
            22.634412
          ],
          [
            120.397926,
            22.634451
          ],
          [
            120.39784,
            22.634455
          ],
          [
            120.397522,
            22.634453
          ],
          [
            120.397002,
            22.634448
          ],
          [
            120.396915,
            22.634448
          ],
          [
            120.396465,
            22.634448
          ],
          [
            120.396119,
            22.63441
          ],
          [
            120.396009,
            22.634727
          ],
          [
            120.395938,
            22.634931
          ],
          [
            120.39605,
            22.634949
          ],
          [
            120.395938,
            22.634931
          ],
          [
            120.395833,
            22.635223
          ],
          [
            120.395878,
            22.635249
          ],
          [
            120.395897,
            22.635268
          ],
          [
            120.395962,
            22.635334
          ],
          [
            120.396109,
            22.63539
          ],
          [
            120.396652,
            22.635425
          ],
          [
            120.396729,
            22.635496
          ],
          [
            120.396774,
            22.635558
          ],
          [
            120.396667,
            22.635943
          ],
          [
            120.396561,
            22.635963
          ],
          [
            120.396265,
            22.635889
          ],
          [
            120.396173,
            22.635866
          ],
          [
            120.39609,
            22.636179
          ],
          [
            120.396041,
            22.636362
          ],
          [
            120.395882,
            22.636919
          ],
          [
            120.396796,
            22.637168
          ],
          [
            120.396686,
            22.637581
          ],
          [
            120.39665,
            22.637698
          ],
          [
            120.396686,
            22.637581
          ],
          [
            120.396796,
            22.637168
          ],
          [
            120.396943,
            22.636644
          ],
          [
            120.397112,
            22.636042
          ],
          [
            120.396702,
            22.635936
          ],
          [
            120.396667,
            22.635943
          ],
          [
            120.396692,
            22.635854
          ],
          [
            120.396667,
            22.635943
          ],
          [
            120.396702,
            22.635936
          ],
          [
            120.397112,
            22.636042
          ],
          [
            120.398036,
            22.636281
          ],
          [
            120.398363,
            22.636365
          ],
          [
            120.398659,
            22.636441
          ],
          [
            120.399084,
            22.636531
          ],
          [
            120.399137,
            22.636542
          ],
          [
            120.399374,
            22.636592
          ],
          [
            120.399845,
            22.636691
          ],
          [
            120.399942,
            22.636396
          ],
          [
            120.400023,
            22.636238
          ],
          [
            120.400736,
            22.636057
          ],
          [
            120.400554,
            22.635605
          ],
          [
            120.400523,
            22.635522
          ],
          [
            120.400393,
            22.635174
          ],
          [
            120.40047,
            22.635149
          ],
          [
            120.400393,
            22.635174
          ],
          [
            120.400554,
            22.635605
          ],
          [
            120.400736,
            22.636057
          ],
          [
            120.400023,
            22.636238
          ],
          [
            120.399942,
            22.636396
          ],
          [
            120.399813,
            22.636366
          ],
          [
            120.399942,
            22.636396
          ],
          [
            120.400023,
            22.636238
          ],
          [
            120.400005,
            22.636103
          ],
          [
            120.39988,
            22.636076
          ],
          [
            120.400005,
            22.636103
          ],
          [
            120.399923,
            22.635784
          ],
          [
            120.399905,
            22.635712
          ],
          [
            120.399773,
            22.635737
          ],
          [
            120.399905,
            22.635712
          ],
          [
            120.399843,
            22.63549
          ],
          [
            120.399808,
            22.635364
          ],
          [
            120.399739,
            22.635235
          ],
          [
            120.399611,
            22.635139
          ],
          [
            120.399427,
            22.635138
          ],
          [
            120.399423,
            22.635014
          ],
          [
            120.399251,
            22.634708
          ],
          [
            120.39915,
            22.634245
          ],
          [
            120.399038,
            22.634248
          ],
          [
            120.398818,
            22.634279
          ],
          [
            120.398456,
            22.634349
          ],
          [
            120.398203,
            22.634412
          ],
          [
            120.397926,
            22.634451
          ],
          [
            120.39784,
            22.634455
          ],
          [
            120.397522,
            22.634453
          ],
          [
            120.397002,
            22.634448
          ],
          [
            120.396915,
            22.634448
          ],
          [
            120.396465,
            22.634448
          ],
          [
            120.396119,
            22.63441
          ],
          [
            120.395791,
            22.634333
          ],
          [
            120.395527,
            22.634264
          ],
          [
            120.395411,
            22.634244
          ],
          [
            120.395191,
            22.634223
          ],
          [
            120.395191,
            22.634045
          ],
          [
            120.395204,
            22.633968
          ],
          [
            120.395229,
            22.633906
          ],
          [
            120.395284,
            22.633819
          ],
          [
            120.395448,
            22.633577
          ],
          [
            120.395519,
            22.633476
          ],
          [
            120.395724,
            22.633183
          ],
          [
            120.395807,
            22.633054
          ],
          [
            120.395879,
            22.632945
          ],
          [
            120.395905,
            22.632903
          ],
          [
            120.395932,
            22.632859
          ],
          [
            120.395974,
            22.632711
          ],
          [
            120.395955,
            22.63247
          ],
          [
            120.39545,
            22.630654
          ],
          [
            120.395144,
            22.62948
          ],
          [
            120.394944,
            22.628669
          ],
          [
            120.394707,
            22.627854
          ],
          [
            120.39448,
            22.627035
          ],
          [
            120.394252,
            22.626205
          ],
          [
            120.394171,
            22.625887
          ],
          [
            120.39403,
            22.625408
          ],
          [
            120.394014,
            22.625313
          ],
          [
            120.394028,
            22.625169
          ],
          [
            120.394055,
            22.624998
          ],
          [
            120.394082,
            22.624891
          ],
          [
            120.394245,
            22.62471
          ],
          [
            120.39438,
            22.624598
          ],
          [
            120.394482,
            22.624473
          ],
          [
            120.394537,
            22.624388
          ],
          [
            120.39453,
            22.62436
          ],
          [
            120.394524,
            22.624085
          ],
          [
            120.3945,
            22.623406
          ],
          [
            120.394503,
            22.623355
          ],
          [
            120.394937,
            22.62355
          ],
          [
            120.394974,
            22.623603
          ],
          [
            120.394982,
            22.623935
          ],
          [
            120.394982,
            22.623935
          ],
          [
            120.39501,
            22.623993
          ],
          [
            120.395548,
            22.624273
          ],
          [
            120.395611,
            22.623991
          ],
          [
            120.395888,
            22.624053
          ],
          [
            120.395921,
            22.624061
          ],
          [
            120.395964,
            22.623917
          ],
          [
            120.396127,
            22.62312
          ],
          [
            120.396093,
            22.623093
          ],
          [
            120.396094,
            22.623046
          ],
          [
            120.396118,
            22.622942
          ],
          [
            120.396134,
            22.622834
          ],
          [
            120.396144,
            22.622676
          ],
          [
            120.396159,
            22.622586
          ],
          [
            120.396161,
            22.622511
          ],
          [
            120.39615,
            22.622412
          ],
          [
            120.396204,
            22.622135
          ],
          [
            120.396586,
            22.62223
          ],
          [
            120.396627,
            22.622239
          ],
          [
            120.396586,
            22.62223
          ],
          [
            120.396204,
            22.622135
          ],
          [
            120.396234,
            22.621992
          ],
          [
            120.396204,
            22.622135
          ],
          [
            120.39615,
            22.622412
          ],
          [
            120.396161,
            22.622511
          ],
          [
            120.396159,
            22.622586
          ],
          [
            120.396144,
            22.622676
          ],
          [
            120.396134,
            22.622834
          ],
          [
            120.396123,
            22.62291
          ],
          [
            120.396134,
            22.622834
          ],
          [
            120.396144,
            22.622676
          ],
          [
            120.396159,
            22.622586
          ],
          [
            120.396161,
            22.622511
          ],
          [
            120.39615,
            22.622412
          ],
          [
            120.396204,
            22.622135
          ],
          [
            120.396586,
            22.62223
          ],
          [
            120.396773,
            22.62227
          ],
          [
            120.396852,
            22.622279
          ],
          [
            120.39704,
            22.622287
          ],
          [
            120.39729,
            22.62227
          ],
          [
            120.397416,
            22.622249
          ],
          [
            120.397383,
            22.62211
          ],
          [
            120.397237,
            22.622054
          ],
          [
            120.397215,
            22.622024
          ],
          [
            120.397209,
            22.621983
          ],
          [
            120.397192,
            22.62173
          ],
          [
            120.397175,
            22.621646
          ],
          [
            120.397118,
            22.621496
          ],
          [
            120.39699,
            22.621567
          ],
          [
            120.39699,
            22.621567
          ],
          [
            120.397118,
            22.621496
          ],
          [
            120.397175,
            22.621646
          ],
          [
            120.397192,
            22.62173
          ],
          [
            120.397209,
            22.621983
          ],
          [
            120.397215,
            22.622024
          ],
          [
            120.397237,
            22.622054
          ],
          [
            120.397383,
            22.62211
          ],
          [
            120.397416,
            22.622249
          ],
          [
            120.397445,
            22.622395
          ],
          [
            120.397451,
            22.622483
          ],
          [
            120.397319,
            22.623322
          ],
          [
            120.397303,
            22.623442
          ],
          [
            120.397273,
            22.623468
          ],
          [
            120.397214,
            22.623477
          ],
          [
            120.39658,
            22.623369
          ],
          [
            120.396537,
            22.623387
          ],
          [
            120.396511,
            22.623431
          ],
          [
            120.396391,
            22.624005
          ],
          [
            120.396331,
            22.624333
          ],
          [
            120.396342,
            22.624441
          ],
          [
            120.396645,
            22.625667
          ],
          [
            120.395667,
            22.625881
          ],
          [
            120.396645,
            22.625667
          ],
          [
            120.396342,
            22.624441
          ],
          [
            120.396331,
            22.624333
          ],
          [
            120.396391,
            22.624005
          ],
          [
            120.396511,
            22.623431
          ],
          [
            120.396537,
            22.623387
          ],
          [
            120.39658,
            22.623369
          ],
          [
            120.397214,
            22.623477
          ],
          [
            120.397273,
            22.623468
          ],
          [
            120.397303,
            22.623442
          ],
          [
            120.397319,
            22.623322
          ],
          [
            120.397451,
            22.622483
          ],
          [
            120.397451,
            22.622483
          ],
          [
            120.397445,
            22.622395
          ],
          [
            120.397416,
            22.622249
          ],
          [
            120.397383,
            22.62211
          ],
          [
            120.397497,
            22.62202
          ],
          [
            120.397514,
            22.621987
          ],
          [
            120.397497,
            22.62202
          ],
          [
            120.397383,
            22.62211
          ],
          [
            120.397237,
            22.622054
          ],
          [
            120.397215,
            22.622024
          ],
          [
            120.397209,
            22.621983
          ],
          [
            120.397193,
            22.621744
          ],
          [
            120.397192,
            22.62173
          ],
          [
            120.397175,
            22.621646
          ],
          [
            120.397118,
            22.621496
          ],
          [
            120.396928,
            22.621
          ],
          [
            120.396914,
            22.62098
          ],
          [
            120.396895,
            22.620951
          ],
          [
            120.396811,
            22.620878
          ],
          [
            120.396693,
            22.620772
          ],
          [
            120.396524,
            22.620592
          ],
          [
            120.39646,
            22.620639
          ],
          [
            120.396017,
            22.620968
          ],
          [
            120.396211,
            22.621076
          ],
          [
            120.396017,
            22.620968
          ],
          [
            120.395842,
            22.621099
          ],
          [
            120.395672,
            22.62122
          ],
          [
            120.395593,
            22.62128
          ],
          [
            120.395589,
            22.621286
          ],
          [
            120.395516,
            22.621383
          ],
          [
            120.395189,
            22.621901
          ],
          [
            120.395048,
            22.622125
          ],
          [
            120.39516,
            22.622185
          ]
        ]
      },
      "properties": {
        "routeId": "kaohsiung-kem-3020-c9e083",
        "city": "kaohsiung",
        "source_file": "kaohsiung/kaohsiung-kem-3020-c9e083.geojson",
        "distance_km": 26.994999999999997,
        "duration_min": 54.555,
        "valhalla_config": "valhalla.json"
      }
    }
  ]
}