{
  "type": "FeatureCollection",
  "features": [
    {
      "type": "Feature",
      "geometry": {
        "type": "LineString",
        "coordinates": [
          [
            120.296089,
            22.694272
          ],
          [
            120.29609,
            22.694127
          ],
          [
            120.296096,
            22.693875
          ],
          [
            120.296102,
            22.693711
          ],
          [
            120.296102,
            22.693681
          ],
          [
            120.295989,
            22.693683
          ],
          [
            120.295346,
            22.693692
          ],
          [
            120.295232,
            22.693693
          ],
          [
            120.295234,
            22.693606
          ],
          [
            120.295261,
            22.693472
          ],
          [
            120.295416,
            22.692685
          ],
          [
            120.295484,
            22.69221
          ],
          [
            120.29553,
            22.691951
          ],
          [
            120.295561,
            22.691724
          ],
          [
            120.29563,
            22.691005
          ],
          [
            120.295679,
            22.690492
          ],
          [
            120.295513,
            22.69049
          ],
          [
            120.295679,
            22.690492
          ],
          [
            120.295702,
            22.690376
          ],
          [
            120.295765,
            22.69026
          ],
          [
            120.295803,
            22.69022
          ],
          [
            120.295881,
            22.690138
          ],
          [
            120.29566,
            22.689906
          ],
          [
            120.295448,
            22.689668
          ],
          [
            120.295415,
            22.689631
          ],
          [
            120.295277,
            22.689468
          ],
          [
            120.29512,
            22.689279
          ],
          [
            120.294787,
            22.689542
          ],
          [
            120.29512,
            22.689279
          ],
          [
            120.294992,
            22.689126
          ],
          [
            120.294872,
            22.688984
          ],
          [
            120.294815,
            22.688932
          ],
          [
            120.294737,
            22.688861
          ],
          [
            120.294433,
            22.688621
          ],
          [
            120.294412,
            22.688604
          ],
          [
            120.294124,
            22.68838
          ],
          [
            120.294035,
            22.688286
          ],
          [
            120.293858,
            22.688039
          ],
          [
            120.293795,
            22.687946
          ],
          [
            120.293593,
            22.68766
          ],
          [
            120.293541,
            22.68759
          ],
          [
            120.293427,
            22.687445
          ],
          [
            120.29338,
            22.687391
          ],
          [
            120.293303,
            22.687332
          ],
          [
            120.293193,
            22.687247
          ],
          [
            120.293133,
            22.687202
          ],
          [
            120.29301,
            22.687117
          ],
          [
            120.292876,
            22.687042
          ],
          [
            120.292825,
            22.68702
          ],
          [
            120.292623,
            22.686923
          ],
          [
            120.292473,
            22.686849
          ],
          [
            120.292382,
            22.686939
          ],
          [
            120.292473,
            22.686849
          ],
          [
            120.292098,
            22.68668
          ],
          [
            120.291989,
            22.686784
          ],
          [
            120.292098,
            22.68668
          ],
          [
            120.291871,
            22.686577
          ],
          [
            120.291767,
            22.686679
          ],
          [
            120.291871,
            22.686577
          ],
          [
            120.291606,
            22.686462
          ],
          [
            120.291522,
            22.686425
          ],
          [
            120.291437,
            22.686395
          ],
          [
            120.291353,
            22.686365
          ],
          [
            120.291148,
            22.686287
          ],
          [
            120.291021,
            22.686238
          ],
          [
            120.290955,
            22.686212
          ],
          [
            120.290872,
            22.686179
          ],
          [
            120.290705,
            22.686111
          ],
          [
            120.290546,
            22.686048
          ],
          [
            120.290279,
            22.685919
          ],
          [
            120.290168,
            22.685846
          ],
          [
            120.290079,
            22.68577
          ],
          [
            120.290005,
            22.685698
          ],
          [
            120.289978,
            22.685672
          ],
          [
            120.289901,
            22.685748
          ],
          [
            120.289978,
            22.685672
          ],
          [
            120.289919,
            22.685584
          ],
          [
            120.289848,
            22.685441
          ],
          [
            120.289682,
            22.685107
          ],
          [
            120.289615,
            22.684972
          ],
          [
            120.289584,
            22.684903
          ],
          [
            120.289426,
            22.684545
          ],
          [
            120.289331,
            22.684579
          ],
          [
            120.289426,
            22.684545
          ],
          [
            120.289308,
            22.68428
          ],
          [
            120.289162,
            22.683961
          ],
          [
            120.289119,
            22.683872
          ],
          [
            120.289052,
            22.683946
          ],
          [
            120.289119,
            22.683872
          ],
          [
            120.289008,
            22.683652
          ],
          [
            120.288899,
            22.683431
          ],
          [
            120.288825,
            22.683283
          ],
          [
            120.288814,
            22.683262
          ],
          [
            120.288797,
            22.683228
          ],
          [
            120.28871,
            22.683055
          ],
          [
            120.288673,
            22.682975
          ],
          [
            120.288657,
            22.682941
          ],
          [
            120.28854,
            22.682704
          ],
          [
            120.28837,
            22.682772
          ],
          [
            120.28854,
            22.682704
          ],
          [
            120.288437,
            22.682501
          ],
          [
            120.288359,
            22.682345
          ],
          [
            120.288214,
            22.682043
          ],
          [
            120.288127,
            22.681853
          ],
          [
            120.28812,
            22.681836
          ],
          [
            120.287955,
            22.68191
          ],
          [
            120.287491,
            22.682114
          ],
          [
            120.287955,
            22.68191
          ],
          [
            120.28812,
            22.681836
          ],
          [
            120.288085,
            22.681762
          ],
          [
            120.288068,
            22.681721
          ],
          [
            120.288025,
            22.68163
          ],
          [
            120.288007,
            22.681593
          ],
          [
            120.287788,
            22.681145
          ],
          [
            120.287785,
            22.681139
          ],
          [
            120.287652,
            22.680844
          ],
          [
            120.287627,
            22.680789
          ],
          [
            120.287606,
            22.680692
          ],
          [
            120.287594,
            22.680629
          ],
          [
            120.2874,
            22.679523
          ],
          [
            120.287067,
            22.679531
          ],
          [
            120.286996,
            22.67951
          ],
          [
            120.286989,
            22.679294
          ],
          [
            120.287021,
            22.67928
          ],
          [
            120.287188,
            22.679282
          ],
          [
            120.287364,
            22.679284
          ],
          [
            120.2874,
            22.679523
          ],
          [
            120.287594,
            22.680629
          ],
          [
            120.287606,
            22.680692
          ],
          [
            120.287627,
            22.680789
          ],
          [
            120.287652,
            22.680844
          ],
          [
            120.287785,
            22.681139
          ],
          [
            120.288007,
            22.681593
          ],
          [
            120.288025,
            22.68163
          ],
          [
            120.288068,
            22.681721
          ],
          [
            120.28817,
            22.681674
          ],
          [
            120.288197,
            22.681661
          ],
          [
            120.288945,
            22.681281
          ],
          [
            120.289205,
            22.681155
          ],
          [
            120.289395,
            22.681015
          ],
          [
            120.289597,
            22.680821
          ],
          [
            120.289785,
            22.680608
          ],
          [
            120.289817,
            22.680569
          ],
          [
            120.289856,
            22.680535
          ],
          [
            120.289935,
            22.68048
          ],
          [
            120.290057,
            22.680425
          ],
          [
            120.290153,
            22.680398
          ],
          [
            120.290199,
            22.680385
          ],
          [
            120.290301,
            22.680366
          ],
          [
            120.290426,
            22.68036
          ],
          [
            120.290963,
            22.680383
          ],
          [
            120.291044,
            22.680376
          ],
          [
            120.291113,
            22.680356
          ],
          [
            120.291285,
            22.680262
          ],
          [
            120.291398,
            22.680198
          ],
          [
            120.291446,
            22.680171
          ],
          [
            120.291511,
            22.680132
          ],
          [
            120.291579,
            22.680096
          ],
          [
            120.291607,
            22.680083
          ],
          [
            120.291747,
            22.679999
          ],
          [
            120.292062,
            22.679818
          ],
          [
            120.292153,
            22.67977
          ],
          [
            120.292206,
            22.679733
          ],
          [
            120.292247,
            22.679684
          ],
          [
            120.292287,
            22.679631
          ],
          [
            120.292584,
            22.678958
          ],
          [
            120.292609,
            22.678908
          ],
          [
            120.29265,
            22.678821
          ],
          [
            120.292673,
            22.678748
          ],
          [
            120.292695,
            22.6787
          ],
          [
            120.292713,
            22.678665
          ],
          [
            120.292723,
            22.678647
          ],
          [
            120.292787,
            22.678521
          ],
          [
            120.29269,
            22.678492
          ],
          [
            120.292657,
            22.678463
          ],
          [
            120.292654,
            22.678442
          ],
          [
            120.292657,
            22.678463
          ],
          [
            120.29269,
            22.678492
          ],
          [
            120.292787,
            22.678521
          ],
          [
            120.29303,
            22.678045
          ],
          [
            120.293059,
            22.677988
          ],
          [
            120.293152,
            22.677806
          ],
          [
            120.293334,
            22.677459
          ],
          [
            120.29336,
            22.677404
          ],
          [
            120.293397,
            22.677328
          ],
          [
            120.293432,
            22.677283
          ],
          [
            120.293481,
            22.67722
          ],
          [
            120.29324,
            22.677072
          ],
          [
            120.293217,
            22.677052
          ],
          [
            120.293096,
            22.676938
          ],
          [
            120.292939,
            22.676793
          ],
          [
            120.292426,
            22.676321
          ],
          [
            120.292378,
            22.676278
          ],
          [
            120.292187,
            22.676114
          ],
          [
            120.292102,
            22.676042
          ],
          [
            120.292057,
            22.676005
          ],
          [
            120.291983,
            22.675946
          ],
          [
            120.291724,
            22.675738
          ],
          [
            120.291703,
            22.675721
          ],
          [
            120.291673,
            22.675697
          ],
          [
            120.291124,
            22.675262
          ],
          [
            120.291118,
            22.675257
          ],
          [
            120.291124,
            22.675262
          ],
          [
            120.291673,
            22.675697
          ],
          [
            120.291703,
            22.675721
          ],
          [
            120.291724,
            22.675738
          ],
          [
            120.292057,
            22.676005
          ],
          [
            120.292066,
            22.676012
          ],
          [
            120.292102,
            22.676042
          ],
          [
            120.292187,
            22.676114
          ],
          [
            120.292378,
            22.676278
          ],
          [
            120.292426,
            22.676321
          ],
          [
            120.293096,
            22.676938
          ],
          [
            120.293217,
            22.677052
          ],
          [
            120.29324,
            22.677072
          ],
          [
            120.293481,
            22.67722
          ],
          [
            120.293432,
            22.677283
          ],
          [
            120.293397,
            22.677328
          ],
          [
            120.293334,
            22.677459
          ],
          [
            120.293152,
            22.677806
          ],
          [
            120.29303,
            22.678045
          ],
          [
            120.292884,
            22.67833
          ],
          [
            120.292787,
            22.678521
          ],
          [
            120.292723,
            22.678647
          ],
          [
            120.292713,
            22.678665
          ],
          [
            120.292695,
            22.6787
          ],
          [
            120.292673,
            22.678748
          ],
          [
            120.29265,
            22.678821
          ],
          [
            120.292609,
            22.678908
          ],
          [
            120.292584,
            22.678958
          ],
          [
            120.292287,
            22.679631
          ],
          [
            120.292247,
            22.679684
          ],
          [
            120.292206,
            22.679733
          ],
          [
            120.292153,
            22.67977
          ],
          [
            120.292062,
            22.679818
          ],
          [
            120.291747,
            22.679999
          ],
          [
            120.291607,
            22.680083
          ],
          [
            120.291579,
            22.680096
          ],
          [
            120.291511,
            22.680132
          ],
          [
            120.291446,
            22.680171
          ],
          [
            120.291398,
            22.680198
          ],
          [
            120.291285,
            22.680262
          ],
          [
            120.291119,
            22.680353
          ],
          [
            120.291113,
            22.680356
          ],
          [
            120.291044,
            22.680376
          ],
          [
            120.290963,
            22.680383
          ],
          [
            120.290426,
            22.68036
          ],
          [
            120.290301,
            22.680366
          ],
          [
            120.290199,
            22.680385
          ],
          [
            120.290153,
            22.680398
          ],
          [
            120.290057,
            22.680425
          ],
          [
            120.289935,
            22.68048
          ],
          [
            120.289856,
            22.680535
          ],
          [
            120.289817,
            22.680569
          ],
          [
            120.289785,
            22.680608
          ],
          [
            120.289597,
            22.680821
          ],
          [
            120.289395,
            22.681015
          ],
          [
            120.289205,
            22.681155
          ],
          [
            120.288945,
            22.681281
          ],
          [
            120.288197,
            22.681661
          ],
          [
            120.28817,
            22.681674
          ],
          [
            120.288068,
            22.681721
          ],
          [
            120.288025,
            22.68163
          ],
          [
            120.288007,
            22.681593
          ],
          [
            120.287785,
            22.681139
          ],
          [
            120.287652,
            22.680844
          ],
          [
            120.287627,
            22.680789
          ],
          [
            120.287606,
            22.680692
          ],
          [
            120.287594,
            22.680629
          ],
          [
            120.2874,
            22.679523
          ],
          [
            120.287364,
            22.679284
          ],
          [
            120.287326,
            22.67908
          ],
          [
            120.28722,
            22.678513
          ],
          [
            120.287183,
            22.678293
          ],
          [
            120.287127,
            22.67795
          ],
          [
            120.28702,
            22.677332
          ],
          [
            120.28682,
            22.676271
          ],
          [
            120.286787,
            22.676087
          ],
          [
            120.28682,
            22.676271
          ],
          [
            120.28702,
            22.677332
          ],
          [
            120.287127,
            22.67795
          ],
          [
            120.287183,
            22.678293
          ],
          [
            120.28722,
            22.678513
          ],
          [
            120.287326,
            22.67908
          ],
          [
            120.287364,
            22.679284
          ],
          [
            120.2874,
            22.679523
          ],
          [
            120.287594,
            22.680629
          ],
          [
            120.287606,
            22.680692
          ],
          [
            120.287627,
            22.680789
          ],
          [
            120.287529,
            22.680799
          ],
          [
            120.287162,
            22.680836
          ],
          [
            120.286682,
            22.680881
          ],
          [
            120.286585,
            22.680887
          ],
          [
            120.286563,
            22.680889
          ],
          [
            120.286474,
            22.680895
          ],
          [
            120.286433,
            22.680904
          ],
          [
            120.285261,
            22.681058
          ],
          [
            120.283111,
            22.681282
          ],
          [
            120.282758,
            22.681307
          ],
          [
            120.282623,
            22.681316
          ],
          [
            120.282626,
            22.68121
          ],
          [
            120.282634,
            22.680913
          ],
          [
            120.282638,
            22.680785
          ],
          [
            120.282654,
            22.680251
          ],
          [
            120.282674,
            22.679631
          ],
          [
            120.282491,
            22.679635
          ],
          [
            120.282674,
            22.679631
          ],
          [
            120.282679,
            22.679082
          ],
          [
            120.282511,
            22.679082
          ],
          [
            120.282679,
            22.679082
          ],
          [
            120.282684,
            22.678712
          ],
          [
            120.282688,
            22.678407
          ],
          [
            120.282691,
            22.678298
          ],
          [
            120.282699,
            22.67795
          ],
          [
            120.282702,
            22.677829
          ],
          [
            120.282574,
            22.677827
          ],
          [
            120.282292,
            22.677823
          ],
          [
            120.281429,
            22.67781
          ],
          [
            120.281108,
            22.677805
          ],
          [
            120.281085,
            22.678709
          ],
          [
            120.281231,
            22.678709
          ],
          [
            120.281085,
            22.678709
          ],
          [
            120.281077,
            22.679081
          ],
          [
            120.281062,
            22.679604
          ],
          [
            120.281221,
            22.679618
          ],
          [
            120.281062,
            22.679604
          ],
          [
            120.281041,
            22.68041
          ],
          [
            120.281062,
            22.679604
          ],
          [
            120.281077,
            22.679081
          ],
          [
            120.281085,
            22.678709
          ],
          [
            120.281108,
            22.677805
          ],
          [
            120.282574,
            22.677827
          ],
          [
            120.282702,
            22.677829
          ],
          [
            120.282702,
            22.677702
          ],
          [
            120.282702,
            22.677283
          ],
          [
            120.2827,
            22.677148
          ],
          [
            120.2827,
            22.67705
          ],
          [
            120.282705,
            22.675562
          ],
          [
            120.282705,
            22.675399
          ],
          [
            120.282708,
            22.675244
          ],
          [
            120.282721,
            22.67448
          ],
          [
            120.282738,
            22.674104
          ],
          [
            120.28274,
            22.674064
          ],
          [
            120.282838,
            22.674062
          ],
          [
            120.28328,
            22.674056
          ],
          [
            120.283319,
            22.674053
          ],
          [
            120.283349,
            22.674045
          ],
          [
            120.283362,
            22.67404
          ],
          [
            120.283396,
            22.674024
          ],
          [
            120.284363,
            22.673579
          ],
          [
            120.284391,
            22.673566
          ],
          [
            120.284883,
            22.673337
          ],
          [
            120.284987,
            22.67329
          ],
          [
            120.286209,
            22.672713
          ],
          [
            120.28629,
            22.672677
          ],
          [
            120.286371,
            22.672636
          ],
          [
            120.286231,
            22.672562
          ],
          [
            120.28612,
            22.672452
          ],
          [
            120.286052,
            22.672315
          ],
          [
            120.286034,
            22.672164
          ],
          [
            120.28607,
            22.672017
          ],
          [
            120.286114,
            22.671937
          ],
          [
            120.286167,
            22.671866
          ],
          [
            120.286239,
            22.671778
          ],
          [
            120.286353,
            22.671714
          ],
          [
            120.286443,
            22.671673
          ],
          [
            120.286508,
            22.671662
          ],
          [
            120.286505,
            22.671525
          ],
          [
            120.28652,
            22.670851
          ],
          [
            120.286524,
            22.670769
          ],
          [
            120.286526,
            22.670687
          ],
          [
            120.286526,
            22.670634
          ],
          [
            120.286526,
            22.670506
          ],
          [
            120.286529,
            22.670347
          ],
          [
            120.286522,
            22.669781
          ],
          [
            120.286481,
            22.669604
          ],
          [
            120.286438,
            22.669491
          ],
          [
            120.286352,
            22.669414
          ],
          [
            120.286248,
            22.669325
          ],
          [
            120.286162,
            22.669265
          ],
          [
            120.286089,
            22.669191
          ],
          [
            120.286031,
            22.669107
          ],
          [
            120.285991,
            22.669015
          ],
          [
            120.285969,
            22.668917
          ],
          [
            120.285969,
            22.668799
          ],
          [
            120.286005,
            22.668662
          ],
          [
            120.286077,
            22.668538
          ],
          [
            120.286181,
            22.668435
          ],
          [
            120.286331,
            22.66835
          ],
          [
            120.286448,
            22.668318
          ],
          [
            120.286569,
            22.668308
          ],
          [
            120.286672,
            22.668317
          ],
          [
            120.286771,
            22.668343
          ],
          [
            120.286864,
            22.668384
          ],
          [
            120.286948,
            22.668439
          ],
          [
            120.28702,
            22.668507
          ],
          [
            120.28704,
            22.668431
          ],
          [
            120.28708,
            22.668383
          ],
          [
            120.287097,
            22.668376
          ],
          [
            120.287111,
            22.668367
          ],
          [
            120.287416,
            22.668185
          ],
          [
            120.287612,
            22.668064
          ],
          [
            120.2878,
            22.667942
          ],
          [
            120.28785,
            22.66791
          ],
          [
            120.287881,
            22.66789
          ],
          [
            120.288028,
            22.667795
          ],
          [
            120.288179,
            22.667934
          ],
          [
            120.288225,
            22.66798
          ],
          [
            120.288332,
            22.668076
          ],
          [
            120.288398,
            22.668175
          ],
          [
            120.289313,
            22.66953
          ],
          [
            120.289492,
            22.669808
          ],
          [
            120.289568,
            22.669927
          ],
          [
            120.289642,
            22.670118
          ],
          [
            120.289662,
            22.670143
          ],
          [
            120.290101,
            22.670665
          ],
          [
            120.290135,
            22.670704
          ],
          [
            120.290197,
            22.670779
          ],
          [
            120.290276,
            22.670875
          ],
          [
            120.290342,
            22.670943
          ],
          [
            120.291092,
            22.671727
          ],
          [
            120.291133,
            22.671769
          ],
          [
            120.291252,
            22.671894
          ],
          [
            120.29137,
            22.672016
          ],
          [
            120.292494,
            22.673209
          ],
          [
            120.292511,
            22.673228
          ],
          [
            120.292692,
            22.673422
          ],
          [
            120.292719,
            22.673451
          ],
          [
            120.294341,
            22.675175
          ],
          [
            120.29438,
            22.675218
          ],
          [
            120.294606,
            22.675486
          ],
          [
            120.294668,
            22.675379
          ],
          [
            120.294711,
            22.675308
          ],
          [
            120.294735,
            22.675271
          ],
          [
            120.29498,
            22.674991
          ],
          [
            120.295095,
            22.674882
          ],
          [
            120.295228,
            22.674773
          ],
          [
            120.295283,
            22.674731
          ],
          [
            120.295376,
            22.674666
          ],
          [
            120.295426,
            22.674631
          ],
          [
            120.295575,
            22.674528
          ],
          [
            120.295587,
            22.674519
          ],
          [
            120.295751,
            22.674399
          ],
          [
            120.295813,
            22.674353
          ],
          [
            120.295903,
            22.674289
          ],
          [
            120.297303,
            22.673282
          ],
          [
            120.297335,
            22.67326
          ],
          [
            120.297444,
            22.673185
          ],
          [
            120.297519,
            22.673136
          ],
          [
            120.297987,
            22.672822
          ],
          [
            120.298037,
            22.67279
          ],
          [
            120.29815,
            22.672715
          ],
          [
            120.298224,
            22.672664
          ],
          [
            120.298425,
            22.672531
          ],
          [
            120.29845,
            22.672514
          ],
          [
            120.299283,
            22.671947
          ],
          [
            120.300035,
            22.671522
          ],
          [
            120.300472,
            22.671327
          ],
          [
            120.30065,
            22.671248
          ],
          [
            120.300688,
            22.671231
          ],
          [
            120.300812,
            22.671177
          ],
          [
            120.300987,
            22.671106
          ],
          [
            120.301053,
            22.671081
          ],
          [
            120.301217,
            22.671018
          ],
          [
            120.30125,
            22.671005
          ],
          [
            120.3014,
            22.67095
          ],
          [
            120.30154,
            22.670901
          ],
          [
            120.301622,
            22.670873
          ],
          [
            120.302078,
            22.670719
          ],
          [
            120.302112,
            22.670709
          ],
          [
            120.302177,
            22.670689
          ],
          [
            120.302256,
            22.670669
          ],
          [
            120.302351,
            22.670643
          ],
          [
            120.302435,
            22.67062
          ],
          [
            120.302747,
            22.670535
          ],
          [
            120.303218,
            22.670407
          ],
          [
            120.30327,
            22.670393
          ],
          [
            120.303378,
            22.670363
          ],
          [
            120.30349,
            22.67024
          ],
          [
            120.303648,
            22.670207
          ],
          [
            120.304313,
            22.670039
          ],
          [
            120.304736,
            22.669926
          ],
          [
            120.304761,
            22.669919
          ],
          [
            120.304871,
            22.669892
          ],
          [
            120.304958,
            22.669868
          ],
          [
            120.305275,
            22.669786
          ],
          [
            120.305317,
            22.669775
          ],
          [
            120.30539,
            22.669754
          ],
          [
            120.306117,
            22.669544
          ],
          [
            120.306156,
            22.669532
          ],
          [
            120.306223,
            22.669513
          ],
          [
            120.306403,
            22.669465
          ],
          [
            120.307229,
            22.669243
          ],
          [
            120.307249,
            22.669238
          ],
          [
            120.307268,
            22.669233
          ],
          [
            120.307388,
            22.669201
          ],
          [
            120.30754,
            22.669163
          ],
          [
            120.308164,
            22.669008
          ],
          [
            120.308198,
            22.669
          ],
          [
            120.308306,
            22.668973
          ],
          [
            120.308461,
            22.668933
          ],
          [
            120.308615,
            22.668892
          ],
          [
            120.308675,
            22.668877
          ],
          [
            120.308807,
            22.668842
          ],
          [
            120.309548,
            22.668659
          ],
          [
            120.309588,
            22.668649
          ],
          [
            120.309777,
            22.668601
          ],
          [
            120.309935,
            22.66856
          ],
          [
            120.310895,
            22.668309
          ],
          [
            120.31109,
            22.668258
          ],
          [
            120.311308,
            22.668237
          ],
          [
            120.311442,
            22.668242
          ],
          [
            120.311475,
            22.668243
          ],
          [
            120.311526,
            22.668245
          ],
          [
            120.312275,
            22.668409
          ],
          [
            120.312309,
            22.668414
          ],
          [
            120.3131,
            22.668562
          ],
          [
            120.313147,
            22.668571
          ],
          [
            120.313413,
            22.668619
          ],
          [
            120.313448,
            22.668625
          ],
          [
            120.313538,
            22.668642
          ],
          [
            120.314163,
            22.668707
          ],
          [
            120.314427,
            22.668707
          ],
          [
            120.314482,
            22.668707
          ],
          [
            120.314513,
            22.668707
          ],
          [
            120.314537,
            22.668704
          ],
          [
            120.314579,
            22.6687
          ],
          [
            120.314812,
            22.668676
          ],
          [
            120.314891,
            22.668661
          ],
          [
            120.314942,
            22.668651
          ],
          [
            120.314971,
            22.668645
          ],
          [
            120.315087,
            22.668625
          ],
          [
            120.315116,
            22.668619
          ],
          [
            120.315115,
            22.668723
          ],
          [
            120.31512,
            22.668804
          ],
          [
            120.315121,
            22.668831
          ],
          [
            120.315126,
            22.668951
          ],
          [
            120.315203,
            22.669244
          ],
          [
            120.315214,
            22.669282
          ],
          [
            120.315217,
            22.669294
          ],
          [
            120.315223,
            22.669318
          ],
          [
            120.315289,
            22.669541
          ],
          [
            120.315297,
            22.669568
          ],
          [
            120.31491,
            22.669656
          ],
          [
            120.314873,
            22.669664
          ],
          [
            120.31491,
            22.669656
          ],
          [
            120.315297,
            22.669568
          ],
          [
            120.31558,
            22.670524
          ],
          [
            120.315203,
            22.670616
          ],
          [
            120.31558,
            22.670524
          ],
          [
            120.315628,
            22.670686
          ],
          [
            120.315796,
            22.671217
          ],
          [
            120.315408,
            22.671317
          ],
          [
            120.315251,
            22.671357
          ],
          [
            120.315433,
            22.671927
          ],
          [
            120.315399,
            22.672016
          ],
          [
            120.315089,
            22.672113
          ],
          [
            120.314183,
            22.672395
          ],
          [
            120.313545,
            22.672613
          ],
          [
            120.31359,
            22.672725
          ],
          [
            120.313545,
            22.672613
          ],
          [
            120.312949,
            22.672817
          ],
          [
            120.312841,
            22.672519
          ],
          [
            120.312789,
            22.672387
          ],
          [
            120.31258,
            22.671856
          ],
          [
            120.313183,
            22.671683
          ],
          [
            120.313228,
            22.671799
          ],
          [
            120.313183,
            22.671683
          ],
          [
            120.313806,
            22.671485
          ],
          [
            120.3139,
            22.671707
          ],
          [
            120.314058,
            22.671666
          ],
          [
            120.314438,
            22.671567
          ],
          [
            120.314714,
            22.671496
          ],
          [
            120.315251,
            22.671357
          ],
          [
            120.315796,
            22.671217
          ],
          [
            120.315911,
            22.671581
          ],
          [
            120.316143,
            22.672312
          ],
          [
            120.316158,
            22.672358
          ],
          [
            120.316198,
            22.672481
          ],
          [
            120.316232,
            22.672589
          ],
          [
            120.316247,
            22.672632
          ],
          [
            120.316406,
            22.67308
          ],
          [
            120.316507,
            22.673365
          ],
          [
            120.316576,
            22.673543
          ],
          [
            120.316603,
            22.673667
          ],
          [
            120.316571,
            22.673727
          ],
          [
            120.316464,
            22.673761
          ],
          [
            120.31633,
            22.673801
          ],
          [
            120.315935,
            22.673885
          ],
          [
            120.315777,
            22.673919
          ],
          [
            120.315935,
            22.673885
          ],
          [
            120.31633,
            22.673801
          ],
          [
            120.316464,
            22.673761
          ],
          [
            120.316571,
            22.673727
          ],
          [
            120.316603,
            22.673667
          ],
          [
            120.316576,
            22.673543
          ],
          [
            120.316507,
            22.673365
          ],
          [
            120.316406,
            22.67308
          ],
          [
            120.316205,
            22.673135
          ]
        ]
      },
      "properties": {
        "routeId": "kaohsiung-keh-6253-978731",
        "city": "kaohsiung",
        "source_file": "kaohsiung/kaohsiung-keh-6253-978731.geojson",
        "distance_km": 15.344,
        "duration_min": 32.62165,
        "valhalla_config": "valhalla.json"
      }
    }
  ]
}