{
  "type": "FeatureCollection",
  "features": [
    {
      "type": "Feature",
      "geometry": {
        "type": "LineString",
        "coordinates": [
          [
            120.345038,
            22.565703
          ],
          [
            120.344803,
            22.565699
          ],
          [
            120.344678,
            22.565691
          ],
          [
            120.344145,
            22.565649
          ],
          [
            120.343964,
            22.565631
          ],
          [
            120.343472,
            22.565577
          ],
          [
            120.342599,
            22.565483
          ],
          [
            120.341982,
            22.565417
          ],
          [
            120.341885,
            22.565408
          ],
          [
            120.341236,
            22.56535
          ],
          [
            120.341201,
            22.56549
          ],
          [
            120.33982,
            22.567076
          ],
          [
            120.33974,
            22.567171
          ],
          [
            120.339445,
            22.567522
          ],
          [
            120.339193,
            22.567823
          ],
          [
            120.33808,
            22.569122
          ],
          [
            120.337828,
            22.569401
          ],
          [
            120.337816,
            22.569416
          ],
          [
            120.337794,
            22.569445
          ],
          [
            120.337768,
            22.569477
          ],
          [
            120.337639,
            22.569548
          ],
          [
            120.337626,
            22.569555
          ],
          [
            120.337414,
            22.569601
          ],
          [
            120.337312,
            22.569623
          ],
          [
            120.337091,
            22.569672
          ],
          [
            120.337047,
            22.569679
          ],
          [
            120.336828,
            22.569715
          ],
          [
            120.336617,
            22.569751
          ],
          [
            120.336295,
            22.569833
          ],
          [
            120.336169,
            22.569877
          ],
          [
            120.336037,
            22.569897
          ],
          [
            120.336145,
            22.569827
          ],
          [
            120.336223,
            22.569796
          ],
          [
            120.336339,
            22.569759
          ],
          [
            120.336558,
            22.569703
          ],
          [
            120.336975,
            22.569624
          ],
          [
            120.337044,
            22.569608
          ],
          [
            120.337091,
            22.569598
          ],
          [
            120.337369,
            22.569532
          ],
          [
            120.337397,
            22.569526
          ],
          [
            120.337442,
            22.569515
          ],
          [
            120.337704,
            22.569434
          ],
          [
            120.33758,
            22.56934
          ],
          [
            120.337569,
            22.569332
          ],
          [
            120.336705,
            22.568681
          ],
          [
            120.336515,
            22.568535
          ],
          [
            120.336312,
            22.568377
          ],
          [
            120.335621,
            22.567839
          ],
          [
            120.33541,
            22.567682
          ],
          [
            120.334862,
            22.567275
          ],
          [
            120.334411,
            22.566925
          ],
          [
            120.334101,
            22.566679
          ],
          [
            120.333745,
            22.566415
          ],
          [
            120.333392,
            22.566145
          ],
          [
            120.333044,
            22.565883
          ],
          [
            120.333236,
            22.565598
          ],
          [
            120.333459,
            22.565275
          ],
          [
            120.333702,
            22.56491
          ],
          [
            120.334016,
            22.564449
          ],
          [
            120.334357,
            22.563941
          ],
          [
            120.334569,
            22.563638
          ],
          [
            120.334777,
            22.563338
          ],
          [
            120.334971,
            22.563048
          ],
          [
            120.335258,
            22.562638
          ],
          [
            120.335496,
            22.562278
          ],
          [
            120.334349,
            22.561597
          ],
          [
            120.335374,
            22.560068
          ],
          [
            120.335524,
            22.55984
          ],
          [
            120.335735,
            22.559569
          ],
          [
            120.335861,
            22.559405
          ],
          [
            120.335936,
            22.559308
          ],
          [
            120.336142,
            22.559041
          ],
          [
            120.336285,
            22.558883
          ],
          [
            120.336056,
            22.558718
          ],
          [
            120.336285,
            22.558883
          ],
          [
            120.336539,
            22.558597
          ],
          [
            120.336625,
            22.5585
          ],
          [
            120.336871,
            22.558686
          ],
          [
            120.337298,
            22.558998
          ],
          [
            120.337347,
            22.558921
          ],
          [
            120.337399,
            22.558819
          ],
          [
            120.337806,
            22.558444
          ],
          [
            120.338216,
            22.557958
          ],
          [
            120.338944,
            22.557095
          ],
          [
            120.340009,
            22.555824
          ],
          [
            120.340067,
            22.555784
          ],
          [
            120.340215,
            22.55569
          ],
          [
            120.34032,
            22.555676
          ],
          [
            120.340422,
            22.555684
          ],
          [
            120.340532,
            22.555711
          ],
          [
            120.340703,
            22.555834
          ],
          [
            120.34261,
            22.557283
          ],
          [
            120.343824,
            22.558206
          ],
          [
            120.34568,
            22.559617
          ],
          [
            120.347339,
            22.560861
          ],
          [
            120.347457,
            22.560949
          ],
          [
            120.347566,
            22.561031
          ],
          [
            120.347671,
            22.56111
          ],
          [
            120.348745,
            22.561915
          ],
          [
            120.348763,
            22.561928
          ],
          [
            120.34878,
            22.561958
          ],
          [
            120.348887,
            22.56215
          ],
          [
            120.348947,
            22.562198
          ],
          [
            120.348824,
            22.562339
          ],
          [
            120.34776,
            22.563548
          ],
          [
            120.346881,
            22.564557
          ],
          [
            120.347066,
            22.564682
          ],
          [
            120.347094,
            22.564709
          ],
          [
            120.347113,
            22.564727
          ],
          [
            120.347146,
            22.564753
          ],
          [
            120.347278,
            22.564792
          ],
          [
            120.347314,
            22.564741
          ],
          [
            120.347423,
            22.564586
          ],
          [
            120.347625,
            22.564363
          ],
          [
            120.347941,
            22.564016
          ],
          [
            120.34812,
            22.563795
          ],
          [
            120.34831,
            22.563582
          ],
          [
            120.348629,
            22.563804
          ],
          [
            120.348703,
            22.563722
          ],
          [
            120.348629,
            22.563804
          ],
          [
            120.34831,
            22.563582
          ],
          [
            120.348929,
            22.562952
          ],
          [
            120.349219,
            22.563203
          ],
          [
            120.348929,
            22.562952
          ],
          [
            120.34831,
            22.563582
          ],
          [
            120.34812,
            22.563795
          ],
          [
            120.347953,
            22.56368
          ],
          [
            120.34812,
            22.563795
          ],
          [
            120.347941,
            22.564016
          ],
          [
            120.347625,
            22.564363
          ],
          [
            120.347447,
            22.56456
          ],
          [
            120.347423,
            22.564586
          ],
          [
            120.347278,
            22.564792
          ],
          [
            120.347146,
            22.564753
          ],
          [
            120.347113,
            22.564727
          ],
          [
            120.347094,
            22.564709
          ],
          [
            120.347066,
            22.564682
          ],
          [
            120.346881,
            22.564557
          ],
          [
            120.346741,
            22.564732
          ],
          [
            120.346692,
            22.564793
          ],
          [
            120.34665,
            22.564846
          ],
          [
            120.346624,
            22.564879
          ],
          [
            120.346257,
            22.565342
          ],
          [
            120.346102,
            22.565544
          ],
          [
            120.345952,
            22.565557
          ],
          [
            120.345604,
            22.565606
          ],
          [
            120.34555,
            22.565613
          ],
          [
            120.345387,
            22.565651
          ],
          [
            120.345231,
            22.565681
          ],
          [
            120.345051,
            22.565703
          ],
          [
            120.344803,
            22.565699
          ],
          [
            120.344678,
            22.565691
          ],
          [
            120.344145,
            22.565649
          ],
          [
            120.343964,
            22.565631
          ],
          [
            120.343472,
            22.565577
          ],
          [
            120.342599,
            22.565483
          ],
          [
            120.341982,
            22.565417
          ],
          [
            120.341885,
            22.565408
          ],
          [
            120.341236,
            22.56535
          ],
          [
            120.341201,
            22.56549
          ],
          [
            120.33982,
            22.567076
          ],
          [
            120.33976,
            22.567033
          ],
          [
            120.33942,
            22.566794
          ],
          [
            120.339041,
            22.567234
          ],
          [
            120.338954,
            22.567175
          ],
          [
            120.338297,
            22.566734
          ],
          [
            120.338581,
            22.566343
          ],
          [
            120.33901,
            22.566574
          ],
          [
            120.338581,
            22.566343
          ],
          [
            120.338812,
            22.565952
          ],
          [
            120.339182,
            22.566104
          ],
          [
            120.338812,
            22.565952
          ],
          [
            120.338954,
            22.565564
          ],
          [
            120.339786,
            22.565761
          ],
          [
            120.339878,
            22.565783
          ],
          [
            120.340067,
            22.565249
          ],
          [
            120.3404,
            22.565276
          ],
          [
            120.340667,
            22.565299
          ],
          [
            120.340758,
            22.565307
          ],
          [
            120.340987,
            22.565329
          ],
          [
            120.341236,
            22.56535
          ],
          [
            120.341885,
            22.565408
          ],
          [
            120.341982,
            22.565417
          ],
          [
            120.342599,
            22.565483
          ],
          [
            120.343472,
            22.565577
          ],
          [
            120.343964,
            22.565631
          ],
          [
            120.344145,
            22.565649
          ],
          [
            120.344678,
            22.565691
          ],
          [
            120.344803,
            22.565699
          ],
          [
            120.345051,
            22.565703
          ],
          [
            120.345231,
            22.565681
          ],
          [
            120.345387,
            22.565651
          ],
          [
            120.34555,
            22.565613
          ],
          [
            120.345604,
            22.565606
          ],
          [
            120.345952,
            22.565557
          ],
          [
            120.346102,
            22.565544
          ],
          [
            120.346241,
            22.565533
          ],
          [
            120.346933,
            22.565497
          ],
          [
            120.347294,
            22.565484
          ],
          [
            120.347914,
            22.565459
          ],
          [
            120.348074,
            22.565454
          ],
          [
            120.348702,
            22.565428
          ],
          [
            120.349174,
            22.565413
          ],
          [
            120.349461,
            22.565402
          ],
          [
            120.349482,
            22.565895
          ],
          [
            120.350058,
            22.565876
          ],
          [
            120.350376,
            22.565866
          ],
          [
            120.350909,
            22.565829
          ],
          [
            120.350956,
            22.565845
          ],
          [
            120.351246,
            22.566133
          ],
          [
            120.351182,
            22.56607
          ],
          [
            120.351522,
            22.566407
          ],
          [
            120.351955,
            22.565955
          ],
          [
            120.352129,
            22.566136
          ],
          [
            120.352204,
            22.566195
          ],
          [
            120.352272,
            22.566256
          ],
          [
            120.35237,
            22.566336
          ],
          [
            120.35246,
            22.566399
          ],
          [
            120.351165,
            22.567892
          ],
          [
            120.350508,
            22.568612
          ],
          [
            120.350089,
            22.569048
          ],
          [
            120.350043,
            22.569096
          ],
          [
            120.349884,
            22.569277
          ],
          [
            120.349747,
            22.569419
          ],
          [
            120.349649,
            22.569492
          ],
          [
            120.349575,
            22.569518
          ],
          [
            120.349488,
            22.569535
          ],
          [
            120.348618,
            22.569554
          ],
          [
            120.348079,
            22.569566
          ],
          [
            120.348076,
            22.569443
          ],
          [
            120.348073,
            22.569333
          ],
          [
            120.348335,
            22.569332
          ],
          [
            120.349118,
            22.569325
          ],
          [
            120.349177,
            22.569317
          ],
          [
            120.349277,
            22.569302
          ],
          [
            120.349412,
            22.569264
          ],
          [
            120.349538,
            22.569207
          ],
          [
            120.349646,
            22.569139
          ],
          [
            120.349745,
            22.569047
          ],
          [
            120.349787,
            22.569002
          ],
          [
            120.35036,
            22.568387
          ],
          [
            120.35051,
            22.568226
          ],
          [
            120.350841,
            22.56787
          ],
          [
            120.351059,
            22.567811
          ],
          [
            120.351336,
            22.5675
          ],
          [
            120.35237,
            22.566336
          ],
          [
            120.352272,
            22.566256
          ],
          [
            120.352204,
            22.566195
          ],
          [
            120.352129,
            22.566136
          ],
          [
            120.351955,
            22.565955
          ],
          [
            120.351833,
            22.565825
          ],
          [
            120.351706,
            22.56567
          ],
          [
            120.351618,
            22.565558
          ],
          [
            120.351604,
            22.56554
          ],
          [
            120.35128,
            22.565112
          ],
          [
            120.35106,
            22.565253
          ],
          [
            120.350872,
            22.565309
          ],
          [
            120.350705,
            22.565338
          ],
          [
            120.350496,
            22.565358
          ],
          [
            120.350137,
            22.565373
          ],
          [
            120.349702,
            22.565391
          ],
          [
            120.349461,
            22.565402
          ],
          [
            120.349217,
            22.565411
          ],
          [
            120.349174,
            22.565413
          ],
          [
            120.348702,
            22.565428
          ],
          [
            120.348704,
            22.565576
          ],
          [
            120.348702,
            22.565428
          ],
          [
            120.348074,
            22.565454
          ],
          [
            120.347914,
            22.565459
          ],
          [
            120.347294,
            22.565484
          ],
          [
            120.346933,
            22.565497
          ],
          [
            120.346877,
            22.565687
          ],
          [
            120.346829,
            22.565849
          ],
          [
            120.346032,
            22.565851
          ],
          [
            120.345919,
            22.565773
          ],
          [
            120.345881,
            22.565821
          ],
          [
            120.345476,
            22.566344
          ],
          [
            120.345447,
            22.566385
          ],
          [
            120.345304,
            22.566578
          ],
          [
            120.344802,
            22.567266
          ],
          [
            120.34476,
            22.567325
          ],
          [
            120.344641,
            22.567268
          ],
          [
            120.344576,
            22.567236
          ],
          [
            120.34454,
            22.567218
          ],
          [
            120.344259,
            22.567183
          ],
          [
            120.343881,
            22.56714
          ],
          [
            120.343322,
            22.567127
          ],
          [
            120.343348,
            22.566859
          ],
          [
            120.343322,
            22.567127
          ],
          [
            120.34215,
            22.567153
          ],
          [
            120.341269,
            22.567174
          ],
          [
            120.340606,
            22.567199
          ],
          [
            120.340219,
            22.56721
          ],
          [
            120.339924,
            22.567219
          ],
          [
            120.339824,
            22.567221
          ],
          [
            120.33974,
            22.567171
          ],
          [
            120.339679,
            22.567129
          ],
          [
            120.33976,
            22.567033
          ],
          [
            120.33942,
            22.566794
          ],
          [
            120.339313,
            22.566737
          ],
          [
            120.33942,
            22.566794
          ],
          [
            120.339041,
            22.567234
          ],
          [
            120.339236,
            22.567374
          ]
        ]
      },
      "properties": {
        "routeId": "kaohsiung-keb-7656-2c27a9",
        "city": "kaohsiung",
        "source_file": "kaohsiung/kaohsiung-keb-7656-2c27a9.geojson",
        "distance_km": 11.983,
        "duration_min": 25.756450000000005,
        "valhalla_config": "valhalla.json"
      }
    }
  ]
}