{
  "type": "FeatureCollection",
  "features": [
    {
      "type": "Feature",
      "geometry": {
        "type": "LineString",
        "coordinates": [
          [
            120.368469,
            22.622893
          ],
          [
            120.368323,
            22.62303
          ],
          [
            120.368566,
            22.623176
          ],
          [
            120.36866,
            22.623223
          ],
          [
            120.369097,
            22.623405
          ],
          [
            120.369502,
            22.623577
          ],
          [
            120.369637,
            22.623634
          ],
          [
            120.369844,
            22.623717
          ],
          [
            120.36989,
            22.623736
          ],
          [
            120.370196,
            22.623865
          ],
          [
            120.370446,
            22.623966
          ],
          [
            120.37075,
            22.624091
          ],
          [
            120.371058,
            22.62422
          ],
          [
            120.37125,
            22.624304
          ],
          [
            120.372118,
            22.624683
          ],
          [
            120.372466,
            22.624835
          ],
          [
            120.372718,
            22.624952
          ],
          [
            120.372779,
            22.624981
          ],
          [
            120.373377,
            22.624388
          ],
          [
            120.373448,
            22.62446
          ],
          [
            120.373742,
            22.624655
          ],
          [
            120.373683,
            22.624709
          ],
          [
            120.373394,
            22.625061
          ],
          [
            120.373279,
            22.625201
          ],
          [
            120.373549,
            22.62532
          ],
          [
            120.3737,
            22.625379
          ],
          [
            120.373827,
            22.62543
          ],
          [
            120.373991,
            22.625501
          ],
          [
            120.374096,
            22.625546
          ],
          [
            120.374196,
            22.625589
          ],
          [
            120.374537,
            22.625742
          ],
          [
            120.374736,
            22.625576
          ],
          [
            120.374537,
            22.625742
          ],
          [
            120.374869,
            22.625891
          ],
          [
            120.375033,
            22.625748
          ],
          [
            120.374869,
            22.625891
          ],
          [
            120.374953,
            22.625925
          ],
          [
            120.375114,
            22.62599
          ],
          [
            120.375457,
            22.626121
          ],
          [
            120.375871,
            22.626294
          ],
          [
            120.376169,
            22.626419
          ],
          [
            120.376372,
            22.62651
          ],
          [
            120.376589,
            22.626607
          ],
          [
            120.377145,
            22.626846
          ],
          [
            120.377608,
            22.627045
          ],
          [
            120.377688,
            22.626886
          ],
          [
            120.377608,
            22.627045
          ],
          [
            120.377938,
            22.627186
          ],
          [
            120.378038,
            22.627229
          ],
          [
            120.378168,
            22.627285
          ],
          [
            120.37824,
            22.627315
          ],
          [
            120.378642,
            22.627482
          ],
          [
            120.378801,
            22.627548
          ],
          [
            120.378878,
            22.62739
          ],
          [
            120.378801,
            22.627548
          ],
          [
            120.379113,
            22.627678
          ],
          [
            120.379159,
            22.627697
          ],
          [
            120.379232,
            22.627726
          ],
          [
            120.379831,
            22.627971
          ],
          [
            120.379833,
            22.627972
          ],
          [
            120.379911,
            22.628003
          ],
          [
            120.37999,
            22.628036
          ],
          [
            120.380449,
            22.628222
          ],
          [
            120.380859,
            22.628387
          ],
          [
            120.381284,
            22.628559
          ],
          [
            120.381428,
            22.628625
          ],
          [
            120.381676,
            22.628067
          ],
          [
            120.381877,
            22.627613
          ],
          [
            120.381351,
            22.627366
          ],
          [
            120.3813,
            22.627471
          ],
          [
            120.381351,
            22.627366
          ],
          [
            120.380906,
            22.627188
          ],
          [
            120.380794,
            22.627143
          ],
          [
            120.38046,
            22.627005
          ],
          [
            120.379899,
            22.626774
          ],
          [
            120.379672,
            22.62668
          ],
          [
            120.379415,
            22.626574
          ],
          [
            120.379301,
            22.626527
          ],
          [
            120.379139,
            22.62646
          ],
          [
            120.379035,
            22.626417
          ],
          [
            120.37899,
            22.626399
          ],
          [
            120.378688,
            22.62627
          ],
          [
            120.378648,
            22.626348
          ],
          [
            120.378443,
            22.626749
          ],
          [
            120.377881,
            22.626501
          ],
          [
            120.378014,
            22.626236
          ],
          [
            120.378081,
            22.626104
          ],
          [
            120.378122,
            22.626024
          ],
          [
            120.37767,
            22.625836
          ],
          [
            120.377627,
            22.625918
          ],
          [
            120.37767,
            22.625836
          ],
          [
            120.377107,
            22.625621
          ],
          [
            120.377087,
            22.625593
          ],
          [
            120.37707,
            22.625569
          ],
          [
            120.376992,
            22.625365
          ],
          [
            120.376882,
            22.624998
          ],
          [
            120.376831,
            22.625043
          ],
          [
            120.376882,
            22.624998
          ],
          [
            120.376822,
            22.624801
          ],
          [
            120.376821,
            22.624749
          ],
          [
            120.376805,
            22.6243
          ],
          [
            120.376754,
            22.62431
          ],
          [
            120.376805,
            22.6243
          ],
          [
            120.3768,
            22.623906
          ],
          [
            120.376792,
            22.623553
          ],
          [
            120.376789,
            22.62351
          ],
          [
            120.376724,
            22.623479
          ],
          [
            120.376789,
            22.62351
          ],
          [
            120.376767,
            22.623174
          ],
          [
            120.376765,
            22.623141
          ],
          [
            120.376768,
            22.622995
          ],
          [
            120.376774,
            22.622682
          ],
          [
            120.376787,
            22.622546
          ],
          [
            120.376772,
            22.622365
          ],
          [
            120.376771,
            22.622296
          ],
          [
            120.376758,
            22.621775
          ],
          [
            120.376751,
            22.62129
          ],
          [
            120.376751,
            22.621268
          ],
          [
            120.37674,
            22.621222
          ],
          [
            120.376721,
            22.621186
          ],
          [
            120.376475,
            22.620976
          ],
          [
            120.37589,
            22.620467
          ],
          [
            120.375488,
            22.620117
          ],
          [
            120.375389,
            22.620028
          ],
          [
            120.374929,
            22.619618
          ],
          [
            120.374872,
            22.619572
          ],
          [
            120.37481,
            22.619543
          ],
          [
            120.374727,
            22.619523
          ],
          [
            120.374626,
            22.619518
          ],
          [
            120.374388,
            22.619507
          ],
          [
            120.374045,
            22.619491
          ],
          [
            120.373694,
            22.619464
          ],
          [
            120.373374,
            22.61944
          ],
          [
            120.373336,
            22.619718
          ],
          [
            120.37332,
            22.61976
          ],
          [
            120.373292,
            22.619833
          ],
          [
            120.373282,
            22.619894
          ],
          [
            120.373247,
            22.620115
          ],
          [
            120.373134,
            22.620904
          ],
          [
            120.373052,
            22.62169
          ],
          [
            120.373032,
            22.621886
          ],
          [
            120.373011,
            22.622091
          ],
          [
            120.372999,
            22.622204
          ],
          [
            120.372988,
            22.622309
          ],
          [
            120.372979,
            22.622382
          ],
          [
            120.372968,
            22.622436
          ],
          [
            120.372916,
            22.622717
          ],
          [
            120.372885,
            22.622893
          ],
          [
            120.372786,
            22.623331
          ],
          [
            120.372613,
            22.624155
          ],
          [
            120.372597,
            22.624232
          ],
          [
            120.372532,
            22.624532
          ],
          [
            120.372494,
            22.624704
          ],
          [
            120.372466,
            22.624835
          ],
          [
            120.372406,
            22.62497
          ],
          [
            120.372166,
            22.624868
          ],
          [
            120.372048,
            22.624818
          ],
          [
            120.371482,
            22.624577
          ],
          [
            120.37074,
            22.624259
          ],
          [
            120.370353,
            22.624976
          ],
          [
            120.370454,
            22.625015
          ],
          [
            120.370564,
            22.625092
          ],
          [
            120.370582,
            22.625114
          ],
          [
            120.370577,
            22.625147
          ],
          [
            120.370365,
            22.625317
          ],
          [
            120.369876,
            22.625712
          ],
          [
            120.370155,
            22.625959
          ],
          [
            120.370753,
            22.626489
          ],
          [
            120.371287,
            22.626912
          ],
          [
            120.371485,
            22.627071
          ],
          [
            120.3714,
            22.62714
          ],
          [
            120.371279,
            22.627302
          ],
          [
            120.371391,
            22.627422
          ],
          [
            120.371423,
            22.627491
          ],
          [
            120.371451,
            22.627572
          ],
          [
            120.371497,
            22.627641
          ],
          [
            120.371751,
            22.627869
          ],
          [
            120.371364,
            22.628185
          ],
          [
            120.370978,
            22.628494
          ],
          [
            120.371308,
            22.628773
          ],
          [
            120.370624,
            22.629541
          ],
          [
            120.370665,
            22.629697
          ],
          [
            120.370658,
            22.630044
          ],
          [
            120.370669,
            22.630498
          ],
          [
            120.370658,
            22.630044
          ],
          [
            120.370665,
            22.629697
          ],
          [
            120.370624,
            22.629541
          ],
          [
            120.371308,
            22.628773
          ],
          [
            120.370978,
            22.628494
          ],
          [
            120.371364,
            22.628185
          ],
          [
            120.371751,
            22.627869
          ],
          [
            120.371824,
            22.627809
          ],
          [
            120.371986,
            22.627684
          ],
          [
            120.372139,
            22.62795
          ],
          [
            120.372199,
            22.627918
          ],
          [
            120.37234,
            22.627898
          ],
          [
            120.373764,
            22.627848
          ],
          [
            120.373838,
            22.627845
          ],
          [
            120.373836,
            22.627805
          ],
          [
            120.373794,
            22.626914
          ],
          [
            120.374104,
            22.626911
          ],
          [
            120.374132,
            22.626922
          ],
          [
            120.374175,
            22.626973
          ],
          [
            120.375186,
            22.626481
          ],
          [
            120.375208,
            22.626459
          ],
          [
            120.375399,
            22.626264
          ],
          [
            120.375284,
            22.62621
          ],
          [
            120.375063,
            22.626111
          ],
          [
            120.374884,
            22.626041
          ],
          [
            120.37481,
            22.626012
          ],
          [
            120.37403,
            22.625669
          ],
          [
            120.373769,
            22.625555
          ],
          [
            120.37364,
            22.625505
          ],
          [
            120.37347,
            22.625438
          ],
          [
            120.372701,
            22.625105
          ],
          [
            120.372652,
            22.625082
          ],
          [
            120.372406,
            22.62497
          ],
          [
            120.372466,
            22.624835
          ],
          [
            120.372494,
            22.624704
          ],
          [
            120.372532,
            22.624532
          ],
          [
            120.372597,
            22.624232
          ],
          [
            120.372613,
            22.624155
          ],
          [
            120.372786,
            22.623331
          ],
          [
            120.372885,
            22.622893
          ],
          [
            120.372916,
            22.622717
          ],
          [
            120.372968,
            22.622436
          ],
          [
            120.372979,
            22.622382
          ],
          [
            120.372988,
            22.622309
          ],
          [
            120.373105,
            22.622319
          ],
          [
            120.374015,
            22.622392
          ],
          [
            120.374516,
            22.622374
          ],
          [
            120.374722,
            22.622367
          ],
          [
            120.375044,
            22.622352
          ],
          [
            120.37567,
            22.622324
          ],
          [
            120.375743,
            22.622322
          ],
          [
            120.376229,
            22.62231
          ],
          [
            120.376771,
            22.622296
          ],
          [
            120.377241,
            22.62228
          ],
          [
            120.377237,
            22.622178
          ],
          [
            120.377241,
            22.62228
          ],
          [
            120.377838,
            22.622287
          ],
          [
            120.378166,
            22.622291
          ],
          [
            120.378484,
            22.622261
          ],
          [
            120.378484,
            22.622327
          ],
          [
            120.378171,
            22.622351
          ],
          [
            120.377243,
            22.622352
          ],
          [
            120.376964,
            22.62236
          ],
          [
            120.376772,
            22.622365
          ],
          [
            120.376193,
            22.622379
          ],
          [
            120.375743,
            22.622389
          ],
          [
            120.375669,
            22.62239
          ],
          [
            120.374861,
            22.622428
          ],
          [
            120.374725,
            22.622434
          ],
          [
            120.374015,
            22.622458
          ],
          [
            120.373574,
            22.622426
          ],
          [
            120.373099,
            22.622391
          ],
          [
            120.372979,
            22.622382
          ],
          [
            120.372913,
            22.622377
          ],
          [
            120.372869,
            22.622373
          ],
          [
            120.372642,
            22.622355
          ],
          [
            120.372299,
            22.622327
          ],
          [
            120.372179,
            22.622442
          ],
          [
            120.372299,
            22.622327
          ],
          [
            120.371949,
            22.622308
          ],
          [
            120.371715,
            22.622283
          ],
          [
            120.371593,
            22.622393
          ],
          [
            120.371715,
            22.622283
          ],
          [
            120.37115,
            22.622234
          ],
          [
            120.370895,
            22.622214
          ],
          [
            120.37051,
            22.622183
          ],
          [
            120.370281,
            22.622164
          ],
          [
            120.36984,
            22.62213
          ],
          [
            120.369757,
            22.622123
          ],
          [
            120.369392,
            22.622094
          ],
          [
            120.369331,
            22.622089
          ],
          [
            120.369241,
            22.622083
          ],
          [
            120.369151,
            22.622077
          ],
          [
            120.369044,
            22.62207
          ],
          [
            120.369003,
            22.622108
          ],
          [
            120.368892,
            22.622208
          ],
          [
            120.368878,
            22.622221
          ],
          [
            120.368421,
            22.622635
          ],
          [
            120.368249,
            22.622791
          ],
          [
            120.368128,
            22.622901
          ],
          [
            120.368032,
            22.622975
          ],
          [
            120.36785,
            22.623075
          ],
          [
            120.367349,
            22.623351
          ],
          [
            120.366504,
            22.623817
          ],
          [
            120.366369,
            22.623891
          ],
          [
            120.366236,
            22.623966
          ],
          [
            120.366179,
            22.623997
          ],
          [
            120.36593,
            22.624129
          ],
          [
            120.365817,
            22.62419
          ],
          [
            120.365758,
            22.624218
          ],
          [
            120.365257,
            22.624461
          ],
          [
            120.365229,
            22.624476
          ],
          [
            120.365016,
            22.624584
          ],
          [
            120.365005,
            22.62459
          ],
          [
            120.364986,
            22.6246
          ],
          [
            120.364941,
            22.624623
          ],
          [
            120.364821,
            22.624687
          ],
          [
            120.364786,
            22.624705
          ],
          [
            120.364506,
            22.624854
          ],
          [
            120.364225,
            22.625003
          ],
          [
            120.364169,
            22.625023
          ],
          [
            120.363971,
            22.625092
          ],
          [
            120.363951,
            22.625097
          ],
          [
            120.363788,
            22.625138
          ],
          [
            120.363472,
            22.625218
          ],
          [
            120.363331,
            22.625248
          ],
          [
            120.362944,
            22.625335
          ],
          [
            120.362785,
            22.625357
          ],
          [
            120.36269,
            22.625372
          ],
          [
            120.362636,
            22.625383
          ],
          [
            120.362531,
            22.625403
          ],
          [
            120.36217,
            22.625475
          ],
          [
            120.36198,
            22.625513
          ],
          [
            120.361847,
            22.625396
          ],
          [
            120.361598,
            22.625175
          ],
          [
            120.361116,
            22.624652
          ],
          [
            120.360616,
            22.624109
          ],
          [
            120.360109,
            22.623596
          ],
          [
            120.35973,
            22.623212
          ],
          [
            120.358877,
            22.622328
          ],
          [
            120.358819,
            22.622268
          ],
          [
            120.35836,
            22.621855
          ],
          [
            120.358108,
            22.621734
          ],
          [
            120.35795,
            22.621665
          ],
          [
            120.357676,
            22.621539
          ],
          [
            120.357573,
            22.621495
          ],
          [
            120.357369,
            22.621372
          ],
          [
            120.357321,
            22.621334
          ],
          [
            120.357064,
            22.621011
          ],
          [
            120.356917,
            22.620819
          ],
          [
            120.356679,
            22.620521
          ],
          [
            120.356297,
            22.620048
          ],
          [
            120.3561,
            22.619798
          ],
          [
            120.355872,
            22.619494
          ],
          [
            120.355728,
            22.619291
          ],
          [
            120.355604,
            22.619121
          ],
          [
            120.3555,
            22.618975
          ],
          [
            120.355433,
            22.618884
          ],
          [
            120.355211,
            22.618583
          ],
          [
            120.355117,
            22.618462
          ],
          [
            120.35503,
            22.618348
          ],
          [
            120.354732,
            22.617931
          ],
          [
            120.354504,
            22.6176
          ],
          [
            120.355062,
            22.617195
          ],
          [
            120.355516,
            22.616933
          ],
          [
            120.35549,
            22.616855
          ],
          [
            120.355436,
            22.616691
          ],
          [
            120.355346,
            22.616506
          ],
          [
            120.355309,
            22.61646
          ],
          [
            120.354579,
            22.615534
          ],
          [
            120.354551,
            22.615499
          ],
          [
            120.354521,
            22.615522
          ],
          [
            120.353771,
            22.616108
          ],
          [
            120.353732,
            22.616138
          ],
          [
            120.353576,
            22.616253
          ],
          [
            120.353632,
            22.616334
          ],
          [
            120.35365,
            22.616366
          ],
          [
            120.353723,
            22.616478
          ],
          [
            120.354346,
            22.617373
          ],
          [
            120.353959,
            22.617391
          ],
          [
            120.353739,
            22.617527
          ],
          [
            120.353578,
            22.617521
          ],
          [
            120.35358,
            22.61784
          ],
          [
            120.353413,
            22.617923
          ],
          [
            120.352915,
            22.617923
          ],
          [
            120.353413,
            22.617923
          ],
          [
            120.35358,
            22.61784
          ],
          [
            120.353638,
            22.617811
          ],
          [
            120.353755,
            22.617813
          ],
          [
            120.353638,
            22.617811
          ],
          [
            120.35358,
            22.61784
          ],
          [
            120.353578,
            22.617521
          ],
          [
            120.353739,
            22.617527
          ],
          [
            120.353959,
            22.617391
          ],
          [
            120.354346,
            22.617373
          ],
          [
            120.354504,
            22.6176
          ],
          [
            120.354732,
            22.617931
          ],
          [
            120.35383,
            22.618284
          ],
          [
            120.354732,
            22.617931
          ],
          [
            120.354504,
            22.6176
          ],
          [
            120.354346,
            22.617373
          ],
          [
            120.353723,
            22.616478
          ],
          [
            120.35365,
            22.616366
          ],
          [
            120.353632,
            22.616334
          ],
          [
            120.353576,
            22.616253
          ],
          [
            120.353393,
            22.616377
          ],
          [
            120.352873,
            22.6167
          ],
          [
            120.352834,
            22.616724
          ],
          [
            120.352698,
            22.616809
          ],
          [
            120.352209,
            22.617117
          ],
          [
            120.351836,
            22.617352
          ],
          [
            120.351785,
            22.617385
          ],
          [
            120.351774,
            22.617392
          ],
          [
            120.351583,
            22.617512
          ],
          [
            120.351594,
            22.617575
          ],
          [
            120.351599,
            22.617601
          ],
          [
            120.351623,
            22.617735
          ],
          [
            120.35174,
            22.618243
          ],
          [
            120.351839,
            22.618672
          ],
          [
            120.351962,
            22.619157
          ],
          [
            120.35188,
            22.619202
          ],
          [
            120.351545,
            22.619401
          ],
          [
            120.351037,
            22.619703
          ],
          [
            120.351031,
            22.619707
          ],
          [
            120.350946,
            22.619752
          ],
          [
            120.351087,
            22.619986
          ],
          [
            120.351192,
            22.620199
          ],
          [
            120.351271,
            22.620164
          ],
          [
            120.351192,
            22.620199
          ],
          [
            120.351313,
            22.620445
          ],
          [
            120.351425,
            22.620673
          ],
          [
            120.351579,
            22.621003
          ],
          [
            120.351655,
            22.62099
          ],
          [
            120.351579,
            22.621003
          ],
          [
            120.351735,
            22.621336
          ],
          [
            120.351783,
            22.621438
          ],
          [
            120.351735,
            22.621336
          ],
          [
            120.35213,
            22.621197
          ],
          [
            120.352397,
            22.621144
          ],
          [
            120.352456,
            22.621365
          ],
          [
            120.35253,
            22.62154
          ],
          [
            120.352456,
            22.621365
          ],
          [
            120.352397,
            22.621144
          ],
          [
            120.352325,
            22.620875
          ],
          [
            120.352211,
            22.620895
          ],
          [
            120.352325,
            22.620875
          ],
          [
            120.352296,
            22.620765
          ],
          [
            120.352229,
            22.620445
          ],
          [
            120.352296,
            22.620765
          ],
          [
            120.352325,
            22.620875
          ],
          [
            120.351579,
            22.621003
          ],
          [
            120.351425,
            22.620673
          ],
          [
            120.351192,
            22.620199
          ],
          [
            120.351087,
            22.619986
          ],
          [
            120.350946,
            22.619752
          ],
          [
            120.351031,
            22.619707
          ],
          [
            120.351517,
            22.619418
          ],
          [
            120.351031,
            22.619707
          ],
          [
            120.350946,
            22.619752
          ],
          [
            120.350532,
            22.61997
          ],
          [
            120.350269,
            22.620006
          ],
          [
            120.350157,
            22.620009
          ],
          [
            120.349759,
            22.620021
          ]
        ]
      },
      "properties": {
        "routeId": "kaohsiung-keh-5331-737065",
        "city": "kaohsiung",
        "source_file": "kaohsiung/kaohsiung-keh-5331-737065.geojson",
        "distance_km": 13.695,
        "duration_min": 30.208716666666668,
        "valhalla_config": "valhalla.json"
      }
    }
  ]
}