{
  "type": "FeatureCollection",
  "features": [
    {
      "type": "Feature",
      "geometry": {
        "type": "LineString",
        "coordinates": [
          [
            120.41631,
            22.484765
          ],
          [
            120.416352,
            22.484804
          ],
          [
            120.416358,
            22.485087
          ],
          [
            120.416342,
            22.485469
          ],
          [
            120.416336,
            22.485849
          ],
          [
            120.41632,
            22.486101
          ],
          [
            120.416202,
            22.487306
          ],
          [
            120.416181,
            22.487653
          ],
          [
            120.416179,
            22.487744
          ],
          [
            120.41522,
            22.487765
          ],
          [
            120.414381,
            22.487754
          ],
          [
            120.413307,
            22.487741
          ],
          [
            120.412823,
            22.487742
          ],
          [
            120.411821,
            22.48775
          ],
          [
            120.411163,
            22.487748
          ],
          [
            120.411109,
            22.487749
          ],
          [
            120.410102,
            22.487753
          ],
          [
            120.40842,
            22.48778
          ],
          [
            120.40856,
            22.487439
          ],
          [
            120.40914,
            22.486025
          ],
          [
            120.409492,
            22.48509
          ],
          [
            120.409601,
            22.4848
          ],
          [
            120.409655,
            22.484665
          ],
          [
            120.40971,
            22.484454
          ],
          [
            120.409775,
            22.484085
          ],
          [
            120.409788,
            22.483964
          ],
          [
            120.409852,
            22.48337
          ],
          [
            120.409858,
            22.483293
          ],
          [
            120.411065,
            22.483437
          ],
          [
            120.41123,
            22.483456
          ],
          [
            120.411283,
            22.483464
          ],
          [
            120.411293,
            22.483467
          ],
          [
            120.411283,
            22.483464
          ],
          [
            120.41123,
            22.483456
          ],
          [
            120.411065,
            22.483437
          ],
          [
            120.409858,
            22.483293
          ],
          [
            120.40998,
            22.481582
          ],
          [
            120.409261,
            22.481655
          ],
          [
            120.40911,
            22.481678
          ],
          [
            120.408959,
            22.481721
          ],
          [
            120.408564,
            22.481882
          ],
          [
            120.408484,
            22.481914
          ],
          [
            120.408489,
            22.482367
          ],
          [
            120.40856,
            22.48234
          ],
          [
            120.408489,
            22.482367
          ],
          [
            120.408484,
            22.481914
          ],
          [
            120.408136,
            22.482088
          ],
          [
            120.407937,
            22.481828
          ],
          [
            120.408136,
            22.482088
          ],
          [
            120.408484,
            22.481914
          ],
          [
            120.408564,
            22.481882
          ],
          [
            120.408959,
            22.481721
          ],
          [
            120.40911,
            22.481678
          ],
          [
            120.409261,
            22.481655
          ],
          [
            120.40998,
            22.481582
          ],
          [
            120.409984,
            22.481541
          ],
          [
            120.410019,
            22.481219
          ],
          [
            120.410046,
            22.480977
          ],
          [
            120.410054,
            22.480904
          ],
          [
            120.410078,
            22.480685
          ],
          [
            120.410119,
            22.480389
          ],
          [
            120.410168,
            22.480031
          ],
          [
            120.410201,
            22.479791
          ],
          [
            120.410205,
            22.479759
          ],
          [
            120.409942,
            22.479745
          ],
          [
            120.409686,
            22.479729
          ],
          [
            120.40948,
            22.479671
          ],
          [
            120.409437,
            22.479642
          ],
          [
            120.409424,
            22.479605
          ],
          [
            120.409415,
            22.479494
          ],
          [
            120.409395,
            22.479464
          ],
          [
            120.409302,
            22.479439
          ],
          [
            120.409107,
            22.47943
          ],
          [
            120.408968,
            22.479464
          ],
          [
            120.408847,
            22.479533
          ],
          [
            120.408719,
            22.479666
          ],
          [
            120.408655,
            22.479699
          ],
          [
            120.408464,
            22.479734
          ],
          [
            120.408079,
            22.479745
          ],
          [
            120.408185,
            22.479648
          ],
          [
            120.408216,
            22.479581
          ],
          [
            120.408216,
            22.479474
          ],
          [
            120.408119,
            22.479092
          ],
          [
            120.408216,
            22.479474
          ],
          [
            120.408216,
            22.479581
          ],
          [
            120.408185,
            22.479648
          ],
          [
            120.408079,
            22.479745
          ],
          [
            120.408464,
            22.479734
          ],
          [
            120.408655,
            22.479699
          ],
          [
            120.408719,
            22.479666
          ],
          [
            120.408847,
            22.479533
          ],
          [
            120.408968,
            22.479464
          ],
          [
            120.409107,
            22.47943
          ],
          [
            120.409302,
            22.479439
          ],
          [
            120.409395,
            22.479464
          ],
          [
            120.409415,
            22.479494
          ],
          [
            120.409424,
            22.479605
          ],
          [
            120.409437,
            22.479642
          ],
          [
            120.40948,
            22.479671
          ],
          [
            120.409686,
            22.479729
          ],
          [
            120.409942,
            22.479745
          ],
          [
            120.410205,
            22.479759
          ],
          [
            120.410231,
            22.479576
          ],
          [
            120.410341,
            22.478868
          ],
          [
            120.410399,
            22.478345
          ],
          [
            120.410438,
            22.477957
          ],
          [
            120.410827,
            22.47798
          ],
          [
            120.411224,
            22.478004
          ],
          [
            120.411343,
            22.478051
          ],
          [
            120.412228,
            22.478505
          ],
          [
            120.412313,
            22.478385
          ],
          [
            120.412386,
            22.478315
          ],
          [
            120.41242,
            22.478292
          ],
          [
            120.412579,
            22.478166
          ],
          [
            120.412502,
            22.478123
          ],
          [
            120.412579,
            22.478166
          ],
          [
            120.412665,
            22.478214
          ],
          [
            120.413107,
            22.478297
          ],
          [
            120.413423,
            22.478297
          ],
          [
            120.413619,
            22.478181
          ],
          [
            120.413974,
            22.477792
          ],
          [
            120.414162,
            22.477396
          ],
          [
            120.414388,
            22.476972
          ],
          [
            120.414434,
            22.476756
          ],
          [
            120.414461,
            22.476633
          ],
          [
            120.414473,
            22.47658
          ],
          [
            120.414535,
            22.476388
          ],
          [
            120.414514,
            22.476325
          ],
          [
            120.414418,
            22.476239
          ],
          [
            120.413386,
            22.476152
          ],
          [
            120.413367,
            22.476484
          ],
          [
            120.413365,
            22.476969
          ],
          [
            120.412852,
            22.476994
          ],
          [
            120.412548,
            22.477012
          ],
          [
            120.412062,
            22.477041
          ],
          [
            120.411904,
            22.477062
          ],
          [
            120.411886,
            22.476947
          ],
          [
            120.411889,
            22.476782
          ],
          [
            120.411897,
            22.476672
          ],
          [
            120.411901,
            22.476616
          ],
          [
            120.411892,
            22.476448
          ],
          [
            120.411871,
            22.476283
          ],
          [
            120.411321,
            22.476402
          ],
          [
            120.410953,
            22.476487
          ],
          [
            120.410458,
            22.476602
          ],
          [
            120.410503,
            22.476791
          ],
          [
            120.410506,
            22.477
          ],
          [
            120.410503,
            22.477312
          ],
          [
            120.410492,
            22.477419
          ],
          [
            120.410209,
            22.477363
          ],
          [
            120.410152,
            22.477355
          ],
          [
            120.410039,
            22.477338
          ],
          [
            120.409428,
            22.477275
          ],
          [
            120.409154,
            22.477277
          ],
          [
            120.408853,
            22.47731
          ],
          [
            120.408713,
            22.477341
          ],
          [
            120.408584,
            22.477407
          ],
          [
            120.408487,
            22.477492
          ],
          [
            120.408251,
            22.477699
          ],
          [
            120.40804,
            22.477841
          ],
          [
            120.407997,
            22.47787
          ],
          [
            120.40778,
            22.477908
          ],
          [
            120.407309,
            22.477905
          ],
          [
            120.407121,
            22.477934
          ],
          [
            120.406996,
            22.477999
          ],
          [
            120.406853,
            22.478072
          ],
          [
            120.406683,
            22.478105
          ],
          [
            120.406557,
            22.47814
          ],
          [
            120.406519,
            22.478076
          ],
          [
            120.406499,
            22.478039
          ],
          [
            120.406519,
            22.478076
          ],
          [
            120.406557,
            22.47814
          ],
          [
            120.406441,
            22.47821
          ],
          [
            120.406368,
            22.478098
          ],
          [
            120.4063,
            22.477995
          ],
          [
            120.404931,
            22.478636
          ],
          [
            120.404467,
            22.478825
          ],
          [
            120.402397,
            22.479664
          ],
          [
            120.401427,
            22.480052
          ],
          [
            120.401345,
            22.480108
          ],
          [
            120.401241,
            22.480234
          ],
          [
            120.400504,
            22.481328
          ],
          [
            120.400455,
            22.48144
          ],
          [
            120.400424,
            22.481569
          ],
          [
            120.400388,
            22.482096
          ],
          [
            120.400571,
            22.482342
          ],
          [
            120.400632,
            22.48236
          ],
          [
            120.401054,
            22.482355
          ],
          [
            120.401139,
            22.482374
          ],
          [
            120.401204,
            22.482449
          ],
          [
            120.40124,
            22.482558
          ],
          [
            120.40124,
            22.482599
          ],
          [
            120.401298,
            22.482599
          ],
          [
            120.401902,
            22.482608
          ],
          [
            120.402133,
            22.4826
          ],
          [
            120.401902,
            22.482608
          ],
          [
            120.401298,
            22.482599
          ],
          [
            120.40124,
            22.482599
          ],
          [
            120.40124,
            22.482702
          ],
          [
            120.401231,
            22.482812
          ],
          [
            120.401188,
            22.483021
          ],
          [
            120.400801,
            22.484531
          ],
          [
            120.400805,
            22.485397
          ],
          [
            120.400226,
            22.485657
          ],
          [
            120.399543,
            22.485966
          ],
          [
            120.399601,
            22.486077
          ],
          [
            120.399625,
            22.486353
          ],
          [
            120.39964,
            22.486771
          ],
          [
            120.399658,
            22.486959
          ],
          [
            120.399702,
            22.487118
          ],
          [
            120.399738,
            22.487231
          ],
          [
            120.399748,
            22.487246
          ],
          [
            120.399738,
            22.487231
          ],
          [
            120.399702,
            22.487118
          ],
          [
            120.399658,
            22.486959
          ],
          [
            120.39964,
            22.486771
          ],
          [
            120.399625,
            22.486353
          ],
          [
            120.399601,
            22.486077
          ],
          [
            120.399543,
            22.485966
          ],
          [
            120.399372,
            22.486053
          ],
          [
            120.399308,
            22.486086
          ],
          [
            120.398971,
            22.486257
          ],
          [
            120.398889,
            22.486298
          ],
          [
            120.398579,
            22.486475
          ],
          [
            120.398468,
            22.486553
          ],
          [
            120.398436,
            22.486102
          ],
          [
            120.397862,
            22.486329
          ],
          [
            120.397619,
            22.486425
          ],
          [
            120.397681,
            22.486289
          ],
          [
            120.397756,
            22.486052
          ],
          [
            120.397775,
            22.485927
          ],
          [
            120.397774,
            22.485509
          ],
          [
            120.397779,
            22.485358
          ],
          [
            120.397783,
            22.48508
          ],
          [
            120.397783,
            22.48508
          ],
          [
            120.397934,
            22.484648
          ],
          [
            120.397964,
            22.484268
          ],
          [
            120.398125,
            22.483371
          ],
          [
            120.398131,
            22.483261
          ],
          [
            120.398132,
            22.483244
          ],
          [
            120.398109,
            22.483116
          ],
          [
            120.39803,
            22.482805
          ],
          [
            120.397791,
            22.482789
          ],
          [
            120.397734,
            22.482767
          ],
          [
            120.397704,
            22.482724
          ],
          [
            120.397659,
            22.482559
          ],
          [
            120.397628,
            22.48224
          ],
          [
            120.39753,
            22.482262
          ],
          [
            120.397255,
            22.482389
          ],
          [
            120.396999,
            22.482565
          ],
          [
            120.397091,
            22.482723
          ],
          [
            120.397117,
            22.48282
          ],
          [
            120.397123,
            22.482914
          ],
          [
            120.397111,
            22.482935
          ],
          [
            120.397057,
            22.482969
          ],
          [
            120.396782,
            22.483141
          ],
          [
            120.39675,
            22.483175
          ],
          [
            120.396751,
            22.483224
          ],
          [
            120.396818,
            22.483345
          ],
          [
            120.396828,
            22.483432
          ],
          [
            120.396914,
            22.48398
          ],
          [
            120.396547,
            22.484028
          ],
          [
            120.396562,
            22.484161
          ],
          [
            120.396581,
            22.484325
          ],
          [
            120.396622,
            22.484537
          ],
          [
            120.396661,
            22.484627
          ],
          [
            120.396712,
            22.484658
          ],
          [
            120.39673,
            22.484796
          ],
          [
            120.396872,
            22.485216
          ],
          [
            120.39694,
            22.485612
          ],
          [
            120.397016,
            22.485866
          ],
          [
            120.397084,
            22.486419
          ],
          [
            120.397166,
            22.487175
          ],
          [
            120.397169,
            22.487262
          ],
          [
            120.397382,
            22.48715
          ],
          [
            120.398468,
            22.486553
          ],
          [
            120.398643,
            22.487179
          ],
          [
            120.398361,
            22.487281
          ],
          [
            120.397476,
            22.4876
          ],
          [
            120.397322,
            22.487684
          ],
          [
            120.397476,
            22.4876
          ],
          [
            120.397853,
            22.488623
          ],
          [
            120.397952,
            22.488893
          ],
          [
            120.398013,
            22.489057
          ],
          [
            120.398098,
            22.48929
          ],
          [
            120.398192,
            22.489544
          ],
          [
            120.398243,
            22.489683
          ],
          [
            120.397524,
            22.489914
          ],
          [
            120.397114,
            22.490046
          ],
          [
            120.396259,
            22.490314
          ],
          [
            120.395925,
            22.490418
          ],
          [
            120.39571,
            22.489861
          ],
          [
            120.395567,
            22.48949
          ],
          [
            120.395755,
            22.489436
          ],
          [
            120.395567,
            22.48949
          ],
          [
            120.395537,
            22.489398
          ],
          [
            120.395425,
            22.489058
          ],
          [
            120.395546,
            22.489025
          ],
          [
            120.395425,
            22.489058
          ],
          [
            120.395537,
            22.489398
          ],
          [
            120.395567,
            22.48949
          ],
          [
            120.39571,
            22.489861
          ],
          [
            120.394722,
            22.49018
          ],
          [
            120.39419,
            22.490354
          ],
          [
            120.394153,
            22.490247
          ],
          [
            120.39419,
            22.490354
          ],
          [
            120.393351,
            22.490627
          ],
          [
            120.393279,
            22.490465
          ],
          [
            120.393209,
            22.490309
          ],
          [
            120.393152,
            22.490068
          ],
          [
            120.393123,
            22.489958
          ],
          [
            120.393125,
            22.48988
          ],
          [
            120.393159,
            22.489808
          ],
          [
            120.39325,
            22.489745
          ],
          [
            120.39389,
            22.489531
          ],
          [
            120.393946,
            22.489512
          ],
          [
            120.394122,
            22.489442
          ],
          [
            120.394004,
            22.489141
          ],
          [
            120.393867,
            22.48897
          ],
          [
            120.393574,
            22.488776
          ],
          [
            120.393505,
            22.488688
          ],
          [
            120.39347,
            22.488632
          ],
          [
            120.393285,
            22.488203
          ],
          [
            120.393123,
            22.487971
          ],
          [
            120.393014,
            22.487726
          ],
          [
            120.392904,
            22.487482
          ],
          [
            120.392797,
            22.487257
          ],
          [
            120.392772,
            22.48719
          ],
          [
            120.392758,
            22.487125
          ],
          [
            120.392772,
            22.48719
          ],
          [
            120.392797,
            22.487257
          ],
          [
            120.392904,
            22.487482
          ],
          [
            120.393014,
            22.487726
          ],
          [
            120.393123,
            22.487971
          ],
          [
            120.392786,
            22.488136
          ],
          [
            120.392436,
            22.488307
          ],
          [
            120.392405,
            22.48835
          ],
          [
            120.392399,
            22.488384
          ],
          [
            120.392405,
            22.48843
          ],
          [
            120.392432,
            22.488485
          ],
          [
            120.392374,
            22.488504
          ],
          [
            120.392353,
            22.488535
          ],
          [
            120.392353,
            22.488564
          ],
          [
            120.392575,
            22.489
          ],
          [
            120.392583,
            22.489022
          ],
          [
            120.392575,
            22.489
          ],
          [
            120.39347,
            22.488632
          ],
          [
            120.393505,
            22.488688
          ],
          [
            120.393574,
            22.488776
          ],
          [
            120.393867,
            22.48897
          ],
          [
            120.394004,
            22.489141
          ],
          [
            120.394122,
            22.489442
          ],
          [
            120.393946,
            22.489512
          ],
          [
            120.39389,
            22.489531
          ],
          [
            120.39325,
            22.489745
          ],
          [
            120.393159,
            22.489808
          ],
          [
            120.393125,
            22.48988
          ],
          [
            120.393123,
            22.489958
          ],
          [
            120.393152,
            22.490068
          ],
          [
            120.393209,
            22.490309
          ],
          [
            120.393279,
            22.490465
          ],
          [
            120.393351,
            22.490627
          ],
          [
            120.393585,
            22.491149
          ],
          [
            120.393024,
            22.491422
          ],
          [
            120.391529,
            22.492147
          ],
          [
            120.391464,
            22.492178
          ],
          [
            120.390057,
            22.492866
          ],
          [
            120.389161,
            22.491265
          ],
          [
            120.390057,
            22.492866
          ],
          [
            120.389634,
            22.493073
          ],
          [
            120.389399,
            22.493187
          ],
          [
            120.389634,
            22.493073
          ],
          [
            120.390057,
            22.492866
          ],
          [
            120.391464,
            22.492178
          ],
          [
            120.391529,
            22.492147
          ],
          [
            120.393024,
            22.491422
          ],
          [
            120.393585,
            22.491149
          ],
          [
            120.393792,
            22.491564
          ],
          [
            120.393824,
            22.491685
          ],
          [
            120.39384,
            22.49185
          ],
          [
            120.393826,
            22.492922
          ],
          [
            120.39392,
            22.494113
          ],
          [
            120.39396,
            22.494767
          ],
          [
            120.393973,
            22.495198
          ],
          [
            120.393968,
            22.495785
          ],
          [
            120.393952,
            22.496107
          ],
          [
            120.393874,
            22.497
          ],
          [
            120.393766,
            22.497927
          ],
          [
            120.393695,
            22.49856
          ],
          [
            120.393593,
            22.499108
          ],
          [
            120.393465,
            22.499718
          ],
          [
            120.393461,
            22.499741
          ],
          [
            120.393006,
            22.499682
          ],
          [
            120.393038,
            22.499513
          ],
          [
            120.393006,
            22.499682
          ],
          [
            120.393461,
            22.499741
          ],
          [
            120.393376,
            22.50004
          ],
          [
            120.393353,
            22.500135
          ],
          [
            120.393329,
            22.500224
          ],
          [
            120.391894,
            22.500096
          ],
          [
            120.390007,
            22.499928
          ],
          [
            120.389893,
            22.499925
          ],
          [
            120.389482,
            22.49992
          ],
          [
            120.389392,
            22.499919
          ],
          [
            120.388218,
            22.499998
          ],
          [
            120.387688,
            22.500038
          ],
          [
            120.386918,
            22.500198
          ],
          [
            120.386719,
            22.50025
          ],
          [
            120.386634,
            22.500275
          ],
          [
            120.386481,
            22.500319
          ],
          [
            120.385515,
            22.500719
          ],
          [
            120.385222,
            22.500881
          ],
          [
            120.385129,
            22.500941
          ],
          [
            120.384696,
            22.501223
          ],
          [
            120.384278,
            22.501501
          ],
          [
            120.384173,
            22.501576
          ],
          [
            120.384029,
            22.501689
          ],
          [
            120.383974,
            22.501759
          ],
          [
            120.383708,
            22.502252
          ],
          [
            120.383508,
            22.502618
          ],
          [
            120.38342,
            22.502745
          ],
          [
            120.383328,
            22.502849
          ],
          [
            120.383224,
            22.502958
          ],
          [
            120.383118,
            22.503042
          ],
          [
            120.382997,
            22.503126
          ],
          [
            120.382793,
            22.503227
          ],
          [
            120.382575,
            22.503314
          ],
          [
            120.382399,
            22.503366
          ],
          [
            120.382247,
            22.503387
          ],
          [
            120.382067,
            22.503396
          ],
          [
            120.381995,
            22.503398
          ],
          [
            120.38188,
            22.503403
          ],
          [
            120.381788,
            22.503407
          ],
          [
            120.380478,
            22.503501
          ],
          [
            120.378857,
            22.503776
          ],
          [
            120.377243,
            22.504066
          ],
          [
            120.376802,
            22.504151
          ],
          [
            120.375772,
            22.504349
          ],
          [
            120.374827,
            22.504515
          ],
          [
            120.374003,
            22.504659
          ],
          [
            120.373687,
            22.504714
          ],
          [
            120.372459,
            22.504961
          ],
          [
            120.372346,
            22.504985
          ],
          [
            120.372143,
            22.505028
          ],
          [
            120.371901,
            22.505088
          ],
          [
            120.371664,
            22.50517
          ],
          [
            120.371277,
            22.505355
          ],
          [
            120.371352,
            22.505384
          ],
          [
            120.371493,
            22.505479
          ],
          [
            120.371932,
            22.505701
          ],
          [
            120.373179,
            22.506401
          ],
          [
            120.375043,
            22.507501
          ],
          [
            120.375204,
            22.507599
          ],
          [
            120.375275,
            22.507649
          ],
          [
            120.37536,
            22.507704
          ],
          [
            120.375516,
            22.507782
          ],
          [
            120.375699,
            22.507831
          ],
          [
            120.375846,
            22.507845
          ],
          [
            120.375976,
            22.50784
          ],
          [
            120.375889,
            22.508336
          ],
          [
            120.375741,
            22.508925
          ],
          [
            120.375725,
            22.50899
          ],
          [
            120.375659,
            22.509302
          ],
          [
            120.375584,
            22.509734
          ],
          [
            120.37552,
            22.510039
          ],
          [
            120.375288,
            22.510035
          ],
          [
            120.375106,
            22.51001
          ],
          [
            120.374819,
            22.50997
          ],
          [
            120.37459,
            22.50995
          ],
          [
            120.374342,
            22.50991
          ],
          [
            120.374235,
            22.509886
          ],
          [
            120.374228,
            22.509883
          ],
          [
            120.374235,
            22.509886
          ],
          [
            120.374342,
            22.50991
          ],
          [
            120.37459,
            22.50995
          ],
          [
            120.374819,
            22.50997
          ],
          [
            120.375106,
            22.51001
          ],
          [
            120.375288,
            22.510035
          ],
          [
            120.37552,
            22.510039
          ],
          [
            120.375584,
            22.509734
          ],
          [
            120.375659,
            22.509302
          ],
          [
            120.375725,
            22.50899
          ],
          [
            120.375741,
            22.508925
          ],
          [
            120.375889,
            22.508336
          ],
          [
            120.375976,
            22.50784
          ],
          [
            120.375846,
            22.507845
          ],
          [
            120.375699,
            22.507831
          ],
          [
            120.375516,
            22.507782
          ],
          [
            120.37536,
            22.507704
          ],
          [
            120.375275,
            22.507649
          ],
          [
            120.375204,
            22.507599
          ],
          [
            120.375043,
            22.507501
          ],
          [
            120.373179,
            22.506401
          ],
          [
            120.371932,
            22.505701
          ],
          [
            120.371493,
            22.505479
          ],
          [
            120.371352,
            22.505384
          ],
          [
            120.371277,
            22.505355
          ],
          [
            120.371168,
            22.505322
          ],
          [
            120.371625,
            22.505109
          ],
          [
            120.371869,
            22.505023
          ],
          [
            120.37212,
            22.504958
          ],
          [
            120.372331,
            22.504915
          ],
          [
            120.372445,
            22.504888
          ],
          [
            120.373749,
            22.504653
          ],
          [
            120.373992,
            22.504609
          ],
          [
            120.374814,
            22.504461
          ],
          [
            120.375531,
            22.504331
          ],
          [
            120.376791,
            22.504091
          ],
          [
            120.377232,
            22.504012
          ],
          [
            120.37849,
            22.503778
          ],
          [
            120.378853,
            22.503723
          ],
          [
            120.379617,
            22.503587
          ],
          [
            120.380476,
            22.503434
          ],
          [
            120.380478,
            22.503318
          ],
          [
            120.380483,
            22.503105
          ],
          [
            120.380499,
            22.502937
          ],
          [
            120.38051,
            22.502816
          ],
          [
            120.380521,
            22.502699
          ],
          [
            120.380553,
            22.502457
          ],
          [
            120.380615,
            22.502292
          ],
          [
            120.380665,
            22.502166
          ],
          [
            120.380732,
            22.502074
          ],
          [
            120.380899,
            22.501935
          ],
          [
            120.380943,
            22.501897
          ],
          [
            120.381112,
            22.501786
          ],
          [
            120.381227,
            22.501687
          ],
          [
            120.381269,
            22.501641
          ],
          [
            120.38128,
            22.501595
          ],
          [
            120.381287,
            22.501481
          ],
          [
            120.381293,
            22.500935
          ],
          [
            120.381296,
            22.500695
          ],
          [
            120.3813,
            22.500365
          ],
          [
            120.381304,
            22.49999
          ],
          [
            120.381307,
            22.499747
          ],
          [
            120.381308,
            22.499711
          ],
          [
            120.381311,
            22.499601
          ],
          [
            120.381325,
            22.499154
          ],
          [
            120.381339,
            22.498284
          ],
          [
            120.381744,
            22.498233
          ],
          [
            120.381962,
            22.498205
          ],
          [
            120.382058,
            22.498193
          ],
          [
            120.382143,
            22.498184
          ],
          [
            120.382333,
            22.498156
          ],
          [
            120.382406,
            22.498149
          ],
          [
            120.382799,
            22.498081
          ],
          [
            120.382887,
            22.498056
          ],
          [
            120.383398,
            22.497816
          ],
          [
            120.383943,
            22.497551
          ],
          [
            120.384309,
            22.497373
          ],
          [
            120.384341,
            22.497357
          ],
          [
            120.384536,
            22.497264
          ],
          [
            120.384897,
            22.497092
          ],
          [
            120.385233,
            22.49693
          ],
          [
            120.3864,
            22.496367
          ],
          [
            120.386006,
            22.495682
          ],
          [
            120.38599,
            22.495634
          ],
          [
            120.385969,
            22.495583
          ],
          [
            120.38538,
            22.494581
          ],
          [
            120.38534,
            22.494507
          ],
          [
            120.38527,
            22.494353
          ],
          [
            120.385226,
            22.494282
          ],
          [
            120.384933,
            22.493764
          ],
          [
            120.38476,
            22.493457
          ],
          [
            120.385226,
            22.494282
          ],
          [
            120.38527,
            22.494353
          ],
          [
            120.38534,
            22.494507
          ],
          [
            120.38538,
            22.494581
          ],
          [
            120.385969,
            22.495583
          ],
          [
            120.38599,
            22.495634
          ],
          [
            120.386006,
            22.495682
          ],
          [
            120.3864,
            22.496367
          ],
          [
            120.387877,
            22.495657
          ],
          [
            120.389979,
            22.499423
          ],
          [
            120.390076,
            22.49943
          ],
          [
            120.390442,
            22.499484
          ],
          [
            120.390836,
            22.499493
          ]
        ]
      },
      "properties": {
        "routeId": "kaohsiung-kem-0619-b542fa",
        "city": "kaohsiung",
        "source_file": "kaohsiung/kaohsiung-kem-0619-b542fa.geojson",
        "distance_km": 22.137,
        "duration_min": 41.0814,
        "valhalla_config": "valhalla.json"
      }
    }
  ]
}