{
  "type": "FeatureCollection",
  "features": [
    {
      "type": "Feature",
      "geometry": {
        "type": "LineString",
        "coordinates": [
          [
            120.354952,
            22.588149
          ],
          [
            120.354943,
            22.587927
          ],
          [
            120.354737,
            22.587936
          ],
          [
            120.354045,
            22.58797
          ],
          [
            120.354046,
            22.588036
          ],
          [
            120.354045,
            22.58797
          ],
          [
            120.354737,
            22.587936
          ],
          [
            120.354943,
            22.587927
          ],
          [
            120.354966,
            22.588478
          ],
          [
            120.354466,
            22.588492
          ],
          [
            120.354463,
            22.588422
          ],
          [
            120.354466,
            22.588492
          ],
          [
            120.354966,
            22.588478
          ],
          [
            120.354987,
            22.588986
          ],
          [
            120.355009,
            22.589493
          ],
          [
            120.355054,
            22.590566
          ],
          [
            120.355232,
            22.590539
          ],
          [
            120.355534,
            22.590494
          ],
          [
            120.355546,
            22.58996
          ],
          [
            120.355541,
            22.589747
          ],
          [
            120.355534,
            22.589466
          ],
          [
            120.355515,
            22.58897
          ],
          [
            120.355492,
            22.588464
          ],
          [
            120.35612,
            22.588446
          ],
          [
            120.35573,
            22.588457
          ],
          [
            120.355492,
            22.588464
          ],
          [
            120.355515,
            22.58897
          ],
          [
            120.355617,
            22.588968
          ],
          [
            120.355515,
            22.58897
          ],
          [
            120.355534,
            22.589466
          ],
          [
            120.355815,
            22.589452
          ],
          [
            120.356275,
            22.58943
          ],
          [
            120.356634,
            22.589413
          ],
          [
            120.356628,
            22.58927
          ],
          [
            120.356616,
            22.588945
          ],
          [
            120.356615,
            22.588919
          ],
          [
            120.356597,
            22.588432
          ],
          [
            120.355492,
            22.588464
          ],
          [
            120.35548,
            22.587996
          ],
          [
            120.355477,
            22.587878
          ],
          [
            120.356015,
            22.587864
          ],
          [
            120.356428,
            22.587854
          ],
          [
            120.356575,
            22.58785
          ],
          [
            120.356554,
            22.587287
          ],
          [
            120.356276,
            22.58729
          ],
          [
            120.35618,
            22.587292
          ],
          [
            120.356099,
            22.587293
          ],
          [
            120.356003,
            22.587294
          ],
          [
            120.355936,
            22.587295
          ],
          [
            120.355829,
            22.587296
          ],
          [
            120.355759,
            22.587297
          ],
          [
            120.35565,
            22.587299
          ],
          [
            120.355434,
            22.587302
          ],
          [
            120.355427,
            22.587204
          ],
          [
            120.355434,
            22.587302
          ],
          [
            120.355759,
            22.587297
          ],
          [
            120.355748,
            22.586916
          ],
          [
            120.355759,
            22.587297
          ],
          [
            120.355434,
            22.587302
          ],
          [
            120.355397,
            22.586747
          ],
          [
            120.356533,
            22.586707
          ],
          [
            120.356667,
            22.586705
          ],
          [
            120.356963,
            22.5867
          ],
          [
            120.356962,
            22.586576
          ],
          [
            120.35696,
            22.586253
          ],
          [
            120.356956,
            22.586148
          ],
          [
            120.35771,
            22.586117
          ],
          [
            120.357713,
            22.586351
          ],
          [
            120.357806,
            22.586349
          ],
          [
            120.357713,
            22.586351
          ],
          [
            120.35771,
            22.586117
          ],
          [
            120.357477,
            22.586127
          ],
          [
            120.356956,
            22.586148
          ],
          [
            120.356867,
            22.586149
          ],
          [
            120.356956,
            22.586148
          ],
          [
            120.35771,
            22.586117
          ],
          [
            120.357705,
            22.585839
          ],
          [
            120.357702,
            22.585674
          ],
          [
            120.357705,
            22.585839
          ],
          [
            120.35771,
            22.586117
          ],
          [
            120.358002,
            22.586111
          ],
          [
            120.35771,
            22.586117
          ],
          [
            120.357713,
            22.586351
          ],
          [
            120.35772,
            22.586685
          ],
          [
            120.358236,
            22.586675
          ],
          [
            120.35825,
            22.587294
          ],
          [
            120.358259,
            22.587657
          ],
          [
            120.358236,
            22.586675
          ],
          [
            120.358792,
            22.586664
          ],
          [
            120.358794,
            22.586738
          ],
          [
            120.358805,
            22.58701
          ],
          [
            120.358835,
            22.58797
          ],
          [
            120.358805,
            22.58701
          ],
          [
            120.358803,
            22.586956
          ],
          [
            120.358805,
            22.58701
          ],
          [
            120.358821,
            22.587533
          ],
          [
            120.358805,
            22.58701
          ],
          [
            120.358794,
            22.586738
          ],
          [
            120.358792,
            22.586664
          ],
          [
            120.359102,
            22.58666
          ],
          [
            120.359636,
            22.586653
          ],
          [
            120.359883,
            22.586649
          ],
          [
            120.36036,
            22.586642
          ],
          [
            120.360324,
            22.586315
          ],
          [
            120.360332,
            22.586249
          ],
          [
            120.36034,
            22.586186
          ],
          [
            120.360377,
            22.586027
          ],
          [
            120.36041,
            22.585874
          ],
          [
            120.360391,
            22.585651
          ],
          [
            120.360358,
            22.585596
          ],
          [
            120.3603,
            22.585572
          ],
          [
            120.360283,
            22.585395
          ],
          [
            120.360244,
            22.585178
          ],
          [
            120.360207,
            22.584975
          ],
          [
            120.359451,
            22.585002
          ],
          [
            120.35939,
            22.585004
          ],
          [
            120.358962,
            22.58502
          ],
          [
            120.358773,
            22.585027
          ],
          [
            120.358772,
            22.585172
          ],
          [
            120.358771,
            22.585497
          ],
          [
            120.358775,
            22.585746
          ],
          [
            120.358778,
            22.585928
          ],
          [
            120.358787,
            22.586409
          ],
          [
            120.358791,
            22.5866
          ],
          [
            120.358792,
            22.586664
          ],
          [
            120.358794,
            22.586738
          ],
          [
            120.358805,
            22.58701
          ],
          [
            120.359004,
            22.587008
          ],
          [
            120.358805,
            22.58701
          ],
          [
            120.358815,
            22.587335
          ],
          [
            120.358826,
            22.587667
          ],
          [
            120.358841,
            22.58816
          ],
          [
            120.358805,
            22.58701
          ],
          [
            120.358794,
            22.586738
          ],
          [
            120.358792,
            22.586664
          ],
          [
            120.359636,
            22.586653
          ],
          [
            120.360174,
            22.586645
          ],
          [
            120.36036,
            22.586642
          ],
          [
            120.360419,
            22.586906
          ],
          [
            120.360422,
            22.58696
          ],
          [
            120.360416,
            22.587011
          ],
          [
            120.3604,
            22.58708
          ],
          [
            120.360177,
            22.587037
          ],
          [
            120.36015,
            22.58702
          ],
          [
            120.360125,
            22.587006
          ],
          [
            120.360125,
            22.587006
          ],
          [
            120.360125,
            22.587006
          ],
          [
            120.36015,
            22.58702
          ],
          [
            120.360177,
            22.587037
          ],
          [
            120.3604,
            22.58708
          ],
          [
            120.360416,
            22.587011
          ],
          [
            120.360422,
            22.58696
          ],
          [
            120.360419,
            22.586906
          ],
          [
            120.36036,
            22.586642
          ],
          [
            120.359636,
            22.586653
          ],
          [
            120.359177,
            22.586659
          ],
          [
            120.359636,
            22.586653
          ],
          [
            120.36036,
            22.586642
          ],
          [
            120.360419,
            22.586906
          ],
          [
            120.360422,
            22.58696
          ],
          [
            120.360416,
            22.587011
          ],
          [
            120.3604,
            22.58708
          ],
          [
            120.360344,
            22.58732
          ],
          [
            120.3604,
            22.58708
          ],
          [
            120.360416,
            22.587011
          ],
          [
            120.360422,
            22.58696
          ],
          [
            120.360419,
            22.586906
          ],
          [
            120.36036,
            22.586642
          ],
          [
            120.361063,
            22.586633
          ],
          [
            120.361047,
            22.586104
          ],
          [
            120.361184,
            22.586103
          ],
          [
            120.361047,
            22.586104
          ],
          [
            120.361063,
            22.586633
          ],
          [
            120.361072,
            22.586949
          ],
          [
            120.361063,
            22.586633
          ],
          [
            120.362189,
            22.586602
          ],
          [
            120.362726,
            22.58657
          ],
          [
            120.363008,
            22.586548
          ],
          [
            120.362993,
            22.585809
          ],
          [
            120.362989,
            22.585643
          ],
          [
            120.362993,
            22.585809
          ],
          [
            120.362999,
            22.586107
          ],
          [
            120.363008,
            22.586548
          ],
          [
            120.362726,
            22.58657
          ],
          [
            120.362189,
            22.586602
          ],
          [
            120.361534,
            22.58662
          ],
          [
            120.362189,
            22.586602
          ],
          [
            120.362726,
            22.58657
          ],
          [
            120.363008,
            22.586548
          ],
          [
            120.363345,
            22.58652
          ],
          [
            120.363351,
            22.586651
          ],
          [
            120.363367,
            22.587019
          ],
          [
            120.36339,
            22.587519
          ],
          [
            120.363498,
            22.587514
          ],
          [
            120.36339,
            22.587519
          ],
          [
            120.363411,
            22.587958
          ],
          [
            120.363419,
            22.588136
          ],
          [
            120.363426,
            22.588297
          ],
          [
            120.363452,
            22.588846
          ],
          [
            120.363475,
            22.589367
          ],
          [
            120.364618,
            22.589349
          ],
          [
            120.365028,
            22.589344
          ],
          [
            120.365361,
            22.589337
          ],
          [
            120.36542,
            22.589336
          ],
          [
            120.365436,
            22.589336
          ],
          [
            120.36542,
            22.589336
          ],
          [
            120.365655,
            22.588668
          ],
          [
            120.365788,
            22.58826
          ],
          [
            120.365933,
            22.587677
          ],
          [
            120.366062,
            22.587159
          ],
          [
            120.3661,
            22.587007
          ],
          [
            120.366013,
            22.58696
          ],
          [
            120.36548,
            22.586965
          ],
          [
            120.365575,
            22.586451
          ],
          [
            120.36502,
            22.586473
          ],
          [
            120.364404,
            22.58649
          ],
          [
            120.36392,
            22.586503
          ],
          [
            120.363682,
            22.58651
          ],
          [
            120.363345,
            22.58652
          ],
          [
            120.363008,
            22.586548
          ],
          [
            120.362726,
            22.58657
          ],
          [
            120.362189,
            22.586602
          ],
          [
            120.36219,
            22.586879
          ],
          [
            120.36219,
            22.586997
          ],
          [
            120.36219,
            22.587189
          ],
          [
            120.362192,
            22.587754
          ],
          [
            120.362193,
            22.588316
          ],
          [
            120.362166,
            22.588876
          ],
          [
            120.362161,
            22.588982
          ],
          [
            120.362166,
            22.588876
          ],
          [
            120.361186,
            22.588904
          ],
          [
            120.362166,
            22.588876
          ],
          [
            120.36214,
            22.589402
          ],
          [
            120.362053,
            22.589407
          ],
          [
            120.360891,
            22.589475
          ],
          [
            120.360364,
            22.589498
          ],
          [
            120.360362,
            22.589977
          ],
          [
            120.360698,
            22.589958
          ],
          [
            120.361436,
            22.58992
          ],
          [
            120.361522,
            22.589918
          ],
          [
            120.362835,
            22.589887
          ],
          [
            120.364059,
            22.589882
          ],
          [
            120.36426,
            22.589885
          ],
          [
            120.364629,
            22.589891
          ],
          [
            120.364875,
            22.589899
          ],
          [
            120.365712,
            22.589893
          ],
          [
            120.36586,
            22.589512
          ],
          [
            120.365925,
            22.589345
          ],
          [
            120.366277,
            22.588434
          ],
          [
            120.366345,
            22.588251
          ],
          [
            120.366756,
            22.587185
          ],
          [
            120.36684,
            22.586968
          ],
          [
            120.366902,
            22.586806
          ],
          [
            120.366959,
            22.586679
          ],
          [
            120.367144,
            22.586421
          ],
          [
            120.367286,
            22.586212
          ],
          [
            120.367693,
            22.585682
          ],
          [
            120.367921,
            22.585383
          ],
          [
            120.36821,
            22.585
          ],
          [
            120.368356,
            22.584873
          ],
          [
            120.368288,
            22.585044
          ],
          [
            120.367958,
            22.58548
          ],
          [
            120.367771,
            22.585728
          ],
          [
            120.367363,
            22.586267
          ],
          [
            120.367075,
            22.586729
          ],
          [
            120.367007,
            22.586852
          ],
          [
            120.366457,
            22.588276
          ],
          [
            120.366056,
            22.58934
          ],
          [
            120.365851,
            22.589892
          ],
          [
            120.366878,
            22.589863
          ],
          [
            120.367359,
            22.589841
          ],
          [
            120.367521,
            22.589834
          ],
          [
            120.3681,
            22.589779
          ],
          [
            120.368816,
            22.589659
          ],
          [
            120.369138,
            22.589587
          ],
          [
            120.368789,
            22.589189
          ],
          [
            120.368609,
            22.589026
          ],
          [
            120.368451,
            22.588952
          ],
          [
            120.368241,
            22.588912
          ],
          [
            120.368118,
            22.588872
          ],
          [
            120.368016,
            22.588766
          ],
          [
            120.367928,
            22.588634
          ],
          [
            120.367885,
            22.588588
          ],
          [
            120.36778,
            22.588518
          ],
          [
            120.367751,
            22.588512
          ],
          [
            120.36778,
            22.588518
          ],
          [
            120.367885,
            22.588588
          ],
          [
            120.367928,
            22.588634
          ],
          [
            120.368016,
            22.588766
          ],
          [
            120.368118,
            22.588872
          ],
          [
            120.368241,
            22.588912
          ],
          [
            120.368451,
            22.588952
          ],
          [
            120.368609,
            22.589026
          ],
          [
            120.368789,
            22.589189
          ],
          [
            120.369138,
            22.589587
          ],
          [
            120.369337,
            22.589757
          ],
          [
            120.368848,
            22.589858
          ],
          [
            120.368236,
            22.589967
          ],
          [
            120.368139,
            22.589973
          ],
          [
            120.36754,
            22.590025
          ],
          [
            120.367097,
            22.590041
          ],
          [
            120.36689,
            22.590049
          ],
          [
            120.365757,
            22.590085
          ],
          [
            120.365595,
            22.590087
          ],
          [
            120.365654,
            22.58999
          ],
          [
            120.365712,
            22.589893
          ],
          [
            120.365925,
            22.589345
          ],
          [
            120.366277,
            22.588434
          ],
          [
            120.366345,
            22.588251
          ],
          [
            120.366457,
            22.588276
          ],
          [
            120.366756,
            22.58837
          ],
          [
            120.367137,
            22.587345
          ],
          [
            120.366756,
            22.58837
          ],
          [
            120.366457,
            22.588276
          ],
          [
            120.366119,
            22.589174
          ],
          [
            120.366056,
            22.58934
          ],
          [
            120.365851,
            22.589892
          ],
          [
            120.366533,
            22.589873
          ],
          [
            120.366878,
            22.589863
          ],
          [
            120.367359,
            22.589841
          ],
          [
            120.367521,
            22.589834
          ],
          [
            120.3681,
            22.589779
          ],
          [
            120.368816,
            22.589659
          ],
          [
            120.369138,
            22.589587
          ],
          [
            120.369337,
            22.589757
          ],
          [
            120.368848,
            22.589858
          ],
          [
            120.368236,
            22.589967
          ],
          [
            120.368139,
            22.589973
          ],
          [
            120.36754,
            22.590025
          ],
          [
            120.367097,
            22.590041
          ],
          [
            120.367082,
            22.590192
          ],
          [
            120.367086,
            22.590254
          ],
          [
            120.36711,
            22.590303
          ],
          [
            120.367192,
            22.590535
          ],
          [
            120.367206,
            22.590564
          ],
          [
            120.367241,
            22.590597
          ],
          [
            120.367337,
            22.59066
          ],
          [
            120.366782,
            22.590996
          ],
          [
            120.366459,
            22.591205
          ],
          [
            120.366359,
            22.591205
          ],
          [
            120.366356,
            22.591038
          ],
          [
            120.366359,
            22.591205
          ],
          [
            120.366013,
            22.591205
          ],
          [
            120.366008,
            22.591054
          ],
          [
            120.366013,
            22.591205
          ],
          [
            120.365638,
            22.591205
          ],
          [
            120.365631,
            22.591061
          ],
          [
            120.365638,
            22.591205
          ],
          [
            120.364653,
            22.591202
          ],
          [
            120.364656,
            22.591351
          ],
          [
            120.364653,
            22.591202
          ],
          [
            120.364643,
            22.590635
          ],
          [
            120.364819,
            22.59063
          ],
          [
            120.364643,
            22.590635
          ],
          [
            120.364633,
            22.590102
          ],
          [
            120.36452,
            22.590109
          ],
          [
            120.363938,
            22.590143
          ],
          [
            120.363762,
            22.590153
          ],
          [
            120.363583,
            22.590164
          ],
          [
            120.363317,
            22.59018
          ],
          [
            120.362849,
            22.590207
          ],
          [
            120.362869,
            22.590675
          ],
          [
            120.362994,
            22.590672
          ],
          [
            120.362869,
            22.590675
          ],
          [
            120.362881,
            22.590886
          ],
          [
            120.362903,
            22.59126
          ],
          [
            120.362908,
            22.591375
          ],
          [
            120.362915,
            22.591549
          ],
          [
            120.362926,
            22.59182
          ],
          [
            120.362942,
            22.592204
          ],
          [
            120.36294,
            22.59276
          ],
          [
            120.362836,
            22.592759
          ],
          [
            120.362845,
            22.59234
          ],
          [
            120.36284,
            22.592101
          ],
          [
            120.362832,
            22.591857
          ],
          [
            120.362817,
            22.59155
          ],
          [
            120.362804,
            22.591266
          ],
          [
            120.36276,
            22.590678
          ],
          [
            120.362742,
            22.590213
          ],
          [
            120.361505,
            22.590294
          ],
          [
            120.361189,
            22.590313
          ],
          [
            120.360719,
            22.590334
          ],
          [
            120.359542,
            22.590393
          ],
          [
            120.359205,
            22.590418
          ],
          [
            120.35917,
            22.590418
          ],
          [
            120.358997,
            22.590431
          ],
          [
            120.358807,
            22.590452
          ],
          [
            120.358693,
            22.590466
          ],
          [
            120.357593,
            22.590588
          ],
          [
            120.355693,
            22.590819
          ],
          [
            120.354429,
            22.590942
          ],
          [
            120.353618,
            22.591009
          ],
          [
            120.353483,
            22.591018
          ],
          [
            120.352961,
            22.591071
          ],
          [
            120.352882,
            22.591079
          ],
          [
            120.352774,
            22.59109
          ],
          [
            120.352004,
            22.591188
          ],
          [
            120.350754,
            22.59132
          ],
          [
            120.350119,
            22.591401
          ],
          [
            120.349895,
            22.59143
          ],
          [
            120.349433,
            22.591484
          ],
          [
            120.348237,
            22.591669
          ],
          [
            120.34759,
            22.591853
          ],
          [
            120.346938,
            22.592142
          ],
          [
            120.346815,
            22.592203
          ],
          [
            120.34658,
            22.592337
          ],
          [
            120.346281,
            22.592566
          ],
          [
            120.345917,
            22.5929
          ],
          [
            120.345555,
            22.593314
          ],
          [
            120.34554,
            22.593331
          ],
          [
            120.345466,
            22.593416
          ],
          [
            120.34539,
            22.593503
          ],
          [
            120.345349,
            22.59355
          ],
          [
            120.345321,
            22.593582
          ],
          [
            120.344416,
            22.594684
          ],
          [
            120.344148,
            22.595031
          ],
          [
            120.343794,
            22.595462
          ],
          [
            120.343452,
            22.595909
          ],
          [
            120.343195,
            22.59625
          ],
          [
            120.342537,
            22.597119
          ],
          [
            120.342359,
            22.596965
          ],
          [
            120.342737,
            22.596476
          ],
          [
            120.342306,
            22.596194
          ],
          [
            120.341884,
            22.595918
          ],
          [
            120.341542,
            22.595694
          ],
          [
            120.341456,
            22.595638
          ],
          [
            120.341431,
            22.595669
          ],
          [
            120.341154,
            22.596017
          ],
          [
            120.341138,
            22.596038
          ],
          [
            120.341084,
            22.596106
          ],
          [
            120.341036,
            22.596166
          ],
          [
            120.341017,
            22.59619
          ],
          [
            120.340873,
            22.596371
          ],
          [
            120.340939,
            22.596416
          ],
          [
            120.340873,
            22.596371
          ],
          [
            120.340728,
            22.596554
          ],
          [
            120.34085,
            22.596728
          ],
          [
            120.340935,
            22.596848
          ],
          [
            120.341658,
            22.597872
          ],
          [
            120.342062,
            22.597349
          ],
          [
            120.342253,
            22.597103
          ],
          [
            120.342359,
            22.596965
          ],
          [
            120.342737,
            22.596476
          ],
          [
            120.343013,
            22.596125
          ],
          [
            120.342595,
            22.595853
          ],
          [
            120.342179,
            22.595582
          ],
          [
            120.342241,
            22.595499
          ],
          [
            120.342402,
            22.595285
          ],
          [
            120.342559,
            22.595077
          ],
          [
            120.342684,
            22.59491
          ],
          [
            120.34277,
            22.594796
          ],
          [
            120.343611,
            22.595343
          ],
          [
            120.343911,
            22.594953
          ],
          [
            120.344148,
            22.594646
          ],
          [
            120.344042,
            22.594596
          ],
          [
            120.343936,
            22.594529
          ],
          [
            120.343687,
            22.594371
          ],
          [
            120.343441,
            22.59422
          ],
          [
            120.343306,
            22.594137
          ],
          [
            120.343216,
            22.594081
          ],
          [
            120.342865,
            22.593863
          ],
          [
            120.342697,
            22.594076
          ],
          [
            120.342865,
            22.593863
          ],
          [
            120.342689,
            22.593744
          ],
          [
            120.342024,
            22.593297
          ],
          [
            120.341705,
            22.593082
          ],
          [
            120.341325,
            22.592827
          ],
          [
            120.341306,
            22.592814
          ],
          [
            120.341266,
            22.592787
          ],
          [
            120.341142,
            22.592702
          ],
          [
            120.341101,
            22.592751
          ],
          [
            120.34095,
            22.592935
          ],
          [
            120.340801,
            22.593115
          ],
          [
            120.340751,
            22.593175
          ],
          [
            120.340648,
            22.593299
          ],
          [
            120.340764,
            22.593383
          ],
          [
            120.341181,
            22.593687
          ],
          [
            120.340978,
            22.59397
          ],
          [
            120.340849,
            22.59415
          ],
          [
            120.341132,
            22.594343
          ],
          [
            120.34164,
            22.594689
          ],
          [
            120.340849,
            22.59415
          ],
          [
            120.341181,
            22.593687
          ],
          [
            120.341454,
            22.593882
          ],
          [
            120.341955,
            22.59424
          ],
          [
            120.341181,
            22.593687
          ],
          [
            120.340903,
            22.593484
          ],
          [
            120.340764,
            22.593383
          ],
          [
            120.340648,
            22.593299
          ],
          [
            120.340437,
            22.593591
          ]
        ]
      },
      "properties": {
        "routeId": "kaohsiung-keb-6172-b5c27f",
        "city": "kaohsiung",
        "source_file": "kaohsiung/kaohsiung-keb-6172-b5c27f.geojson",
        "distance_km": 18.993000000000002,
        "duration_min": 43.293816666666665,
        "valhalla_config": "valhalla.json"
      }
    }
  ]
}