{
  "type": "FeatureCollection",
  "features": [
    {
      "type": "Feature",
      "geometry": {
        "type": "LineString",
        "coordinates": [
          [
            120.329255,
            22.652891
          ],
          [
            120.329356,
            22.652997
          ],
          [
            120.330014,
            22.653376
          ],
          [
            120.330112,
            22.653425
          ],
          [
            120.330158,
            22.653451
          ],
          [
            120.330478,
            22.653633
          ],
          [
            120.33066,
            22.653737
          ],
          [
            120.330876,
            22.654345
          ],
          [
            120.330919,
            22.654466
          ],
          [
            120.329864,
            22.654483
          ],
          [
            120.329855,
            22.654356
          ],
          [
            120.329833,
            22.654061
          ],
          [
            120.329788,
            22.654017
          ],
          [
            120.329742,
            22.653971
          ],
          [
            120.329626,
            22.653954
          ],
          [
            120.32955,
            22.653956
          ],
          [
            120.329237,
            22.653964
          ],
          [
            120.329236,
            22.654101
          ],
          [
            120.329234,
            22.654361
          ],
          [
            120.329227,
            22.655021
          ],
          [
            120.329637,
            22.655015
          ],
          [
            120.329778,
            22.654962
          ],
          [
            120.32984,
            22.654917
          ],
          [
            120.329778,
            22.654962
          ],
          [
            120.329637,
            22.655015
          ],
          [
            120.329625,
            22.655513
          ],
          [
            120.329639,
            22.655981
          ],
          [
            120.329662,
            22.656454
          ],
          [
            120.329669,
            22.657019
          ],
          [
            120.330361,
            22.657022
          ],
          [
            120.330652,
            22.657019
          ],
          [
            120.331019,
            22.657015
          ],
          [
            120.331477,
            22.657029
          ],
          [
            120.331742,
            22.657036
          ],
          [
            120.331477,
            22.657029
          ],
          [
            120.331019,
            22.657015
          ],
          [
            120.330976,
            22.657454
          ],
          [
            120.33097,
            22.657535
          ],
          [
            120.330931,
            22.657896
          ],
          [
            120.330962,
            22.657608
          ],
          [
            120.330923,
            22.657971
          ],
          [
            120.330901,
            22.658188
          ],
          [
            120.330808,
            22.658479
          ],
          [
            120.330699,
            22.658647
          ],
          [
            120.330577,
            22.658758
          ],
          [
            120.330407,
            22.658863
          ],
          [
            120.330198,
            22.65896
          ],
          [
            120.329529,
            22.65901
          ],
          [
            120.328701,
            22.659023
          ],
          [
            120.328237,
            22.659003
          ],
          [
            120.327727,
            22.658981
          ],
          [
            120.327479,
            22.658975
          ],
          [
            120.327283,
            22.658971
          ],
          [
            120.326879,
            22.65895
          ],
          [
            120.32668,
            22.658918
          ],
          [
            120.326445,
            22.658879
          ],
          [
            120.32627,
            22.658807
          ],
          [
            120.326163,
            22.658704
          ],
          [
            120.326062,
            22.658784
          ],
          [
            120.326163,
            22.658704
          ],
          [
            120.326114,
            22.658594
          ],
          [
            120.326114,
            22.658594
          ],
          [
            120.326105,
            22.658452
          ],
          [
            120.326183,
            22.657996
          ],
          [
            120.325974,
            22.657974
          ],
          [
            120.325438,
            22.657917
          ],
          [
            120.325497,
            22.657828
          ],
          [
            120.325507,
            22.657665
          ],
          [
            120.325464,
            22.657523
          ],
          [
            120.325362,
            22.657482
          ],
          [
            120.325802,
            22.657274
          ],
          [
            120.325849,
            22.657162
          ],
          [
            120.325901,
            22.657036
          ],
          [
            120.325927,
            22.656643
          ],
          [
            120.325827,
            22.65643
          ],
          [
            120.325755,
            22.65632
          ],
          [
            120.325733,
            22.656201
          ],
          [
            120.325746,
            22.656169
          ],
          [
            120.326281,
            22.656362
          ],
          [
            120.326452,
            22.656424
          ],
          [
            120.326658,
            22.656178
          ],
          [
            120.326658,
            22.656178
          ],
          [
            120.326658,
            22.656178
          ],
          [
            120.326452,
            22.656424
          ],
          [
            120.326372,
            22.656895
          ],
          [
            120.326792,
            22.656919
          ],
          [
            120.32675,
            22.657862
          ],
          [
            120.327328,
            22.657884
          ],
          [
            120.327773,
            22.657893
          ],
          [
            120.327776,
            22.657618
          ],
          [
            120.327773,
            22.657893
          ],
          [
            120.327328,
            22.657884
          ],
          [
            120.327315,
            22.658219
          ],
          [
            120.327309,
            22.658365
          ],
          [
            120.327315,
            22.658219
          ],
          [
            120.327328,
            22.657884
          ],
          [
            120.32675,
            22.657862
          ],
          [
            120.326209,
            22.657841
          ],
          [
            120.326256,
            22.657571
          ],
          [
            120.325464,
            22.657523
          ],
          [
            120.325362,
            22.657482
          ],
          [
            120.32548,
            22.65716
          ],
          [
            120.325529,
            22.656977
          ],
          [
            120.325497,
            22.656823
          ],
          [
            120.325255,
            22.655932
          ],
          [
            120.325185,
            22.655638
          ],
          [
            120.325495,
            22.655137
          ],
          [
            120.325624,
            22.655059
          ],
          [
            120.326055,
            22.654799
          ],
          [
            120.326372,
            22.654603
          ],
          [
            120.326459,
            22.654549
          ],
          [
            120.326778,
            22.654353
          ],
          [
            120.326829,
            22.654322
          ],
          [
            120.327065,
            22.654176
          ],
          [
            120.327295,
            22.654048
          ],
          [
            120.327676,
            22.653821
          ],
          [
            120.327885,
            22.653702
          ],
          [
            120.327978,
            22.653657
          ],
          [
            120.327912,
            22.653559
          ],
          [
            120.327692,
            22.653232
          ],
          [
            120.327496,
            22.653247
          ],
          [
            120.327301,
            22.653311
          ],
          [
            120.327133,
            22.653076
          ],
          [
            120.326653,
            22.653396
          ],
          [
            120.326498,
            22.653499
          ],
          [
            120.326231,
            22.653713
          ],
          [
            120.326104,
            22.653816
          ],
          [
            120.325875,
            22.653991
          ],
          [
            120.325593,
            22.654208
          ],
          [
            120.325132,
            22.654551
          ],
          [
            120.325051,
            22.65461
          ],
          [
            120.32488,
            22.654734
          ],
          [
            120.324601,
            22.654927
          ],
          [
            120.324515,
            22.654987
          ],
          [
            120.324289,
            22.655148
          ],
          [
            120.323992,
            22.655359
          ],
          [
            120.323608,
            22.65563
          ],
          [
            120.323324,
            22.655838
          ],
          [
            120.322745,
            22.656254
          ],
          [
            120.322538,
            22.656411
          ],
          [
            120.322258,
            22.656623
          ],
          [
            120.321961,
            22.65685
          ],
          [
            120.321594,
            22.657109
          ],
          [
            120.321545,
            22.65714
          ],
          [
            120.321436,
            22.657197
          ],
          [
            120.321507,
            22.657298
          ],
          [
            120.321679,
            22.65756
          ],
          [
            120.321733,
            22.657653
          ],
          [
            120.321859,
            22.657888
          ],
          [
            120.321888,
            22.65802
          ],
          [
            120.321895,
            22.658051
          ],
          [
            120.321906,
            22.658125
          ],
          [
            120.321913,
            22.658181
          ],
          [
            120.321995,
            22.659178
          ],
          [
            120.322048,
            22.659985
          ],
          [
            120.32205,
            22.660033
          ],
          [
            120.322059,
            22.66025
          ],
          [
            120.322274,
            22.660245
          ],
          [
            120.322309,
            22.660244
          ],
          [
            120.322691,
            22.66023
          ],
          [
            120.322994,
            22.660184
          ],
          [
            120.323121,
            22.660164
          ],
          [
            120.323726,
            22.660026
          ],
          [
            120.324382,
            22.65988
          ],
          [
            120.32499,
            22.659741
          ],
          [
            120.325683,
            22.659618
          ],
          [
            120.325884,
            22.6596
          ],
          [
            120.328685,
            22.659838
          ],
          [
            120.328692,
            22.659683
          ],
          [
            120.327693,
            22.659566
          ],
          [
            120.327704,
            22.659371
          ],
          [
            120.327693,
            22.659566
          ],
          [
            120.328692,
            22.659683
          ],
          [
            120.328685,
            22.659838
          ],
          [
            120.330905,
            22.660115
          ],
          [
            120.331248,
            22.65919
          ],
          [
            120.33135,
            22.659025
          ],
          [
            120.331547,
            22.658709
          ],
          [
            120.331693,
            22.658595
          ],
          [
            120.331992,
            22.65841
          ],
          [
            120.332631,
            22.657072
          ],
          [
            120.332879,
            22.656556
          ],
          [
            120.332918,
            22.656475
          ],
          [
            120.33295,
            22.656408
          ],
          [
            120.333126,
            22.656054
          ],
          [
            120.333602,
            22.654942
          ],
          [
            120.333813,
            22.654458
          ],
          [
            120.334471,
            22.654776
          ],
          [
            120.334938,
            22.655006
          ],
          [
            120.336053,
            22.655543
          ],
          [
            120.335808,
            22.655763
          ],
          [
            120.335513,
            22.656014
          ],
          [
            120.335453,
            22.656068
          ],
          [
            120.335175,
            22.656318
          ],
          [
            120.33511,
            22.656376
          ],
          [
            120.334494,
            22.656926
          ],
          [
            120.334293,
            22.657116
          ],
          [
            120.334195,
            22.657201
          ],
          [
            120.333911,
            22.657446
          ],
          [
            120.333629,
            22.657719
          ],
          [
            120.333484,
            22.657803
          ],
          [
            120.332941,
            22.658022
          ],
          [
            120.331992,
            22.65841
          ],
          [
            120.332631,
            22.657072
          ],
          [
            120.332879,
            22.656556
          ],
          [
            120.332002,
            22.656498
          ],
          [
            120.331753,
            22.656481
          ],
          [
            120.331758,
            22.65601
          ],
          [
            120.331448,
            22.656002
          ],
          [
            120.33112,
            22.655998
          ],
          [
            120.331171,
            22.655491
          ],
          [
            120.330715,
            22.655485
          ],
          [
            120.329986,
            22.655512
          ],
          [
            120.330064,
            22.655406
          ],
          [
            120.329986,
            22.655512
          ],
          [
            120.329788,
            22.65578
          ],
          [
            120.329705,
            22.655892
          ],
          [
            120.329639,
            22.655981
          ],
          [
            120.329662,
            22.656454
          ],
          [
            120.329669,
            22.657019
          ],
          [
            120.329499,
            22.657019
          ],
          [
            120.329503,
            22.65752
          ],
          [
            120.329507,
            22.658015
          ],
          [
            120.329426,
            22.658016
          ],
          [
            120.329425,
            22.657976
          ],
          [
            120.3293,
            22.657978
          ],
          [
            120.329096,
            22.657981
          ],
          [
            120.328709,
            22.657982
          ],
          [
            120.328699,
            22.657562
          ],
          [
            120.328686,
            22.657038
          ],
          [
            120.328699,
            22.657562
          ],
          [
            120.328709,
            22.657982
          ],
          [
            120.328721,
            22.658516
          ],
          [
            120.328701,
            22.659023
          ],
          [
            120.328692,
            22.659683
          ],
          [
            120.328685,
            22.659838
          ],
          [
            120.330905,
            22.660115
          ],
          [
            120.331248,
            22.65919
          ],
          [
            120.33135,
            22.659025
          ],
          [
            120.331547,
            22.658709
          ],
          [
            120.331693,
            22.658595
          ],
          [
            120.331992,
            22.65841
          ],
          [
            120.332941,
            22.658022
          ],
          [
            120.333484,
            22.657803
          ],
          [
            120.333629,
            22.657719
          ],
          [
            120.333911,
            22.657446
          ],
          [
            120.334195,
            22.657201
          ],
          [
            120.334293,
            22.657116
          ],
          [
            120.334494,
            22.656926
          ],
          [
            120.33511,
            22.656376
          ],
          [
            120.335175,
            22.656318
          ],
          [
            120.335453,
            22.656068
          ],
          [
            120.335513,
            22.656014
          ],
          [
            120.335808,
            22.655763
          ],
          [
            120.336053,
            22.655543
          ],
          [
            120.334938,
            22.655006
          ],
          [
            120.334471,
            22.654776
          ],
          [
            120.333813,
            22.654458
          ],
          [
            120.333258,
            22.65419
          ],
          [
            120.332892,
            22.654014
          ],
          [
            120.33254,
            22.65384
          ],
          [
            120.332255,
            22.653697
          ],
          [
            120.332351,
            22.65352
          ],
          [
            120.332255,
            22.653697
          ],
          [
            120.332078,
            22.65361
          ],
          [
            120.331391,
            22.653279
          ],
          [
            120.330608,
            22.652899
          ],
          [
            120.330465,
            22.65283
          ],
          [
            120.330354,
            22.652995
          ],
          [
            120.330465,
            22.65283
          ],
          [
            120.329929,
            22.652577
          ],
          [
            120.32932,
            22.652283
          ],
          [
            120.32892,
            22.652539
          ],
          [
            120.32857,
            22.652739
          ],
          [
            120.328433,
            22.652805
          ],
          [
            120.328405,
            22.652819
          ],
          [
            120.328334,
            22.652853
          ],
          [
            120.328356,
            22.652916
          ],
          [
            120.328363,
            22.652939
          ],
          [
            120.328474,
            22.653267
          ],
          [
            120.328611,
            22.653759
          ],
          [
            120.328617,
            22.653801
          ],
          [
            120.328644,
            22.653963
          ],
          [
            120.328652,
            22.654055
          ],
          [
            120.328523,
            22.654052
          ],
          [
            120.328471,
            22.654065
          ],
          [
            120.32836,
            22.654127
          ],
          [
            120.327925,
            22.654451
          ],
          [
            120.327708,
            22.654492
          ],
          [
            120.327568,
            22.654519
          ],
          [
            120.327468,
            22.654537
          ],
          [
            120.327451,
            22.654548
          ],
          [
            120.326639,
            22.655055
          ]
        ]
      },
      "properties": {
        "routeId": "kaohsiung-kef-5610-4db150",
        "city": "kaohsiung",
        "source_file": "kaohsiung/kaohsiung-kef-5610-4db150.geojson",
        "distance_km": 11.597,
        "duration_min": 28.21831666666667,
        "valhalla_config": "valhalla.json"
      }
    }
  ]
}