{
  "type": "FeatureCollection",
  "features": [
    {
      "type": "Feature",
      "geometry": {
        "type": "LineString",
        "coordinates": [
          [
            120.279507,
            22.599198
          ],
          [
            120.279786,
            22.598928
          ],
          [
            120.279859,
            22.598846
          ],
          [
            120.279884,
            22.598818
          ],
          [
            120.279935,
            22.59876
          ],
          [
            120.280069,
            22.598577
          ],
          [
            120.280148,
            22.598421
          ],
          [
            120.28027,
            22.598181
          ],
          [
            120.280381,
            22.597949
          ],
          [
            120.280497,
            22.597689
          ],
          [
            120.280657,
            22.59737
          ],
          [
            120.280786,
            22.597114
          ],
          [
            120.280925,
            22.59681
          ],
          [
            120.281049,
            22.596531
          ],
          [
            120.281112,
            22.596427
          ],
          [
            120.281149,
            22.596367
          ],
          [
            120.28126,
            22.596183
          ],
          [
            120.281338,
            22.596066
          ],
          [
            120.281706,
            22.595568
          ],
          [
            120.281783,
            22.595472
          ],
          [
            120.281963,
            22.5953
          ],
          [
            120.282086,
            22.595163
          ],
          [
            120.282298,
            22.594913
          ],
          [
            120.282506,
            22.594609
          ],
          [
            120.282583,
            22.594493
          ],
          [
            120.282781,
            22.594197
          ],
          [
            120.283016,
            22.593877
          ],
          [
            120.283342,
            22.593485
          ],
          [
            120.283366,
            22.593456
          ],
          [
            120.283678,
            22.59308
          ],
          [
            120.283876,
            22.592835
          ],
          [
            120.284039,
            22.592588
          ],
          [
            120.284113,
            22.592469
          ],
          [
            120.284239,
            22.592326
          ],
          [
            120.284336,
            22.592208
          ],
          [
            120.284681,
            22.591808
          ],
          [
            120.284871,
            22.591569
          ],
          [
            120.284992,
            22.591421
          ],
          [
            120.285115,
            22.591258
          ],
          [
            120.285188,
            22.591159
          ],
          [
            120.285309,
            22.590995
          ],
          [
            120.285372,
            22.590905
          ],
          [
            120.28544,
            22.590805
          ],
          [
            120.285553,
            22.590632
          ],
          [
            120.285652,
            22.590498
          ],
          [
            120.285679,
            22.590468
          ],
          [
            120.285714,
            22.590426
          ],
          [
            120.285783,
            22.590339
          ],
          [
            120.285798,
            22.590316
          ],
          [
            120.285896,
            22.590161
          ],
          [
            120.285913,
            22.590144
          ],
          [
            120.286298,
            22.589742
          ],
          [
            120.286444,
            22.589605
          ],
          [
            120.286551,
            22.589529
          ],
          [
            120.286897,
            22.589327
          ],
          [
            120.287238,
            22.589073
          ],
          [
            120.287357,
            22.588956
          ],
          [
            120.287551,
            22.588752
          ],
          [
            120.287961,
            22.588458
          ],
          [
            120.288017,
            22.588401
          ],
          [
            120.288086,
            22.588332
          ],
          [
            120.288264,
            22.58802
          ],
          [
            120.288609,
            22.587419
          ],
          [
            120.288819,
            22.58707
          ],
          [
            120.289063,
            22.586626
          ],
          [
            120.28917,
            22.586462
          ],
          [
            120.289219,
            22.586386
          ],
          [
            120.289277,
            22.58629
          ],
          [
            120.289352,
            22.585885
          ],
          [
            120.289407,
            22.585429
          ],
          [
            120.289476,
            22.585189
          ],
          [
            120.289641,
            22.584822
          ],
          [
            120.289862,
            22.584436
          ],
          [
            120.290117,
            22.584069
          ],
          [
            120.290176,
            22.583985
          ],
          [
            120.290386,
            22.583685
          ],
          [
            120.290658,
            22.583321
          ],
          [
            120.290725,
            22.58321
          ],
          [
            120.290868,
            22.582956
          ],
          [
            120.291039,
            22.582664
          ],
          [
            120.291125,
            22.582512
          ],
          [
            120.291174,
            22.582395
          ],
          [
            120.291247,
            22.582187
          ],
          [
            120.29139,
            22.582
          ],
          [
            120.291713,
            22.582164
          ],
          [
            120.29178,
            22.582208
          ],
          [
            120.291844,
            22.582278
          ],
          [
            120.291793,
            22.582379
          ],
          [
            120.291734,
            22.582495
          ],
          [
            120.29167,
            22.58258
          ],
          [
            120.291627,
            22.582623
          ],
          [
            120.291568,
            22.582681
          ],
          [
            120.291185,
            22.583103
          ],
          [
            120.291568,
            22.582681
          ],
          [
            120.291627,
            22.582623
          ],
          [
            120.29167,
            22.58258
          ],
          [
            120.291734,
            22.582495
          ],
          [
            120.291793,
            22.582379
          ],
          [
            120.291844,
            22.582278
          ],
          [
            120.291889,
            22.582318
          ],
          [
            120.292368,
            22.58259
          ],
          [
            120.292422,
            22.582541
          ],
          [
            120.292623,
            22.582291
          ],
          [
            120.292721,
            22.582168
          ],
          [
            120.292766,
            22.582114
          ],
          [
            120.292778,
            22.582102
          ],
          [
            120.292827,
            22.582052
          ],
          [
            120.292871,
            22.582017
          ],
          [
            120.292929,
            22.581985
          ],
          [
            120.293058,
            22.581882
          ],
          [
            120.292929,
            22.581985
          ],
          [
            120.292871,
            22.582017
          ],
          [
            120.292827,
            22.582052
          ],
          [
            120.292778,
            22.582102
          ],
          [
            120.292518,
            22.581944
          ],
          [
            120.292509,
            22.581925
          ],
          [
            120.292516,
            22.581899
          ],
          [
            120.292531,
            22.581885
          ],
          [
            120.291909,
            22.581386
          ],
          [
            120.29179,
            22.581533
          ],
          [
            120.291524,
            22.581842
          ],
          [
            120.29139,
            22.582
          ],
          [
            120.291247,
            22.582187
          ],
          [
            120.291174,
            22.582395
          ],
          [
            120.291125,
            22.582512
          ],
          [
            120.291039,
            22.582664
          ],
          [
            120.290868,
            22.582956
          ],
          [
            120.290725,
            22.58321
          ],
          [
            120.290658,
            22.583321
          ],
          [
            120.290386,
            22.583685
          ],
          [
            120.290117,
            22.584069
          ],
          [
            120.289862,
            22.584436
          ],
          [
            120.289641,
            22.584822
          ],
          [
            120.289476,
            22.585189
          ],
          [
            120.289798,
            22.585394
          ],
          [
            120.289826,
            22.585411
          ],
          [
            120.289894,
            22.585552
          ],
          [
            120.289946,
            22.585617
          ],
          [
            120.290091,
            22.585745
          ],
          [
            120.290344,
            22.585972
          ],
          [
            120.290377,
            22.586011
          ],
          [
            120.290394,
            22.586079
          ],
          [
            120.290407,
            22.586152
          ],
          [
            120.290321,
            22.586168
          ],
          [
            120.290407,
            22.586152
          ],
          [
            120.290606,
            22.587091
          ],
          [
            120.290651,
            22.5873
          ],
          [
            120.290651,
            22.587345
          ],
          [
            120.290622,
            22.58738
          ],
          [
            120.290486,
            22.587511
          ],
          [
            120.290622,
            22.58738
          ],
          [
            120.290651,
            22.587345
          ],
          [
            120.290651,
            22.5873
          ],
          [
            120.290407,
            22.586152
          ],
          [
            120.290394,
            22.586079
          ],
          [
            120.290377,
            22.586011
          ],
          [
            120.290344,
            22.585972
          ],
          [
            120.290091,
            22.585745
          ],
          [
            120.289946,
            22.585617
          ],
          [
            120.289894,
            22.585552
          ],
          [
            120.289826,
            22.585411
          ],
          [
            120.289798,
            22.585394
          ],
          [
            120.289476,
            22.585189
          ],
          [
            120.289407,
            22.585429
          ],
          [
            120.289352,
            22.585885
          ],
          [
            120.289277,
            22.58629
          ],
          [
            120.289219,
            22.586386
          ],
          [
            120.289063,
            22.586626
          ],
          [
            120.288819,
            22.58707
          ],
          [
            120.288609,
            22.587419
          ],
          [
            120.289047,
            22.587646
          ],
          [
            120.289077,
            22.587662
          ],
          [
            120.289154,
            22.587702
          ],
          [
            120.289269,
            22.587763
          ],
          [
            120.289154,
            22.587702
          ],
          [
            120.289077,
            22.587662
          ],
          [
            120.289047,
            22.587646
          ],
          [
            120.288609,
            22.587419
          ],
          [
            120.288264,
            22.58802
          ],
          [
            120.288086,
            22.588332
          ],
          [
            120.287961,
            22.588458
          ],
          [
            120.287551,
            22.588752
          ],
          [
            120.287459,
            22.588848
          ],
          [
            120.287357,
            22.588956
          ],
          [
            120.287238,
            22.589073
          ],
          [
            120.286897,
            22.589327
          ],
          [
            120.286551,
            22.589529
          ],
          [
            120.286444,
            22.589605
          ],
          [
            120.286298,
            22.589742
          ],
          [
            120.285896,
            22.590161
          ],
          [
            120.285798,
            22.590316
          ],
          [
            120.285783,
            22.590339
          ],
          [
            120.285714,
            22.590426
          ],
          [
            120.285665,
            22.590392
          ],
          [
            120.285636,
            22.590373
          ],
          [
            120.284818,
            22.589786
          ],
          [
            120.284773,
            22.589753
          ],
          [
            120.284711,
            22.589707
          ],
          [
            120.284482,
            22.589956
          ],
          [
            120.284433,
            22.590009
          ],
          [
            120.284215,
            22.590257
          ],
          [
            120.283668,
            22.590882
          ],
          [
            120.28319,
            22.591427
          ],
          [
            120.283149,
            22.591472
          ],
          [
            120.282689,
            22.591999
          ],
          [
            120.281552,
            22.593308
          ],
          [
            120.280716,
            22.594314
          ],
          [
            120.280091,
            22.595057
          ],
          [
            120.279793,
            22.59539
          ],
          [
            120.279738,
            22.595451
          ],
          [
            120.279688,
            22.595515
          ],
          [
            120.279537,
            22.595767
          ],
          [
            120.279332,
            22.596098
          ],
          [
            120.279162,
            22.596381
          ],
          [
            120.27889,
            22.596833
          ],
          [
            120.278879,
            22.596851
          ],
          [
            120.278963,
            22.596898
          ],
          [
            120.279051,
            22.596948
          ],
          [
            120.278963,
            22.596898
          ],
          [
            120.278879,
            22.596851
          ],
          [
            120.278832,
            22.59693
          ],
          [
            120.278506,
            22.597484
          ],
          [
            120.278208,
            22.59795
          ],
          [
            120.278129,
            22.598073
          ],
          [
            120.277784,
            22.598618
          ],
          [
            120.277659,
            22.598815
          ],
          [
            120.27754,
            22.598984
          ],
          [
            120.277478,
            22.599074
          ],
          [
            120.277433,
            22.599138
          ],
          [
            120.277264,
            22.599376
          ],
          [
            120.277491,
            22.599468
          ],
          [
            120.277629,
            22.599525
          ],
          [
            120.277824,
            22.599588
          ],
          [
            120.277853,
            22.599596
          ],
          [
            120.27792,
            22.59961
          ],
          [
            120.27828,
            22.599686
          ],
          [
            120.27833,
            22.599715
          ],
          [
            120.278366,
            22.599733
          ],
          [
            120.278447,
            22.599806
          ],
          [
            120.2785,
            22.599903
          ],
          [
            120.27858,
            22.599849
          ],
          [
            120.278647,
            22.599804
          ],
          [
            120.278435,
            22.59963
          ],
          [
            120.278781,
            22.599344
          ],
          [
            120.279475,
            22.598772
          ],
          [
            120.279596,
            22.598648
          ],
          [
            120.279198,
            22.598448
          ],
          [
            120.278781,
            22.598238
          ],
          [
            120.279198,
            22.598448
          ],
          [
            120.279169,
            22.598498
          ],
          [
            120.279118,
            22.598471
          ],
          [
            120.279059,
            22.598452
          ],
          [
            120.27899,
            22.598467
          ],
          [
            120.278958,
            22.598494
          ],
          [
            120.278933,
            22.598524
          ],
          [
            120.278889,
            22.598587
          ],
          [
            120.278858,
            22.598591
          ],
          [
            120.278812,
            22.598594
          ],
          [
            120.278776,
            22.598582
          ],
          [
            120.278724,
            22.59863
          ],
          [
            120.278708,
            22.598661
          ],
          [
            120.278685,
            22.598689
          ],
          [
            120.278664,
            22.598735
          ],
          [
            120.278639,
            22.598786
          ],
          [
            120.278664,
            22.598735
          ],
          [
            120.278588,
            22.598719
          ],
          [
            120.278543,
            22.598723
          ],
          [
            120.278493,
            22.59872
          ],
          [
            120.278353,
            22.598735
          ],
          [
            120.278305,
            22.598738
          ],
          [
            120.27827,
            22.598768
          ],
          [
            120.278242,
            22.598761
          ],
          [
            120.278185,
            22.598733
          ],
          [
            120.27813,
            22.598719
          ],
          [
            120.278083,
            22.598712
          ],
          [
            120.278033,
            22.598706
          ],
          [
            120.277975,
            22.598684
          ],
          [
            120.277784,
            22.598618
          ],
          [
            120.277659,
            22.598815
          ],
          [
            120.27754,
            22.598984
          ],
          [
            120.277478,
            22.599074
          ],
          [
            120.277433,
            22.599138
          ],
          [
            120.277264,
            22.599376
          ],
          [
            120.276873,
            22.599905
          ],
          [
            120.276636,
            22.600221
          ],
          [
            120.276389,
            22.600545
          ],
          [
            120.275884,
            22.601218
          ],
          [
            120.27573,
            22.601416
          ],
          [
            120.276096,
            22.601654
          ],
          [
            120.275962,
            22.601825
          ],
          [
            120.275705,
            22.602151
          ],
          [
            120.275662,
            22.602119
          ],
          [
            120.275584,
            22.602072
          ],
          [
            120.275365,
            22.601939
          ],
          [
            120.275263,
            22.602078
          ],
          [
            120.275219,
            22.602132
          ],
          [
            120.275069,
            22.602314
          ],
          [
            120.275008,
            22.602389
          ],
          [
            120.274914,
            22.602466
          ],
          [
            120.274779,
            22.602578
          ],
          [
            120.274896,
            22.602625
          ],
          [
            120.275387,
            22.602946
          ],
          [
            120.275161,
            22.603286
          ],
          [
            120.274952,
            22.603137
          ],
          [
            120.275161,
            22.603286
          ],
          [
            120.275387,
            22.602946
          ],
          [
            120.274896,
            22.602625
          ],
          [
            120.274779,
            22.602578
          ],
          [
            120.274718,
            22.602601
          ],
          [
            120.274131,
            22.602824
          ],
          [
            120.273976,
            22.602921
          ],
          [
            120.273921,
            22.602956
          ],
          [
            120.273744,
            22.603166
          ],
          [
            120.273474,
            22.603523
          ],
          [
            120.273284,
            22.603773
          ],
          [
            120.273257,
            22.603809
          ],
          [
            120.273224,
            22.60385
          ],
          [
            120.272722,
            22.604478
          ],
          [
            120.272364,
            22.604925
          ],
          [
            120.272319,
            22.604982
          ],
          [
            120.272273,
            22.605044
          ],
          [
            120.272034,
            22.605364
          ],
          [
            120.271824,
            22.60563
          ],
          [
            120.271716,
            22.605768
          ],
          [
            120.271827,
            22.605847
          ],
          [
            120.271716,
            22.605768
          ],
          [
            120.271407,
            22.606154
          ],
          [
            120.271105,
            22.606533
          ],
          [
            120.2712,
            22.606595
          ],
          [
            120.271105,
            22.606533
          ],
          [
            120.270873,
            22.606823
          ],
          [
            120.270809,
            22.606903
          ],
          [
            120.27068,
            22.607065
          ],
          [
            120.270647,
            22.607105
          ],
          [
            120.270728,
            22.60716
          ],
          [
            120.270933,
            22.6073
          ],
          [
            120.270728,
            22.60716
          ],
          [
            120.270647,
            22.607105
          ],
          [
            120.270495,
            22.607296
          ],
          [
            120.270334,
            22.607498
          ],
          [
            120.270217,
            22.607645
          ],
          [
            120.270049,
            22.607854
          ],
          [
            120.270174,
            22.607943
          ],
          [
            120.270049,
            22.607854
          ],
          [
            120.270217,
            22.607645
          ],
          [
            120.270334,
            22.607498
          ],
          [
            120.270495,
            22.607296
          ],
          [
            120.270647,
            22.607105
          ],
          [
            120.27068,
            22.607065
          ],
          [
            120.270809,
            22.606903
          ],
          [
            120.270873,
            22.606823
          ],
          [
            120.271105,
            22.606533
          ],
          [
            120.271407,
            22.606154
          ],
          [
            120.271716,
            22.605768
          ],
          [
            120.271824,
            22.60563
          ],
          [
            120.272034,
            22.605364
          ],
          [
            120.272273,
            22.605044
          ],
          [
            120.272319,
            22.604982
          ],
          [
            120.272364,
            22.604925
          ],
          [
            120.273224,
            22.60385
          ],
          [
            120.273257,
            22.603809
          ],
          [
            120.273284,
            22.603773
          ],
          [
            120.273744,
            22.603166
          ],
          [
            120.273921,
            22.602956
          ],
          [
            120.274131,
            22.602824
          ],
          [
            120.274718,
            22.602601
          ],
          [
            120.274779,
            22.602578
          ],
          [
            120.274914,
            22.602466
          ],
          [
            120.275008,
            22.602389
          ],
          [
            120.275069,
            22.602314
          ],
          [
            120.275263,
            22.602078
          ],
          [
            120.275365,
            22.601939
          ],
          [
            120.275545,
            22.601675
          ],
          [
            120.27573,
            22.601416
          ],
          [
            120.275884,
            22.601218
          ],
          [
            120.276389,
            22.600545
          ],
          [
            120.276636,
            22.600221
          ],
          [
            120.27764,
            22.600817
          ],
          [
            120.277909,
            22.600471
          ],
          [
            120.278316,
            22.600056
          ],
          [
            120.2785,
            22.599903
          ],
          [
            120.27858,
            22.599849
          ],
          [
            120.278647,
            22.599804
          ],
          [
            120.278941,
            22.599612
          ],
          [
            120.279205,
            22.59944
          ],
          [
            120.279494,
            22.59921
          ],
          [
            120.27955,
            22.599156
          ],
          [
            120.279786,
            22.598928
          ],
          [
            120.279884,
            22.598818
          ],
          [
            120.279935,
            22.59876
          ],
          [
            120.280069,
            22.598577
          ],
          [
            120.280148,
            22.598421
          ],
          [
            120.28027,
            22.598181
          ],
          [
            120.280381,
            22.597949
          ],
          [
            120.280497,
            22.597689
          ],
          [
            120.280786,
            22.597114
          ],
          [
            120.280925,
            22.59681
          ],
          [
            120.280863,
            22.596784
          ],
          [
            120.280925,
            22.59681
          ],
          [
            120.281028,
            22.596579
          ],
          [
            120.280925,
            22.59681
          ],
          [
            120.280786,
            22.597114
          ],
          [
            120.280497,
            22.597689
          ],
          [
            120.280381,
            22.597949
          ],
          [
            120.28027,
            22.598181
          ],
          [
            120.280148,
            22.598421
          ],
          [
            120.280069,
            22.598577
          ],
          [
            120.279935,
            22.59876
          ],
          [
            120.279884,
            22.598818
          ],
          [
            120.279786,
            22.598928
          ],
          [
            120.279494,
            22.59921
          ],
          [
            120.279205,
            22.59944
          ],
          [
            120.278727,
            22.599752
          ],
          [
            120.278647,
            22.599804
          ],
          [
            120.27858,
            22.599849
          ],
          [
            120.2785,
            22.599903
          ],
          [
            120.278316,
            22.600056
          ],
          [
            120.278006,
            22.600373
          ],
          [
            120.277909,
            22.600471
          ],
          [
            120.27764,
            22.600817
          ],
          [
            120.277534,
            22.600975
          ],
          [
            120.27747,
            22.601296
          ],
          [
            120.277426,
            22.601516
          ],
          [
            120.27738,
            22.601667
          ],
          [
            120.277329,
            22.601802
          ],
          [
            120.277237,
            22.601922
          ],
          [
            120.277145,
            22.60196
          ],
          [
            120.277111,
            22.601974
          ],
          [
            120.276551,
            22.602148
          ],
          [
            120.276206,
            22.602573
          ],
          [
            120.276088,
            22.602718
          ],
          [
            120.275723,
            22.603165
          ],
          [
            120.27652,
            22.603665
          ],
          [
            120.275896,
            22.603274
          ],
          [
            120.275723,
            22.603165
          ],
          [
            120.275489,
            22.603459
          ],
          [
            120.275279,
            22.603712
          ],
          [
            120.275162,
            22.603854
          ],
          [
            120.27506,
            22.60396
          ],
          [
            120.274849,
            22.604154
          ],
          [
            120.2746,
            22.604449
          ],
          [
            120.274504,
            22.604562
          ],
          [
            120.27441,
            22.604706
          ],
          [
            120.274088,
            22.605278
          ],
          [
            120.274072,
            22.605306
          ],
          [
            120.274011,
            22.605456
          ],
          [
            120.273994,
            22.605515
          ],
          [
            120.273965,
            22.605618
          ],
          [
            120.273923,
            22.605795
          ],
          [
            120.273888,
            22.60587
          ],
          [
            120.273821,
            22.605953
          ],
          [
            120.273668,
            22.606177
          ],
          [
            120.273418,
            22.606541
          ],
          [
            120.273114,
            22.606972
          ],
          [
            120.273082,
            22.607018
          ],
          [
            120.272998,
            22.607129
          ],
          [
            120.272821,
            22.607377
          ],
          [
            120.272742,
            22.607486
          ],
          [
            120.272729,
            22.607504
          ],
          [
            120.272641,
            22.607453
          ],
          [
            120.272729,
            22.607504
          ],
          [
            120.272742,
            22.607486
          ],
          [
            120.272821,
            22.607377
          ],
          [
            120.272998,
            22.607129
          ],
          [
            120.273082,
            22.607018
          ],
          [
            120.273114,
            22.606972
          ],
          [
            120.273326,
            22.606672
          ],
          [
            120.273418,
            22.606541
          ],
          [
            120.273821,
            22.605953
          ],
          [
            120.273888,
            22.60587
          ],
          [
            120.273923,
            22.605795
          ],
          [
            120.273965,
            22.605618
          ],
          [
            120.273994,
            22.605515
          ],
          [
            120.274011,
            22.605456
          ],
          [
            120.274072,
            22.605306
          ],
          [
            120.27441,
            22.604706
          ],
          [
            120.274504,
            22.604562
          ],
          [
            120.2746,
            22.604449
          ],
          [
            120.274849,
            22.604154
          ],
          [
            120.27506,
            22.60396
          ],
          [
            120.275162,
            22.603854
          ],
          [
            120.275279,
            22.603712
          ],
          [
            120.275446,
            22.60351
          ],
          [
            120.275489,
            22.603459
          ],
          [
            120.275623,
            22.60329
          ]
        ]
      },
      "properties": {
        "routeId": "kaohsiung-kem-0628-406de9",
        "city": "kaohsiung",
        "source_file": "kaohsiung/kaohsiung-kem-0628-406de9.geojson",
        "distance_km": 13.091,
        "duration_min": 23.525199999999995,
        "valhalla_config": "valhalla.json"
      }
    }
  ]
}