{
  "type": "FeatureCollection",
  "features": [
    {
      "type": "Feature",
      "geometry": {
        "type": "LineString",
        "coordinates": [
          [
            120.305238,
            22.631087
          ],
          [
            120.305823,
            22.631049
          ],
          [
            120.305876,
            22.631045
          ],
          [
            120.306038,
            22.631035
          ],
          [
            120.306135,
            22.631028
          ],
          [
            120.307147,
            22.630951
          ],
          [
            120.307181,
            22.630948
          ],
          [
            120.307307,
            22.630939
          ],
          [
            120.307393,
            22.630933
          ],
          [
            120.307601,
            22.630918
          ],
          [
            120.307942,
            22.630894
          ],
          [
            120.307968,
            22.630892
          ],
          [
            120.308122,
            22.630881
          ],
          [
            120.308113,
            22.630769
          ],
          [
            120.308111,
            22.630748
          ],
          [
            120.308061,
            22.630156
          ],
          [
            120.30804,
            22.629904
          ],
          [
            120.307996,
            22.629379
          ],
          [
            120.307937,
            22.628677
          ],
          [
            120.307906,
            22.628306
          ],
          [
            120.307937,
            22.628677
          ],
          [
            120.307996,
            22.629379
          ],
          [
            120.308563,
            22.629337
          ],
          [
            120.308487,
            22.628602
          ],
          [
            120.308563,
            22.629337
          ],
          [
            120.307996,
            22.629379
          ],
          [
            120.308038,
            22.629873
          ],
          [
            120.308111,
            22.630748
          ],
          [
            120.308113,
            22.630769
          ],
          [
            120.308122,
            22.630881
          ],
          [
            120.308135,
            22.63102
          ],
          [
            120.307981,
            22.631032
          ],
          [
            120.307623,
            22.631063
          ],
          [
            120.30747,
            22.631074
          ],
          [
            120.307409,
            22.631079
          ],
          [
            120.307319,
            22.631086
          ],
          [
            120.307194,
            22.631094
          ],
          [
            120.306206,
            22.631161
          ],
          [
            120.306144,
            22.631165
          ],
          [
            120.306045,
            22.631171
          ],
          [
            120.30589,
            22.631181
          ],
          [
            120.304893,
            22.631246
          ],
          [
            120.304843,
            22.63125
          ],
          [
            120.304655,
            22.631261
          ],
          [
            120.304528,
            22.631267
          ],
          [
            120.303091,
            22.631366
          ],
          [
            120.303004,
            22.631372
          ],
          [
            120.302914,
            22.631379
          ],
          [
            120.302657,
            22.631399
          ],
          [
            120.302618,
            22.631402
          ],
          [
            120.302168,
            22.631437
          ],
          [
            120.301991,
            22.631451
          ],
          [
            120.302044,
            22.631974
          ],
          [
            120.302039,
            22.632061
          ],
          [
            120.302113,
            22.632624
          ],
          [
            120.302132,
            22.632797
          ],
          [
            120.302135,
            22.632825
          ],
          [
            120.302148,
            22.632952
          ],
          [
            120.302154,
            22.633005
          ],
          [
            120.302166,
            22.633136
          ],
          [
            120.302271,
            22.634338
          ],
          [
            120.302273,
            22.634364
          ],
          [
            120.302293,
            22.634589
          ],
          [
            120.302114,
            22.634599
          ],
          [
            120.30199,
            22.634608
          ],
          [
            120.301961,
            22.63461
          ],
          [
            120.301591,
            22.634636
          ],
          [
            120.301234,
            22.634663
          ],
          [
            120.301195,
            22.634326
          ],
          [
            120.300514,
            22.63435
          ],
          [
            120.29923,
            22.633923
          ],
          [
            120.298202,
            22.633558
          ],
          [
            120.29923,
            22.633923
          ],
          [
            120.300514,
            22.63435
          ],
          [
            120.301195,
            22.634326
          ],
          [
            120.301234,
            22.634663
          ],
          [
            120.301591,
            22.634636
          ],
          [
            120.301961,
            22.63461
          ],
          [
            120.30199,
            22.634608
          ],
          [
            120.302114,
            22.634599
          ],
          [
            120.302093,
            22.634374
          ],
          [
            120.30198,
            22.633186
          ],
          [
            120.301977,
            22.633152
          ],
          [
            120.301962,
            22.633001
          ],
          [
            120.301944,
            22.632826
          ],
          [
            120.301865,
            22.632093
          ],
          [
            120.301861,
            22.632072
          ],
          [
            120.301835,
            22.631895
          ],
          [
            120.301786,
            22.631557
          ],
          [
            120.301766,
            22.631415
          ],
          [
            120.301754,
            22.631288
          ],
          [
            120.301706,
            22.630813
          ],
          [
            120.301703,
            22.630783
          ],
          [
            120.301623,
            22.630025
          ],
          [
            120.301541,
            22.629241
          ],
          [
            120.301529,
            22.629124
          ],
          [
            120.301513,
            22.628955
          ],
          [
            120.30144,
            22.62817
          ],
          [
            120.301382,
            22.62762
          ],
          [
            120.301378,
            22.627583
          ],
          [
            120.30136,
            22.627409
          ],
          [
            120.30117,
            22.627347
          ],
          [
            120.300585,
            22.627159
          ],
          [
            120.300546,
            22.627146
          ],
          [
            120.300488,
            22.627131
          ],
          [
            120.300463,
            22.627196
          ],
          [
            120.300434,
            22.627269
          ],
          [
            120.30012,
            22.628082
          ],
          [
            120.299926,
            22.628583
          ],
          [
            120.299592,
            22.628485
          ],
          [
            120.299251,
            22.628369
          ],
          [
            120.299565,
            22.627526
          ],
          [
            120.299251,
            22.628369
          ],
          [
            120.299592,
            22.628485
          ],
          [
            120.299926,
            22.628583
          ],
          [
            120.30077,
            22.628873
          ],
          [
            120.301107,
            22.628994
          ],
          [
            120.300918,
            22.629486
          ],
          [
            120.30075,
            22.629935
          ],
          [
            120.301171,
            22.630066
          ],
          [
            120.300886,
            22.630813
          ],
          [
            120.300831,
            22.630956
          ],
          [
            120.300825,
            22.630976
          ],
          [
            120.3012,
            22.631101
          ],
          [
            120.301267,
            22.631121
          ],
          [
            120.301691,
            22.631266
          ],
          [
            120.301754,
            22.631288
          ],
          [
            120.301706,
            22.630813
          ],
          [
            120.301703,
            22.630783
          ],
          [
            120.301623,
            22.630025
          ],
          [
            120.301599,
            22.629799
          ]
        ]
      },
      "properties": {
        "routeId": "kaohsiung-kel-3611-08ef6f",
        "city": "kaohsiung",
        "source_file": "kaohsiung/kaohsiung-kel-3611-08ef6f.geojson",
        "distance_km": 5.15,
        "duration_min": 10.736766666666666,
        "valhalla_config": "valhalla.json"
      }
    }
  ]
}