{
  "type": "FeatureCollection",
  "features": [
    {
      "type": "Feature",
      "geometry": {
        "type": "LineString",
        "coordinates": [
          [
            120.303366,
            22.800439
          ],
          [
            120.303619,
            22.800435
          ],
          [
            120.303576,
            22.800823
          ],
          [
            120.303496,
            22.801417
          ],
          [
            120.302887,
            22.80137
          ],
          [
            120.30237,
            22.801329
          ],
          [
            120.302223,
            22.801318
          ],
          [
            120.302074,
            22.801306
          ],
          [
            120.301876,
            22.80129
          ],
          [
            120.301319,
            22.801247
          ],
          [
            120.300457,
            22.80117
          ],
          [
            120.300447,
            22.801284
          ],
          [
            120.300457,
            22.80117
          ],
          [
            120.300489,
            22.800713
          ],
          [
            120.300532,
            22.800218
          ],
          [
            120.300566,
            22.79981
          ],
          [
            120.300577,
            22.799686
          ],
          [
            120.300615,
            22.799118
          ],
          [
            120.300657,
            22.798777
          ],
          [
            120.300685,
            22.798552
          ],
          [
            120.300722,
            22.798163
          ],
          [
            120.300739,
            22.797983
          ],
          [
            120.301626,
            22.798052
          ],
          [
            120.302201,
            22.798112
          ],
          [
            120.302242,
            22.797711
          ],
          [
            120.302325,
            22.796995
          ],
          [
            120.302416,
            22.796422
          ],
          [
            120.302495,
            22.795866
          ],
          [
            120.301858,
            22.795809
          ],
          [
            120.301456,
            22.79578
          ],
          [
            120.300603,
            22.795707
          ],
          [
            120.300639,
            22.795388
          ],
          [
            120.300693,
            22.794897
          ],
          [
            120.300756,
            22.794422
          ],
          [
            120.300802,
            22.793989
          ],
          [
            120.300837,
            22.793698
          ],
          [
            120.301221,
            22.793717
          ],
          [
            120.301539,
            22.793733
          ],
          [
            120.301671,
            22.79374
          ],
          [
            120.301821,
            22.793747
          ],
          [
            120.301918,
            22.793752
          ],
          [
            120.302428,
            22.793778
          ],
          [
            120.302356,
            22.793215
          ],
          [
            120.302351,
            22.793134
          ],
          [
            120.302338,
            22.792698
          ],
          [
            120.302285,
            22.792132
          ],
          [
            120.302272,
            22.791999
          ],
          [
            120.301613,
            22.792086
          ],
          [
            120.301223,
            22.792134
          ],
          [
            120.301155,
            22.792142
          ],
          [
            120.301069,
            22.792153
          ],
          [
            120.300759,
            22.792182
          ],
          [
            120.300588,
            22.79217
          ],
          [
            120.300486,
            22.792149
          ],
          [
            120.300426,
            22.792123
          ],
          [
            120.300269,
            22.79201
          ],
          [
            120.300148,
            22.791922
          ],
          [
            120.300025,
            22.791838
          ],
          [
            120.299963,
            22.791815
          ],
          [
            120.299897,
            22.791776
          ],
          [
            120.299772,
            22.791727
          ],
          [
            120.299628,
            22.791688
          ],
          [
            120.2995,
            22.79166
          ],
          [
            120.29923,
            22.79163
          ],
          [
            120.299171,
            22.792214
          ],
          [
            120.299169,
            22.792252
          ],
          [
            120.299164,
            22.792295
          ],
          [
            120.299158,
            22.792342
          ],
          [
            120.299149,
            22.792426
          ],
          [
            120.299093,
            22.79292
          ],
          [
            120.298946,
            22.792906
          ],
          [
            120.298999,
            22.792412
          ],
          [
            120.298924,
            22.792424
          ],
          [
            120.298862,
            22.792432
          ],
          [
            120.298504,
            22.792479
          ],
          [
            120.298862,
            22.792432
          ],
          [
            120.298924,
            22.792424
          ],
          [
            120.298999,
            22.792412
          ],
          [
            120.299014,
            22.792283
          ],
          [
            120.299019,
            22.792239
          ],
          [
            120.299039,
            22.792052
          ],
          [
            120.299083,
            22.791618
          ],
          [
            120.29923,
            22.79163
          ],
          [
            120.299171,
            22.792214
          ],
          [
            120.299169,
            22.792252
          ],
          [
            120.299164,
            22.792295
          ],
          [
            120.299158,
            22.792342
          ],
          [
            120.299149,
            22.792426
          ],
          [
            120.299093,
            22.79292
          ],
          [
            120.299089,
            22.79295
          ],
          [
            120.299006,
            22.793691
          ],
          [
            120.298971,
            22.794
          ],
          [
            120.29889,
            22.794717
          ],
          [
            120.298787,
            22.795688
          ],
          [
            120.298738,
            22.796139
          ],
          [
            120.298716,
            22.796341
          ],
          [
            120.298703,
            22.796461
          ],
          [
            120.298682,
            22.796583
          ],
          [
            120.29865,
            22.796682
          ],
          [
            120.298577,
            22.796816
          ],
          [
            120.2985,
            22.796893
          ],
          [
            120.298092,
            22.797203
          ],
          [
            120.297935,
            22.797329
          ],
          [
            120.295878,
            22.798845
          ],
          [
            120.295087,
            22.799418
          ],
          [
            120.295051,
            22.799444
          ],
          [
            120.294824,
            22.799608
          ],
          [
            120.294685,
            22.799714
          ],
          [
            120.294726,
            22.799481
          ],
          [
            120.294841,
            22.799117
          ],
          [
            120.295132,
            22.798198
          ],
          [
            120.295268,
            22.797786
          ],
          [
            120.295325,
            22.797595
          ],
          [
            120.295352,
            22.7975
          ],
          [
            120.295408,
            22.797312
          ],
          [
            120.295426,
            22.797196
          ],
          [
            120.295477,
            22.796804
          ],
          [
            120.295512,
            22.796529
          ],
          [
            120.295518,
            22.796481
          ],
          [
            120.295528,
            22.796402
          ],
          [
            120.295472,
            22.796403
          ],
          [
            120.2954,
            22.796405
          ],
          [
            120.294832,
            22.796421
          ],
          [
            120.294193,
            22.796452
          ],
          [
            120.293742,
            22.796493
          ],
          [
            120.293694,
            22.796498
          ],
          [
            120.293231,
            22.79657
          ],
          [
            120.292838,
            22.796324
          ],
          [
            120.291929,
            22.795802
          ],
          [
            120.291735,
            22.795662
          ],
          [
            120.291576,
            22.795512
          ],
          [
            120.291542,
            22.795458
          ],
          [
            120.291428,
            22.795287
          ],
          [
            120.291278,
            22.795075
          ],
          [
            120.290871,
            22.794427
          ],
          [
            120.290756,
            22.794244
          ],
          [
            120.290673,
            22.794116
          ],
          [
            120.290577,
            22.79402
          ],
          [
            120.290543,
            22.793986
          ],
          [
            120.290513,
            22.793955
          ],
          [
            120.290383,
            22.793847
          ],
          [
            120.290228,
            22.793717
          ],
          [
            120.290125,
            22.793623
          ],
          [
            120.290099,
            22.793599
          ],
          [
            120.290032,
            22.793504
          ],
          [
            120.289954,
            22.793371
          ],
          [
            120.289472,
            22.792295
          ],
          [
            120.28924,
            22.791906
          ],
          [
            120.289199,
            22.791837
          ],
          [
            120.289018,
            22.791534
          ],
          [
            120.288508,
            22.790651
          ],
          [
            120.287975,
            22.789755
          ],
          [
            120.287915,
            22.789649
          ],
          [
            120.286738,
            22.787646
          ],
          [
            120.286313,
            22.786923
          ],
          [
            120.285607,
            22.785761
          ],
          [
            120.285247,
            22.785164
          ],
          [
            120.285034,
            22.784777
          ],
          [
            120.284895,
            22.784548
          ],
          [
            120.284877,
            22.784515
          ],
          [
            120.284809,
            22.784406
          ],
          [
            120.284988,
            22.784409
          ],
          [
            120.285038,
            22.784409
          ],
          [
            120.285429,
            22.784415
          ],
          [
            120.285441,
            22.784415
          ],
          [
            120.285945,
            22.784413
          ],
          [
            120.285977,
            22.784413
          ],
          [
            120.286074,
            22.784412
          ],
          [
            120.286143,
            22.784414
          ],
          [
            120.28619,
            22.784415
          ],
          [
            120.286842,
            22.784429
          ],
          [
            120.286861,
            22.784429
          ],
          [
            120.286954,
            22.784431
          ],
          [
            120.287074,
            22.784432
          ],
          [
            120.287098,
            22.784433
          ],
          [
            120.288729,
            22.784456
          ],
          [
            120.288763,
            22.784456
          ],
          [
            120.289043,
            22.78446
          ],
          [
            120.289105,
            22.784461
          ],
          [
            120.289148,
            22.784461
          ],
          [
            120.289287,
            22.784462
          ],
          [
            120.290398,
            22.784476
          ],
          [
            120.290429,
            22.784477
          ],
          [
            120.290508,
            22.784478
          ],
          [
            120.290625,
            22.784481
          ],
          [
            120.29075,
            22.784482
          ],
          [
            120.29078,
            22.784482
          ],
          [
            120.29189,
            22.784489
          ],
          [
            120.292565,
            22.784494
          ],
          [
            120.29189,
            22.784489
          ],
          [
            120.29078,
            22.784482
          ],
          [
            120.29075,
            22.784482
          ],
          [
            120.290625,
            22.784481
          ],
          [
            120.290508,
            22.784478
          ],
          [
            120.290429,
            22.784477
          ],
          [
            120.290398,
            22.784476
          ],
          [
            120.289287,
            22.784462
          ],
          [
            120.289148,
            22.784461
          ],
          [
            120.289105,
            22.784461
          ],
          [
            120.289043,
            22.78446
          ],
          [
            120.288763,
            22.784456
          ],
          [
            120.288729,
            22.784456
          ],
          [
            120.287098,
            22.784433
          ],
          [
            120.287074,
            22.784432
          ],
          [
            120.286954,
            22.784431
          ],
          [
            120.286861,
            22.784429
          ],
          [
            120.286842,
            22.784429
          ],
          [
            120.28619,
            22.784415
          ],
          [
            120.286143,
            22.784414
          ],
          [
            120.286074,
            22.784412
          ],
          [
            120.285977,
            22.784413
          ],
          [
            120.285945,
            22.784413
          ],
          [
            120.285441,
            22.784415
          ],
          [
            120.285429,
            22.784415
          ],
          [
            120.285038,
            22.784409
          ],
          [
            120.284988,
            22.784409
          ],
          [
            120.284809,
            22.784406
          ],
          [
            120.284877,
            22.784515
          ],
          [
            120.284895,
            22.784548
          ],
          [
            120.285034,
            22.784777
          ],
          [
            120.285247,
            22.785164
          ],
          [
            120.285607,
            22.785761
          ],
          [
            120.286313,
            22.786923
          ],
          [
            120.286738,
            22.787646
          ],
          [
            120.287915,
            22.789649
          ],
          [
            120.287975,
            22.789755
          ],
          [
            120.288508,
            22.790651
          ],
          [
            120.288439,
            22.791326
          ],
          [
            120.288396,
            22.791751
          ],
          [
            120.288292,
            22.792755
          ],
          [
            120.288264,
            22.793033
          ],
          [
            120.288232,
            22.793344
          ],
          [
            120.2882,
            22.793656
          ],
          [
            120.288135,
            22.793645
          ],
          [
            120.288072,
            22.79363
          ],
          [
            120.287982,
            22.793578
          ],
          [
            120.287913,
            22.793502
          ],
          [
            120.287883,
            22.793433
          ],
          [
            120.287874,
            22.793411
          ],
          [
            120.287867,
            22.793311
          ],
          [
            120.287894,
            22.793218
          ],
          [
            120.287951,
            22.793135
          ],
          [
            120.288032,
            22.793073
          ],
          [
            120.288131,
            22.793037
          ],
          [
            120.288264,
            22.793033
          ],
          [
            120.288292,
            22.792755
          ],
          [
            120.288396,
            22.791751
          ],
          [
            120.288439,
            22.791326
          ],
          [
            120.288508,
            22.790651
          ],
          [
            120.289018,
            22.791534
          ],
          [
            120.289199,
            22.791837
          ],
          [
            120.28924,
            22.791906
          ],
          [
            120.289472,
            22.792295
          ],
          [
            120.289954,
            22.793371
          ],
          [
            120.290032,
            22.793504
          ],
          [
            120.290099,
            22.793599
          ],
          [
            120.290125,
            22.793623
          ],
          [
            120.290228,
            22.793717
          ],
          [
            120.290383,
            22.793847
          ],
          [
            120.290513,
            22.793955
          ],
          [
            120.290543,
            22.793986
          ],
          [
            120.290577,
            22.79402
          ],
          [
            120.290673,
            22.794116
          ],
          [
            120.290756,
            22.794244
          ],
          [
            120.290871,
            22.794427
          ],
          [
            120.291278,
            22.795075
          ],
          [
            120.291428,
            22.795287
          ],
          [
            120.291542,
            22.795458
          ],
          [
            120.291576,
            22.795512
          ],
          [
            120.291735,
            22.795662
          ],
          [
            120.291929,
            22.795802
          ],
          [
            120.292838,
            22.796324
          ],
          [
            120.293231,
            22.79657
          ],
          [
            120.293115,
            22.797138
          ],
          [
            120.293076,
            22.797435
          ],
          [
            120.292978,
            22.798183
          ],
          [
            120.292836,
            22.79878
          ],
          [
            120.292756,
            22.79939
          ],
          [
            120.29275,
            22.799506
          ],
          [
            120.292627,
            22.799495
          ],
          [
            120.290909,
            22.799279
          ],
          [
            120.290793,
            22.799264
          ],
          [
            120.290784,
            22.799167
          ],
          [
            120.290784,
            22.799098
          ],
          [
            120.290784,
            22.799167
          ],
          [
            120.290793,
            22.799264
          ],
          [
            120.290909,
            22.799279
          ],
          [
            120.292627,
            22.799495
          ],
          [
            120.29275,
            22.799506
          ],
          [
            120.292872,
            22.799522
          ],
          [
            120.29345,
            22.799602
          ],
          [
            120.293776,
            22.799654
          ],
          [
            120.294145,
            22.7997
          ],
          [
            120.294185,
            22.799705
          ],
          [
            120.294427,
            22.799717
          ],
          [
            120.294726,
            22.799481
          ],
          [
            120.294841,
            22.799117
          ],
          [
            120.294994,
            22.798633
          ],
          [
            120.295132,
            22.798198
          ],
          [
            120.295268,
            22.797786
          ],
          [
            120.295325,
            22.797595
          ],
          [
            120.295352,
            22.7975
          ],
          [
            120.295408,
            22.797312
          ],
          [
            120.295426,
            22.797196
          ],
          [
            120.295161,
            22.797213
          ],
          [
            120.295426,
            22.797196
          ],
          [
            120.295477,
            22.796804
          ],
          [
            120.295512,
            22.796529
          ],
          [
            120.295518,
            22.796481
          ],
          [
            120.295528,
            22.796402
          ],
          [
            120.295472,
            22.796403
          ],
          [
            120.2954,
            22.796405
          ],
          [
            120.294832,
            22.796421
          ],
          [
            120.294193,
            22.796452
          ],
          [
            120.293742,
            22.796493
          ],
          [
            120.293694,
            22.796498
          ],
          [
            120.293699,
            22.796607
          ],
          [
            120.293669,
            22.796667
          ],
          [
            120.293651,
            22.796681
          ],
          [
            120.293669,
            22.796667
          ],
          [
            120.293699,
            22.796607
          ],
          [
            120.293694,
            22.796498
          ],
          [
            120.293742,
            22.796493
          ],
          [
            120.294193,
            22.796452
          ],
          [
            120.294832,
            22.796421
          ],
          [
            120.2954,
            22.796405
          ],
          [
            120.295472,
            22.796403
          ],
          [
            120.295528,
            22.796402
          ],
          [
            120.29554,
            22.796279
          ],
          [
            120.295604,
            22.795638
          ],
          [
            120.295632,
            22.795368
          ],
          [
            120.29566,
            22.795115
          ],
          [
            120.295732,
            22.794475
          ],
          [
            120.295805,
            22.793799
          ],
          [
            120.295603,
            22.793787
          ],
          [
            120.295805,
            22.793799
          ],
          [
            120.295835,
            22.793434
          ],
          [
            120.295879,
            22.793
          ],
          [
            120.295896,
            22.79286
          ],
          [
            120.296026,
            22.791918
          ],
          [
            120.29614,
            22.790999
          ],
          [
            120.295848,
            22.790998
          ],
          [
            120.29614,
            22.790999
          ],
          [
            120.296205,
            22.790481
          ],
          [
            120.296424,
            22.788927
          ],
          [
            120.296516,
            22.788937
          ],
          [
            120.297944,
            22.789065
          ],
          [
            120.299354,
            22.789192
          ],
          [
            120.299433,
            22.788563
          ],
          [
            120.299494,
            22.787974
          ],
          [
            120.299549,
            22.787436
          ],
          [
            120.299621,
            22.786474
          ],
          [
            120.299635,
            22.786324
          ],
          [
            120.299645,
            22.786241
          ],
          [
            120.299705,
            22.785709
          ],
          [
            120.29971,
            22.785674
          ],
          [
            120.299719,
            22.785581
          ],
          [
            120.299769,
            22.784906
          ],
          [
            120.299775,
            22.784478
          ],
          [
            120.299429,
            22.782586
          ],
          [
            120.299408,
            22.782452
          ],
          [
            120.299304,
            22.782431
          ],
          [
            120.298198,
            22.782211
          ],
          [
            120.298172,
            22.782206
          ],
          [
            120.298026,
            22.782177
          ],
          [
            120.297993,
            22.782264
          ],
          [
            120.297402,
            22.783803
          ],
          [
            120.297601,
            22.783857
          ],
          [
            120.297721,
            22.783889
          ],
          [
            120.297915,
            22.783958
          ],
          [
            120.297958,
            22.783974
          ],
          [
            120.297915,
            22.783958
          ],
          [
            120.297721,
            22.783889
          ],
          [
            120.297706,
            22.783925
          ],
          [
            120.297535,
            22.783876
          ],
          [
            120.29739,
            22.783834
          ],
          [
            120.297186,
            22.784367
          ],
          [
            120.297176,
            22.784405
          ],
          [
            120.297172,
            22.784423
          ],
          [
            120.297137,
            22.784566
          ],
          [
            120.297111,
            22.784715
          ],
          [
            120.297076,
            22.784908
          ],
          [
            120.297062,
            22.78499
          ],
          [
            120.297043,
            22.785098
          ],
          [
            120.297032,
            22.78514
          ],
          [
            120.297025,
            22.785168
          ],
          [
            120.296962,
            22.785618
          ],
          [
            120.296956,
            22.78573
          ],
          [
            120.296942,
            22.78585
          ],
          [
            120.29676,
            22.787141
          ],
          [
            120.296688,
            22.787676
          ],
          [
            120.296657,
            22.787905
          ],
          [
            120.296627,
            22.788128
          ],
          [
            120.296602,
            22.788287
          ],
          [
            120.296516,
            22.788937
          ],
          [
            120.29637,
            22.789994
          ],
          [
            120.296302,
            22.79049
          ],
          [
            120.296233,
            22.790998
          ],
          [
            120.296108,
            22.791932
          ],
          [
            120.295988,
            22.792844
          ],
          [
            120.296511,
            22.79276
          ],
          [
            120.295988,
            22.792844
          ],
          [
            120.295969,
            22.79301
          ],
          [
            120.295921,
            22.793443
          ],
          [
            120.295818,
            22.794478
          ],
          [
            120.29572,
            22.795384
          ],
          [
            120.295655,
            22.796228
          ],
          [
            120.29565,
            22.796288
          ],
          [
            120.295642,
            22.796399
          ],
          [
            120.295628,
            22.796488
          ],
          [
            120.295514,
            22.797201
          ],
          [
            120.295495,
            22.797311
          ],
          [
            120.295438,
            22.797522
          ],
          [
            120.295362,
            22.797806
          ],
          [
            120.295231,
            22.798223
          ],
          [
            120.294956,
            22.799104
          ],
          [
            120.294944,
            22.799143
          ],
          [
            120.294871,
            22.799378
          ],
          [
            120.294824,
            22.799608
          ],
          [
            120.294685,
            22.799714
          ],
          [
            120.294726,
            22.799481
          ],
          [
            120.294841,
            22.799117
          ],
          [
            120.294859,
            22.79906
          ],
          [
            120.295132,
            22.798198
          ],
          [
            120.295268,
            22.797786
          ],
          [
            120.295325,
            22.797595
          ],
          [
            120.295352,
            22.7975
          ],
          [
            120.295408,
            22.797312
          ],
          [
            120.295426,
            22.797196
          ],
          [
            120.295477,
            22.796804
          ],
          [
            120.295512,
            22.796529
          ],
          [
            120.295518,
            22.796481
          ],
          [
            120.295528,
            22.796402
          ],
          [
            120.295642,
            22.796399
          ],
          [
            120.29577,
            22.796402
          ],
          [
            120.295818,
            22.796403
          ],
          [
            120.296257,
            22.796412
          ],
          [
            120.29645,
            22.796422
          ],
          [
            120.296672,
            22.796429
          ],
          [
            120.296883,
            22.79645
          ],
          [
            120.296868,
            22.79627
          ],
          [
            120.296907,
            22.796061
          ],
          [
            120.296868,
            22.79627
          ],
          [
            120.296883,
            22.79645
          ],
          [
            120.296672,
            22.796429
          ],
          [
            120.29645,
            22.796422
          ],
          [
            120.296257,
            22.796412
          ],
          [
            120.295818,
            22.796403
          ],
          [
            120.29577,
            22.796402
          ],
          [
            120.295642,
            22.796399
          ],
          [
            120.295628,
            22.796488
          ],
          [
            120.295576,
            22.796812
          ],
          [
            120.295514,
            22.797201
          ],
          [
            120.295495,
            22.797311
          ],
          [
            120.295438,
            22.797522
          ],
          [
            120.295362,
            22.797806
          ],
          [
            120.295309,
            22.797974
          ],
          [
            120.295231,
            22.798223
          ],
          [
            120.29505,
            22.798804
          ]
        ]
      },
      "properties": {
        "routeId": "kaohsiung-kem-2235-29d059",
        "city": "kaohsiung",
        "source_file": "kaohsiung/kaohsiung-kem-2235-29d059.geojson",
        "distance_km": 17.241999999999997,
        "duration_min": 30.2505,
        "valhalla_config": "valhalla.json"
      }
    }
  ]
}