{
  "type": "FeatureCollection",
  "features": [
    {
      "type": "Feature",
      "geometry": {
        "type": "LineString",
        "coordinates": [
          [
            120.541165,
            22.89305
          ],
          [
            120.539624,
            22.891696
          ],
          [
            120.539519,
            22.891622
          ],
          [
            120.539364,
            22.891415
          ],
          [
            120.538373,
            22.89054
          ],
          [
            120.53835,
            22.890519
          ],
          [
            120.5381,
            22.890284
          ],
          [
            120.537244,
            22.889509
          ],
          [
            120.53651,
            22.888844
          ],
          [
            120.536283,
            22.888645
          ],
          [
            120.536152,
            22.88876
          ],
          [
            120.536283,
            22.888645
          ],
          [
            120.535958,
            22.888352
          ],
          [
            120.535326,
            22.887791
          ],
          [
            120.53477,
            22.887298
          ],
          [
            120.534308,
            22.886888
          ],
          [
            120.534287,
            22.88687
          ],
          [
            120.534256,
            22.886844
          ],
          [
            120.534226,
            22.886802
          ],
          [
            120.534195,
            22.886717
          ],
          [
            120.534171,
            22.886627
          ],
          [
            120.534091,
            22.885939
          ],
          [
            120.534021,
            22.885233
          ],
          [
            120.533967,
            22.884941
          ],
          [
            120.533838,
            22.884217
          ],
          [
            120.533779,
            22.88389
          ],
          [
            120.533765,
            22.883719
          ],
          [
            120.533768,
            22.883588
          ],
          [
            120.533792,
            22.883435
          ],
          [
            120.533821,
            22.883272
          ],
          [
            120.533862,
            22.883041
          ],
          [
            120.533982,
            22.88253
          ],
          [
            120.534069,
            22.882157
          ],
          [
            120.534107,
            22.88196
          ],
          [
            120.534201,
            22.881816
          ],
          [
            120.534297,
            22.8817
          ],
          [
            120.534351,
            22.881634
          ],
          [
            120.534467,
            22.881472
          ],
          [
            120.534664,
            22.881263
          ],
          [
            120.534801,
            22.881118
          ],
          [
            120.534984,
            22.880876
          ],
          [
            120.535103,
            22.880655
          ],
          [
            120.535159,
            22.880448
          ],
          [
            120.535246,
            22.879719
          ],
          [
            120.535318,
            22.879345
          ],
          [
            120.535335,
            22.879238
          ],
          [
            120.535346,
            22.879171
          ],
          [
            120.535536,
            22.878143
          ],
          [
            120.535655,
            22.877501
          ],
          [
            120.535764,
            22.876912
          ],
          [
            120.535849,
            22.876449
          ],
          [
            120.536118,
            22.874998
          ],
          [
            120.536145,
            22.874852
          ],
          [
            120.536236,
            22.874232
          ],
          [
            120.536322,
            22.873755
          ],
          [
            120.536479,
            22.872878
          ],
          [
            120.536562,
            22.872488
          ],
          [
            120.536735,
            22.871495
          ],
          [
            120.536859,
            22.871476
          ],
          [
            120.536735,
            22.871495
          ],
          [
            120.536865,
            22.870796
          ],
          [
            120.53687,
            22.870769
          ],
          [
            120.536936,
            22.870488
          ],
          [
            120.536918,
            22.870365
          ],
          [
            120.536871,
            22.870073
          ],
          [
            120.536702,
            22.869038
          ],
          [
            120.536657,
            22.86865
          ],
          [
            120.536639,
            22.868552
          ],
          [
            120.53637,
            22.867093
          ],
          [
            120.536209,
            22.866101
          ],
          [
            120.536073,
            22.866128
          ],
          [
            120.536209,
            22.866101
          ],
          [
            120.536039,
            22.864813
          ],
          [
            120.536011,
            22.864602
          ],
          [
            120.535862,
            22.864621
          ],
          [
            120.536011,
            22.864602
          ],
          [
            120.536003,
            22.864467
          ],
          [
            120.535993,
            22.863912
          ],
          [
            120.535975,
            22.863415
          ],
          [
            120.535835,
            22.863413
          ],
          [
            120.534954,
            22.863404
          ],
          [
            120.535975,
            22.863415
          ],
          [
            120.535957,
            22.861917
          ],
          [
            120.535957,
            22.861891
          ],
          [
            120.535965,
            22.861033
          ],
          [
            120.535962,
            22.860802
          ],
          [
            120.535957,
            22.860553
          ],
          [
            120.535971,
            22.860128
          ],
          [
            120.535986,
            22.859662
          ],
          [
            120.535989,
            22.859626
          ],
          [
            120.536004,
            22.859446
          ],
          [
            120.535901,
            22.8592
          ],
          [
            120.535462,
            22.857991
          ],
          [
            120.535454,
            22.85797
          ],
          [
            120.5353,
            22.857562
          ],
          [
            120.535166,
            22.857181
          ],
          [
            120.534971,
            22.856623
          ],
          [
            120.534857,
            22.856332
          ],
          [
            120.5348,
            22.856188
          ],
          [
            120.534766,
            22.856094
          ],
          [
            120.534653,
            22.855852
          ],
          [
            120.534573,
            22.855594
          ],
          [
            120.534213,
            22.854611
          ],
          [
            120.533881,
            22.853707
          ],
          [
            120.53378,
            22.853459
          ],
          [
            120.533592,
            22.852995
          ],
          [
            120.533221,
            22.852004
          ],
          [
            120.533078,
            22.851622
          ],
          [
            120.53283,
            22.850962
          ],
          [
            120.532625,
            22.850421
          ],
          [
            120.532523,
            22.850489
          ],
          [
            120.532625,
            22.850421
          ],
          [
            120.532416,
            22.84994
          ],
          [
            120.532362,
            22.8498
          ],
          [
            120.532169,
            22.8493
          ],
          [
            120.532194,
            22.848771
          ],
          [
            120.532187,
            22.848475
          ],
          [
            120.532157,
            22.847136
          ],
          [
            120.532092,
            22.84427
          ],
          [
            120.532081,
            22.843776
          ],
          [
            120.532106,
            22.843519
          ],
          [
            120.53211,
            22.843423
          ],
          [
            120.532266,
            22.842763
          ],
          [
            120.532124,
            22.842721
          ],
          [
            120.532266,
            22.842763
          ],
          [
            120.532829,
            22.840537
          ],
          [
            120.533131,
            22.839263
          ],
          [
            120.533207,
            22.838943
          ],
          [
            120.533222,
            22.838854
          ],
          [
            120.533294,
            22.838572
          ],
          [
            120.5333,
            22.838443
          ],
          [
            120.533277,
            22.83832
          ],
          [
            120.533262,
            22.838149
          ],
          [
            120.533259,
            22.838114
          ],
          [
            120.533255,
            22.838068
          ],
          [
            120.53324,
            22.837269
          ],
          [
            120.533295,
            22.836843
          ],
          [
            120.533203,
            22.836777
          ],
          [
            120.533295,
            22.836843
          ],
          [
            120.53324,
            22.837269
          ],
          [
            120.533255,
            22.838068
          ],
          [
            120.533262,
            22.838149
          ],
          [
            120.533277,
            22.83832
          ],
          [
            120.5333,
            22.838443
          ],
          [
            120.533294,
            22.838572
          ],
          [
            120.533222,
            22.838854
          ],
          [
            120.533207,
            22.838943
          ],
          [
            120.533645,
            22.839042
          ],
          [
            120.536996,
            22.839913
          ],
          [
            120.537212,
            22.839946
          ],
          [
            120.537401,
            22.839916
          ],
          [
            120.538287,
            22.839833
          ],
          [
            120.538414,
            22.839853
          ],
          [
            120.540296,
            22.840522
          ],
          [
            120.540312,
            22.840986
          ],
          [
            120.540363,
            22.841278
          ],
          [
            120.540457,
            22.841579
          ],
          [
            120.540504,
            22.841765
          ],
          [
            120.540518,
            22.841834
          ],
          [
            120.540511,
            22.841948
          ],
          [
            120.540546,
            22.842069
          ],
          [
            120.540715,
            22.842318
          ],
          [
            120.540836,
            22.842556
          ],
          [
            120.54091,
            22.842631
          ],
          [
            120.54102,
            22.84268
          ],
          [
            120.541173,
            22.842736
          ],
          [
            120.541353,
            22.842802
          ],
          [
            120.541444,
            22.842908
          ],
          [
            120.541481,
            22.842954
          ],
          [
            120.541555,
            22.842889
          ],
          [
            120.541707,
            22.842852
          ],
          [
            120.54248,
            22.842839
          ],
          [
            120.542554,
            22.842828
          ],
          [
            120.542622,
            22.842808
          ],
          [
            120.543046,
            22.84265
          ],
          [
            120.543471,
            22.842478
          ],
          [
            120.543736,
            22.842356
          ],
          [
            120.54385,
            22.842327
          ],
          [
            120.543978,
            22.842322
          ],
          [
            120.544163,
            22.842311
          ],
          [
            120.544443,
            22.842316
          ],
          [
            120.544504,
            22.842308
          ],
          [
            120.544539,
            22.842288
          ],
          [
            120.544657,
            22.842219
          ],
          [
            120.544907,
            22.842457
          ],
          [
            120.545438,
            22.842961
          ],
          [
            120.545861,
            22.843364
          ],
          [
            120.546121,
            22.843126
          ],
          [
            120.546231,
            22.843026
          ],
          [
            120.546286,
            22.842917
          ],
          [
            120.546323,
            22.842823
          ],
          [
            120.546354,
            22.842747
          ],
          [
            120.546408,
            22.842573
          ],
          [
            120.546375,
            22.842235
          ],
          [
            120.545868,
            22.842226
          ],
          [
            120.545848,
            22.842369
          ],
          [
            120.545848,
            22.842369
          ],
          [
            120.545868,
            22.842226
          ],
          [
            120.54478,
            22.842187
          ],
          [
            120.544711,
            22.842191
          ],
          [
            120.544665,
            22.842206
          ],
          [
            120.544657,
            22.842219
          ],
          [
            120.544539,
            22.842288
          ],
          [
            120.544504,
            22.842308
          ],
          [
            120.544443,
            22.842316
          ],
          [
            120.544163,
            22.842311
          ],
          [
            120.543978,
            22.842322
          ],
          [
            120.54385,
            22.842327
          ],
          [
            120.54385,
            22.842327
          ],
          [
            120.543736,
            22.842356
          ],
          [
            120.543471,
            22.842478
          ],
          [
            120.543046,
            22.84265
          ],
          [
            120.542795,
            22.842743
          ],
          [
            120.542622,
            22.842808
          ],
          [
            120.542554,
            22.842828
          ],
          [
            120.54248,
            22.842839
          ],
          [
            120.541707,
            22.842852
          ],
          [
            120.541555,
            22.842889
          ],
          [
            120.541481,
            22.842954
          ],
          [
            120.541444,
            22.842908
          ],
          [
            120.541353,
            22.842802
          ],
          [
            120.541173,
            22.842736
          ],
          [
            120.541061,
            22.842695
          ],
          [
            120.541173,
            22.842736
          ],
          [
            120.541353,
            22.842802
          ],
          [
            120.541444,
            22.842908
          ],
          [
            120.541481,
            22.842954
          ],
          [
            120.541468,
            22.842978
          ],
          [
            120.541443,
            22.843072
          ],
          [
            120.541449,
            22.843197
          ],
          [
            120.541559,
            22.843461
          ],
          [
            120.541699,
            22.843783
          ],
          [
            120.541695,
            22.843846
          ],
          [
            120.541671,
            22.843929
          ],
          [
            120.541607,
            22.844035
          ],
          [
            120.541402,
            22.844374
          ],
          [
            120.541276,
            22.844583
          ],
          [
            120.541087,
            22.844859
          ],
          [
            120.540899,
            22.845224
          ],
          [
            120.541004,
            22.845266
          ],
          [
            120.540899,
            22.845224
          ],
          [
            120.540611,
            22.845208
          ],
          [
            120.539893,
            22.845218
          ],
          [
            120.539703,
            22.845231
          ],
          [
            120.539598,
            22.845246
          ],
          [
            120.539496,
            22.845276
          ],
          [
            120.539228,
            22.845441
          ],
          [
            120.539035,
            22.845559
          ],
          [
            120.538747,
            22.845723
          ],
          [
            120.538153,
            22.846067
          ],
          [
            120.538072,
            22.846127
          ],
          [
            120.537987,
            22.846223
          ],
          [
            120.53778,
            22.846274
          ],
          [
            120.537664,
            22.846302
          ],
          [
            120.537313,
            22.846389
          ],
          [
            120.536125,
            22.846941
          ],
          [
            120.535986,
            22.847006
          ],
          [
            120.532194,
            22.848771
          ],
          [
            120.531025,
            22.849317
          ],
          [
            120.530309,
            22.849651
          ],
          [
            120.528707,
            22.85041
          ],
          [
            120.528692,
            22.850417
          ],
          [
            120.52815,
            22.850658
          ],
          [
            120.528095,
            22.850702
          ],
          [
            120.527394,
            22.851105
          ],
          [
            120.526866,
            22.851408
          ],
          [
            120.526792,
            22.851444
          ],
          [
            120.526731,
            22.851481
          ],
          [
            120.526194,
            22.851782
          ],
          [
            120.524932,
            22.852491
          ],
          [
            120.523794,
            22.853131
          ],
          [
            120.523439,
            22.85327
          ],
          [
            120.523153,
            22.85336
          ],
          [
            120.52281,
            22.853401
          ],
          [
            120.52163,
            22.853589
          ],
          [
            120.521014,
            22.853687
          ],
          [
            120.520722,
            22.853712
          ],
          [
            120.519941,
            22.853764
          ],
          [
            120.519928,
            22.853857
          ],
          [
            120.519994,
            22.853855
          ],
          [
            120.519928,
            22.853857
          ],
          [
            120.519941,
            22.853764
          ],
          [
            120.519207,
            22.853811
          ],
          [
            120.519259,
            22.8542
          ],
          [
            120.51942,
            22.855494
          ],
          [
            120.519435,
            22.855614
          ],
          [
            120.519458,
            22.855898
          ],
          [
            120.51955,
            22.857024
          ],
          [
            120.51966,
            22.857027
          ],
          [
            120.520269,
            22.857042
          ],
          [
            120.520865,
            22.857054
          ],
          [
            120.521509,
            22.857067
          ],
          [
            120.521818,
            22.857077
          ],
          [
            120.5221,
            22.857086
          ],
          [
            120.522141,
            22.857095
          ],
          [
            120.52216,
            22.857109
          ],
          [
            120.522166,
            22.857133
          ],
          [
            120.522165,
            22.85716
          ],
          [
            120.52216,
            22.857543
          ],
          [
            120.521685,
            22.85753
          ],
          [
            120.521261,
            22.857518
          ],
          [
            120.519977,
            22.857482
          ],
          [
            120.519589,
            22.857471
          ],
          [
            120.519624,
            22.857837
          ],
          [
            120.519722,
            22.858996
          ],
          [
            120.519737,
            22.859061
          ],
          [
            120.519758,
            22.859237
          ],
          [
            120.519737,
            22.859061
          ],
          [
            120.519722,
            22.858996
          ],
          [
            120.519624,
            22.857837
          ],
          [
            120.519768,
            22.85784
          ],
          [
            120.519624,
            22.857837
          ],
          [
            120.519722,
            22.858996
          ],
          [
            120.519737,
            22.859061
          ],
          [
            120.519773,
            22.859359
          ],
          [
            120.51987,
            22.859879
          ],
          [
            120.519883,
            22.859947
          ],
          [
            120.519951,
            22.860295
          ],
          [
            120.52001,
            22.8606
          ],
          [
            120.520268,
            22.861928
          ],
          [
            120.520367,
            22.862398
          ],
          [
            120.520439,
            22.862744
          ],
          [
            120.520644,
            22.863655
          ],
          [
            120.520714,
            22.863968
          ],
          [
            120.520462,
            22.864009
          ],
          [
            120.520714,
            22.863968
          ],
          [
            120.521122,
            22.864554
          ],
          [
            120.521245,
            22.864909
          ],
          [
            120.521593,
            22.865771
          ],
          [
            120.521733,
            22.866119
          ],
          [
            120.521581,
            22.866148
          ],
          [
            120.521733,
            22.866119
          ],
          [
            120.522081,
            22.867099
          ],
          [
            120.522197,
            22.867426
          ],
          [
            120.522319,
            22.867771
          ],
          [
            120.522535,
            22.868381
          ],
          [
            120.522421,
            22.868412
          ],
          [
            120.522535,
            22.868381
          ],
          [
            120.522635,
            22.868606
          ],
          [
            120.52271,
            22.868698
          ],
          [
            120.523058,
            22.869132
          ],
          [
            120.522964,
            22.869208
          ],
          [
            120.523058,
            22.869132
          ],
          [
            120.523664,
            22.869808
          ],
          [
            120.523787,
            22.870007
          ],
          [
            120.523812,
            22.870047
          ],
          [
            120.52392,
            22.870255
          ],
          [
            120.524035,
            22.870513
          ],
          [
            120.524212,
            22.870925
          ],
          [
            120.524082,
            22.871018
          ],
          [
            120.524212,
            22.870925
          ],
          [
            120.524691,
            22.87214
          ],
          [
            120.524701,
            22.872175
          ],
          [
            120.524714,
            22.872223
          ],
          [
            120.524747,
            22.872341
          ],
          [
            120.524989,
            22.873216
          ],
          [
            120.525057,
            22.873463
          ],
          [
            120.525289,
            22.874313
          ],
          [
            120.525466,
            22.874961
          ],
          [
            120.525509,
            22.875153
          ],
          [
            120.525558,
            22.875316
          ],
          [
            120.525761,
            22.87603
          ],
          [
            120.525888,
            22.876478
          ],
          [
            120.525788,
            22.876509
          ],
          [
            120.525888,
            22.876478
          ],
          [
            120.525934,
            22.876561
          ],
          [
            120.526263,
            22.87703
          ],
          [
            120.526528,
            22.87739
          ],
          [
            120.526474,
            22.877405
          ],
          [
            120.526528,
            22.87739
          ],
          [
            120.526806,
            22.877744
          ],
          [
            120.526622,
            22.877877
          ],
          [
            120.526172,
            22.878014
          ],
          [
            120.526136,
            22.878255
          ],
          [
            120.526189,
            22.878329
          ],
          [
            120.526188,
            22.878336
          ],
          [
            120.526189,
            22.878329
          ],
          [
            120.526136,
            22.878255
          ],
          [
            120.526172,
            22.878014
          ],
          [
            120.52596,
            22.878045
          ],
          [
            120.52448,
            22.878084
          ],
          [
            120.52433,
            22.878062
          ],
          [
            120.524167,
            22.878075
          ],
          [
            120.524027,
            22.878106
          ],
          [
            120.523818,
            22.878166
          ],
          [
            120.52356,
            22.87824
          ],
          [
            120.523368,
            22.87829
          ],
          [
            120.523163,
            22.878356
          ],
          [
            120.522935,
            22.878398
          ],
          [
            120.522631,
            22.877476
          ],
          [
            120.523622,
            22.877342
          ],
          [
            120.523719,
            22.877329
          ],
          [
            120.523939,
            22.877292
          ],
          [
            120.523977,
            22.877275
          ],
          [
            120.524259,
            22.877171
          ],
          [
            120.524536,
            22.877133
          ],
          [
            120.524937,
            22.877131
          ],
          [
            120.525032,
            22.877147
          ],
          [
            120.525109,
            22.877187
          ],
          [
            120.525179,
            22.877193
          ],
          [
            120.525255,
            22.877181
          ],
          [
            120.525344,
            22.877168
          ],
          [
            120.525867,
            22.877089
          ],
          [
            120.526263,
            22.87703
          ],
          [
            120.526528,
            22.87739
          ],
          [
            120.526806,
            22.877744
          ],
          [
            120.527172,
            22.878091
          ],
          [
            120.527433,
            22.878306
          ],
          [
            120.527764,
            22.878533
          ],
          [
            120.527912,
            22.878718
          ],
          [
            120.528165,
            22.879032
          ],
          [
            120.528595,
            22.879584
          ],
          [
            120.528766,
            22.87944
          ],
          [
            120.528595,
            22.879584
          ],
          [
            120.528862,
            22.879872
          ],
          [
            120.528874,
            22.879893
          ],
          [
            120.529068,
            22.880233
          ],
          [
            120.529145,
            22.880395
          ],
          [
            120.529575,
            22.881282
          ],
          [
            120.529755,
            22.881638
          ],
          [
            120.529811,
            22.881746
          ],
          [
            120.529889,
            22.881899
          ],
          [
            120.529996,
            22.882115
          ],
          [
            120.530049,
            22.882286
          ],
          [
            120.530089,
            22.882533
          ],
          [
            120.530126,
            22.883107
          ],
          [
            120.530139,
            22.8833
          ],
          [
            120.530182,
            22.883854
          ],
          [
            120.530201,
            22.884052
          ],
          [
            120.530324,
            22.885318
          ],
          [
            120.530325,
            22.885324
          ],
          [
            120.530362,
            22.885857
          ],
          [
            120.530442,
            22.886691
          ],
          [
            120.530124,
            22.886695
          ],
          [
            120.529797,
            22.886665
          ],
          [
            120.529019,
            22.886632
          ],
          [
            120.527845,
            22.886604
          ],
          [
            120.527231,
            22.886615
          ],
          [
            120.526939,
            22.88661
          ],
          [
            120.525992,
            22.886539
          ],
          [
            120.525921,
            22.886545
          ],
          [
            120.525948,
            22.88627
          ],
          [
            120.525972,
            22.886057
          ],
          [
            120.526019,
            22.885638
          ],
          [
            120.526024,
            22.885578
          ],
          [
            120.525989,
            22.885292
          ],
          [
            120.525957,
            22.885059
          ],
          [
            120.525935,
            22.884976
          ],
          [
            120.525928,
            22.884948
          ],
          [
            120.525861,
            22.884817
          ],
          [
            120.525842,
            22.884775
          ],
          [
            120.525842,
            22.884733
          ],
          [
            120.525863,
            22.884694
          ],
          [
            120.526066,
            22.884536
          ],
          [
            120.526091,
            22.884504
          ],
          [
            120.526096,
            22.884447
          ],
          [
            120.526073,
            22.884277
          ],
          [
            120.526404,
            22.884193
          ],
          [
            120.526506,
            22.884149
          ],
          [
            120.526575,
            22.8841
          ],
          [
            120.526768,
            22.883938
          ],
          [
            120.526808,
            22.884022
          ],
          [
            120.526812,
            22.884042
          ],
          [
            120.526808,
            22.884022
          ],
          [
            120.526768,
            22.883938
          ],
          [
            120.527395,
            22.883416
          ],
          [
            120.527667,
            22.88319
          ],
          [
            120.527795,
            22.883307
          ],
          [
            120.528005,
            22.883502
          ],
          [
            120.529496,
            22.885034
          ],
          [
            120.52984,
            22.885397
          ],
          [
            120.53019,
            22.88575
          ],
          [
            120.530362,
            22.885857
          ],
          [
            120.530325,
            22.885324
          ],
          [
            120.531863,
            22.885121
          ],
          [
            120.531938,
            22.885111
          ],
          [
            120.533335,
            22.884994
          ]
        ]
      },
      "properties": {
        "routeId": "kaohsiung-kem-2610-3d6888",
        "city": "kaohsiung",
        "source_file": "kaohsiung/kaohsiung-kem-2610-3d6888.geojson",
        "distance_km": 20.404,
        "duration_min": 31.581349999999997,
        "valhalla_config": "valhalla.json"
      }
    }
  ]
}