{
  "type": "FeatureCollection",
  "features": [
    {
      "type": "Feature",
      "geometry": {
        "type": "LineString",
        "coordinates": [
          [
            120.341966,
            22.680464
          ],
          [
            120.342568,
            22.680737
          ],
          [
            120.344111,
            22.681459
          ],
          [
            120.344282,
            22.681135
          ],
          [
            120.344358,
            22.680991
          ],
          [
            120.344399,
            22.680897
          ],
          [
            120.344483,
            22.680937
          ],
          [
            120.344713,
            22.681027
          ],
          [
            120.34449,
            22.681442
          ],
          [
            120.344713,
            22.681027
          ],
          [
            120.344731,
            22.681035
          ],
          [
            120.345185,
            22.681228
          ],
          [
            120.345833,
            22.681523
          ],
          [
            120.346118,
            22.680962
          ],
          [
            120.345833,
            22.681523
          ],
          [
            120.345185,
            22.681228
          ],
          [
            120.344731,
            22.681035
          ],
          [
            120.344713,
            22.681027
          ],
          [
            120.344483,
            22.680937
          ],
          [
            120.344399,
            22.680897
          ],
          [
            120.344441,
            22.68081
          ],
          [
            120.344564,
            22.680569
          ],
          [
            120.344441,
            22.68081
          ],
          [
            120.344399,
            22.680897
          ],
          [
            120.344483,
            22.680937
          ],
          [
            120.344713,
            22.681027
          ],
          [
            120.344731,
            22.681035
          ],
          [
            120.344782,
            22.680933
          ],
          [
            120.344731,
            22.681035
          ],
          [
            120.345185,
            22.681228
          ],
          [
            120.345376,
            22.681315
          ],
          [
            120.345833,
            22.681523
          ],
          [
            120.346111,
            22.681641
          ],
          [
            120.346336,
            22.681224
          ],
          [
            120.346473,
            22.680969
          ],
          [
            120.346561,
            22.680952
          ],
          [
            120.346878,
            22.681103
          ],
          [
            120.347011,
            22.681166
          ],
          [
            120.347019,
            22.681215
          ],
          [
            120.346853,
            22.681578
          ],
          [
            120.3467,
            22.681911
          ],
          [
            120.347114,
            22.682099
          ],
          [
            120.347256,
            22.682163
          ],
          [
            120.348337,
            22.68271
          ],
          [
            120.348466,
            22.682413
          ],
          [
            120.348579,
            22.682156
          ],
          [
            120.348581,
            22.682152
          ],
          [
            120.348255,
            22.682029
          ],
          [
            120.348039,
            22.681941
          ],
          [
            120.347907,
            22.681887
          ],
          [
            120.347715,
            22.68181
          ],
          [
            120.347486,
            22.681717
          ],
          [
            120.347616,
            22.681473
          ],
          [
            120.347784,
            22.681156
          ],
          [
            120.347905,
            22.68121
          ],
          [
            120.348323,
            22.681398
          ],
          [
            120.348393,
            22.681429
          ],
          [
            120.348488,
            22.681378
          ],
          [
            120.348629,
            22.680996
          ],
          [
            120.348956,
            22.681152
          ],
          [
            120.348629,
            22.680996
          ],
          [
            120.348781,
            22.68058
          ],
          [
            120.348984,
            22.680183
          ],
          [
            120.348781,
            22.68058
          ],
          [
            120.348756,
            22.680648
          ],
          [
            120.348781,
            22.68058
          ],
          [
            120.348748,
            22.680528
          ],
          [
            120.348244,
            22.680304
          ],
          [
            120.348281,
            22.680223
          ],
          [
            120.348452,
            22.679853
          ],
          [
            120.348354,
            22.679764
          ],
          [
            120.348023,
            22.67946
          ],
          [
            120.347467,
            22.680476
          ],
          [
            120.347527,
            22.680549
          ],
          [
            120.347549,
            22.68056
          ],
          [
            120.347527,
            22.680549
          ],
          [
            120.347467,
            22.680476
          ],
          [
            120.348023,
            22.67946
          ],
          [
            120.347691,
            22.679116
          ],
          [
            120.347578,
            22.679042
          ],
          [
            120.347436,
            22.678943
          ],
          [
            120.347043,
            22.678698
          ],
          [
            120.346972,
            22.678654
          ],
          [
            120.346706,
            22.678487
          ],
          [
            120.346449,
            22.678958
          ],
          [
            120.345997,
            22.678783
          ],
          [
            120.345576,
            22.678621
          ],
          [
            120.345862,
            22.678074
          ],
          [
            120.345918,
            22.677951
          ],
          [
            120.346117,
            22.67751
          ],
          [
            120.346131,
            22.67748
          ],
          [
            120.346158,
            22.677421
          ],
          [
            120.346211,
            22.677324
          ],
          [
            120.346238,
            22.677271
          ],
          [
            120.346439,
            22.676867
          ],
          [
            120.346699,
            22.676989
          ],
          [
            120.346872,
            22.67707
          ],
          [
            120.347456,
            22.677368
          ],
          [
            120.347838,
            22.676633
          ],
          [
            120.348005,
            22.6761
          ],
          [
            120.348103,
            22.675716
          ],
          [
            120.34813,
            22.675549
          ],
          [
            120.348103,
            22.675716
          ],
          [
            120.348005,
            22.6761
          ],
          [
            120.347838,
            22.676633
          ],
          [
            120.347456,
            22.677368
          ],
          [
            120.347908,
            22.677639
          ],
          [
            120.347681,
            22.677972
          ],
          [
            120.347552,
            22.678162
          ],
          [
            120.347743,
            22.678283
          ],
          [
            120.347904,
            22.678415
          ],
          [
            120.348186,
            22.678627
          ],
          [
            120.348352,
            22.678465
          ],
          [
            120.348455,
            22.678364
          ],
          [
            120.348661,
            22.678187
          ],
          [
            120.348679,
            22.678172
          ],
          [
            120.349179,
            22.67771
          ],
          [
            120.349388,
            22.677829
          ],
          [
            120.349723,
            22.67802
          ],
          [
            120.349565,
            22.678223
          ],
          [
            120.349334,
            22.678351
          ],
          [
            120.349078,
            22.678564
          ],
          [
            120.349078,
            22.678564
          ],
          [
            120.348926,
            22.678638
          ],
          [
            120.348744,
            22.678833
          ],
          [
            120.3486,
            22.678988
          ],
          [
            120.349024,
            22.679372
          ],
          [
            120.34919,
            22.679194
          ],
          [
            120.349227,
            22.679154
          ],
          [
            120.349468,
            22.678761
          ],
          [
            120.349738,
            22.678319
          ],
          [
            120.349882,
            22.678084
          ],
          [
            120.349941,
            22.678049
          ],
          [
            120.35024,
            22.677568
          ],
          [
            120.350217,
            22.677519
          ],
          [
            120.349916,
            22.677359
          ],
          [
            120.350217,
            22.677519
          ],
          [
            120.35024,
            22.677568
          ],
          [
            120.350318,
            22.677436
          ],
          [
            120.350466,
            22.677187
          ],
          [
            120.350593,
            22.677251
          ],
          [
            120.35089,
            22.677399
          ],
          [
            120.349731,
            22.679259
          ],
          [
            120.349522,
            22.679684
          ],
          [
            120.349484,
            22.679744
          ],
          [
            120.349439,
            22.679823
          ],
          [
            120.349366,
            22.679971
          ],
          [
            120.349139,
            22.67989
          ],
          [
            120.349139,
            22.67989
          ],
          [
            120.349366,
            22.679971
          ],
          [
            120.349439,
            22.679823
          ],
          [
            120.349484,
            22.679744
          ],
          [
            120.349024,
            22.679372
          ],
          [
            120.348695,
            22.679249
          ],
          [
            120.349024,
            22.679372
          ],
          [
            120.3486,
            22.678988
          ],
          [
            120.348282,
            22.678711
          ],
          [
            120.348186,
            22.678627
          ],
          [
            120.347904,
            22.678415
          ],
          [
            120.347743,
            22.678283
          ],
          [
            120.347552,
            22.678162
          ],
          [
            120.347435,
            22.678088
          ],
          [
            120.34712,
            22.677889
          ],
          [
            120.346798,
            22.677715
          ],
          [
            120.346347,
            22.677508
          ],
          [
            120.346294,
            22.677483
          ],
          [
            120.346158,
            22.677421
          ],
          [
            120.34611,
            22.677405
          ],
          [
            120.346076,
            22.677393
          ],
          [
            120.345352,
            22.677146
          ],
          [
            120.344756,
            22.677
          ],
          [
            120.344442,
            22.676945
          ],
          [
            120.344014,
            22.67686
          ],
          [
            120.343982,
            22.676854
          ],
          [
            120.343861,
            22.676834
          ],
          [
            120.343755,
            22.676825
          ],
          [
            120.343726,
            22.676823
          ],
          [
            120.342643,
            22.676765
          ],
          [
            120.342239,
            22.676743
          ],
          [
            120.342012,
            22.67673
          ],
          [
            120.341541,
            22.676708
          ],
          [
            120.341275,
            22.676695
          ],
          [
            120.341021,
            22.676713
          ],
          [
            120.340983,
            22.676879
          ],
          [
            120.340697,
            22.678101
          ],
          [
            120.34066,
            22.678296
          ],
          [
            120.340367,
            22.67974
          ],
          [
            120.342568,
            22.680737
          ],
          [
            120.344111,
            22.681459
          ],
          [
            120.345511,
            22.682084
          ],
          [
            120.348862,
            22.683618
          ],
          [
            120.348904,
            22.683523
          ],
          [
            120.348862,
            22.683618
          ],
          [
            120.3489,
            22.683635
          ],
          [
            120.349224,
            22.683783
          ],
          [
            120.349237,
            22.683789
          ],
          [
            120.349276,
            22.683807
          ],
          [
            120.350238,
            22.684248
          ],
          [
            120.3501,
            22.684554
          ],
          [
            120.349075,
            22.684124
          ],
          [
            120.348726,
            22.683983
          ],
          [
            120.345876,
            22.68268
          ],
          [
            120.344572,
            22.682052
          ],
          [
            120.343945,
            22.681762
          ],
          [
            120.344111,
            22.681459
          ],
          [
            120.344358,
            22.680991
          ],
          [
            120.344399,
            22.680897
          ],
          [
            120.344309,
            22.680853
          ],
          [
            120.343776,
            22.680644
          ],
          [
            120.343677,
            22.680599
          ],
          [
            120.343323,
            22.680438
          ],
          [
            120.34283,
            22.68021
          ],
          [
            120.342767,
            22.680336
          ],
          [
            120.34283,
            22.68021
          ],
          [
            120.342319,
            22.679972
          ],
          [
            120.34208,
            22.679878
          ],
          [
            120.34188,
            22.679799
          ],
          [
            120.341335,
            22.67956
          ],
          [
            120.341281,
            22.679513
          ],
          [
            120.341373,
            22.679065
          ],
          [
            120.34149,
            22.678489
          ],
          [
            120.341362,
            22.678459
          ],
          [
            120.34149,
            22.678489
          ],
          [
            120.341619,
            22.677803
          ],
          [
            120.341683,
            22.677465
          ],
          [
            120.341748,
            22.677428
          ],
          [
            120.341841,
            22.677436
          ],
          [
            120.342401,
            22.677486
          ],
          [
            120.342378,
            22.677599
          ],
          [
            120.342283,
            22.678078
          ],
          [
            120.342416,
            22.678103
          ],
          [
            120.342283,
            22.678078
          ],
          [
            120.342231,
            22.678342
          ],
          [
            120.342171,
            22.678644
          ],
          [
            120.342261,
            22.678673
          ],
          [
            120.342171,
            22.678644
          ],
          [
            120.341965,
            22.679464
          ],
          [
            120.34188,
            22.679799
          ],
          [
            120.342319,
            22.679972
          ],
          [
            120.342714,
            22.679253
          ],
          [
            120.342789,
            22.679217
          ],
          [
            120.34308,
            22.679323
          ],
          [
            120.343236,
            22.679422
          ],
          [
            120.343236,
            22.679422
          ],
          [
            120.343232,
            22.679459
          ],
          [
            120.34374,
            22.679685
          ],
          [
            120.343432,
            22.680241
          ],
          [
            120.34374,
            22.679685
          ],
          [
            120.343799,
            22.679674
          ],
          [
            120.343799,
            22.679674
          ],
          [
            120.344167,
            22.67985
          ],
          [
            120.344177,
            22.679913
          ],
          [
            120.34416,
            22.679945
          ],
          [
            120.344177,
            22.679913
          ],
          [
            120.344167,
            22.67985
          ],
          [
            120.343799,
            22.679674
          ],
          [
            120.34374,
            22.679685
          ],
          [
            120.343232,
            22.679459
          ],
          [
            120.343236,
            22.679422
          ],
          [
            120.34308,
            22.679323
          ],
          [
            120.343246,
            22.679025
          ],
          [
            120.344056,
            22.679398
          ],
          [
            120.344088,
            22.679413
          ],
          [
            120.344514,
            22.679614
          ],
          [
            120.344955,
            22.679823
          ],
          [
            120.344695,
            22.680313
          ],
          [
            120.344441,
            22.68081
          ],
          [
            120.344399,
            22.680897
          ],
          [
            120.344309,
            22.680853
          ],
          [
            120.343776,
            22.680644
          ],
          [
            120.344177,
            22.679913
          ],
          [
            120.344167,
            22.67985
          ],
          [
            120.343799,
            22.679674
          ],
          [
            120.343799,
            22.679674
          ],
          [
            120.34374,
            22.679685
          ],
          [
            120.343232,
            22.679459
          ],
          [
            120.343236,
            22.679422
          ],
          [
            120.34308,
            22.679323
          ],
          [
            120.343246,
            22.679025
          ],
          [
            120.34344,
            22.679114
          ],
          [
            120.343246,
            22.679025
          ],
          [
            120.343437,
            22.678755
          ],
          [
            120.343242,
            22.678673
          ],
          [
            120.343437,
            22.678755
          ],
          [
            120.343399,
            22.678697
          ],
          [
            120.343548,
            22.67807
          ],
          [
            120.343669,
            22.677559
          ],
          [
            120.34307,
            22.677521
          ],
          [
            120.343031,
            22.677699
          ],
          [
            120.342938,
            22.678126
          ],
          [
            120.342852,
            22.67852
          ],
          [
            120.343004,
            22.678574
          ],
          [
            120.343437,
            22.678755
          ],
          [
            120.343846,
            22.678923
          ],
          [
            120.343906,
            22.67895
          ],
          [
            120.343846,
            22.678923
          ],
          [
            120.343918,
            22.678889
          ],
          [
            120.344106,
            22.678311
          ],
          [
            120.344139,
            22.67821
          ],
          [
            120.34418,
            22.678085
          ],
          [
            120.344317,
            22.677633
          ],
          [
            120.344836,
            22.677741
          ],
          [
            120.345401,
            22.677903
          ],
          [
            120.345427,
            22.677913
          ],
          [
            120.345401,
            22.677903
          ],
          [
            120.344843,
            22.677743
          ],
          [
            120.345401,
            22.677903
          ],
          [
            120.345559,
            22.677964
          ],
          [
            120.345794,
            22.678054
          ],
          [
            120.345862,
            22.678074
          ],
          [
            120.345918,
            22.677951
          ],
          [
            120.346004,
            22.67776
          ],
          [
            120.346117,
            22.67751
          ],
          [
            120.346131,
            22.67748
          ],
          [
            120.346158,
            22.677421
          ],
          [
            120.34611,
            22.677405
          ],
          [
            120.346076,
            22.677393
          ],
          [
            120.34572,
            22.677272
          ],
          [
            120.345352,
            22.677146
          ],
          [
            120.344756,
            22.677
          ],
          [
            120.344479,
            22.676951
          ],
          [
            120.344442,
            22.676945
          ],
          [
            120.344014,
            22.67686
          ],
          [
            120.343982,
            22.676854
          ],
          [
            120.343861,
            22.676834
          ],
          [
            120.34388,
            22.676732
          ],
          [
            120.343888,
            22.676692
          ],
          [
            120.34393,
            22.676482
          ],
          [
            120.344009,
            22.676256
          ],
          [
            120.344308,
            22.675753
          ],
          [
            120.344528,
            22.675574
          ],
          [
            120.344786,
            22.675363
          ],
          [
            120.344735,
            22.675283
          ],
          [
            120.343883,
            22.67487
          ],
          [
            120.343818,
            22.674838
          ],
          [
            120.343049,
            22.674455
          ],
          [
            120.342951,
            22.674326
          ],
          [
            120.342956,
            22.674209
          ],
          [
            120.343,
            22.674102
          ],
          [
            120.343085,
            22.674023
          ],
          [
            120.343149,
            22.673988
          ],
          [
            120.343085,
            22.674023
          ],
          [
            120.343,
            22.674102
          ],
          [
            120.342956,
            22.674209
          ],
          [
            120.342951,
            22.674326
          ],
          [
            120.343049,
            22.674455
          ],
          [
            120.343883,
            22.67487
          ],
          [
            120.344735,
            22.675283
          ],
          [
            120.344786,
            22.675363
          ],
          [
            120.345,
            22.67526
          ],
          [
            120.345242,
            22.675143
          ],
          [
            120.345466,
            22.675035
          ],
          [
            120.345861,
            22.674922
          ],
          [
            120.34609,
            22.674857
          ],
          [
            120.346541,
            22.674729
          ],
          [
            120.346669,
            22.674206
          ],
          [
            120.346545,
            22.674206
          ],
          [
            120.346669,
            22.674206
          ],
          [
            120.346745,
            22.673899
          ],
          [
            120.346985,
            22.673016
          ],
          [
            120.347391,
            22.673243
          ],
          [
            120.347588,
            22.673353
          ],
          [
            120.347651,
            22.673334
          ],
          [
            120.347588,
            22.673353
          ],
          [
            120.347391,
            22.673243
          ],
          [
            120.346985,
            22.673016
          ],
          [
            120.346597,
            22.672879
          ],
          [
            120.346509,
            22.672877
          ],
          [
            120.346216,
            22.673032
          ],
          [
            120.345778,
            22.673278
          ],
          [
            120.345737,
            22.673301
          ],
          [
            120.34543,
            22.673474
          ],
          [
            120.345432,
            22.673651
          ],
          [
            120.345434,
            22.673835
          ],
          [
            120.345331,
            22.673839
          ],
          [
            120.345434,
            22.673835
          ],
          [
            120.345441,
            22.674359
          ],
          [
            120.3451,
            22.674368
          ],
          [
            120.344963,
            22.674371
          ],
          [
            120.34443,
            22.674384
          ],
          [
            120.344447,
            22.673872
          ],
          [
            120.344448,
            22.673852
          ],
          [
            120.344469,
            22.673227
          ],
          [
            120.343855,
            22.673447
          ],
          [
            120.34308,
            22.673542
          ],
          [
            120.342671,
            22.673755
          ],
          [
            120.342618,
            22.673783
          ],
          [
            120.342671,
            22.673755
          ],
          [
            120.34308,
            22.673542
          ],
          [
            120.343855,
            22.673447
          ],
          [
            120.344469,
            22.673227
          ],
          [
            120.344387,
            22.67312
          ],
          [
            120.344469,
            22.673227
          ],
          [
            120.343855,
            22.673447
          ],
          [
            120.34308,
            22.673542
          ],
          [
            120.342671,
            22.673755
          ],
          [
            120.342099,
            22.674054
          ],
          [
            120.341901,
            22.674065
          ],
          [
            120.342099,
            22.674054
          ],
          [
            120.342671,
            22.673755
          ],
          [
            120.34308,
            22.673542
          ],
          [
            120.343855,
            22.673447
          ],
          [
            120.344469,
            22.673227
          ],
          [
            120.34537,
            22.672898
          ],
          [
            120.345413,
            22.672861
          ],
          [
            120.345857,
            22.672457
          ],
          [
            120.345908,
            22.672531
          ],
          [
            120.34614,
            22.672328
          ],
          [
            120.346182,
            22.672399
          ],
          [
            120.34614,
            22.672328
          ],
          [
            120.346342,
            22.672152
          ],
          [
            120.346412,
            22.67209
          ],
          [
            120.346488,
            22.672118
          ],
          [
            120.346593,
            22.672156
          ],
          [
            120.346488,
            22.672118
          ],
          [
            120.346412,
            22.67209
          ],
          [
            120.346727,
            22.671818
          ],
          [
            120.346815,
            22.671708
          ],
          [
            120.346909,
            22.671732
          ],
          [
            120.347398,
            22.671858
          ],
          [
            120.347654,
            22.671182
          ],
          [
            120.347704,
            22.67105
          ],
          [
            120.347648,
            22.671021
          ],
          [
            120.347622,
            22.671007
          ],
          [
            120.347512,
            22.670951
          ],
          [
            120.34734,
            22.670892
          ],
          [
            120.347315,
            22.670886
          ],
          [
            120.34734,
            22.670892
          ],
          [
            120.347512,
            22.670951
          ],
          [
            120.347622,
            22.671007
          ],
          [
            120.347648,
            22.671021
          ],
          [
            120.347704,
            22.67105
          ],
          [
            120.347654,
            22.671182
          ],
          [
            120.347398,
            22.671858
          ],
          [
            120.347536,
            22.671889
          ],
          [
            120.347398,
            22.671858
          ],
          [
            120.347211,
            22.672384
          ],
          [
            120.346689,
            22.672192
          ],
          [
            120.347211,
            22.672384
          ],
          [
            120.347177,
            22.672479
          ],
          [
            120.346985,
            22.673016
          ],
          [
            120.347089,
            22.673074
          ],
          [
            120.347391,
            22.673243
          ],
          [
            120.347588,
            22.673353
          ],
          [
            120.347552,
            22.673487
          ],
          [
            120.347367,
            22.674187
          ],
          [
            120.347234,
            22.674687
          ],
          [
            120.348057,
            22.674716
          ],
          [
            120.348262,
            22.674723
          ],
          [
            120.348275,
            22.674347
          ],
          [
            120.348283,
            22.674069
          ],
          [
            120.348116,
            22.674063
          ],
          [
            120.348283,
            22.674069
          ],
          [
            120.348291,
            22.67383
          ],
          [
            120.348325,
            22.673228
          ],
          [
            120.348332,
            22.673109
          ],
          [
            120.348325,
            22.673228
          ],
          [
            120.348291,
            22.67383
          ],
          [
            120.348283,
            22.674069
          ],
          [
            120.348275,
            22.674347
          ],
          [
            120.348262,
            22.674723
          ],
          [
            120.348979,
            22.674857
          ],
          [
            120.348937,
            22.674996
          ],
          [
            120.34882,
            22.675382
          ],
          [
            120.348768,
            22.675413
          ],
          [
            120.348765,
            22.675417
          ],
          [
            120.348737,
            22.675461
          ],
          [
            120.348627,
            22.675841
          ],
          [
            120.348634,
            22.675886
          ],
          [
            120.348557,
            22.676146
          ],
          [
            120.348528,
            22.676243
          ],
          [
            120.348402,
            22.676596
          ],
          [
            120.348157,
            22.67707
          ],
          [
            120.348163,
            22.677157
          ],
          [
            120.348142,
            22.677197
          ],
          [
            120.348163,
            22.677157
          ],
          [
            120.34822,
            22.677203
          ],
          [
            120.348733,
            22.677481
          ],
          [
            120.348892,
            22.677563
          ],
          [
            120.349142,
            22.677171
          ],
          [
            120.349191,
            22.677095
          ],
          [
            120.34921,
            22.677065
          ],
          [
            120.349249,
            22.677004
          ],
          [
            120.349288,
            22.676941
          ],
          [
            120.349304,
            22.676915
          ],
          [
            120.349433,
            22.676703
          ],
          [
            120.349629,
            22.676407
          ],
          [
            120.349945,
            22.675911
          ],
          [
            120.350206,
            22.675536
          ],
          [
            120.349945,
            22.675911
          ],
          [
            120.34882,
            22.675382
          ],
          [
            120.348768,
            22.675413
          ],
          [
            120.348737,
            22.675461
          ],
          [
            120.348627,
            22.675841
          ],
          [
            120.348634,
            22.675886
          ],
          [
            120.348617,
            22.675943
          ],
          [
            120.348634,
            22.675886
          ],
          [
            120.348627,
            22.675841
          ],
          [
            120.348737,
            22.675461
          ],
          [
            120.348768,
            22.675413
          ],
          [
            120.34882,
            22.675382
          ],
          [
            120.349945,
            22.675911
          ],
          [
            120.350175,
            22.676023
          ],
          [
            120.349945,
            22.675911
          ],
          [
            120.350307,
            22.675392
          ],
          [
            120.350329,
            22.675359
          ],
          [
            120.35038,
            22.675286
          ],
          [
            120.350461,
            22.675329
          ],
          [
            120.350495,
            22.675348
          ],
          [
            120.350813,
            22.67552
          ],
          [
            120.351227,
            22.675743
          ],
          [
            120.351408,
            22.675841
          ]
        ]
      },
      "properties": {
        "routeId": "kaohsiung-kep-2901-e56961",
        "city": "kaohsiung",
        "source_file": "kaohsiung/kaohsiung-kep-2901-e56961.geojson",
        "distance_km": 18.282,
        "duration_min": 45.81333333333334,
        "valhalla_config": "valhalla.json"
      }
    }
  ]
}