{
  "type": "FeatureCollection",
  "features": [
    {
      "type": "Feature",
      "geometry": {
        "type": "LineString",
        "coordinates": [
          [
            121.583358,
            25.077128
          ],
          [
            121.583101,
            25.077124
          ],
          [
            121.583001,
            25.077123
          ],
          [
            121.582462,
            25.077117
          ],
          [
            121.582462,
            25.07717
          ],
          [
            121.582464,
            25.077579
          ],
          [
            121.582456,
            25.07794
          ],
          [
            121.581403,
            25.077941
          ],
          [
            121.581311,
            25.077942
          ],
          [
            121.580762,
            25.077945
          ],
          [
            121.580723,
            25.077945
          ],
          [
            121.580701,
            25.077926
          ],
          [
            121.580658,
            25.077891
          ],
          [
            121.580693,
            25.077527
          ],
          [
            121.580469,
            25.077523
          ],
          [
            121.580117,
            25.077516
          ],
          [
            121.579758,
            25.0775
          ],
          [
            121.580099,
            25.076816
          ],
          [
            121.580127,
            25.076762
          ],
          [
            121.58007,
            25.076733
          ],
          [
            121.579652,
            25.076523
          ],
          [
            121.579355,
            25.076365
          ],
          [
            121.579279,
            25.076324
          ],
          [
            121.579171,
            25.076272
          ],
          [
            121.57914,
            25.076256
          ],
          [
            121.579105,
            25.076239
          ],
          [
            121.578851,
            25.076109
          ],
          [
            121.578827,
            25.076097
          ],
          [
            121.57853,
            25.075928
          ],
          [
            121.578495,
            25.075909
          ],
          [
            121.578416,
            25.075866
          ],
          [
            121.578439,
            25.075837
          ],
          [
            121.578711,
            25.075349
          ],
          [
            121.578866,
            25.07506
          ],
          [
            121.578984,
            25.07484
          ],
          [
            121.579056,
            25.074707
          ],
          [
            121.579504,
            25.073936
          ],
          [
            121.579529,
            25.073901
          ],
          [
            121.579294,
            25.0738
          ],
          [
            121.579162,
            25.073724
          ],
          [
            121.579257,
            25.073664
          ],
          [
            121.579265,
            25.073656
          ],
          [
            121.579375,
            25.073545
          ],
          [
            121.579545,
            25.073373
          ],
          [
            121.579867,
            25.073088
          ],
          [
            121.579939,
            25.073024
          ],
          [
            121.57998,
            25.072984
          ],
          [
            121.580262,
            25.072721
          ],
          [
            121.580339,
            25.072648
          ],
          [
            121.58068,
            25.07232
          ],
          [
            121.580715,
            25.072287
          ],
          [
            121.580776,
            25.072228
          ],
          [
            121.580829,
            25.072177
          ],
          [
            121.580858,
            25.072149
          ],
          [
            121.580906,
            25.072103
          ],
          [
            121.581004,
            25.072009
          ],
          [
            121.581168,
            25.071851
          ],
          [
            121.581616,
            25.071422
          ],
          [
            121.581677,
            25.071361
          ],
          [
            121.581722,
            25.071316
          ],
          [
            121.581808,
            25.071229
          ],
          [
            121.582188,
            25.070845
          ],
          [
            121.582234,
            25.070802
          ],
          [
            121.582286,
            25.070752
          ],
          [
            121.582358,
            25.070681
          ],
          [
            121.582652,
            25.070389
          ],
          [
            121.582722,
            25.070321
          ],
          [
            121.582773,
            25.070272
          ],
          [
            121.583307,
            25.06975
          ],
          [
            121.583347,
            25.069711
          ],
          [
            121.583451,
            25.069621
          ],
          [
            121.583453,
            25.069619
          ],
          [
            121.583803,
            25.06926
          ],
          [
            121.584139,
            25.068901
          ],
          [
            121.584143,
            25.068898
          ],
          [
            121.58427,
            25.068811
          ],
          [
            121.584364,
            25.068738
          ],
          [
            121.584562,
            25.068758
          ],
          [
            121.585238,
            25.068826
          ],
          [
            121.585922,
            25.068895
          ],
          [
            121.586019,
            25.068905
          ],
          [
            121.586034,
            25.068906
          ],
          [
            121.58696,
            25.06898
          ],
          [
            121.58726,
            25.068991
          ],
          [
            121.587262,
            25.06888
          ],
          [
            121.58726,
            25.068991
          ],
          [
            121.587755,
            25.068996
          ],
          [
            121.587816,
            25.068996
          ],
          [
            121.587933,
            25.068993
          ],
          [
            121.588745,
            25.068966
          ],
          [
            121.589144,
            25.068953
          ],
          [
            121.589202,
            25.068952
          ],
          [
            121.589951,
            25.068929
          ],
          [
            121.590379,
            25.068915
          ],
          [
            121.59069,
            25.068913
          ],
          [
            121.590799,
            25.068912
          ],
          [
            121.59091,
            25.068908
          ],
          [
            121.591106,
            25.0689
          ],
          [
            121.59143,
            25.068887
          ],
          [
            121.592001,
            25.06887
          ],
          [
            121.592735,
            25.068843
          ],
          [
            121.592795,
            25.068841
          ],
          [
            121.592916,
            25.068837
          ],
          [
            121.593539,
            25.068813
          ],
          [
            121.594095,
            25.068794
          ],
          [
            121.594394,
            25.068757
          ],
          [
            121.594559,
            25.068734
          ],
          [
            121.595041,
            25.0686
          ],
          [
            121.595136,
            25.068558
          ],
          [
            121.595313,
            25.068484
          ],
          [
            121.595482,
            25.068406
          ],
          [
            121.595589,
            25.068359
          ],
          [
            121.597447,
            25.0675
          ],
          [
            121.597494,
            25.067478
          ],
          [
            121.597566,
            25.067595
          ],
          [
            121.597922,
            25.06814
          ],
          [
            121.597947,
            25.068179
          ],
          [
            121.597979,
            25.068225
          ],
          [
            121.598326,
            25.068741
          ],
          [
            121.598366,
            25.0688
          ],
          [
            121.598296,
            25.068819
          ],
          [
            121.598201,
            25.068846
          ],
          [
            121.597137,
            25.069019
          ],
          [
            121.597078,
            25.069028
          ]
        ]
      },
      "properties": {
        "routeId": "taipei-2-0918c6-2-9e3cb1",
        "city": "taipei",
        "source_file": "taipei/taipei-2-0918c6-2-9e3cb1.geojson",
        "distance_km": 3.527,
        "duration_min": 6.9868500000000004,
        "valhalla_config": "valhalla.json"
      }
    }
  ]
}