{
  "type": "FeatureCollection",
  "features": [
    {
      "type": "Feature",
      "geometry": {
        "type": "LineString",
        "coordinates": [
          [
            121.530533,
            25.028309
          ],
          [
            121.529616,
            25.028377
          ],
          [
            121.529133,
            25.028449
          ],
          [
            121.52834,
            25.028568
          ],
          [
            121.528297,
            25.028575
          ],
          [
            121.528247,
            25.028583
          ],
          [
            121.527538,
            25.028704
          ],
          [
            121.52644,
            25.028873
          ],
          [
            121.526366,
            25.028881
          ],
          [
            121.526366,
            25.028884
          ],
          [
            121.526435,
            25.029202
          ],
          [
            121.526489,
            25.02947
          ],
          [
            121.526527,
            25.029663
          ],
          [
            121.526603,
            25.03007
          ],
          [
            121.526624,
            25.030181
          ],
          [
            121.526519,
            25.030198
          ],
          [
            121.526428,
            25.030212
          ],
          [
            121.526072,
            25.030269
          ],
          [
            121.525681,
            25.030333
          ],
          [
            121.524784,
            25.030472
          ],
          [
            121.524293,
            25.030553
          ],
          [
            121.523797,
            25.030628
          ],
          [
            121.523248,
            25.030706
          ],
          [
            121.52319,
            25.030717
          ],
          [
            121.522455,
            25.030832
          ],
          [
            121.522373,
            25.030861
          ],
          [
            121.52229,
            25.030887
          ],
          [
            121.522307,
            25.030981
          ],
          [
            121.522411,
            25.031593
          ],
          [
            121.52252,
            25.032171
          ],
          [
            121.522539,
            25.032281
          ],
          [
            121.522574,
            25.032404
          ],
          [
            121.522622,
            25.032494
          ],
          [
            121.52283,
            25.032833
          ],
          [
            121.523007,
            25.033133
          ],
          [
            121.523472,
            25.033921
          ],
          [
            121.523764,
            25.034417
          ],
          [
            121.52409,
            25.03497
          ],
          [
            121.524273,
            25.035274
          ],
          [
            121.524312,
            25.03536
          ],
          [
            121.524467,
            25.035283
          ],
          [
            121.524949,
            25.03505
          ],
          [
            121.52565,
            25.034705
          ],
          [
            121.52576,
            25.034651
          ],
          [
            121.525746,
            25.03457
          ],
          [
            121.52576,
            25.034651
          ],
          [
            121.52671,
            25.034184
          ],
          [
            121.527012,
            25.034044
          ],
          [
            121.527207,
            25.034006
          ],
          [
            121.527188,
            25.033887
          ],
          [
            121.527138,
            25.033599
          ],
          [
            121.527118,
            25.03349
          ],
          [
            121.527075,
            25.033265
          ],
          [
            121.527036,
            25.033059
          ],
          [
            121.527028,
            25.03302
          ],
          [
            121.527013,
            25.032932
          ],
          [
            121.526985,
            25.032774
          ],
          [
            121.526812,
            25.031821
          ],
          [
            121.526801,
            25.03176
          ],
          [
            121.52678,
            25.031644
          ],
          [
            121.526741,
            25.03143
          ],
          [
            121.526576,
            25.030515
          ],
          [
            121.526525,
            25.030233
          ],
          [
            121.526519,
            25.030198
          ],
          [
            121.526499,
            25.030086
          ],
          [
            121.526423,
            25.029661
          ],
          [
            121.526274,
            25.028897
          ],
          [
            121.526273,
            25.028895
          ],
          [
            121.526252,
            25.028785
          ],
          [
            121.526231,
            25.028678
          ]
        ]
      },
      "properties": {
        "routeId": "taipei-1-b17bae-3-d9a235",
        "city": "taipei",
        "source_file": "taipei/taipei-1-b17bae-3-d9a235.geojson",
        "distance_km": 2.508,
        "duration_min": 4.911966666666667,
        "valhalla_config": "valhalla.json"
      }
    }
  ]
}