{
  "type": "FeatureCollection",
  "features": [
    {
      "type": "Feature",
      "geometry": {
        "type": "LineString",
        "coordinates": [
          [
            121.508997,
            25.056759
          ],
          [
            121.508989,
            25.056609
          ],
          [
            121.508981,
            25.056273
          ],
          [
            121.508939,
            25.055545
          ],
          [
            121.50892,
            25.055331
          ],
          [
            121.508904,
            25.055236
          ],
          [
            121.508895,
            25.055183
          ],
          [
            121.508893,
            25.055152
          ],
          [
            121.508874,
            25.054926
          ],
          [
            121.508823,
            25.054486
          ],
          [
            121.508818,
            25.054424
          ],
          [
            121.508805,
            25.054266
          ],
          [
            121.508756,
            25.053857
          ],
          [
            121.508733,
            25.053656
          ],
          [
            121.508712,
            25.053479
          ],
          [
            121.5087,
            25.053414
          ],
          [
            121.508823,
            25.053384
          ],
          [
            121.5089,
            25.053366
          ],
          [
            121.508992,
            25.053359
          ],
          [
            121.5089,
            25.053366
          ],
          [
            121.508886,
            25.053131
          ],
          [
            121.508857,
            25.052011
          ],
          [
            121.509856,
            25.05202
          ],
          [
            121.510042,
            25.052019
          ],
          [
            121.510339,
            25.052033
          ],
          [
            121.510441,
            25.052038
          ],
          [
            121.510587,
            25.052039
          ],
          [
            121.511029,
            25.05204
          ],
          [
            121.511856,
            25.052043
          ],
          [
            121.511887,
            25.051562
          ],
          [
            121.511891,
            25.051512
          ],
          [
            121.511907,
            25.051309
          ],
          [
            121.511953,
            25.050734
          ],
          [
            121.511967,
            25.050561
          ],
          [
            121.512013,
            25.049983
          ],
          [
            121.511938,
            25.049782
          ],
          [
            121.5119,
            25.049675
          ],
          [
            121.511618,
            25.048878
          ],
          [
            121.511405,
            25.048281
          ],
          [
            121.511354,
            25.048132
          ],
          [
            121.511244,
            25.048162
          ],
          [
            121.511122,
            25.048179
          ],
          [
            121.510293,
            25.04822
          ],
          [
            121.510006,
            25.048229
          ],
          [
            121.509622,
            25.048243
          ],
          [
            121.509445,
            25.048268
          ],
          [
            121.509433,
            25.048271
          ],
          [
            121.509138,
            25.048339
          ],
          [
            121.508839,
            25.048416
          ],
          [
            121.507757,
            25.048679
          ],
          [
            121.50765,
            25.048706
          ],
          [
            121.507679,
            25.048807
          ],
          [
            121.507794,
            25.049208
          ],
          [
            121.507931,
            25.049687
          ],
          [
            121.50796,
            25.049789
          ],
          [
            121.50804,
            25.050069
          ],
          [
            121.508112,
            25.050323
          ],
          [
            121.508136,
            25.050406
          ],
          [
            121.508298,
            25.050384
          ],
          [
            121.508926,
            25.050289
          ],
          [
            121.509078,
            25.050274
          ],
          [
            121.50964,
            25.050196
          ],
          [
            121.509761,
            25.05018
          ],
          [
            121.510026,
            25.050143
          ],
          [
            121.510184,
            25.050121
          ],
          [
            121.510346,
            25.050095
          ],
          [
            121.510441,
            25.05008
          ],
          [
            121.510633,
            25.050051
          ],
          [
            121.51162,
            25.049861
          ],
          [
            121.511938,
            25.049782
          ],
          [
            121.512013,
            25.049983
          ],
          [
            121.511953,
            25.050734
          ],
          [
            121.511907,
            25.051309
          ],
          [
            121.511887,
            25.051562
          ],
          [
            121.511856,
            25.052043
          ],
          [
            121.511813,
            25.052758
          ],
          [
            121.511812,
            25.052775
          ],
          [
            121.511786,
            25.053235
          ],
          [
            121.511765,
            25.05369
          ],
          [
            121.511762,
            25.053773
          ],
          [
            121.511757,
            25.053873
          ],
          [
            121.511752,
            25.053966
          ],
          [
            121.511698,
            25.054919
          ],
          [
            121.51169,
            25.055062
          ],
          [
            121.511677,
            25.055259
          ],
          [
            121.511669,
            25.055393
          ],
          [
            121.511667,
            25.055453
          ],
          [
            121.511665,
            25.055494
          ],
          [
            121.511598,
            25.056546
          ],
          [
            121.51158,
            25.056854
          ],
          [
            121.511582,
            25.056941
          ],
          [
            121.511578,
            25.057014
          ],
          [
            121.51154,
            25.057632
          ],
          [
            121.511537,
            25.057679
          ],
          [
            121.511513,
            25.058059
          ],
          [
            121.511508,
            25.058153
          ],
          [
            121.511498,
            25.058286
          ],
          [
            121.511494,
            25.058367
          ],
          [
            121.511463,
            25.058883
          ],
          [
            121.511455,
            25.058997
          ],
          [
            121.511441,
            25.059235
          ],
          [
            121.511438,
            25.059282
          ],
          [
            121.511392,
            25.060025
          ],
          [
            121.511381,
            25.060196
          ],
          [
            121.511353,
            25.060652
          ],
          [
            121.51126,
            25.062134
          ],
          [
            121.511173,
            25.06213
          ],
          [
            121.510512,
            25.06211
          ],
          [
            121.509754,
            25.062092
          ],
          [
            121.509774,
            25.061851
          ],
          [
            121.509809,
            25.061386
          ],
          [
            121.509914,
            25.060643
          ],
          [
            121.509918,
            25.060614
          ]
        ]
      },
      "properties": {
        "routeId": "taipei-2-f74888-1-ebe684",
        "city": "taipei",
        "source_file": "taipei/taipei-2-f74888-1-ebe684.geojson",
        "distance_km": 3.975,
        "duration_min": 7.869516666666667,
        "valhalla_config": "valhalla.json"
      }
    }
  ]
}