{
  "type": "FeatureCollection",
  "features": [
    {
      "type": "Feature",
      "geometry": {
        "type": "LineString",
        "coordinates": [
          [
            121.559388,
            25.049682
          ],
          [
            121.559238,
            25.049626
          ],
          [
            121.559162,
            25.049596
          ],
          [
            121.558602,
            25.049402
          ],
          [
            121.558431,
            25.049342
          ],
          [
            121.55799,
            25.0492
          ],
          [
            121.557886,
            25.049166
          ],
          [
            121.557886,
            25.049227
          ],
          [
            121.557909,
            25.050055
          ],
          [
            121.557926,
            25.050512
          ],
          [
            121.557931,
            25.050947
          ],
          [
            121.557939,
            25.051218
          ],
          [
            121.55794,
            25.051271
          ],
          [
            121.557942,
            25.05133
          ],
          [
            121.557949,
            25.051466
          ],
          [
            121.558095,
            25.051464
          ],
          [
            121.558435,
            25.05146
          ],
          [
            121.559023,
            25.051445
          ],
          [
            121.559078,
            25.051443
          ],
          [
            121.559162,
            25.051441
          ],
          [
            121.559289,
            25.051438
          ],
          [
            121.559756,
            25.05143
          ],
          [
            121.559867,
            25.051414
          ],
          [
            121.560108,
            25.051401
          ],
          [
            121.560639,
            25.051388
          ],
          [
            121.5608,
            25.051421
          ],
          [
            121.560935,
            25.051416
          ],
          [
            121.561761,
            25.051399
          ],
          [
            121.562593,
            25.051382
          ],
          [
            121.56259,
            25.051301
          ],
          [
            121.562582,
            25.050822
          ],
          [
            121.56257,
            25.050335
          ],
          [
            121.562557,
            25.049807
          ],
          [
            121.56261,
            25.049243
          ],
          [
            121.562627,
            25.049138
          ],
          [
            121.562675,
            25.048801
          ],
          [
            121.562686,
            25.048709
          ],
          [
            121.562771,
            25.04864
          ],
          [
            121.562915,
            25.048654
          ],
          [
            121.563937,
            25.048741
          ],
          [
            121.563925,
            25.048834
          ],
          [
            121.563937,
            25.048741
          ],
          [
            121.564061,
            25.048751
          ],
          [
            121.564133,
            25.048758
          ],
          [
            121.564788,
            25.048825
          ],
          [
            121.564849,
            25.048831
          ],
          [
            121.564863,
            25.048832
          ],
          [
            121.564932,
            25.048839
          ],
          [
            121.565264,
            25.048873
          ],
          [
            121.565318,
            25.048879
          ],
          [
            121.565374,
            25.048884
          ],
          [
            121.565511,
            25.048898
          ],
          [
            121.565573,
            25.048906
          ],
          [
            121.565548,
            25.048997
          ],
          [
            121.56553,
            25.049109
          ],
          [
            121.565483,
            25.049566
          ],
          [
            121.565434,
            25.04995
          ],
          [
            121.56543,
            25.049979
          ],
          [
            121.565426,
            25.05001
          ],
          [
            121.56542,
            25.050062
          ],
          [
            121.565417,
            25.050153
          ],
          [
            121.565403,
            25.050727
          ],
          [
            121.565414,
            25.051162
          ],
          [
            121.565415,
            25.051203
          ],
          [
            121.565417,
            25.051318
          ],
          [
            121.565627,
            25.051309
          ],
          [
            121.565965,
            25.051296
          ],
          [
            121.566,
            25.051294
          ],
          [
            121.566067,
            25.051292
          ],
          [
            121.566155,
            25.05129
          ],
          [
            121.566216,
            25.051288
          ]
        ]
      },
      "properties": {
        "routeId": "taipei-1-eb121c-1-ebe684",
        "city": "taipei",
        "source_file": "taipei/taipei-1-eb121c-1-ebe684.geojson",
        "distance_km": 1.85,
        "duration_min": 3.6195666666666666,
        "valhalla_config": "valhalla.json"
      }
    }
  ]
}