{
  "type": "FeatureCollection",
  "features": [
    {
      "type": "Feature",
      "geometry": {
        "type": "LineString",
        "coordinates": [
          [
            121.519258,
            25.053926
          ],
          [
            121.519278,
            25.054012
          ],
          [
            121.519352,
            25.054255
          ],
          [
            121.519441,
            25.054463
          ],
          [
            121.519513,
            25.054629
          ],
          [
            121.519576,
            25.054787
          ],
          [
            121.519612,
            25.054877
          ],
          [
            121.519635,
            25.055309
          ],
          [
            121.51966,
            25.055739
          ],
          [
            121.519685,
            25.056177
          ],
          [
            121.519699,
            25.05637
          ],
          [
            121.519712,
            25.056636
          ],
          [
            121.519725,
            25.057032
          ],
          [
            121.519723,
            25.05708
          ]
        ]
      },
      "properties": {
        "routeId": "taipei-3-bd8678-3-d9a235",
        "city": "taipei",
        "source_file": "taipei/taipei-3-bd8678-3-d9a235.geojson",
        "distance_km": 0.357,
        "duration_min": 0.7172166666666667,
        "valhalla_config": "valhalla.json"
      }
    }
  ]
}