{
  "type": "FeatureCollection",
  "features": [
    {
      "type": "Feature",
      "geometry": {
        "type": "LineString",
        "coordinates": [
          [
            121.567348,
            25.057234
          ],
          [
            121.567294,
            25.057772
          ],
          [
            121.567261,
            25.05811
          ],
          [
            121.56723,
            25.058432
          ],
          [
            121.568208,
            25.058506
          ],
          [
            121.568863,
            25.058553
          ],
          [
            121.568951,
            25.058564
          ],
          [
            121.568979,
            25.058504
          ],
          [
            121.569061,
            25.058331
          ],
          [
            121.569083,
            25.058253
          ],
          [
            121.569141,
            25.058073
          ],
          [
            121.56916,
            25.057954
          ],
          [
            121.569214,
            25.057663
          ],
          [
            121.569243,
            25.057503
          ],
          [
            121.56925,
            25.05746
          ],
          [
            121.56926,
            25.057412
          ],
          [
            121.569275,
            25.057327
          ],
          [
            121.569417,
            25.057343
          ],
          [
            121.569402,
            25.057433
          ],
          [
            121.569371,
            25.057629
          ],
          [
            121.569148,
            25.058895
          ],
          [
            121.569108,
            25.059127
          ],
          [
            121.569103,
            25.059154
          ],
          [
            121.569094,
            25.059205
          ],
          [
            121.569072,
            25.059295
          ],
          [
            121.568921,
            25.059281
          ],
          [
            121.56883,
            25.059275
          ],
          [
            121.568633,
            25.059265
          ],
          [
            121.568576,
            25.059262
          ],
          [
            121.568518,
            25.059258
          ],
          [
            121.568453,
            25.059252
          ],
          [
            121.568373,
            25.059348
          ],
          [
            121.568089,
            25.059639
          ],
          [
            121.567951,
            25.059787
          ],
          [
            121.567912,
            25.05983
          ],
          [
            121.567783,
            25.059985
          ],
          [
            121.567763,
            25.060008
          ],
          [
            121.567491,
            25.060307
          ],
          [
            121.567273,
            25.060535
          ],
          [
            121.567218,
            25.060592
          ],
          [
            121.56719,
            25.060622
          ],
          [
            121.567163,
            25.060649
          ],
          [
            121.567117,
            25.060703
          ],
          [
            121.566879,
            25.060981
          ],
          [
            121.566714,
            25.061189
          ],
          [
            121.566457,
            25.061681
          ],
          [
            121.566422,
            25.061758
          ],
          [
            121.566491,
            25.061792
          ],
          [
            121.566686,
            25.061919
          ],
          [
            121.566826,
            25.062001
          ],
          [
            121.566997,
            25.062176
          ],
          [
            121.567102,
            25.062377
          ],
          [
            121.56718,
            25.062526
          ],
          [
            121.567276,
            25.062839
          ],
          [
            121.567197,
            25.062827
          ]
        ]
      },
      "properties": {
        "routeId": "taipei-2-53a6f2-2-9e3cb1",
        "city": "taipei",
        "source_file": "taipei/taipei-2-53a6f2-2-9e3cb1.geojson",
        "distance_km": 1.257,
        "duration_min": 2.5105833333333334,
        "valhalla_config": "valhalla.json"
      }
    }
  ]
}