{
  "type": "FeatureCollection",
  "features": [
    {
      "type": "Feature",
      "geometry": {
        "type": "LineString",
        "coordinates": [
          [
            121.617735,
            25.045347
          ],
          [
            121.617531,
            25.045454
          ],
          [
            121.617357,
            25.045166
          ],
          [
            121.617151,
            25.045243
          ],
          [
            121.61706,
            25.045278
          ],
          [
            121.616985,
            25.045351
          ],
          [
            121.616934,
            25.045531
          ],
          [
            121.616938,
            25.04586
          ],
          [
            121.616049,
            25.045716
          ],
          [
            121.615996,
            25.0457
          ],
          [
            121.616049,
            25.045716
          ],
          [
            121.616938,
            25.04586
          ],
          [
            121.616969,
            25.045884
          ],
          [
            121.616992,
            25.045974
          ],
          [
            121.617062,
            25.04607
          ],
          [
            121.617228,
            25.046152
          ],
          [
            121.617413,
            25.046243
          ],
          [
            121.617347,
            25.046353
          ],
          [
            121.617312,
            25.046417
          ],
          [
            121.617284,
            25.046465
          ],
          [
            121.617111,
            25.046787
          ],
          [
            121.617001,
            25.046774
          ],
          [
            121.616414,
            25.046819
          ],
          [
            121.616401,
            25.046589
          ],
          [
            121.616404,
            25.04632
          ],
          [
            121.616405,
            25.046233
          ],
          [
            121.616088,
            25.04623
          ],
          [
            121.615791,
            25.046213
          ],
          [
            121.615683,
            25.046187
          ],
          [
            121.615532,
            25.046079
          ],
          [
            121.61536,
            25.045901
          ],
          [
            121.615289,
            25.045879
          ],
          [
            121.615203,
            25.045852
          ],
          [
            121.615176,
            25.045985
          ],
          [
            121.615175,
            25.04615
          ],
          [
            121.615207,
            25.046304
          ],
          [
            121.615223,
            25.046347
          ],
          [
            121.61524,
            25.046392
          ],
          [
            121.615335,
            25.046642
          ],
          [
            121.615476,
            25.046971
          ],
          [
            121.615527,
            25.047089
          ],
          [
            121.615599,
            25.047295
          ],
          [
            121.615649,
            25.047283
          ],
          [
            121.615704,
            25.04727
          ],
          [
            121.615649,
            25.047283
          ],
          [
            121.615599,
            25.047295
          ],
          [
            121.615727,
            25.047613
          ],
          [
            121.615749,
            25.047667
          ],
          [
            121.61579,
            25.047767
          ],
          [
            121.615879,
            25.04799
          ],
          [
            121.615941,
            25.04819
          ],
          [
            121.615946,
            25.048324
          ],
          [
            121.615943,
            25.048545
          ],
          [
            121.615905,
            25.048797
          ],
          [
            121.615896,
            25.048851
          ],
          [
            121.615986,
            25.048873
          ],
          [
            121.616098,
            25.0489
          ],
          [
            121.616199,
            25.048907
          ],
          [
            121.616273,
            25.048888
          ],
          [
            121.616377,
            25.048845
          ],
          [
            121.616389,
            25.048777
          ],
          [
            121.616409,
            25.048653
          ],
          [
            121.616504,
            25.048271
          ],
          [
            121.616515,
            25.048223
          ],
          [
            121.616575,
            25.048046
          ],
          [
            121.616665,
            25.047783
          ],
          [
            121.616867,
            25.047262
          ],
          [
            121.617111,
            25.046787
          ],
          [
            121.617284,
            25.046465
          ],
          [
            121.617312,
            25.046417
          ],
          [
            121.617347,
            25.046353
          ],
          [
            121.617413,
            25.046243
          ],
          [
            121.617531,
            25.046028
          ],
          [
            121.617576,
            25.045927
          ],
          [
            121.617682,
            25.045718
          ],
          [
            121.617876,
            25.045408
          ],
          [
            121.617904,
            25.045351
          ],
          [
            121.617931,
            25.0454
          ],
          [
            121.617938,
            25.045413
          ],
          [
            121.618008,
            25.045541
          ],
          [
            121.618019,
            25.045563
          ],
          [
            121.618218,
            25.045919
          ],
          [
            121.618392,
            25.046196
          ],
          [
            121.618506,
            25.046456
          ],
          [
            121.618653,
            25.046715
          ],
          [
            121.618653,
            25.046783
          ],
          [
            121.618731,
            25.046958
          ],
          [
            121.618776,
            25.04706
          ],
          [
            121.619019,
            25.047644
          ],
          [
            121.61909,
            25.047913
          ],
          [
            121.619194,
            25.048232
          ],
          [
            121.61939,
            25.049319
          ],
          [
            121.619458,
            25.049898
          ],
          [
            121.619468,
            25.050031
          ],
          [
            121.619473,
            25.050085
          ],
          [
            121.61949,
            25.050255
          ],
          [
            121.619501,
            25.050345
          ],
          [
            121.61957,
            25.050449
          ],
          [
            121.61964,
            25.050544
          ],
          [
            121.619649,
            25.050589
          ],
          [
            121.619637,
            25.051096
          ],
          [
            121.619654,
            25.051248
          ],
          [
            121.619712,
            25.051451
          ],
          [
            121.619839,
            25.051669
          ],
          [
            121.619949,
            25.051809
          ],
          [
            121.620112,
            25.051935
          ],
          [
            121.620819,
            25.052356
          ],
          [
            121.62096,
            25.052478
          ],
          [
            121.621025,
            25.052576
          ],
          [
            121.621076,
            25.052679
          ],
          [
            121.621298,
            25.053579
          ],
          [
            121.62134,
            25.053743
          ],
          [
            121.621388,
            25.054031
          ],
          [
            121.621439,
            25.054204
          ],
          [
            121.621481,
            25.05431
          ],
          [
            121.621657,
            25.054587
          ],
          [
            121.621688,
            25.054655
          ],
          [
            121.621704,
            25.054763
          ],
          [
            121.621692,
            25.054886
          ],
          [
            121.621669,
            25.054978
          ],
          [
            121.621421,
            25.054988
          ],
          [
            121.621057,
            25.054976
          ],
          [
            121.620953,
            25.054967
          ],
          [
            121.620944,
            25.054965
          ],
          [
            121.620594,
            25.054895
          ],
          [
            121.620426,
            25.054861
          ],
          [
            121.620233,
            25.054841
          ],
          [
            121.620041,
            25.054816
          ],
          [
            121.619625,
            25.0548
          ],
          [
            121.619483,
            25.054798
          ],
          [
            121.619356,
            25.054803
          ],
          [
            121.619184,
            25.054818
          ],
          [
            121.618971,
            25.054848
          ],
          [
            121.618814,
            25.054876
          ],
          [
            121.61867,
            25.054908
          ],
          [
            121.618502,
            25.054926
          ],
          [
            121.61746,
            25.055076
          ],
          [
            121.617176,
            25.055117
          ],
          [
            121.617099,
            25.055128
          ],
          [
            121.616826,
            25.055168
          ],
          [
            121.616698,
            25.055187
          ],
          [
            121.616583,
            25.055156
          ],
          [
            121.616563,
            25.055034
          ],
          [
            121.616471,
            25.054558
          ],
          [
            121.616455,
            25.054477
          ],
          [
            121.616429,
            25.054322
          ],
          [
            121.616417,
            25.054247
          ],
          [
            121.616406,
            25.054179
          ],
          [
            121.616258,
            25.053307
          ],
          [
            121.616244,
            25.053223
          ],
          [
            121.616225,
            25.053105
          ],
          [
            121.616207,
            25.053019
          ],
          [
            121.6161,
            25.052339
          ],
          [
            121.616047,
            25.052054
          ],
          [
            121.616024,
            25.051985
          ],
          [
            121.616138,
            25.051971
          ],
          [
            121.616164,
            25.052054
          ],
          [
            121.616282,
            25.052786
          ],
          [
            121.616308,
            25.052947
          ],
          [
            121.616312,
            25.053008
          ],
          [
            121.616318,
            25.053105
          ],
          [
            121.616337,
            25.053224
          ],
          [
            121.616352,
            25.053302
          ],
          [
            121.616429,
            25.053779
          ],
          [
            121.61649,
            25.054156
          ],
          [
            121.616503,
            25.054242
          ],
          [
            121.616516,
            25.054324
          ],
          [
            121.616548,
            25.054479
          ],
          [
            121.616565,
            25.054562
          ],
          [
            121.616542,
            25.054561
          ],
          [
            121.616471,
            25.054558
          ],
          [
            121.616355,
            25.054543
          ],
          [
            121.615398,
            25.054451
          ],
          [
            121.61532,
            25.054444
          ],
          [
            121.615257,
            25.054438
          ],
          [
            121.615208,
            25.054434
          ],
          [
            121.614715,
            25.054396
          ],
          [
            121.613828,
            25.054309
          ],
          [
            121.613131,
            25.054223
          ],
          [
            121.613077,
            25.054217
          ],
          [
            121.612221,
            25.054087
          ],
          [
            121.612138,
            25.054072
          ],
          [
            121.611887,
            25.054031
          ],
          [
            121.611856,
            25.054008
          ],
          [
            121.61185,
            25.05398
          ],
          [
            121.611859,
            25.053951
          ],
          [
            121.611895,
            25.053913
          ],
          [
            121.612162,
            25.053936
          ],
          [
            121.613322,
            25.053998
          ],
          [
            121.613364,
            25.054005
          ],
          [
            121.613406,
            25.054012
          ],
          [
            121.613419,
            25.05396
          ],
          [
            121.613406,
            25.054012
          ],
          [
            121.614637,
            25.054222
          ],
          [
            121.614879,
            25.054234
          ],
          [
            121.615079,
            25.054244
          ],
          [
            121.61521,
            25.05425
          ],
          [
            121.615245,
            25.054252
          ],
          [
            121.615319,
            25.054258
          ],
          [
            121.615813,
            25.054276
          ],
          [
            121.616324,
            25.054303
          ],
          [
            121.616429,
            25.054322
          ],
          [
            121.616417,
            25.054247
          ],
          [
            121.616406,
            25.054179
          ],
          [
            121.616258,
            25.053307
          ],
          [
            121.616244,
            25.053223
          ],
          [
            121.616171,
            25.053216
          ],
          [
            121.615652,
            25.053161
          ],
          [
            121.615252,
            25.053123
          ],
          [
            121.615041,
            25.053106
          ],
          [
            121.614134,
            25.053012
          ],
          [
            121.614073,
            25.053006
          ],
          [
            121.614075,
            25.053047
          ],
          [
            121.61403,
            25.05337
          ],
          [
            121.61409,
            25.053373
          ],
          [
            121.614486,
            25.053427
          ]
        ]
      },
      "properties": {
        "routeId": "taipei-3-752683-1-ebe684",
        "city": "taipei",
        "source_file": "taipei/taipei-3-752683-1-ebe684.geojson",
        "distance_km": 5.354,
        "duration_min": 10.88245,
        "valhalla_config": "valhalla.json"
      }
    }
  ]
}