{
  "type": "FeatureCollection",
  "features": [
    {
      "type": "Feature",
      "geometry": {
        "type": "LineString",
        "coordinates": [
          [
            121.530442,
            25.066682
          ],
          [
            121.530461,
            25.066968
          ],
          [
            121.530472,
            25.067341
          ],
          [
            121.530467,
            25.067662
          ],
          [
            121.53047,
            25.067741
          ],
          [
            121.530468,
            25.067839
          ],
          [
            121.53047,
            25.067741
          ],
          [
            121.530467,
            25.067662
          ],
          [
            121.53047,
            25.067481
          ],
          [
            121.530472,
            25.067341
          ],
          [
            121.530461,
            25.066968
          ],
          [
            121.530438,
            25.066627
          ],
          [
            121.530432,
            25.066566
          ],
          [
            121.530426,
            25.066497
          ],
          [
            121.530396,
            25.066096
          ],
          [
            121.530384,
            25.065701
          ],
          [
            121.530384,
            25.065677
          ],
          [
            121.53038,
            25.06558
          ],
          [
            121.53038,
            25.065578
          ],
          [
            121.53037,
            25.065261
          ],
          [
            121.53036,
            25.064886
          ],
          [
            121.530358,
            25.064828
          ],
          [
            121.530354,
            25.064713
          ],
          [
            121.530341,
            25.064392
          ],
          [
            121.53028,
            25.064393
          ],
          [
            121.530341,
            25.064392
          ],
          [
            121.530332,
            25.063959
          ],
          [
            121.530319,
            25.06355
          ],
          [
            121.530241,
            25.063551
          ]
        ]
      },
      "properties": {
        "routeId": "taipei-2-326690-2-9e3cb1",
        "city": "taipei",
        "source_file": "taipei/taipei-2-326690-2-9e3cb1.geojson",
        "distance_km": 0.629,
        "duration_min": 1.2952333333333332,
        "valhalla_config": "valhalla.json"
      }
    }
  ]
}