{
  "type": "FeatureCollection",
  "features": [
    {
      "type": "Feature",
      "geometry": {
        "type": "LineString",
        "coordinates": [
          [
            121.5645,
            24.988654
          ],
          [
            121.564649,
            24.98884
          ],
          [
            121.56471,
            24.988896
          ],
          [
            121.564764,
            24.988933
          ],
          [
            121.56491,
            24.989031
          ],
          [
            121.564927,
            24.989042
          ],
          [
            121.564943,
            24.989053
          ],
          [
            121.565147,
            24.98919
          ],
          [
            121.5652,
            24.989226
          ],
          [
            121.565844,
            24.98966
          ],
          [
            121.566105,
            24.989835
          ],
          [
            121.566191,
            24.989893
          ],
          [
            121.566535,
            24.990125
          ],
          [
            121.566738,
            24.990261
          ],
          [
            121.567068,
            24.990483
          ],
          [
            121.567195,
            24.990566
          ],
          [
            121.567238,
            24.990583
          ],
          [
            121.567283,
            24.99059
          ],
          [
            121.567613,
            24.990623
          ],
          [
            121.567722,
            24.990635
          ],
          [
            121.567894,
            24.990652
          ],
          [
            121.568435,
            24.990655
          ],
          [
            121.568492,
            24.990656
          ],
          [
            121.56856,
            24.990656
          ],
          [
            121.56868,
            24.990657
          ],
          [
            121.56892,
            24.990058
          ],
          [
            121.568946,
            24.989994
          ],
          [
            121.568977,
            24.989918
          ],
          [
            121.568994,
            24.989876
          ],
          [
            121.569172,
            24.989432
          ],
          [
            121.569193,
            24.98938
          ],
          [
            121.569151,
            24.989347
          ],
          [
            121.569077,
            24.989289
          ],
          [
            121.568786,
            24.989063
          ],
          [
            121.568646,
            24.988954
          ],
          [
            121.568609,
            24.988932
          ],
          [
            121.568514,
            24.988906
          ],
          [
            121.568419,
            24.988888
          ],
          [
            121.568381,
            24.988881
          ],
          [
            121.568028,
            24.988816
          ],
          [
            121.568,
            24.988811
          ],
          [
            121.567667,
            24.988749
          ],
          [
            121.567534,
            24.988724
          ],
          [
            121.567502,
            24.988718
          ],
          [
            121.567449,
            24.98871
          ],
          [
            121.567373,
            24.9887
          ],
          [
            121.567301,
            24.988691
          ],
          [
            121.56701,
            24.988655
          ],
          [
            121.566857,
            24.988631
          ],
          [
            121.566144,
            24.988516
          ],
          [
            121.566126,
            24.98861
          ],
          [
            121.566066,
            24.988928
          ],
          [
            121.565215,
            24.988793
          ],
          [
            121.565249,
            24.988595
          ],
          [
            121.565215,
            24.988793
          ],
          [
            121.565147,
            24.98919
          ],
          [
            121.564943,
            24.989053
          ],
          [
            121.564927,
            24.989042
          ],
          [
            121.56491,
            24.989031
          ],
          [
            121.564764,
            24.988933
          ],
          [
            121.56471,
            24.988896
          ],
          [
            121.564649,
            24.98884
          ],
          [
            121.5645,
            24.988654
          ],
          [
            121.564483,
            24.988634
          ],
          [
            121.564466,
            24.988615
          ],
          [
            121.564425,
            24.988564
          ],
          [
            121.564581,
            24.988503
          ],
          [
            121.564622,
            24.988489
          ],
          [
            121.564753,
            24.988451
          ],
          [
            121.564893,
            24.988422
          ],
          [
            121.565024,
            24.988404
          ],
          [
            121.565166,
            24.98839
          ],
          [
            121.565213,
            24.988387
          ],
          [
            121.565284,
            24.988387
          ],
          [
            121.565313,
            24.988322
          ],
          [
            121.565345,
            24.988267
          ],
          [
            121.565428,
            24.988127
          ],
          [
            121.56547,
            24.988058
          ],
          [
            121.565599,
            24.98784
          ],
          [
            121.565467,
            24.987857
          ]
        ]
      },
      "properties": {
        "routeId": "taipei-2-02bb5a-3-d9a235",
        "city": "taipei",
        "source_file": "taipei/taipei-2-02bb5a-3-d9a235.geojson",
        "distance_km": 1.475,
        "duration_min": 3.310216666666667,
        "valhalla_config": "valhalla.json"
      }
    }
  ]
}