{
  "type": "FeatureCollection",
  "features": [
    {
      "type": "Feature",
      "geometry": {
        "type": "LineString",
        "coordinates": [
          [
            121.539033,
            25.116192
          ],
          [
            121.539101,
            25.114284
          ],
          [
            121.539093,
            25.114176
          ],
          [
            121.539078,
            25.114081
          ],
          [
            121.539161,
            25.113989
          ],
          [
            121.539044,
            25.113954
          ],
          [
            121.538986,
            25.113938
          ],
          [
            121.538026,
            25.113693
          ],
          [
            121.537984,
            25.113682
          ],
          [
            121.537589,
            25.113585
          ],
          [
            121.537425,
            25.113545
          ],
          [
            121.537295,
            25.113512
          ],
          [
            121.537181,
            25.113479
          ],
          [
            121.536417,
            25.113287
          ],
          [
            121.535378,
            25.11303
          ],
          [
            121.535393,
            25.11295
          ],
          [
            121.53524,
            25.112591
          ],
          [
            121.535106,
            25.112245
          ],
          [
            121.534869,
            25.111656
          ],
          [
            121.534816,
            25.111645
          ],
          [
            121.534808,
            25.11161
          ],
          [
            121.534808,
            25.111477
          ],
          [
            121.534759,
            25.111353
          ],
          [
            121.534633,
            25.111039
          ],
          [
            121.533916,
            25.110918
          ],
          [
            121.533964,
            25.110687
          ],
          [
            121.533973,
            25.110642
          ],
          [
            121.533964,
            25.110687
          ],
          [
            121.533916,
            25.110918
          ],
          [
            121.534633,
            25.111039
          ],
          [
            121.534759,
            25.111353
          ],
          [
            121.534808,
            25.111477
          ],
          [
            121.534808,
            25.11161
          ],
          [
            121.534816,
            25.111645
          ],
          [
            121.534869,
            25.111656
          ],
          [
            121.535106,
            25.112245
          ],
          [
            121.53524,
            25.112591
          ],
          [
            121.535393,
            25.11295
          ],
          [
            121.535772,
            25.113049
          ],
          [
            121.536549,
            25.113242
          ],
          [
            121.537183,
            25.113401
          ],
          [
            121.537321,
            25.113436
          ],
          [
            121.537448,
            25.113468
          ],
          [
            121.53801,
            25.113606
          ],
          [
            121.538045,
            25.113614
          ],
          [
            121.538639,
            25.113768
          ],
          [
            121.539008,
            25.11386
          ],
          [
            121.539049,
            25.113886
          ],
          [
            121.539161,
            25.113989
          ],
          [
            121.539179,
            25.114087
          ],
          [
            121.539175,
            25.114162
          ],
          [
            121.539136,
            25.115782
          ],
          [
            121.539112,
            25.116301
          ],
          [
            121.539106,
            25.116424
          ],
          [
            121.539103,
            25.116477
          ],
          [
            121.539022,
            25.117981
          ],
          [
            121.539009,
            25.118079
          ],
          [
            121.538966,
            25.118138
          ],
          [
            121.538884,
            25.118207
          ],
          [
            121.538763,
            25.118232
          ],
          [
            121.538743,
            25.118236
          ],
          [
            121.536881,
            25.118195
          ],
          [
            121.536474,
            25.118186
          ],
          [
            121.536412,
            25.118185
          ],
          [
            121.536345,
            25.118183
          ],
          [
            121.535783,
            25.118172
          ],
          [
            121.535397,
            25.118161
          ],
          [
            121.5353,
            25.118159
          ],
          [
            121.534865,
            25.118148
          ],
          [
            121.534659,
            25.118143
          ],
          [
            121.53457,
            25.11806
          ],
          [
            121.534569,
            25.117986
          ],
          [
            121.534564,
            25.117949
          ],
          [
            121.534548,
            25.117826
          ],
          [
            121.534519,
            25.117656
          ],
          [
            121.534467,
            25.117473
          ],
          [
            121.534415,
            25.117341
          ],
          [
            121.534224,
            25.11689
          ],
          [
            121.53409,
            25.116639
          ],
          [
            121.534059,
            25.116584
          ],
          [
            121.534005,
            25.116496
          ],
          [
            121.533787,
            25.116166
          ],
          [
            121.533635,
            25.115965
          ],
          [
            121.533445,
            25.115718
          ],
          [
            121.533249,
            25.115459
          ],
          [
            121.533049,
            25.115204
          ],
          [
            121.532856,
            25.114962
          ],
          [
            121.532825,
            25.114918
          ],
          [
            121.532715,
            25.114771
          ]
        ]
      },
      "properties": {
        "routeId": "taipei-4-fcc204-2-9e3cb1",
        "city": "taipei",
        "source_file": "taipei/taipei-4-fcc204-2-9e3cb1.geojson",
        "distance_km": 3.057,
        "duration_min": 5.4965166666666665,
        "valhalla_config": "valhalla.json"
      }
    }
  ]
}