{
  "type": "FeatureCollection",
  "features": [
    {
      "type": "Feature",
      "geometry": {
        "type": "LineString",
        "coordinates": [
          [
            121.493854,
            25.020695
          ],
          [
            121.494647,
            25.020933
          ],
          [
            121.494931,
            25.021016
          ],
          [
            121.49502,
            25.021045
          ],
          [
            121.495385,
            25.021159
          ],
          [
            121.495455,
            25.021181
          ],
          [
            121.495673,
            25.021249
          ],
          [
            121.495976,
            25.021344
          ],
          [
            121.496021,
            25.021356
          ],
          [
            121.496096,
            25.021374
          ],
          [
            121.496092,
            25.021423
          ],
          [
            121.496074,
            25.021475
          ],
          [
            121.495984,
            25.021814
          ],
          [
            121.496393,
            25.0219
          ],
          [
            121.49679,
            25.021998
          ],
          [
            121.496846,
            25.022013
          ],
          [
            121.497353,
            25.02215
          ],
          [
            121.497285,
            25.022393
          ],
          [
            121.497493,
            25.022444
          ],
          [
            121.497961,
            25.022713
          ],
          [
            121.498048,
            25.022538
          ],
          [
            121.498145,
            25.02234
          ],
          [
            121.498181,
            25.022275
          ],
          [
            121.498418,
            25.021774
          ],
          [
            121.498472,
            25.021703
          ],
          [
            121.498556,
            25.021643
          ],
          [
            121.498625,
            25.021595
          ],
          [
            121.498526,
            25.021411
          ],
          [
            121.498454,
            25.021291
          ],
          [
            121.498239,
            25.020962
          ],
          [
            121.497772,
            25.021216
          ],
          [
            121.497497,
            25.021365
          ],
          [
            121.497473,
            25.021732
          ],
          [
            121.497448,
            25.022112
          ],
          [
            121.497432,
            25.022166
          ],
          [
            121.497632,
            25.022215
          ],
          [
            121.49791,
            25.022282
          ],
          [
            121.498145,
            25.02234
          ],
          [
            121.498048,
            25.022538
          ],
          [
            121.497961,
            25.022713
          ],
          [
            121.497835,
            25.022987
          ],
          [
            121.497812,
            25.023033
          ],
          [
            121.497778,
            25.023107
          ],
          [
            121.497545,
            25.0236
          ],
          [
            121.497173,
            25.024407
          ],
          [
            121.496998,
            25.024775
          ],
          [
            121.496985,
            25.024804
          ],
          [
            121.49691,
            25.024962
          ],
          [
            121.496825,
            25.025141
          ],
          [
            121.496684,
            25.02544
          ],
          [
            121.496453,
            25.025927
          ],
          [
            121.496381,
            25.026083
          ],
          [
            121.49618,
            25.026515
          ],
          [
            121.495847,
            25.027234
          ],
          [
            121.495775,
            25.027388
          ],
          [
            121.495721,
            25.027505
          ],
          [
            121.495717,
            25.027513
          ],
          [
            121.495609,
            25.027739
          ],
          [
            121.495515,
            25.027958
          ],
          [
            121.495496,
            25.028122
          ],
          [
            121.495499,
            25.028226
          ],
          [
            121.4955,
            25.028246
          ],
          [
            121.495506,
            25.028365
          ],
          [
            121.495539,
            25.028427
          ],
          [
            121.495587,
            25.028518
          ],
          [
            121.4956,
            25.028541
          ],
          [
            121.495656,
            25.028649
          ],
          [
            121.495757,
            25.028629
          ],
          [
            121.49579,
            25.028624
          ],
          [
            121.495844,
            25.028617
          ],
          [
            121.495925,
            25.028613
          ],
          [
            121.495991,
            25.02863
          ],
          [
            121.496059,
            25.028665
          ],
          [
            121.496114,
            25.028699
          ],
          [
            121.496171,
            25.02877
          ],
          [
            121.496221,
            25.02884
          ],
          [
            121.496274,
            25.028907
          ],
          [
            121.496315,
            25.02895
          ],
          [
            121.496384,
            25.028995
          ],
          [
            121.496492,
            25.029045
          ],
          [
            121.49661,
            25.029073
          ],
          [
            121.497203,
            25.029221
          ],
          [
            121.497523,
            25.029257
          ],
          [
            121.497781,
            25.029265
          ],
          [
            121.49834,
            25.029272
          ],
          [
            121.498826,
            25.029289
          ],
          [
            121.499184,
            25.029303
          ],
          [
            121.499554,
            25.029321
          ],
          [
            121.499619,
            25.029325
          ],
          [
            121.499788,
            25.029332
          ],
          [
            121.499851,
            25.029334
          ],
          [
            121.500338,
            25.029342
          ],
          [
            121.50039,
            25.029346
          ],
          [
            121.500464,
            25.029354
          ],
          [
            121.500464,
            25.029234
          ],
          [
            121.500461,
            25.028666
          ],
          [
            121.500461,
            25.02865
          ],
          [
            121.500458,
            25.027869
          ],
          [
            121.500458,
            25.027835
          ],
          [
            121.500457,
            25.027746
          ],
          [
            121.500456,
            25.027699
          ],
          [
            121.500454,
            25.027589
          ],
          [
            121.500446,
            25.027444
          ],
          [
            121.500432,
            25.02722
          ],
          [
            121.50043,
            25.027004
          ],
          [
            121.500428,
            25.026949
          ],
          [
            121.500407,
            25.026376
          ],
          [
            121.500405,
            25.026333
          ],
          [
            121.500403,
            25.026256
          ],
          [
            121.500388,
            25.025518
          ],
          [
            121.500385,
            25.02539
          ],
          [
            121.500385,
            25.02538
          ],
          [
            121.500383,
            25.025299
          ],
          [
            121.500382,
            25.025259
          ],
          [
            121.50037,
            25.025089
          ],
          [
            121.500335,
            25.024908
          ],
          [
            121.500306,
            25.024756
          ],
          [
            121.500271,
            25.024623
          ],
          [
            121.500188,
            25.024257
          ],
          [
            121.500178,
            25.024209
          ],
          [
            121.500164,
            25.024172
          ],
          [
            121.500076,
            25.023944
          ],
          [
            121.499973,
            25.023724
          ],
          [
            121.499909,
            25.023768
          ],
          [
            121.499654,
            25.023943
          ],
          [
            121.499296,
            25.02421
          ],
          [
            121.499183,
            25.024234
          ],
          [
            121.49905,
            25.024188
          ],
          [
            121.498574,
            25.024012
          ]
        ]
      },
      "properties": {
        "routeId": "taipei-2-f3ec97-2-9e3cb1",
        "city": "taipei",
        "source_file": "taipei/taipei-2-f3ec97-2-9e3cb1.geojson",
        "distance_km": 3.08,
        "duration_min": 6.310183333333333,
        "valhalla_config": "valhalla.json"
      }
    }
  ]
}