{
  "type": "FeatureCollection",
  "features": [
    {
      "type": "Feature",
      "geometry": {
        "type": "LineString",
        "coordinates": [
          [
            121.525502,
            25.104165
          ],
          [
            121.524985,
            25.104142
          ],
          [
            121.524883,
            25.104123
          ],
          [
            121.524873,
            25.104224
          ],
          [
            121.524855,
            25.104447
          ],
          [
            121.524854,
            25.104549
          ],
          [
            121.524882,
            25.105061
          ],
          [
            121.524911,
            25.105584
          ],
          [
            121.524928,
            25.105908
          ],
          [
            121.524943,
            25.106351
          ],
          [
            121.524948,
            25.106488
          ],
          [
            121.525072,
            25.106532
          ],
          [
            121.525278,
            25.106605
          ],
          [
            121.526139,
            25.106911
          ],
          [
            121.526208,
            25.106935
          ],
          [
            121.52625,
            25.10695
          ],
          [
            121.526783,
            25.107137
          ],
          [
            121.526917,
            25.107184
          ],
          [
            121.527343,
            25.107334
          ],
          [
            121.527365,
            25.107342
          ],
          [
            121.527407,
            25.107357
          ],
          [
            121.527479,
            25.107382
          ],
          [
            121.527878,
            25.107524
          ],
          [
            121.528095,
            25.107601
          ],
          [
            121.528349,
            25.10769
          ],
          [
            121.528458,
            25.107729
          ],
          [
            121.528621,
            25.107788
          ],
          [
            121.529015,
            25.10793
          ],
          [
            121.529086,
            25.107955
          ],
          [
            121.529153,
            25.107979
          ],
          [
            121.530127,
            25.108323
          ],
          [
            121.530225,
            25.108357
          ],
          [
            121.530416,
            25.108428
          ],
          [
            121.530558,
            25.108477
          ],
          [
            121.53106,
            25.108651
          ],
          [
            121.53157,
            25.108831
          ],
          [
            121.531822,
            25.10892
          ],
          [
            121.532163,
            25.109041
          ],
          [
            121.532183,
            25.109048
          ],
          [
            121.532569,
            25.109183
          ],
          [
            121.532619,
            25.109201
          ],
          [
            121.532699,
            25.109229
          ],
          [
            121.532771,
            25.109256
          ],
          [
            121.532887,
            25.1093
          ],
          [
            121.533201,
            25.109416
          ],
          [
            121.53347,
            25.109503
          ],
          [
            121.534052,
            25.109712
          ],
          [
            121.534153,
            25.109749
          ],
          [
            121.534212,
            25.109759
          ],
          [
            121.534259,
            25.109766
          ],
          [
            121.534482,
            25.109804
          ],
          [
            121.535054,
            25.1099
          ],
          [
            121.535091,
            25.109906
          ],
          [
            121.535174,
            25.109919
          ],
          [
            121.535865,
            25.110031
          ],
          [
            121.535899,
            25.110037
          ],
          [
            121.535986,
            25.110051
          ],
          [
            121.53755,
            25.110312
          ],
          [
            121.53758,
            25.110317
          ],
          [
            121.537609,
            25.110323
          ],
          [
            121.537671,
            25.110332
          ],
          [
            121.537771,
            25.110347
          ],
          [
            121.538762,
            25.110511
          ],
          [
            121.537771,
            25.110347
          ],
          [
            121.537671,
            25.110332
          ],
          [
            121.537609,
            25.110323
          ],
          [
            121.53758,
            25.110317
          ],
          [
            121.53755,
            25.110312
          ],
          [
            121.535986,
            25.110051
          ],
          [
            121.535899,
            25.110037
          ],
          [
            121.535865,
            25.110031
          ],
          [
            121.535174,
            25.109919
          ],
          [
            121.535091,
            25.109906
          ],
          [
            121.535054,
            25.1099
          ],
          [
            121.534482,
            25.109804
          ],
          [
            121.534259,
            25.109766
          ],
          [
            121.534153,
            25.109749
          ],
          [
            121.534052,
            25.109712
          ],
          [
            121.53347,
            25.109503
          ],
          [
            121.533201,
            25.109416
          ],
          [
            121.532887,
            25.1093
          ],
          [
            121.532771,
            25.109256
          ],
          [
            121.532699,
            25.109229
          ],
          [
            121.532619,
            25.109201
          ],
          [
            121.532569,
            25.109183
          ],
          [
            121.532183,
            25.109048
          ],
          [
            121.532163,
            25.109041
          ],
          [
            121.531822,
            25.10892
          ],
          [
            121.53106,
            25.108651
          ],
          [
            121.530558,
            25.108477
          ],
          [
            121.530416,
            25.108428
          ],
          [
            121.530225,
            25.108357
          ],
          [
            121.530065,
            25.107609
          ],
          [
            121.53004,
            25.107523
          ],
          [
            121.53003,
            25.107488
          ],
          [
            121.529907,
            25.107155
          ],
          [
            121.529788,
            25.106896
          ],
          [
            121.529758,
            25.106829
          ],
          [
            121.529612,
            25.106552
          ],
          [
            121.529446,
            25.106295
          ],
          [
            121.52927,
            25.106069
          ],
          [
            121.528924,
            25.10566
          ],
          [
            121.528762,
            25.105509
          ],
          [
            121.528242,
            25.105094
          ]
        ]
      },
      "properties": {
        "routeId": "taipei-4-11218c-2-9e3cb1",
        "city": "taipei",
        "source_file": "taipei/taipei-4-11218c-2-9e3cb1.geojson",
        "distance_km": 3.118,
        "duration_min": 5.307316666666667,
        "valhalla_config": "valhalla.json"
      }
    }
  ]
}