{
  "type": "FeatureCollection",
  "features": [
    {
      "type": "Feature",
      "geometry": {
        "type": "LineString",
        "coordinates": [
          [
            121.535629,
            25.012027
          ],
          [
            121.535538,
            25.012166
          ],
          [
            121.535449,
            25.012296
          ],
          [
            121.535363,
            25.01244
          ],
          [
            121.535303,
            25.012546
          ],
          [
            121.53528,
            25.012587
          ],
          [
            121.535253,
            25.01263
          ],
          [
            121.535181,
            25.012742
          ],
          [
            121.535078,
            25.012886
          ],
          [
            121.535003,
            25.012977
          ],
          [
            121.534966,
            25.013023
          ],
          [
            121.534932,
            25.013061
          ],
          [
            121.534896,
            25.013099
          ],
          [
            121.534736,
            25.013265
          ],
          [
            121.534679,
            25.013323
          ],
          [
            121.53451,
            25.013475
          ],
          [
            121.534457,
            25.013521
          ],
          [
            121.534419,
            25.013555
          ],
          [
            121.534314,
            25.013628
          ],
          [
            121.534215,
            25.013698
          ],
          [
            121.534074,
            25.013802
          ],
          [
            121.5339,
            25.013927
          ],
          [
            121.533566,
            25.014168
          ],
          [
            121.533405,
            25.01428
          ],
          [
            121.533281,
            25.014365
          ],
          [
            121.53324,
            25.014393
          ],
          [
            121.53328,
            25.014433
          ],
          [
            121.533306,
            25.014457
          ],
          [
            121.533329,
            25.014479
          ],
          [
            121.533306,
            25.014457
          ],
          [
            121.53328,
            25.014433
          ],
          [
            121.53324,
            25.014393
          ],
          [
            121.53299,
            25.014564
          ],
          [
            121.532628,
            25.014828
          ],
          [
            121.532615,
            25.014838
          ],
          [
            121.532521,
            25.014906
          ],
          [
            121.532561,
            25.014934
          ],
          [
            121.532638,
            25.015007
          ],
          [
            121.532561,
            25.014934
          ],
          [
            121.532521,
            25.014906
          ],
          [
            121.532615,
            25.014838
          ],
          [
            121.532628,
            25.014828
          ],
          [
            121.53299,
            25.014564
          ],
          [
            121.53324,
            25.014393
          ],
          [
            121.533281,
            25.014365
          ],
          [
            121.533405,
            25.01428
          ],
          [
            121.533566,
            25.014168
          ],
          [
            121.5339,
            25.013927
          ],
          [
            121.534074,
            25.013802
          ],
          [
            121.534215,
            25.013698
          ],
          [
            121.534419,
            25.013555
          ],
          [
            121.534457,
            25.013521
          ],
          [
            121.53451,
            25.013475
          ],
          [
            121.534573,
            25.013418
          ],
          [
            121.534679,
            25.013323
          ],
          [
            121.534736,
            25.013265
          ],
          [
            121.534896,
            25.013099
          ],
          [
            121.534932,
            25.013061
          ],
          [
            121.534966,
            25.013023
          ],
          [
            121.535003,
            25.012977
          ],
          [
            121.535078,
            25.012886
          ],
          [
            121.535181,
            25.012742
          ],
          [
            121.535253,
            25.01263
          ],
          [
            121.53528,
            25.012587
          ],
          [
            121.535303,
            25.012546
          ],
          [
            121.53532,
            25.012516
          ]
        ]
      },
      "properties": {
        "routeId": "taipei-1-b1a734-3-d9a235",
        "city": "taipei",
        "source_file": "taipei/taipei-1-b1a734-3-d9a235.geojson",
        "distance_km": 0.898,
        "duration_min": 2.055216666666667,
        "valhalla_config": "valhalla.json"
      }
    }
  ]
}