{
  "type": "FeatureCollection",
  "features": [
    {
      "type": "Feature",
      "geometry": {
        "type": "LineString",
        "coordinates": [
          [
            121.496082,
            25.145892
          ],
          [
            121.496089,
            25.145937
          ],
          [
            121.495872,
            25.145969
          ],
          [
            121.4955,
            25.146008
          ],
          [
            121.495359,
            25.146021
          ],
          [
            121.495353,
            25.145975
          ],
          [
            121.495342,
            25.145901
          ],
          [
            121.495321,
            25.145752
          ],
          [
            121.495342,
            25.145901
          ],
          [
            121.495353,
            25.145975
          ],
          [
            121.495359,
            25.146021
          ],
          [
            121.495397,
            25.146336
          ],
          [
            121.495129,
            25.146377
          ],
          [
            121.494425,
            25.146482
          ],
          [
            121.494361,
            25.146505
          ],
          [
            121.494344,
            25.1464
          ],
          [
            121.494205,
            25.146481
          ],
          [
            121.494118,
            25.146495
          ],
          [
            121.493649,
            25.146551
          ],
          [
            121.494118,
            25.146495
          ],
          [
            121.494205,
            25.146481
          ],
          [
            121.494344,
            25.1464
          ],
          [
            121.494361,
            25.146505
          ],
          [
            121.494366,
            25.146824
          ],
          [
            121.494388,
            25.147141
          ],
          [
            121.494414,
            25.147427
          ],
          [
            121.49523,
            25.147393
          ],
          [
            121.4955,
            25.147536
          ],
          [
            121.495499,
            25.147469
          ],
          [
            121.495456,
            25.147258
          ],
          [
            121.495383,
            25.147049
          ],
          [
            121.495333,
            25.14694
          ],
          [
            121.495242,
            25.146777
          ],
          [
            121.495229,
            25.146674
          ],
          [
            121.495211,
            25.146615
          ],
          [
            121.495161,
            25.146464
          ],
          [
            121.495129,
            25.146377
          ],
          [
            121.494425,
            25.146482
          ],
          [
            121.494361,
            25.146505
          ],
          [
            121.494344,
            25.1464
          ],
          [
            121.494403,
            25.146283
          ],
          [
            121.494401,
            25.14615
          ],
          [
            121.494361,
            25.145872
          ],
          [
            121.494314,
            25.145599
          ],
          [
            121.494287,
            25.14533
          ],
          [
            121.494239,
            25.145336
          ],
          [
            121.493776,
            25.145387
          ],
          [
            121.493465,
            25.145424
          ],
          [
            121.493257,
            25.14544
          ],
          [
            121.493135,
            25.14544
          ],
          [
            121.493046,
            25.14543
          ],
          [
            121.49294,
            25.14541
          ],
          [
            121.49295,
            25.145508
          ],
          [
            121.492957,
            25.145553
          ],
          [
            121.492968,
            25.145658
          ],
          [
            121.492976,
            25.145758
          ],
          [
            121.492994,
            25.145866
          ],
          [
            121.493048,
            25.146057
          ],
          [
            121.493032,
            25.146377
          ],
          [
            121.493034,
            25.146587
          ],
          [
            121.493089,
            25.146984
          ],
          [
            121.493135,
            25.147082
          ],
          [
            121.493135,
            25.147118
          ],
          [
            121.493112,
            25.147278
          ],
          [
            121.49306,
            25.147367
          ],
          [
            121.493041,
            25.147412
          ],
          [
            121.492998,
            25.147452
          ],
          [
            121.492962,
            25.147516
          ],
          [
            121.492697,
            25.147824
          ],
          [
            121.492575,
            25.147954
          ],
          [
            121.492507,
            25.148068
          ],
          [
            121.492382,
            25.148327
          ],
          [
            121.492124,
            25.148803
          ],
          [
            121.491942,
            25.149189
          ],
          [
            121.491785,
            25.149526
          ],
          [
            121.491752,
            25.149621
          ],
          [
            121.491723,
            25.149695
          ],
          [
            121.491712,
            25.14981
          ],
          [
            121.49167,
            25.15008
          ],
          [
            121.491642,
            25.150247
          ],
          [
            121.491602,
            25.150367
          ],
          [
            121.491518,
            25.150548
          ],
          [
            121.491422,
            25.150698
          ],
          [
            121.491518,
            25.150548
          ],
          [
            121.491602,
            25.150367
          ],
          [
            121.491642,
            25.150247
          ],
          [
            121.49167,
            25.15008
          ],
          [
            121.491712,
            25.14981
          ],
          [
            121.491723,
            25.149695
          ],
          [
            121.491752,
            25.149621
          ],
          [
            121.491785,
            25.149526
          ],
          [
            121.491942,
            25.149189
          ],
          [
            121.492124,
            25.148803
          ],
          [
            121.492382,
            25.148327
          ],
          [
            121.492507,
            25.148068
          ],
          [
            121.492575,
            25.147954
          ],
          [
            121.492697,
            25.147824
          ],
          [
            121.492962,
            25.147516
          ],
          [
            121.492998,
            25.147452
          ],
          [
            121.493033,
            25.147574
          ],
          [
            121.493078,
            25.1477
          ],
          [
            121.493139,
            25.147748
          ],
          [
            121.493208,
            25.147819
          ],
          [
            121.493244,
            25.14792
          ],
          [
            121.493265,
            25.148015
          ],
          [
            121.493281,
            25.148142
          ],
          [
            121.493282,
            25.148211
          ],
          [
            121.493314,
            25.148254
          ],
          [
            121.493361,
            25.148294
          ],
          [
            121.493437,
            25.14833
          ],
          [
            121.493499,
            25.148364
          ],
          [
            121.493697,
            25.14852
          ],
          [
            121.493795,
            25.148602
          ],
          [
            121.493921,
            25.148732
          ],
          [
            121.493996,
            25.14882
          ],
          [
            121.494023,
            25.148867
          ],
          [
            121.493996,
            25.14882
          ],
          [
            121.493921,
            25.148732
          ],
          [
            121.493795,
            25.148602
          ],
          [
            121.493697,
            25.14852
          ],
          [
            121.493499,
            25.148364
          ],
          [
            121.493437,
            25.14833
          ],
          [
            121.493361,
            25.148294
          ],
          [
            121.493314,
            25.148254
          ],
          [
            121.493282,
            25.148211
          ],
          [
            121.493281,
            25.148142
          ],
          [
            121.493265,
            25.148015
          ],
          [
            121.493244,
            25.14792
          ],
          [
            121.493208,
            25.147819
          ],
          [
            121.493139,
            25.147748
          ],
          [
            121.493078,
            25.1477
          ],
          [
            121.493033,
            25.147574
          ],
          [
            121.492998,
            25.147452
          ],
          [
            121.493041,
            25.147412
          ],
          [
            121.49306,
            25.147367
          ],
          [
            121.493112,
            25.147278
          ],
          [
            121.493135,
            25.147118
          ],
          [
            121.493135,
            25.147082
          ],
          [
            121.493089,
            25.146984
          ],
          [
            121.493081,
            25.146924
          ],
          [
            121.493034,
            25.146587
          ],
          [
            121.493032,
            25.146377
          ],
          [
            121.493048,
            25.146057
          ],
          [
            121.492994,
            25.145866
          ],
          [
            121.492976,
            25.145758
          ],
          [
            121.492968,
            25.145658
          ],
          [
            121.492957,
            25.145553
          ],
          [
            121.49295,
            25.145508
          ],
          [
            121.49294,
            25.14541
          ],
          [
            121.492872,
            25.145367
          ],
          [
            121.492702,
            25.14521
          ],
          [
            121.492589,
            25.145101
          ],
          [
            121.492554,
            25.145065
          ],
          [
            121.49253,
            25.14504
          ],
          [
            121.492408,
            25.144923
          ],
          [
            121.492379,
            25.144894
          ],
          [
            121.492326,
            25.144826
          ],
          [
            121.492076,
            25.144568
          ],
          [
            121.491892,
            25.144376
          ],
          [
            121.49184,
            25.144333
          ],
          [
            121.491788,
            25.144292
          ],
          [
            121.491673,
            25.144222
          ],
          [
            121.491545,
            25.144161
          ],
          [
            121.491405,
            25.144098
          ],
          [
            121.49131,
            25.144035
          ],
          [
            121.491235,
            25.143967
          ],
          [
            121.49118,
            25.143887
          ],
          [
            121.490917,
            25.143299
          ],
          [
            121.490872,
            25.143185
          ],
          [
            121.49084,
            25.143058
          ],
          [
            121.490835,
            25.142992
          ],
          [
            121.490834,
            25.142977
          ],
          [
            121.490833,
            25.142949
          ],
          [
            121.490831,
            25.142817
          ],
          [
            121.490827,
            25.142683
          ],
          [
            121.490805,
            25.14256
          ],
          [
            121.490753,
            25.142424
          ],
          [
            121.490678,
            25.142318
          ],
          [
            121.490583,
            25.142213
          ],
          [
            121.490446,
            25.142112
          ],
          [
            121.490387,
            25.142072
          ],
          [
            121.490296,
            25.142009
          ],
          [
            121.490279,
            25.141816
          ],
          [
            121.490276,
            25.141777
          ],
          [
            121.490228,
            25.141697
          ],
          [
            121.490092,
            25.141528
          ],
          [
            121.489688,
            25.141108
          ],
          [
            121.489655,
            25.141074
          ],
          [
            121.489646,
            25.141024
          ],
          [
            121.489627,
            25.140924
          ],
          [
            121.489606,
            25.140712
          ],
          [
            121.489584,
            25.140495
          ],
          [
            121.489583,
            25.140468
          ],
          [
            121.489572,
            25.140247
          ],
          [
            121.489569,
            25.140182
          ],
          [
            121.489595,
            25.140052
          ],
          [
            121.489679,
            25.139855
          ],
          [
            121.489752,
            25.139732
          ],
          [
            121.489811,
            25.139646
          ],
          [
            121.489842,
            25.139615
          ],
          [
            121.489877,
            25.139577
          ],
          [
            121.489915,
            25.139536
          ],
          [
            121.490113,
            25.139403
          ],
          [
            121.491129,
            25.138779
          ],
          [
            121.491258,
            25.138671
          ],
          [
            121.491281,
            25.138536
          ],
          [
            121.491095,
            25.138534
          ],
          [
            121.491002,
            25.138527
          ],
          [
            121.489791,
            25.138466
          ],
          [
            121.489723,
            25.138462
          ],
          [
            121.489289,
            25.138434
          ],
          [
            121.489128,
            25.138426
          ],
          [
            121.488346,
            25.138386
          ],
          [
            121.488292,
            25.138384
          ],
          [
            121.48773,
            25.138357
          ],
          [
            121.486875,
            25.138327
          ],
          [
            121.486769,
            25.138323
          ],
          [
            121.486787,
            25.138408
          ],
          [
            121.48692,
            25.13916
          ],
          [
            121.487045,
            25.139919
          ],
          [
            121.486914,
            25.139995
          ],
          [
            121.486794,
            25.140302
          ],
          [
            121.486718,
            25.14052
          ],
          [
            121.48666,
            25.140675
          ],
          [
            121.4865,
            25.141039
          ],
          [
            121.486871,
            25.141358
          ],
          [
            121.486971,
            25.141398
          ],
          [
            121.486795,
            25.141734
          ],
          [
            121.48666,
            25.141977
          ],
          [
            121.486636,
            25.142073
          ],
          [
            121.48666,
            25.142124
          ],
          [
            121.486839,
            25.142249
          ],
          [
            121.486868,
            25.14229
          ],
          [
            121.486872,
            25.142338
          ],
          [
            121.486815,
            25.142459
          ]
        ]
      },
      "properties": {
        "routeId": "taipei-3-46efc1-2-9e3cb1",
        "city": "taipei",
        "source_file": "taipei/taipei-3-46efc1-2-9e3cb1.geojson",
        "distance_km": 4.754,
        "duration_min": 9.071966666666667,
        "valhalla_config": "valhalla.json"
      }
    }
  ]
}