{
  "type": "FeatureCollection",
  "features": [
    {
      "type": "Feature",
      "geometry": {
        "type": "LineString",
        "coordinates": [
          [
            121.546618,
            25.023
          ],
          [
            121.546614,
            25.022927
          ],
          [
            121.546589,
            25.022567
          ],
          [
            121.546666,
            25.022374
          ],
          [
            121.546921,
            25.021774
          ],
          [
            121.546952,
            25.021705
          ],
          [
            121.547068,
            25.021592
          ],
          [
            121.547242,
            25.021423
          ],
          [
            121.547463,
            25.021217
          ],
          [
            121.547768,
            25.020918
          ],
          [
            121.547801,
            25.020886
          ],
          [
            121.547925,
            25.020768
          ],
          [
            121.548089,
            25.020612
          ],
          [
            121.54814,
            25.020564
          ],
          [
            121.547734,
            25.020229
          ],
          [
            121.547462,
            25.019998
          ],
          [
            121.547199,
            25.019776
          ],
          [
            121.546812,
            25.019447
          ],
          [
            121.546793,
            25.019434
          ],
          [
            121.54674,
            25.019391
          ],
          [
            121.546695,
            25.019438
          ],
          [
            121.546532,
            25.019594
          ],
          [
            121.546487,
            25.019637
          ],
          [
            121.546396,
            25.01973
          ],
          [
            121.546085,
            25.020026
          ],
          [
            121.545836,
            25.02026
          ],
          [
            121.545585,
            25.020495
          ],
          [
            121.545161,
            25.020894
          ],
          [
            121.545051,
            25.020973
          ],
          [
            121.544892,
            25.021088
          ],
          [
            121.544592,
            25.021234
          ],
          [
            121.544483,
            25.021285
          ],
          [
            121.544333,
            25.021342
          ],
          [
            121.544291,
            25.021357
          ],
          [
            121.54408,
            25.021426
          ],
          [
            121.543821,
            25.02147
          ],
          [
            121.543629,
            25.021484
          ],
          [
            121.543549,
            25.02149
          ],
          [
            121.543482,
            25.021494
          ],
          [
            121.543417,
            25.021498
          ],
          [
            121.543419,
            25.021587
          ],
          [
            121.543428,
            25.02208
          ],
          [
            121.543434,
            25.022412
          ],
          [
            121.543439,
            25.022667
          ],
          [
            121.543444,
            25.022942
          ],
          [
            121.543455,
            25.023513
          ],
          [
            121.543456,
            25.023572
          ],
          [
            121.543476,
            25.024721
          ],
          [
            121.543484,
            25.024818
          ],
          [
            121.543601,
            25.024811
          ],
          [
            121.543862,
            25.024796
          ],
          [
            121.543967,
            25.02479
          ],
          [
            121.544751,
            25.024746
          ],
          [
            121.544969,
            25.024734
          ],
          [
            121.545104,
            25.024726
          ],
          [
            121.545199,
            25.024721
          ],
          [
            121.545257,
            25.024718
          ],
          [
            121.546233,
            25.024663
          ],
          [
            121.54671,
            25.024637
          ],
          [
            121.547447,
            25.02459
          ],
          [
            121.547894,
            25.024562
          ],
          [
            121.548139,
            25.024546
          ],
          [
            121.54825,
            25.024539
          ],
          [
            121.54832,
            25.024536
          ],
          [
            121.548352,
            25.02453
          ],
          [
            121.548477,
            25.024527
          ],
          [
            121.548584,
            25.024522
          ],
          [
            121.548708,
            25.024516
          ],
          [
            121.548958,
            25.024502
          ],
          [
            121.549063,
            25.024496
          ],
          [
            121.549557,
            25.02447
          ],
          [
            121.550008,
            25.024442
          ],
          [
            121.550004,
            25.024394
          ],
          [
            121.54997,
            25.023934
          ],
          [
            121.549958,
            25.023718
          ],
          [
            121.549933,
            25.023266
          ],
          [
            121.549888,
            25.02283
          ],
          [
            121.549899,
            25.022739
          ],
          [
            121.550217,
            25.022465
          ],
          [
            121.550261,
            25.022421
          ],
          [
            121.550341,
            25.02235
          ],
          [
            121.550399,
            25.022297
          ],
          [
            121.55076,
            25.021972
          ],
          [
            121.551041,
            25.021739
          ],
          [
            121.551204,
            25.021602
          ],
          [
            121.551325,
            25.021523
          ],
          [
            121.551351,
            25.021502
          ],
          [
            121.551394,
            25.021464
          ],
          [
            121.551436,
            25.021424
          ],
          [
            121.551739,
            25.021137
          ],
          [
            121.552037,
            25.020866
          ],
          [
            121.552438,
            25.020538
          ],
          [
            121.552603,
            25.020427
          ],
          [
            121.552632,
            25.020404
          ],
          [
            121.552708,
            25.020339
          ],
          [
            121.552652,
            25.020303
          ],
          [
            121.552282,
            25.020059
          ],
          [
            121.552099,
            25.019942
          ],
          [
            121.55193,
            25.019796
          ],
          [
            121.551809,
            25.019661
          ],
          [
            121.551734,
            25.019549
          ],
          [
            121.551724,
            25.019534
          ],
          [
            121.551674,
            25.019449
          ],
          [
            121.551502,
            25.019149
          ],
          [
            121.551468,
            25.01909
          ],
          [
            121.551226,
            25.018673
          ],
          [
            121.551022,
            25.018474
          ],
          [
            121.550953,
            25.018388
          ],
          [
            121.550975,
            25.018272
          ],
          [
            121.55084,
            25.018217
          ],
          [
            121.550477,
            25.018142
          ],
          [
            121.550286,
            25.018109
          ],
          [
            121.550026,
            25.018055
          ],
          [
            121.54985,
            25.017994
          ],
          [
            121.549715,
            25.017917
          ],
          [
            121.549571,
            25.017778
          ],
          [
            121.549457,
            25.017604
          ],
          [
            121.549848,
            25.017339
          ],
          [
            121.549934,
            25.017286
          ],
          [
            121.549848,
            25.017339
          ],
          [
            121.549457,
            25.017604
          ],
          [
            121.549571,
            25.017778
          ],
          [
            121.549715,
            25.017917
          ],
          [
            121.54985,
            25.017994
          ],
          [
            121.550026,
            25.018055
          ],
          [
            121.550286,
            25.018109
          ],
          [
            121.550477,
            25.018142
          ],
          [
            121.55084,
            25.018217
          ],
          [
            121.550975,
            25.018272
          ],
          [
            121.55102,
            25.01825
          ],
          [
            121.550975,
            25.018272
          ],
          [
            121.550986,
            25.018134
          ],
          [
            121.550813,
            25.017471
          ],
          [
            121.550732,
            25.017162
          ],
          [
            121.550677,
            25.016997
          ],
          [
            121.550664,
            25.016883
          ],
          [
            121.550659,
            25.016847
          ],
          [
            121.55056,
            25.016457
          ],
          [
            121.550545,
            25.016409
          ],
          [
            121.550489,
            25.016237
          ],
          [
            121.550461,
            25.016163
          ],
          [
            121.549635,
            25.016708
          ],
          [
            121.549356,
            25.016939
          ],
          [
            121.549308,
            25.016979
          ],
          [
            121.54924,
            25.017035
          ],
          [
            121.549125,
            25.017126
          ],
          [
            121.549058,
            25.017187
          ],
          [
            121.548174,
            25.018033
          ],
          [
            121.54797,
            25.01823
          ],
          [
            121.547249,
            25.01892
          ],
          [
            121.547084,
            25.019074
          ],
          [
            121.546989,
            25.019166
          ],
          [
            121.54693,
            25.01922
          ],
          [
            121.54674,
            25.019391
          ],
          [
            121.546695,
            25.019438
          ],
          [
            121.546532,
            25.019594
          ],
          [
            121.546487,
            25.019637
          ],
          [
            121.546396,
            25.01973
          ],
          [
            121.546085,
            25.020026
          ],
          [
            121.545836,
            25.02026
          ],
          [
            121.545585,
            25.020495
          ],
          [
            121.545161,
            25.020894
          ],
          [
            121.545051,
            25.020973
          ],
          [
            121.544892,
            25.021088
          ],
          [
            121.544592,
            25.021234
          ],
          [
            121.544483,
            25.021285
          ],
          [
            121.544333,
            25.021342
          ],
          [
            121.544291,
            25.021357
          ],
          [
            121.54408,
            25.021426
          ],
          [
            121.543821,
            25.02147
          ],
          [
            121.543629,
            25.021484
          ],
          [
            121.543549,
            25.02149
          ],
          [
            121.543482,
            25.021494
          ],
          [
            121.543417,
            25.021498
          ],
          [
            121.543419,
            25.021587
          ],
          [
            121.543428,
            25.02208
          ],
          [
            121.54343,
            25.02221
          ],
          [
            121.543434,
            25.022412
          ],
          [
            121.543439,
            25.022667
          ],
          [
            121.543444,
            25.022942
          ],
          [
            121.543455,
            25.023513
          ],
          [
            121.543456,
            25.023572
          ],
          [
            121.543475,
            25.02465
          ]
        ]
      },
      "properties": {
        "routeId": "taipei-3-73d6e6-2-9e3cb1",
        "city": "taipei",
        "source_file": "taipei/taipei-3-73d6e6-2-9e3cb1.geojson",
        "distance_km": 4.872,
        "duration_min": 8.4101,
        "valhalla_config": "valhalla.json"
      }
    }
  ]
}