{
  "type": "FeatureCollection",
  "features": [
    {
      "type": "Feature",
      "geometry": {
        "type": "LineString",
        "coordinates": [
          [
            121.515908,
            25.025797
          ],
          [
            121.516085,
            25.025755
          ],
          [
            121.516188,
            25.025728
          ],
          [
            121.516315,
            25.025693
          ],
          [
            121.516431,
            25.025669
          ],
          [
            121.516597,
            25.025628
          ],
          [
            121.516981,
            25.02553
          ],
          [
            121.516992,
            25.02543
          ],
          [
            121.517151,
            25.025404
          ],
          [
            121.517167,
            25.025412
          ],
          [
            121.517265,
            25.025464
          ],
          [
            121.517379,
            25.025434
          ],
          [
            121.517449,
            25.025398
          ],
          [
            121.517525,
            25.025394
          ],
          [
            121.517919,
            25.025306
          ],
          [
            121.518266,
            25.025229
          ],
          [
            121.518512,
            25.02517
          ],
          [
            121.518575,
            25.025152
          ],
          [
            121.518762,
            25.025099
          ],
          [
            121.518873,
            25.025067
          ],
          [
            121.518984,
            25.025053
          ],
          [
            121.519022,
            25.025048
          ],
          [
            121.51914,
            25.025021
          ],
          [
            121.519489,
            25.024939
          ],
          [
            121.519663,
            25.024889
          ],
          [
            121.520144,
            25.024772
          ],
          [
            121.520226,
            25.024752
          ],
          [
            121.520221,
            25.024643
          ],
          [
            121.520226,
            25.024752
          ],
          [
            121.520309,
            25.024732
          ],
          [
            121.520417,
            25.024706
          ],
          [
            121.520708,
            25.024621
          ],
          [
            121.520995,
            25.024484
          ],
          [
            121.521235,
            25.024353
          ],
          [
            121.521315,
            25.024312
          ],
          [
            121.5214,
            25.024266
          ],
          [
            121.521639,
            25.024137
          ],
          [
            121.52169,
            25.024109
          ],
          [
            121.521734,
            25.024083
          ],
          [
            121.521994,
            25.023899
          ],
          [
            121.522253,
            25.023701
          ],
          [
            121.522286,
            25.02367
          ],
          [
            121.522698,
            25.023317
          ],
          [
            121.522806,
            25.023226
          ],
          [
            121.523001,
            25.023067
          ],
          [
            121.523038,
            25.02303
          ],
          [
            121.523111,
            25.022968
          ],
          [
            121.523294,
            25.022813
          ],
          [
            121.523495,
            25.022643
          ],
          [
            121.523575,
            25.022575
          ],
          [
            121.523851,
            25.022345
          ],
          [
            121.523908,
            25.022292
          ],
          [
            121.523941,
            25.022263
          ],
          [
            121.52437,
            25.021903
          ],
          [
            121.524845,
            25.02151
          ],
          [
            121.524853,
            25.021502
          ],
          [
            121.52492,
            25.021446
          ],
          [
            121.525007,
            25.021369
          ],
          [
            121.525202,
            25.021204
          ],
          [
            121.525227,
            25.021183
          ],
          [
            121.525287,
            25.02113
          ],
          [
            121.525347,
            25.021048
          ],
          [
            121.525354,
            25.020905
          ],
          [
            121.525589,
            25.020897
          ],
          [
            121.525744,
            25.020894
          ],
          [
            121.52594,
            25.020873
          ],
          [
            121.526017,
            25.020865
          ],
          [
            121.526338,
            25.020832
          ],
          [
            121.527052,
            25.020761
          ],
          [
            121.527248,
            25.020748
          ],
          [
            121.527405,
            25.020763
          ],
          [
            121.527552,
            25.020815
          ],
          [
            121.527682,
            25.02091
          ],
          [
            121.527721,
            25.020995
          ],
          [
            121.52772,
            25.021076
          ],
          [
            121.527718,
            25.021084
          ],
          [
            121.527713,
            25.021104
          ],
          [
            121.527694,
            25.021139
          ],
          [
            121.527679,
            25.021175
          ],
          [
            121.527673,
            25.021249
          ],
          [
            121.527621,
            25.021297
          ],
          [
            121.527299,
            25.021573
          ],
          [
            121.526623,
            25.022149
          ],
          [
            121.526438,
            25.022304
          ],
          [
            121.526373,
            25.02236
          ],
          [
            121.526319,
            25.022404
          ],
          [
            121.526173,
            25.022536
          ],
          [
            121.525635,
            25.023027
          ],
          [
            121.525525,
            25.023132
          ],
          [
            121.525426,
            25.023246
          ],
          [
            121.525312,
            25.023381
          ],
          [
            121.525192,
            25.023532
          ],
          [
            121.524959,
            25.023847
          ],
          [
            121.524758,
            25.024118
          ],
          [
            121.524723,
            25.024165
          ],
          [
            121.524687,
            25.024214
          ],
          [
            121.524583,
            25.024354
          ],
          [
            121.524542,
            25.024403
          ],
          [
            121.524341,
            25.024668
          ],
          [
            121.523482,
            25.025798
          ],
          [
            121.523456,
            25.025831
          ],
          [
            121.523111,
            25.026285
          ],
          [
            121.523023,
            25.026401
          ],
          [
            121.522661,
            25.026879
          ],
          [
            121.522649,
            25.026895
          ],
          [
            121.522565,
            25.027003
          ],
          [
            121.522466,
            25.027151
          ],
          [
            121.522338,
            25.027318
          ],
          [
            121.522331,
            25.027328
          ],
          [
            121.522284,
            25.027386
          ],
          [
            121.522089,
            25.027655
          ],
          [
            121.521864,
            25.027965
          ],
          [
            121.5218,
            25.028054
          ],
          [
            121.521779,
            25.028084
          ],
          [
            121.521677,
            25.028211
          ],
          [
            121.521517,
            25.028426
          ],
          [
            121.521218,
            25.028828
          ],
          [
            121.52108,
            25.029014
          ],
          [
            121.520856,
            25.029315
          ],
          [
            121.520657,
            25.029584
          ],
          [
            121.520498,
            25.029804
          ],
          [
            121.520458,
            25.02986
          ],
          [
            121.520369,
            25.029991
          ],
          [
            121.520053,
            25.030396
          ],
          [
            121.519865,
            25.030649
          ],
          [
            121.519702,
            25.030869
          ],
          [
            121.519534,
            25.031106
          ],
          [
            121.519628,
            25.031162
          ],
          [
            121.519685,
            25.031197
          ],
          [
            121.519628,
            25.031162
          ],
          [
            121.519534,
            25.031106
          ],
          [
            121.519323,
            25.031385
          ],
          [
            121.51919,
            25.031572
          ],
          [
            121.519126,
            25.031657
          ],
          [
            121.519075,
            25.031727
          ],
          [
            121.518767,
            25.032152
          ],
          [
            121.518666,
            25.03229
          ],
          [
            121.518387,
            25.032675
          ],
          [
            121.518297,
            25.032798
          ],
          [
            121.518173,
            25.032969
          ],
          [
            121.518108,
            25.033057
          ],
          [
            121.518046,
            25.033144
          ],
          [
            121.517761,
            25.033536
          ],
          [
            121.517456,
            25.033956
          ],
          [
            121.517115,
            25.034435
          ],
          [
            121.516847,
            25.034679
          ],
          [
            121.517185,
            25.034625
          ],
          [
            121.517212,
            25.034617
          ],
          [
            121.51743,
            25.034556
          ],
          [
            121.518152,
            25.034262
          ],
          [
            121.518508,
            25.034116
          ],
          [
            121.518538,
            25.034104
          ],
          [
            121.518972,
            25.033925
          ],
          [
            121.519059,
            25.033889
          ],
          [
            121.519112,
            25.033866
          ],
          [
            121.519066,
            25.033808
          ],
          [
            121.518992,
            25.03374
          ],
          [
            121.518289,
            25.033145
          ],
          [
            121.518278,
            25.033066
          ],
          [
            121.518257,
            25.033051
          ],
          [
            121.518173,
            25.032969
          ],
          [
            121.518079,
            25.032909
          ],
          [
            121.517957,
            25.032848
          ],
          [
            121.5175,
            25.032724
          ],
          [
            121.516458,
            25.032448
          ],
          [
            121.51635,
            25.032403
          ],
          [
            121.51622,
            25.032373
          ],
          [
            121.515648,
            25.03222
          ],
          [
            121.515585,
            25.032204
          ],
          [
            121.515496,
            25.032182
          ],
          [
            121.515053,
            25.032069
          ],
          [
            121.514954,
            25.032047
          ],
          [
            121.515006,
            25.031982
          ],
          [
            121.515183,
            25.031746
          ],
          [
            121.515314,
            25.031556
          ],
          [
            121.515342,
            25.03152
          ],
          [
            121.515453,
            25.031372
          ],
          [
            121.515596,
            25.031174
          ],
          [
            121.515627,
            25.031139
          ],
          [
            121.515859,
            25.030847
          ],
          [
            121.516022,
            25.030594
          ],
          [
            121.516153,
            25.030423
          ],
          [
            121.516175,
            25.030394
          ],
          [
            121.516214,
            25.03034
          ],
          [
            121.515946,
            25.030292
          ],
          [
            121.516214,
            25.03034
          ],
          [
            121.51634,
            25.030168
          ],
          [
            121.516412,
            25.030092
          ],
          [
            121.516465,
            25.030036
          ],
          [
            121.516505,
            25.029976
          ],
          [
            121.516698,
            25.029686
          ],
          [
            121.516742,
            25.029626
          ],
          [
            121.516938,
            25.029751
          ],
          [
            121.517249,
            25.029942
          ],
          [
            121.517401,
            25.030028
          ],
          [
            121.517797,
            25.03028
          ],
          [
            121.517874,
            25.030329
          ],
          [
            121.517985,
            25.030176
          ],
          [
            121.518087,
            25.030045
          ],
          [
            121.518187,
            25.029896
          ],
          [
            121.518272,
            25.029783
          ],
          [
            121.518346,
            25.029676
          ],
          [
            121.518391,
            25.029608
          ],
          [
            121.518404,
            25.029588
          ],
          [
            121.518498,
            25.029449
          ],
          [
            121.518804,
            25.029033
          ],
          [
            121.518843,
            25.028972
          ],
          [
            121.518886,
            25.028925
          ],
          [
            121.519124,
            25.028607
          ],
          [
            121.519255,
            25.028438
          ],
          [
            121.51937,
            25.02831
          ],
          [
            121.519404,
            25.028275
          ],
          [
            121.519355,
            25.028239
          ],
          [
            121.519351,
            25.028237
          ],
          [
            121.519355,
            25.028239
          ],
          [
            121.519404,
            25.028275
          ],
          [
            121.519758,
            25.027905
          ],
          [
            121.519845,
            25.027828
          ],
          [
            121.52015,
            25.027564
          ],
          [
            121.520127,
            25.027493
          ],
          [
            121.52015,
            25.027564
          ],
          [
            121.520538,
            25.027258
          ],
          [
            121.520954,
            25.026926
          ],
          [
            121.521041,
            25.026857
          ],
          [
            121.521139,
            25.026777
          ],
          [
            121.521199,
            25.026728
          ],
          [
            121.521818,
            25.026217
          ]
        ]
      },
      "properties": {
        "routeId": "taipei-2-7d394c-2-9e3cb1",
        "city": "taipei",
        "source_file": "taipei/taipei-2-7d394c-2-9e3cb1.geojson",
        "distance_km": 5.224,
        "duration_min": 9.804566666666666,
        "valhalla_config": "valhalla.json"
      }
    }
  ]
}