{
  "type": "FeatureCollection",
  "features": [
    {
      "type": "Feature",
      "geometry": {
        "type": "LineString",
        "coordinates": [
          [
            121.515946,
            25.062249
          ],
          [
            121.515945,
            25.062195
          ],
          [
            121.515931,
            25.061618
          ],
          [
            121.515922,
            25.061283
          ],
          [
            121.51591,
            25.060956
          ],
          [
            121.515906,
            25.060898
          ],
          [
            121.515907,
            25.060822
          ],
          [
            121.515903,
            25.060528
          ],
          [
            121.515898,
            25.059808
          ],
          [
            121.516181,
            25.05987
          ],
          [
            121.516513,
            25.059951
          ],
          [
            121.516712,
            25.059992
          ],
          [
            121.516964,
            25.060044
          ],
          [
            121.517302,
            25.060113
          ],
          [
            121.517682,
            25.060204
          ],
          [
            121.518046,
            25.060218
          ],
          [
            121.518165,
            25.060214
          ],
          [
            121.518162,
            25.060106
          ],
          [
            121.51815,
            25.059469
          ],
          [
            121.518147,
            25.059299
          ],
          [
            121.518132,
            25.058494
          ],
          [
            121.518132,
            25.058487
          ],
          [
            121.518128,
            25.058413
          ],
          [
            121.518125,
            25.058368
          ],
          [
            121.518105,
            25.057466
          ],
          [
            121.51809,
            25.057327
          ],
          [
            121.518087,
            25.057291
          ],
          [
            121.518079,
            25.057216
          ],
          [
            121.518089,
            25.056452
          ],
          [
            121.518103,
            25.056311
          ],
          [
            121.51811,
            25.055757
          ],
          [
            121.518113,
            25.055313
          ],
          [
            121.518122,
            25.054906
          ],
          [
            121.518124,
            25.054778
          ],
          [
            121.518101,
            25.054676
          ],
          [
            121.51768,
            25.053399
          ],
          [
            121.517646,
            25.053315
          ],
          [
            121.517601,
            25.053238
          ],
          [
            121.517771,
            25.053198
          ],
          [
            121.517795,
            25.053282
          ],
          [
            121.51782,
            25.053362
          ],
          [
            121.517933,
            25.053726
          ],
          [
            121.517958,
            25.053799
          ],
          [
            121.518014,
            25.053966
          ],
          [
            121.518232,
            25.054615
          ],
          [
            121.51826,
            25.054866
          ],
          [
            121.518263,
            25.054941
          ],
          [
            121.518261,
            25.055009
          ],
          [
            121.518253,
            25.055317
          ],
          [
            121.51825,
            25.055531
          ],
          [
            121.518247,
            25.055798
          ],
          [
            121.518249,
            25.05616
          ],
          [
            121.518249,
            25.056228
          ],
          [
            121.518248,
            25.056292
          ],
          [
            121.518242,
            25.056429
          ],
          [
            121.518238,
            25.05671
          ],
          [
            121.518238,
            25.057081
          ],
          [
            121.518238,
            25.057216
          ],
          [
            121.518245,
            25.057312
          ],
          [
            121.518248,
            25.057347
          ],
          [
            121.518259,
            25.057467
          ],
          [
            121.518264,
            25.057699
          ],
          [
            121.518274,
            25.058089
          ],
          [
            121.518279,
            25.058371
          ],
          [
            121.518275,
            25.058441
          ],
          [
            121.51827,
            25.058521
          ],
          [
            121.518275,
            25.058807
          ]
        ]
      },
      "properties": {
        "routeId": "taipei-2-ce8118-1-ebe684",
        "city": "taipei",
        "source_file": "taipei/taipei-2-ce8118-1-ebe684.geojson",
        "distance_km": 1.936,
        "duration_min": 3.4219166666666667,
        "valhalla_config": "valhalla.json"
      }
    }
  ]
}