{
  "type": "FeatureCollection",
  "features": [
    {
      "type": "Feature",
      "geometry": {
        "type": "LineString",
        "coordinates": [
          [
            121.580037,
            25.045961
          ],
          [
            121.580036,
            25.045914
          ],
          [
            121.579287,
            25.045942
          ],
          [
            121.578861,
            25.045951
          ],
          [
            121.578356,
            25.045953
          ],
          [
            121.578355,
            25.046083
          ],
          [
            121.578354,
            25.046176
          ],
          [
            121.578351,
            25.0464
          ],
          [
            121.578348,
            25.04663
          ],
          [
            121.578347,
            25.04668
          ],
          [
            121.578348,
            25.04663
          ],
          [
            121.578351,
            25.0464
          ],
          [
            121.578352,
            25.046312
          ],
          [
            121.578351,
            25.0464
          ],
          [
            121.578348,
            25.04663
          ],
          [
            121.577878,
            25.046644
          ],
          [
            121.577851,
            25.046645
          ],
          [
            121.577746,
            25.046645
          ],
          [
            121.577746,
            25.046498
          ],
          [
            121.577746,
            25.045602
          ],
          [
            121.577748,
            25.045511
          ],
          [
            121.577748,
            25.045503
          ],
          [
            121.577749,
            25.045399
          ],
          [
            121.577748,
            25.045292
          ],
          [
            121.577749,
            25.044924
          ],
          [
            121.577752,
            25.044319
          ],
          [
            121.577755,
            25.043323
          ],
          [
            121.577756,
            25.043294
          ],
          [
            121.577756,
            25.043266
          ],
          [
            121.577756,
            25.0432
          ],
          [
            121.577756,
            25.043171
          ],
          [
            121.577756,
            25.04312
          ],
          [
            121.577756,
            25.043071
          ],
          [
            121.57776,
            25.042091
          ],
          [
            121.577613,
            25.042095
          ],
          [
            121.577267,
            25.042104
          ]
        ]
      },
      "properties": {
        "routeId": "taipei-4-2146da-3-d9a235",
        "city": "taipei",
        "source_file": "taipei/taipei-4-2146da-3-d9a235.geojson",
        "distance_km": 0.951,
        "duration_min": 2.4512333333333336,
        "valhalla_config": "valhalla.json"
      }
    }
  ]
}