{
  "type": "FeatureCollection",
  "features": [
    {
      "type": "Feature",
      "geometry": {
        "type": "LineString",
        "coordinates": [
          [
            121.586846,
            25.088304
          ],
          [
            121.586863,
            25.088285
          ],
          [
            121.586885,
            25.088262
          ],
          [
            121.586945,
            25.088198
          ],
          [
            121.586955,
            25.088184
          ],
          [
            121.587144,
            25.087977
          ],
          [
            121.587179,
            25.087935
          ],
          [
            121.587223,
            25.087888
          ],
          [
            121.587757,
            25.087338
          ],
          [
            121.5878,
            25.087299
          ],
          [
            121.587839,
            25.087263
          ],
          [
            121.587908,
            25.087326
          ],
          [
            121.588213,
            25.087553
          ],
          [
            121.58842,
            25.087739
          ],
          [
            121.588213,
            25.087553
          ],
          [
            121.587908,
            25.087326
          ],
          [
            121.587839,
            25.087263
          ],
          [
            121.5878,
            25.087299
          ],
          [
            121.587757,
            25.087338
          ],
          [
            121.587692,
            25.087405
          ],
          [
            121.587757,
            25.087338
          ],
          [
            121.5878,
            25.087299
          ],
          [
            121.587839,
            25.087263
          ],
          [
            121.587877,
            25.087229
          ],
          [
            121.587967,
            25.087148
          ],
          [
            121.588042,
            25.087079
          ],
          [
            121.588072,
            25.087053
          ],
          [
            121.58814,
            25.08699
          ],
          [
            121.588354,
            25.086822
          ],
          [
            121.588462,
            25.08673
          ],
          [
            121.588543,
            25.086667
          ],
          [
            121.588613,
            25.086622
          ],
          [
            121.588662,
            25.086586
          ],
          [
            121.589166,
            25.086273
          ],
          [
            121.589216,
            25.086245
          ],
          [
            121.589284,
            25.086209
          ],
          [
            121.590253,
            25.085785
          ],
          [
            121.590323,
            25.085757
          ],
          [
            121.590783,
            25.085575
          ],
          [
            121.590521,
            25.085343
          ],
          [
            121.590504,
            25.085328
          ],
          [
            121.590268,
            25.085325
          ],
          [
            121.589856,
            25.085375
          ],
          [
            121.58953,
            25.085495
          ],
          [
            121.58902,
            25.085879
          ],
          [
            121.589012,
            25.08597
          ],
          [
            121.58907,
            25.086075
          ],
          [
            121.589158,
            25.086177
          ],
          [
            121.589216,
            25.086245
          ],
          [
            121.589166,
            25.086273
          ],
          [
            121.588662,
            25.086586
          ],
          [
            121.588613,
            25.086622
          ],
          [
            121.588543,
            25.086667
          ],
          [
            121.588462,
            25.08673
          ],
          [
            121.588354,
            25.086822
          ],
          [
            121.58814,
            25.08699
          ],
          [
            121.588072,
            25.087053
          ],
          [
            121.588042,
            25.087079
          ],
          [
            121.587967,
            25.087148
          ],
          [
            121.587877,
            25.087229
          ],
          [
            121.587839,
            25.087263
          ],
          [
            121.5878,
            25.087299
          ],
          [
            121.587757,
            25.087338
          ],
          [
            121.587223,
            25.087888
          ],
          [
            121.587179,
            25.087935
          ],
          [
            121.587144,
            25.087977
          ],
          [
            121.586955,
            25.088184
          ],
          [
            121.586945,
            25.088198
          ],
          [
            121.586885,
            25.088262
          ],
          [
            121.586863,
            25.088285
          ],
          [
            121.58685,
            25.088299
          ]
        ]
      },
      "properties": {
        "routeId": "taipei-4-43a338-1-ebe684",
        "city": "taipei",
        "source_file": "taipei/taipei-4-43a338-1-ebe684.geojson",
        "distance_km": 1.302,
        "duration_min": 2.44115,
        "valhalla_config": "valhalla.json"
      }
    }
  ]
}