{
  "type": "FeatureCollection",
  "features": [
    {
      "type": "Feature",
      "geometry": {
        "type": "LineString",
        "coordinates": [
          [
            121.523129,
            25.107573
          ],
          [
            121.523268,
            25.10837
          ],
          [
            121.523333,
            25.108784
          ],
          [
            121.523342,
            25.108833
          ],
          [
            121.523333,
            25.108784
          ],
          [
            121.523801,
            25.108928
          ],
          [
            121.524092,
            25.108885
          ],
          [
            121.524438,
            25.108841
          ],
          [
            121.524522,
            25.10883
          ],
          [
            121.525208,
            25.108738
          ],
          [
            121.525193,
            25.108634
          ],
          [
            121.525089,
            25.107895
          ],
          [
            121.525072,
            25.107794
          ],
          [
            121.525064,
            25.107746
          ],
          [
            121.524904,
            25.106872
          ],
          [
            121.524853,
            25.1065
          ],
          [
            121.524845,
            25.106445
          ],
          [
            121.524839,
            25.106308
          ],
          [
            121.524795,
            25.105371
          ],
          [
            121.524769,
            25.104462
          ],
          [
            121.524767,
            25.104367
          ],
          [
            121.524778,
            25.104216
          ],
          [
            121.524815,
            25.104094
          ],
          [
            121.524809,
            25.104023
          ],
          [
            121.524778,
            25.10387
          ],
          [
            121.524763,
            25.103654
          ],
          [
            121.524751,
            25.103358
          ],
          [
            121.524747,
            25.103258
          ],
          [
            121.524713,
            25.102414
          ],
          [
            121.524709,
            25.10232
          ],
          [
            121.524635,
            25.102299
          ],
          [
            121.524181,
            25.102167
          ],
          [
            121.524006,
            25.102127
          ],
          [
            121.523776,
            25.102083
          ],
          [
            121.523479,
            25.102043
          ],
          [
            121.523002,
            25.102
          ],
          [
            121.522943,
            25.101994
          ],
          [
            121.522448,
            25.101947
          ],
          [
            121.522373,
            25.101942
          ],
          [
            121.52178,
            25.101892
          ],
          [
            121.521731,
            25.101889
          ],
          [
            121.521588,
            25.101881
          ],
          [
            121.52134,
            25.101896
          ],
          [
            121.521125,
            25.10207
          ],
          [
            121.520869,
            25.10228
          ],
          [
            121.520813,
            25.102325
          ],
          [
            121.520207,
            25.102827
          ],
          [
            121.519865,
            25.103137
          ],
          [
            121.519765,
            25.103256
          ],
          [
            121.519689,
            25.103341
          ],
          [
            121.519764,
            25.103383
          ],
          [
            121.520216,
            25.103633
          ],
          [
            121.520469,
            25.103772
          ],
          [
            121.520847,
            25.103992
          ],
          [
            121.520919,
            25.104033
          ],
          [
            121.520847,
            25.103992
          ],
          [
            121.520469,
            25.103772
          ],
          [
            121.520216,
            25.103633
          ],
          [
            121.520047,
            25.10354
          ],
          [
            121.519764,
            25.103383
          ],
          [
            121.519689,
            25.103341
          ],
          [
            121.519556,
            25.103224
          ],
          [
            121.5196,
            25.103158
          ],
          [
            121.519728,
            25.103
          ],
          [
            121.520694,
            25.102194
          ],
          [
            121.520729,
            25.102165
          ],
          [
            121.521046,
            25.101916
          ],
          [
            121.521235,
            25.101749
          ],
          [
            121.521575,
            25.101568
          ],
          [
            121.521719,
            25.101458
          ],
          [
            121.521764,
            25.101422
          ],
          [
            121.522082,
            25.101152
          ],
          [
            121.522134,
            25.101108
          ],
          [
            121.522543,
            25.100786
          ],
          [
            121.522601,
            25.100734
          ],
          [
            121.522644,
            25.100698
          ],
          [
            121.523003,
            25.100373
          ],
          [
            121.523144,
            25.10022
          ],
          [
            121.523239,
            25.100089
          ],
          [
            121.523331,
            25.099876
          ],
          [
            121.523361,
            25.099755
          ],
          [
            121.523384,
            25.099664
          ],
          [
            121.523318,
            25.09961
          ],
          [
            121.523127,
            25.099522
          ],
          [
            121.522902,
            25.099438
          ],
          [
            121.522755,
            25.099394
          ],
          [
            121.52263,
            25.099361
          ],
          [
            121.522543,
            25.099343
          ],
          [
            121.522305,
            25.099279
          ],
          [
            121.521983,
            25.099214
          ],
          [
            121.521684,
            25.099206
          ],
          [
            121.521492,
            25.099233
          ],
          [
            121.521423,
            25.099247
          ],
          [
            121.521332,
            25.099273
          ],
          [
            121.521094,
            25.099362
          ],
          [
            121.520651,
            25.099613
          ],
          [
            121.520354,
            25.099786
          ],
          [
            121.520325,
            25.0998
          ],
          [
            121.520494,
            25.100167
          ],
          [
            121.520661,
            25.100438
          ],
          [
            121.52089,
            25.100697
          ],
          [
            121.52151,
            25.101327
          ],
          [
            121.521497,
            25.101458
          ],
          [
            121.521575,
            25.101568
          ],
          [
            121.521521,
            25.101737
          ],
          [
            121.521666,
            25.101731
          ],
          [
            121.521797,
            25.101738
          ],
          [
            121.522411,
            25.101785
          ],
          [
            121.522471,
            25.101792
          ],
          [
            121.522981,
            25.101834
          ],
          [
            121.523032,
            25.10184
          ],
          [
            121.523686,
            25.101895
          ]
        ]
      },
      "properties": {
        "routeId": "taipei-3-e5e952-2-9e3cb1",
        "city": "taipei",
        "source_file": "taipei/taipei-3-e5e952-2-9e3cb1.geojson",
        "distance_km": 3.32,
        "duration_min": 6.4073,
        "valhalla_config": "valhalla.json"
      }
    }
  ]
}