{
  "type": "FeatureCollection",
  "features": [
    {
      "type": "Feature",
      "geometry": {
        "type": "LineString",
        "coordinates": [
          [
            121.61572,
            25.080825
          ],
          [
            121.615626,
            25.08125
          ],
          [
            121.615623,
            25.081549
          ],
          [
            121.615635,
            25.081773
          ],
          [
            121.615486,
            25.081986
          ],
          [
            121.615444,
            25.08205
          ],
          [
            121.615421,
            25.082085
          ],
          [
            121.615083,
            25.082247
          ],
          [
            121.615022,
            25.08233
          ],
          [
            121.615037,
            25.082505
          ],
          [
            121.615196,
            25.082963
          ],
          [
            121.615286,
            25.083431
          ],
          [
            121.615261,
            25.083519
          ],
          [
            121.615237,
            25.083582
          ],
          [
            121.614944,
            25.083973
          ],
          [
            121.61484,
            25.084217
          ],
          [
            121.614685,
            25.08457
          ],
          [
            121.614653,
            25.084841
          ],
          [
            121.614486,
            25.085178
          ],
          [
            121.614385,
            25.08541
          ],
          [
            121.614316,
            25.085569
          ],
          [
            121.614277,
            25.08567
          ],
          [
            121.614252,
            25.085802
          ],
          [
            121.614223,
            25.085901
          ],
          [
            121.614118,
            25.085866
          ],
          [
            121.61402,
            25.085835
          ],
          [
            121.613937,
            25.085829
          ],
          [
            121.613852,
            25.085849
          ],
          [
            121.613754,
            25.085878
          ],
          [
            121.613643,
            25.085888
          ],
          [
            121.613566,
            25.08587
          ],
          [
            121.613477,
            25.085866
          ],
          [
            121.613409,
            25.085863
          ],
          [
            121.613477,
            25.085866
          ],
          [
            121.613566,
            25.08587
          ],
          [
            121.613643,
            25.085888
          ],
          [
            121.613754,
            25.085878
          ],
          [
            121.613852,
            25.085849
          ],
          [
            121.613937,
            25.085829
          ],
          [
            121.61402,
            25.085835
          ],
          [
            121.614118,
            25.085866
          ],
          [
            121.614223,
            25.085901
          ],
          [
            121.614217,
            25.085982
          ],
          [
            121.614161,
            25.086385
          ],
          [
            121.614137,
            25.086586
          ],
          [
            121.61416,
            25.086735
          ],
          [
            121.614153,
            25.086932
          ],
          [
            121.614043,
            25.087216
          ],
          [
            121.613963,
            25.087326
          ],
          [
            121.613903,
            25.087433
          ],
          [
            121.613796,
            25.087608
          ],
          [
            121.613772,
            25.087677
          ],
          [
            121.613744,
            25.087896
          ],
          [
            121.613699,
            25.088182
          ],
          [
            121.613754,
            25.088474
          ],
          [
            121.613863,
            25.08875
          ],
          [
            121.613769,
            25.089099
          ],
          [
            121.613703,
            25.089216
          ],
          [
            121.613545,
            25.089367
          ],
          [
            121.613465,
            25.089516
          ],
          [
            121.613376,
            25.089667
          ],
          [
            121.613383,
            25.089844
          ],
          [
            121.613441,
            25.089876
          ],
          [
            121.613623,
            25.089876
          ],
          [
            121.613759,
            25.089846
          ],
          [
            121.613861,
            25.089776
          ],
          [
            121.614024,
            25.089709
          ],
          [
            121.6141,
            25.089695
          ],
          [
            121.614223,
            25.089721
          ],
          [
            121.614386,
            25.089861
          ],
          [
            121.614506,
            25.08997
          ],
          [
            121.614598,
            25.090053
          ],
          [
            121.614669,
            25.089959
          ],
          [
            121.614722,
            25.089726
          ],
          [
            121.614764,
            25.089655
          ],
          [
            121.614843,
            25.089581
          ],
          [
            121.615316,
            25.089432
          ],
          [
            121.615439,
            25.089405
          ],
          [
            121.615554,
            25.089404
          ],
          [
            121.615594,
            25.089416
          ],
          [
            121.615817,
            25.08946
          ],
          [
            121.616141,
            25.089434
          ],
          [
            121.616326,
            25.089412
          ],
          [
            121.616507,
            25.089367
          ],
          [
            121.616668,
            25.089373
          ],
          [
            121.616861,
            25.089389
          ],
          [
            121.616982,
            25.089411
          ],
          [
            121.61722,
            25.089502
          ],
          [
            121.617599,
            25.089689
          ],
          [
            121.617804,
            25.089824
          ],
          [
            121.617909,
            25.089903
          ],
          [
            121.618019,
            25.089953
          ],
          [
            121.618151,
            25.089972
          ],
          [
            121.618291,
            25.089947
          ],
          [
            121.618576,
            25.089837
          ],
          [
            121.618693,
            25.089794
          ],
          [
            121.618755,
            25.089728
          ],
          [
            121.618885,
            25.0897
          ],
          [
            121.618989,
            25.089693
          ],
          [
            121.619284,
            25.089701
          ],
          [
            121.619422,
            25.08971
          ],
          [
            121.619533,
            25.089689
          ],
          [
            121.619706,
            25.08963
          ],
          [
            121.619854,
            25.08956
          ],
          [
            121.620119,
            25.089419
          ],
          [
            121.62031,
            25.089334
          ],
          [
            121.620429,
            25.089298
          ],
          [
            121.620602,
            25.089269
          ],
          [
            121.620684,
            25.089288
          ],
          [
            121.620872,
            25.0894
          ],
          [
            121.621006,
            25.089409
          ],
          [
            121.621166,
            25.08936
          ],
          [
            121.621525,
            25.089281
          ],
          [
            121.621545,
            25.089431
          ],
          [
            121.621513,
            25.089576
          ],
          [
            121.621456,
            25.089707
          ],
          [
            121.621401,
            25.089833
          ],
          [
            121.621394,
            25.089971
          ],
          [
            121.621391,
            25.090095
          ],
          [
            121.621351,
            25.090336
          ],
          [
            121.62129,
            25.090548
          ],
          [
            121.621211,
            25.090718
          ],
          [
            121.621105,
            25.090846
          ],
          [
            121.620941,
            25.091018
          ],
          [
            121.620872,
            25.091173
          ],
          [
            121.620864,
            25.091301
          ],
          [
            121.620824,
            25.091542
          ],
          [
            121.620725,
            25.091641
          ],
          [
            121.620297,
            25.091845
          ],
          [
            121.620202,
            25.091963
          ],
          [
            121.620059,
            25.092172
          ],
          [
            121.619879,
            25.092421
          ],
          [
            121.619752,
            25.092515
          ],
          [
            121.619555,
            25.092529
          ],
          [
            121.619413,
            25.092562
          ],
          [
            121.619271,
            25.092667
          ],
          [
            121.619128,
            25.092864
          ],
          [
            121.618981,
            25.092957
          ],
          [
            121.618774,
            25.093011
          ],
          [
            121.618539,
            25.093136
          ],
          [
            121.618272,
            25.093427
          ],
          [
            121.617995,
            25.093778
          ],
          [
            121.617863,
            25.094001
          ],
          [
            121.617711,
            25.094324
          ],
          [
            121.617668,
            25.094461
          ],
          [
            121.617661,
            25.094578
          ],
          [
            121.617613,
            25.094695
          ],
          [
            121.617471,
            25.094772
          ],
          [
            121.617342,
            25.094855
          ],
          [
            121.617227,
            25.094894
          ],
          [
            121.617071,
            25.094938
          ],
          [
            121.616943,
            25.094957
          ],
          [
            121.616827,
            25.095042
          ],
          [
            121.616739,
            25.095198
          ],
          [
            121.616718,
            25.095343
          ],
          [
            121.616739,
            25.095484
          ],
          [
            121.616743,
            25.095626
          ],
          [
            121.616041,
            25.095818
          ],
          [
            121.615899,
            25.09581
          ],
          [
            121.615542,
            25.095886
          ],
          [
            121.615338,
            25.096026
          ],
          [
            121.615136,
            25.096095
          ],
          [
            121.614935,
            25.096199
          ],
          [
            121.61485,
            25.096329
          ],
          [
            121.614764,
            25.096456
          ],
          [
            121.614549,
            25.096781
          ],
          [
            121.614538,
            25.0968
          ],
          [
            121.614525,
            25.096819
          ],
          [
            121.614441,
            25.096961
          ],
          [
            121.614273,
            25.097095
          ],
          [
            121.614155,
            25.097204
          ],
          [
            121.614155,
            25.097204
          ],
          [
            121.614273,
            25.097095
          ],
          [
            121.614441,
            25.096961
          ],
          [
            121.614525,
            25.096819
          ],
          [
            121.614538,
            25.0968
          ],
          [
            121.614549,
            25.096781
          ],
          [
            121.614764,
            25.096456
          ],
          [
            121.61485,
            25.096329
          ],
          [
            121.614935,
            25.096199
          ],
          [
            121.615136,
            25.096095
          ],
          [
            121.615338,
            25.096026
          ],
          [
            121.615542,
            25.095886
          ],
          [
            121.615899,
            25.09581
          ],
          [
            121.616041,
            25.095818
          ],
          [
            121.616743,
            25.095626
          ],
          [
            121.616739,
            25.095484
          ],
          [
            121.616718,
            25.095343
          ],
          [
            121.616739,
            25.095198
          ],
          [
            121.616827,
            25.095042
          ],
          [
            121.616943,
            25.094957
          ],
          [
            121.617071,
            25.094938
          ],
          [
            121.617227,
            25.094894
          ],
          [
            121.617342,
            25.094855
          ],
          [
            121.617471,
            25.094772
          ],
          [
            121.617613,
            25.094695
          ],
          [
            121.617661,
            25.094578
          ],
          [
            121.617668,
            25.094461
          ],
          [
            121.617711,
            25.094324
          ],
          [
            121.617863,
            25.094001
          ],
          [
            121.617995,
            25.093778
          ],
          [
            121.618272,
            25.093427
          ],
          [
            121.618539,
            25.093136
          ],
          [
            121.618774,
            25.093011
          ],
          [
            121.618981,
            25.092957
          ],
          [
            121.619128,
            25.092864
          ],
          [
            121.619271,
            25.092667
          ],
          [
            121.619413,
            25.092562
          ],
          [
            121.619555,
            25.092529
          ],
          [
            121.619752,
            25.092515
          ],
          [
            121.619879,
            25.092421
          ],
          [
            121.620059,
            25.092172
          ],
          [
            121.620202,
            25.091963
          ],
          [
            121.620297,
            25.091845
          ],
          [
            121.620725,
            25.091641
          ],
          [
            121.6209,
            25.092014
          ],
          [
            121.620972,
            25.092122
          ],
          [
            121.621174,
            25.092383
          ],
          [
            121.621296,
            25.092494
          ],
          [
            121.621379,
            25.092553
          ],
          [
            121.62153,
            25.092635
          ],
          [
            121.621622,
            25.092681
          ],
          [
            121.621963,
            25.092932
          ],
          [
            121.622051,
            25.093011
          ],
          [
            121.622162,
            25.093139
          ],
          [
            121.622228,
            25.093351
          ],
          [
            121.622158,
            25.093652
          ],
          [
            121.622228,
            25.093351
          ],
          [
            121.622162,
            25.093139
          ],
          [
            121.622051,
            25.093011
          ],
          [
            121.621963,
            25.092932
          ],
          [
            121.621622,
            25.092681
          ],
          [
            121.62153,
            25.092635
          ],
          [
            121.621379,
            25.092553
          ],
          [
            121.621296,
            25.092494
          ],
          [
            121.621174,
            25.092383
          ],
          [
            121.620972,
            25.092122
          ],
          [
            121.6209,
            25.092014
          ],
          [
            121.620725,
            25.091641
          ],
          [
            121.620824,
            25.091542
          ],
          [
            121.620864,
            25.091301
          ],
          [
            121.620872,
            25.091173
          ],
          [
            121.620941,
            25.091018
          ],
          [
            121.621105,
            25.090846
          ],
          [
            121.621211,
            25.090718
          ],
          [
            121.62129,
            25.090548
          ],
          [
            121.621351,
            25.090336
          ],
          [
            121.621391,
            25.090095
          ],
          [
            121.621394,
            25.089971
          ],
          [
            121.621401,
            25.089833
          ],
          [
            121.621456,
            25.089707
          ],
          [
            121.621513,
            25.089576
          ],
          [
            121.621545,
            25.089431
          ],
          [
            121.621525,
            25.089281
          ],
          [
            121.621525,
            25.089129
          ],
          [
            121.621585,
            25.089003
          ],
          [
            121.621673,
            25.088939
          ],
          [
            121.621802,
            25.088909
          ],
          [
            121.622072,
            25.088918
          ],
          [
            121.622213,
            25.08894
          ],
          [
            121.622334,
            25.088935
          ],
          [
            121.622555,
            25.088864
          ],
          [
            121.622756,
            25.088797
          ],
          [
            121.622845,
            25.088768
          ],
          [
            121.623095,
            25.088656
          ],
          [
            121.623236,
            25.088537
          ],
          [
            121.623319,
            25.088435
          ],
          [
            121.623392,
            25.088259
          ],
          [
            121.623427,
            25.088139
          ],
          [
            121.623446,
            25.087985
          ],
          [
            121.623436,
            25.087899
          ],
          [
            121.623425,
            25.087797
          ],
          [
            121.623401,
            25.08763
          ],
          [
            121.623371,
            25.087392
          ],
          [
            121.623335,
            25.087239
          ],
          [
            121.62335,
            25.087148
          ],
          [
            121.623367,
            25.087049
          ],
          [
            121.623369,
            25.087039
          ],
          [
            121.623393,
            25.087005
          ],
          [
            121.623441,
            25.086859
          ],
          [
            121.623501,
            25.086682
          ],
          [
            121.623584,
            25.086385
          ],
          [
            121.623707,
            25.086015
          ],
          [
            121.62371,
            25.086005
          ],
          [
            121.623811,
            25.085684
          ],
          [
            121.623885,
            25.085347
          ],
          [
            121.623987,
            25.084984
          ],
          [
            121.624006,
            25.084903
          ],
          [
            121.623965,
            25.084706
          ],
          [
            121.623964,
            25.084701
          ],
          [
            121.623959,
            25.084499
          ],
          [
            121.623995,
            25.084244
          ],
          [
            121.624012,
            25.083609
          ],
          [
            121.624052,
            25.083401
          ],
          [
            121.624127,
            25.083194
          ],
          [
            121.624194,
            25.082966
          ],
          [
            121.624261,
            25.082749
          ],
          [
            121.624281,
            25.082546
          ],
          [
            121.624267,
            25.082351
          ],
          [
            121.62427,
            25.082156
          ],
          [
            121.624259,
            25.082055
          ],
          [
            121.624287,
            25.081954
          ],
          [
            121.624314,
            25.081758
          ],
          [
            121.624261,
            25.081516
          ],
          [
            121.623988,
            25.08037
          ],
          [
            121.623879,
            25.080025
          ],
          [
            121.623736,
            25.079608
          ],
          [
            121.623639,
            25.079269
          ],
          [
            121.623578,
            25.078978
          ],
          [
            121.623539,
            25.078876
          ],
          [
            121.623561,
            25.078798
          ],
          [
            121.623586,
            25.078741
          ],
          [
            121.623609,
            25.078675
          ],
          [
            121.623616,
            25.078563
          ],
          [
            121.623591,
            25.078516
          ],
          [
            121.623519,
            25.078461
          ],
          [
            121.623026,
            25.078113
          ],
          [
            121.623002,
            25.077963
          ],
          [
            121.622829,
            25.077173
          ],
          [
            121.622814,
            25.077102
          ],
          [
            121.622807,
            25.077057
          ],
          [
            121.622748,
            25.076891
          ],
          [
            121.622691,
            25.076781
          ],
          [
            121.622593,
            25.076669
          ],
          [
            121.622486,
            25.076594
          ],
          [
            121.622437,
            25.07656
          ],
          [
            121.622384,
            25.076545
          ],
          [
            121.622248,
            25.076502
          ],
          [
            121.621831,
            25.076367
          ],
          [
            121.621299,
            25.076195
          ],
          [
            121.621049,
            25.076116
          ],
          [
            121.62091,
            25.076068
          ],
          [
            121.620805,
            25.076014
          ],
          [
            121.620619,
            25.075917
          ],
          [
            121.620502,
            25.075808
          ],
          [
            121.620313,
            25.075635
          ],
          [
            121.620185,
            25.075442
          ],
          [
            121.620049,
            25.075192
          ],
          [
            121.619846,
            25.074687
          ],
          [
            121.619698,
            25.074147
          ],
          [
            121.619633,
            25.073872
          ],
          [
            121.619531,
            25.073408
          ],
          [
            121.619519,
            25.073353
          ],
          [
            121.619442,
            25.07292
          ],
          [
            121.619331,
            25.072118
          ],
          [
            121.619278,
            25.071881
          ],
          [
            121.619221,
            25.071528
          ],
          [
            121.619134,
            25.070936
          ],
          [
            121.619103,
            25.070768
          ],
          [
            121.619083,
            25.070662
          ],
          [
            121.619081,
            25.070655
          ],
          [
            121.619011,
            25.070394
          ],
          [
            121.618973,
            25.070255
          ],
          [
            121.618875,
            25.069991
          ],
          [
            121.618868,
            25.069971
          ],
          [
            121.618774,
            25.06973
          ],
          [
            121.618702,
            25.069547
          ],
          [
            121.618668,
            25.069459
          ],
          [
            121.618662,
            25.06944
          ],
          [
            121.618564,
            25.069149
          ],
          [
            121.618449,
            25.068839
          ],
          [
            121.618341,
            25.068566
          ],
          [
            121.618315,
            25.068499
          ],
          [
            121.618299,
            25.068443
          ],
          [
            121.618281,
            25.068412
          ],
          [
            121.618233,
            25.068332
          ],
          [
            121.618204,
            25.068276
          ],
          [
            121.618101,
            25.068169
          ],
          [
            121.618066,
            25.068134
          ],
          [
            121.617842,
            25.068009
          ],
          [
            121.617789,
            25.067989
          ],
          [
            121.617691,
            25.067951
          ],
          [
            121.617561,
            25.067902
          ],
          [
            121.617472,
            25.067974
          ],
          [
            121.61733,
            25.068007
          ],
          [
            121.617047,
            25.068074
          ],
          [
            121.616685,
            25.068159
          ],
          [
            121.616373,
            25.068233
          ],
          [
            121.616316,
            25.068246
          ],
          [
            121.615993,
            25.068322
          ],
          [
            121.615982,
            25.068327
          ],
          [
            121.615448,
            25.068458
          ],
          [
            121.615204,
            25.068534
          ],
          [
            121.615105,
            25.068565
          ],
          [
            121.614998,
            25.06859
          ],
          [
            121.614138,
            25.068788
          ],
          [
            121.614099,
            25.068792
          ],
          [
            121.61404,
            25.068799
          ],
          [
            121.613965,
            25.06881
          ],
          [
            121.613914,
            25.068812
          ],
          [
            121.61358,
            25.06883
          ],
          [
            121.61341,
            25.068839
          ],
          [
            121.612569,
            25.068877
          ],
          [
            121.612314,
            25.068882
          ],
          [
            121.612113,
            25.068887
          ],
          [
            121.612114,
            25.069003
          ],
          [
            121.612115,
            25.06911
          ],
          [
            121.612092,
            25.069289
          ],
          [
            121.612033,
            25.069469
          ],
          [
            121.611945,
            25.069661
          ],
          [
            121.611853,
            25.069834
          ],
          [
            121.611636,
            25.070108
          ],
          [
            121.611345,
            25.070383
          ],
          [
            121.611315,
            25.070411
          ],
          [
            121.611884,
            25.070966
          ],
          [
            121.612246,
            25.071364
          ],
          [
            121.6122,
            25.071399
          ],
          [
            121.61144,
            25.071976
          ],
          [
            121.611059,
            25.072276
          ],
          [
            121.610888,
            25.072462
          ],
          [
            121.610721,
            25.072676
          ],
          [
            121.61119,
            25.073329
          ],
          [
            121.611487,
            25.073332
          ],
          [
            121.61254,
            25.073338
          ],
          [
            121.612539,
            25.073409
          ],
          [
            121.612539,
            25.073468
          ],
          [
            121.612457,
            25.073932
          ],
          [
            121.612451,
            25.074454
          ],
          [
            121.61245,
            25.074921
          ],
          [
            121.612446,
            25.075352
          ],
          [
            121.612443,
            25.075598
          ],
          [
            121.612577,
            25.075937
          ],
          [
            121.612451,
            25.075923
          ],
          [
            121.612273,
            25.075891
          ],
          [
            121.612075,
            25.075782
          ],
          [
            121.61187,
            25.075676
          ],
          [
            121.61177,
            25.075624
          ],
          [
            121.611659,
            25.075535
          ],
          [
            121.611554,
            25.075415
          ],
          [
            121.611525,
            25.075353
          ],
          [
            121.611471,
            25.075247
          ],
          [
            121.6114,
            25.075091
          ],
          [
            121.611324,
            25.074924
          ],
          [
            121.611232,
            25.074767
          ],
          [
            121.611169,
            25.074651
          ],
          [
            121.610861,
            25.07428
          ],
          [
            121.610756,
            25.074194
          ],
          [
            121.610506,
            25.07399
          ],
          [
            121.61119,
            25.073329
          ],
          [
            121.611487,
            25.073332
          ],
          [
            121.61254,
            25.073338
          ],
          [
            121.612543,
            25.072776
          ],
          [
            121.612553,
            25.072533
          ],
          [
            121.61255,
            25.072238
          ],
          [
            121.612657,
            25.071774
          ],
          [
            121.613278,
            25.070905
          ],
          [
            121.613334,
            25.070838
          ],
          [
            121.613239,
            25.070781
          ],
          [
            121.612944,
            25.070568
          ],
          [
            121.612578,
            25.070306
          ],
          [
            121.613082,
            25.069835
          ],
          [
            121.613223,
            25.069696
          ],
          [
            121.613364,
            25.069557
          ],
          [
            121.613643,
            25.06978
          ],
          [
            121.613647,
            25.069783
          ],
          [
            121.613723,
            25.069849
          ],
          [
            121.613984,
            25.070079
          ],
          [
            121.613994,
            25.070087
          ],
          [
            121.614131,
            25.069913
          ],
          [
            121.614249,
            25.069811
          ],
          [
            121.614429,
            25.069708
          ],
          [
            121.614481,
            25.069685
          ],
          [
            121.614595,
            25.069635
          ],
          [
            121.614888,
            25.069553
          ],
          [
            121.615336,
            25.070395
          ],
          [
            121.615934,
            25.070175
          ],
          [
            121.615991,
            25.070156
          ],
          [
            121.615929,
            25.070151
          ],
          [
            121.615593,
            25.069508
          ],
          [
            121.615319,
            25.068984
          ],
          [
            121.61516,
            25.068672
          ],
          [
            121.615105,
            25.068565
          ],
          [
            121.614998,
            25.06859
          ],
          [
            121.614138,
            25.068788
          ],
          [
            121.614099,
            25.068792
          ],
          [
            121.61404,
            25.068799
          ],
          [
            121.613965,
            25.06881
          ],
          [
            121.613914,
            25.068812
          ],
          [
            121.61358,
            25.06883
          ],
          [
            121.61341,
            25.068839
          ],
          [
            121.612569,
            25.068877
          ],
          [
            121.612314,
            25.068882
          ],
          [
            121.612113,
            25.068887
          ],
          [
            121.612037,
            25.068884
          ],
          [
            121.612039,
            25.068811
          ],
          [
            121.612039,
            25.068573
          ],
          [
            121.61203,
            25.068452
          ],
          [
            121.611949,
            25.068102
          ],
          [
            121.611835,
            25.067884
          ],
          [
            121.611773,
            25.067765
          ],
          [
            121.611496,
            25.067328
          ],
          [
            121.611359,
            25.067092
          ],
          [
            121.611156,
            25.066734
          ],
          [
            121.610999,
            25.066327
          ],
          [
            121.610903,
            25.066003
          ],
          [
            121.610898,
            25.065978
          ],
          [
            121.610877,
            25.065869
          ],
          [
            121.610866,
            25.06567
          ],
          [
            121.610885,
            25.065019
          ],
          [
            121.610889,
            25.06495
          ],
          [
            121.610855,
            25.064778
          ],
          [
            121.610892,
            25.064551
          ],
          [
            121.611072,
            25.063925
          ],
          [
            121.611082,
            25.063876
          ],
          [
            121.610863,
            25.063798
          ],
          [
            121.610258,
            25.063596
          ],
          [
            121.60996,
            25.063491
          ],
          [
            121.609856,
            25.063457
          ],
          [
            121.609631,
            25.063393
          ],
          [
            121.609567,
            25.063373
          ],
          [
            121.609407,
            25.063337
          ],
          [
            121.608969,
            25.063213
          ],
          [
            121.608167,
            25.062946
          ],
          [
            121.607884,
            25.062827
          ],
          [
            121.607391,
            25.06262
          ],
          [
            121.607011,
            25.062448
          ],
          [
            121.606777,
            25.062295
          ],
          [
            121.60645,
            25.062095
          ],
          [
            121.605948,
            25.061823
          ],
          [
            121.605492,
            25.061624
          ],
          [
            121.605163,
            25.06149
          ],
          [
            121.604849,
            25.061384
          ],
          [
            121.604556,
            25.061306
          ],
          [
            121.604162,
            25.061209
          ],
          [
            121.603623,
            25.061136
          ],
          [
            121.603564,
            25.061128
          ],
          [
            121.6035,
            25.061121
          ],
          [
            121.602732,
            25.061031
          ],
          [
            121.602835,
            25.060542
          ],
          [
            121.602884,
            25.060226
          ],
          [
            121.60283,
            25.060131
          ],
          [
            121.602723,
            25.060112
          ],
          [
            121.601914,
            25.060049
          ],
          [
            121.601338,
            25.060026
          ]
        ]
      },
      "properties": {
        "routeId": "taipei-1-193d23-1-ebe684",
        "city": "taipei",
        "source_file": "taipei/taipei-1-193d23-1-ebe684.geojson",
        "distance_km": 13.396,
        "duration_min": 25.706233333333333,
        "valhalla_config": "valhalla.json"
      }
    }
  ]
}