{
  "type": "FeatureCollection",
  "features": [
    {
      "type": "Feature",
      "geometry": {
        "type": "LineString",
        "coordinates": [
          [
            121.547085,
            25.033189
          ],
          [
            121.547087,
            25.033228
          ],
          [
            121.547997,
            25.03321
          ],
          [
            121.548051,
            25.033209
          ],
          [
            121.548407,
            25.033203
          ],
          [
            121.548554,
            25.0332
          ],
          [
            121.548553,
            25.033069
          ],
          [
            121.548544,
            25.032139
          ],
          [
            121.548536,
            25.031118
          ],
          [
            121.548535,
            25.031075
          ],
          [
            121.548535,
            25.031038
          ],
          [
            121.548534,
            25.030969
          ],
          [
            121.548533,
            25.03088
          ],
          [
            121.548526,
            25.030142
          ],
          [
            121.548526,
            25.030086
          ],
          [
            121.548526,
            25.030054
          ],
          [
            121.548525,
            25.029964
          ],
          [
            121.54851,
            25.028343
          ],
          [
            121.54851,
            25.028287
          ],
          [
            121.548509,
            25.028224
          ],
          [
            121.548508,
            25.028137
          ],
          [
            121.548438,
            25.028144
          ],
          [
            121.548378,
            25.02815
          ],
          [
            121.5481,
            25.028174
          ],
          [
            121.548042,
            25.028178
          ],
          [
            121.548042,
            25.028261
          ],
          [
            121.548041,
            25.028747
          ],
          [
            121.547998,
            25.028748
          ],
          [
            121.548041,
            25.028747
          ],
          [
            121.548038,
            25.028799
          ],
          [
            121.548006,
            25.029351
          ],
          [
            121.54802,
            25.029966
          ],
          [
            121.548076,
            25.029966
          ],
          [
            121.548455,
            25.029963
          ],
          [
            121.548484,
            25.029963
          ],
          [
            121.548525,
            25.029964
          ],
          [
            121.548484,
            25.029963
          ],
          [
            121.548455,
            25.029963
          ],
          [
            121.548076,
            25.029966
          ],
          [
            121.54802,
            25.029966
          ],
          [
            121.54802,
            25.030042
          ],
          [
            121.548028,
            25.030935
          ],
          [
            121.548028,
            25.030985
          ],
          [
            121.547982,
            25.030985
          ],
          [
            121.546966,
            25.030981
          ],
          [
            121.546062,
            25.031028
          ],
          [
            121.545129,
            25.031028
          ],
          [
            121.544586,
            25.031049
          ],
          [
            121.543952,
            25.031064
          ],
          [
            121.543723,
            25.03108
          ],
          [
            121.543628,
            25.031081
          ],
          [
            121.543496,
            25.031081
          ],
          [
            121.543417,
            25.031083
          ],
          [
            121.543376,
            25.031085
          ],
          [
            121.543076,
            25.031075
          ],
          [
            121.542716,
            25.031083
          ],
          [
            121.542367,
            25.031085
          ],
          [
            121.541858,
            25.031093
          ],
          [
            121.541834,
            25.031091
          ],
          [
            121.540554,
            25.031116
          ],
          [
            121.539488,
            25.031139
          ],
          [
            121.539433,
            25.031141
          ],
          [
            121.539384,
            25.031142
          ],
          [
            121.538057,
            25.031173
          ],
          [
            121.537998,
            25.031173
          ],
          [
            121.537996,
            25.031642
          ],
          [
            121.538002,
            25.032065
          ],
          [
            121.538003,
            25.032198
          ],
          [
            121.538004,
            25.03228
          ],
          [
            121.538005,
            25.032375
          ],
          [
            121.538007,
            25.032461
          ],
          [
            121.538012,
            25.032855
          ],
          [
            121.538017,
            25.03331
          ],
          [
            121.53802,
            25.03341
          ],
          [
            121.538202,
            25.033406
          ],
          [
            121.539362,
            25.033382
          ],
          [
            121.539475,
            25.033379
          ],
          [
            121.539591,
            25.033378
          ],
          [
            121.53997,
            25.033371
          ],
          [
            121.54024,
            25.033366
          ],
          [
            121.540455,
            25.033362
          ],
          [
            121.540779,
            25.033356
          ],
          [
            121.541768,
            25.033334
          ],
          [
            121.5419,
            25.033331
          ],
          [
            121.542022,
            25.033328
          ],
          [
            121.543357,
            25.033302
          ],
          [
            121.54339,
            25.033301
          ],
          [
            121.543535,
            25.033298
          ],
          [
            121.543532,
            25.033145
          ],
          [
            121.543525,
            25.032753
          ],
          [
            121.54352,
            25.032439
          ],
          [
            121.54351,
            25.031893
          ],
          [
            121.543496,
            25.031114
          ],
          [
            121.543496,
            25.031081
          ],
          [
            121.543495,
            25.031029
          ]
        ]
      },
      "properties": {
        "routeId": "taipei-1-c34f11-1-ebe684",
        "city": "taipei",
        "source_file": "taipei/taipei-1-c34f11-1-ebe684.geojson",
        "distance_km": 3.258,
        "duration_min": 5.9420166666666665,
        "valhalla_config": "valhalla.json"
      }
    }
  ]
}