{
  "type": "FeatureCollection",
  "features": [
    {
      "type": "Feature",
      "geometry": {
        "type": "LineString",
        "coordinates": [
          [
            121.549041,
            25.02544
          ],
          [
            121.549387,
            25.025423
          ],
          [
            121.550071,
            25.025393
          ],
          [
            121.550136,
            25.025389
          ],
          [
            121.550145,
            25.025344
          ],
          [
            121.550169,
            25.025161
          ],
          [
            121.550184,
            25.025035
          ],
          [
            121.550252,
            25.024693
          ],
          [
            121.55026,
            25.024618
          ],
          [
            121.550275,
            25.024549
          ],
          [
            121.550209,
            25.024552
          ],
          [
            121.549503,
            25.024588
          ],
          [
            121.549164,
            25.024605
          ],
          [
            121.5491,
            25.024609
          ],
          [
            121.549063,
            25.02461
          ],
          [
            121.548962,
            25.024618
          ],
          [
            121.548962,
            25.024689
          ],
          [
            121.54897,
            25.025443
          ],
          [
            121.548972,
            25.025694
          ],
          [
            121.548982,
            25.026697
          ],
          [
            121.548982,
            25.026753
          ],
          [
            121.548983,
            25.026808
          ],
          [
            121.548985,
            25.026863
          ],
          [
            121.548988,
            25.026926
          ],
          [
            121.548985,
            25.027017
          ],
          [
            121.548993,
            25.027939
          ],
          [
            121.548994,
            25.027992
          ],
          [
            121.548994,
            25.028022
          ],
          [
            121.548995,
            25.028099
          ],
          [
            121.548996,
            25.02821
          ],
          [
            121.549,
            25.028619
          ],
          [
            121.549004,
            25.029092
          ],
          [
            121.549008,
            25.029482
          ],
          [
            121.549011,
            25.029789
          ],
          [
            121.549011,
            25.029849
          ],
          [
            121.549012,
            25.029955
          ],
          [
            121.549016,
            25.030043
          ],
          [
            121.549017,
            25.030458
          ],
          [
            121.54902,
            25.0308
          ],
          [
            121.54902,
            25.030845
          ],
          [
            121.54902,
            25.030892
          ],
          [
            121.549022,
            25.030952
          ],
          [
            121.549022,
            25.031028
          ],
          [
            121.549026,
            25.031376
          ],
          [
            121.549033,
            25.032157
          ],
          [
            121.549109,
            25.032155
          ],
          [
            121.549543,
            25.032141
          ],
          [
            121.549646,
            25.032138
          ],
          [
            121.54953,
            25.032593
          ],
          [
            121.549114,
            25.032605
          ],
          [
            121.549038,
            25.032607
          ],
          [
            121.549041,
            25.03298
          ],
          [
            121.549042,
            25.033069
          ],
          [
            121.549043,
            25.03319
          ],
          [
            121.549255,
            25.033178
          ],
          [
            121.550146,
            25.03316
          ],
          [
            121.550674,
            25.033145
          ],
          [
            121.551476,
            25.033121
          ],
          [
            121.55161,
            25.033121
          ],
          [
            121.551659,
            25.033122
          ],
          [
            121.551864,
            25.033125
          ],
          [
            121.552042,
            25.033147
          ],
          [
            121.552326,
            25.03314
          ],
          [
            121.552435,
            25.033131
          ],
          [
            121.552431,
            25.033031
          ],
          [
            121.552419,
            25.032628
          ],
          [
            121.552413,
            25.03252
          ],
          [
            121.552399,
            25.032109
          ],
          [
            121.552374,
            25.031721
          ],
          [
            121.552388,
            25.03164
          ],
          [
            121.552381,
            25.031355
          ],
          [
            121.552383,
            25.030934
          ],
          [
            121.55232,
            25.030935
          ],
          [
            121.551631,
            25.030946
          ],
          [
            121.551544,
            25.030946
          ],
          [
            121.551469,
            25.030946
          ],
          [
            121.550762,
            25.030948
          ],
          [
            121.55014,
            25.030949
          ],
          [
            121.550037,
            25.030949
          ],
          [
            121.549791,
            25.03095
          ],
          [
            121.549179,
            25.030952
          ],
          [
            121.549094,
            25.030952
          ],
          [
            121.549022,
            25.030952
          ],
          [
            121.548783,
            25.030959
          ],
          [
            121.548781,
            25.030884
          ],
          [
            121.548781,
            25.030831
          ],
          [
            121.548777,
            25.030082
          ],
          [
            121.548777,
            25.030049
          ],
          [
            121.548774,
            25.029966
          ],
          [
            121.548772,
            25.029818
          ],
          [
            121.548754,
            25.028294
          ],
          [
            121.548753,
            25.028217
          ],
          [
            121.548752,
            25.02812
          ],
          [
            121.548751,
            25.028059
          ],
          [
            121.54875,
            25.027983
          ],
          [
            121.548737,
            25.026897
          ],
          [
            121.548736,
            25.026825
          ],
          [
            121.548736,
            25.026754
          ],
          [
            121.548721,
            25.025482
          ],
          [
            121.548712,
            25.024735
          ],
          [
            121.548712,
            25.024702
          ],
          [
            121.54871,
            25.024632
          ],
          [
            121.548708,
            25.024516
          ],
          [
            121.548707,
            25.024404
          ],
          [
            121.548707,
            25.024368
          ],
          [
            121.548688,
            25.022798
          ],
          [
            121.548687,
            25.022737
          ],
          [
            121.548687,
            25.022687
          ],
          [
            121.548687,
            25.021499
          ],
          [
            121.548689,
            25.021233
          ],
          [
            121.548695,
            25.021155
          ],
          [
            121.548703,
            25.021059
          ],
          [
            121.548569,
            25.020935
          ],
          [
            121.548451,
            25.020824
          ],
          [
            121.548306,
            25.020703
          ],
          [
            121.54814,
            25.020564
          ],
          [
            121.547734,
            25.020229
          ],
          [
            121.547199,
            25.019776
          ],
          [
            121.546812,
            25.019447
          ],
          [
            121.546793,
            25.019434
          ],
          [
            121.54674,
            25.019391
          ],
          [
            121.546384,
            25.019111
          ],
          [
            121.546305,
            25.01905
          ],
          [
            121.546285,
            25.019025
          ],
          [
            121.546104,
            25.018876
          ],
          [
            121.5457,
            25.018546
          ],
          [
            121.545382,
            25.018287
          ],
          [
            121.544266,
            25.017343
          ],
          [
            121.544252,
            25.017332
          ],
          [
            121.544217,
            25.017303
          ],
          [
            121.544183,
            25.017276
          ],
          [
            121.544164,
            25.01726
          ],
          [
            121.542545,
            25.015932
          ],
          [
            121.542479,
            25.015875
          ],
          [
            121.542417,
            25.015822
          ],
          [
            121.542242,
            25.01567
          ],
          [
            121.541489,
            25.015019
          ],
          [
            121.541453,
            25.014988
          ],
          [
            121.540546,
            25.014177
          ],
          [
            121.540391,
            25.014039
          ],
          [
            121.540324,
            25.013979
          ],
          [
            121.540268,
            25.013931
          ],
          [
            121.540097,
            25.013785
          ],
          [
            121.540005,
            25.013702
          ],
          [
            121.539479,
            25.01324
          ],
          [
            121.53943,
            25.0132
          ],
          [
            121.539275,
            25.013064
          ],
          [
            121.538521,
            25.012447
          ],
          [
            121.538385,
            25.012336
          ],
          [
            121.537888,
            25.011929
          ],
          [
            121.537603,
            25.011694
          ],
          [
            121.537342,
            25.01148
          ],
          [
            121.537161,
            25.011331
          ],
          [
            121.537083,
            25.011283
          ],
          [
            121.53705,
            25.011267
          ],
          [
            121.536986,
            25.011238
          ],
          [
            121.536772,
            25.011175
          ],
          [
            121.536688,
            25.011149
          ],
          [
            121.536542,
            25.011114
          ],
          [
            121.53637,
            25.011074
          ],
          [
            121.536242,
            25.011048
          ],
          [
            121.536198,
            25.011039
          ],
          [
            121.536157,
            25.011029
          ],
          [
            121.535947,
            25.010982
          ],
          [
            121.535758,
            25.010909
          ],
          [
            121.535492,
            25.010771
          ],
          [
            121.535253,
            25.01064
          ],
          [
            121.534982,
            25.010481
          ],
          [
            121.534542,
            25.010173
          ],
          [
            121.534091,
            25.009855
          ],
          [
            121.531976,
            25.008671
          ],
          [
            121.530768,
            25.007992
          ],
          [
            121.529581,
            25.007286
          ],
          [
            121.527393,
            25.006032
          ],
          [
            121.526449,
            25.005492
          ],
          [
            121.525074,
            25.004679
          ],
          [
            121.524237,
            25.004186
          ],
          [
            121.524311,
            25.004146
          ],
          [
            121.52512,
            25.004629
          ],
          [
            121.526502,
            25.005458
          ],
          [
            121.527445,
            25.005995
          ],
          [
            121.527895,
            25.006224
          ],
          [
            121.529671,
            25.00721
          ],
          [
            121.530199,
            25.007504
          ],
          [
            121.531468,
            25.008246
          ],
          [
            121.532023,
            25.008557
          ],
          [
            121.532471,
            25.008758
          ],
          [
            121.532859,
            25.008961
          ],
          [
            121.533082,
            25.009072
          ],
          [
            121.533578,
            25.009321
          ],
          [
            121.534682,
            25.009932
          ],
          [
            121.534981,
            25.010124
          ],
          [
            121.535281,
            25.010356
          ],
          [
            121.53552,
            25.010556
          ],
          [
            121.535713,
            25.010692
          ],
          [
            121.535917,
            25.010799
          ],
          [
            121.536185,
            25.010886
          ],
          [
            121.536455,
            25.01096
          ],
          [
            121.536715,
            25.01102
          ],
          [
            121.536997,
            25.011086
          ],
          [
            121.537147,
            25.011146
          ],
          [
            121.537447,
            25.011313
          ],
          [
            121.538267,
            25.011985
          ],
          [
            121.539887,
            25.013341
          ],
          [
            121.541547,
            25.014795
          ],
          [
            121.541872,
            25.015047
          ],
          [
            121.542987,
            25.015981
          ],
          [
            121.544419,
            25.017203
          ],
          [
            121.545133,
            25.017793
          ],
          [
            121.545951,
            25.018509
          ],
          [
            121.546935,
            25.019379
          ],
          [
            121.548108,
            25.020399
          ],
          [
            121.548481,
            25.020744
          ],
          [
            121.548668,
            25.020933
          ],
          [
            121.548709,
            25.020984
          ],
          [
            121.548708,
            25.021006
          ],
          [
            121.548703,
            25.021059
          ],
          [
            121.548695,
            25.021155
          ],
          [
            121.548689,
            25.021233
          ],
          [
            121.548687,
            25.021499
          ],
          [
            121.548687,
            25.022687
          ],
          [
            121.548687,
            25.022737
          ],
          [
            121.548688,
            25.022798
          ],
          [
            121.548707,
            25.024368
          ],
          [
            121.548707,
            25.024404
          ],
          [
            121.548708,
            25.024516
          ],
          [
            121.54871,
            25.024632
          ],
          [
            121.548712,
            25.024702
          ],
          [
            121.548712,
            25.024735
          ],
          [
            121.548721,
            25.025482
          ],
          [
            121.548736,
            25.026754
          ],
          [
            121.548736,
            25.026825
          ],
          [
            121.548737,
            25.026897
          ],
          [
            121.54875,
            25.027983
          ],
          [
            121.548751,
            25.028059
          ],
          [
            121.548752,
            25.02812
          ],
          [
            121.548753,
            25.028217
          ],
          [
            121.548754,
            25.028294
          ],
          [
            121.548772,
            25.029818
          ],
          [
            121.548774,
            25.029966
          ],
          [
            121.548777,
            25.030049
          ],
          [
            121.548777,
            25.030082
          ],
          [
            121.548781,
            25.030831
          ],
          [
            121.548781,
            25.030884
          ],
          [
            121.548783,
            25.030959
          ],
          [
            121.548783,
            25.031032
          ],
          [
            121.548783,
            25.031084
          ],
          [
            121.548786,
            25.032292
          ],
          [
            121.548789,
            25.033069
          ],
          [
            121.548789,
            25.033194
          ],
          [
            121.549043,
            25.03319
          ],
          [
            121.549255,
            25.033178
          ],
          [
            121.550146,
            25.03316
          ],
          [
            121.550674,
            25.033145
          ],
          [
            121.551476,
            25.033121
          ],
          [
            121.55161,
            25.033121
          ],
          [
            121.551864,
            25.033125
          ],
          [
            121.552042,
            25.033147
          ],
          [
            121.552326,
            25.03314
          ],
          [
            121.552435,
            25.033131
          ],
          [
            121.552514,
            25.033127
          ],
          [
            121.552632,
            25.033121
          ],
          [
            121.553356,
            25.033107
          ],
          [
            121.554119,
            25.033092
          ],
          [
            121.55429,
            25.033089
          ],
          [
            121.554443,
            25.033086
          ],
          [
            121.555474,
            25.033059
          ],
          [
            121.555799,
            25.033051
          ],
          [
            121.556606,
            25.033033
          ],
          [
            121.557323,
            25.033018
          ],
          [
            121.557429,
            25.033014
          ],
          [
            121.55743,
            25.032899
          ],
          [
            121.557405,
            25.032706
          ],
          [
            121.557392,
            25.032603
          ],
          [
            121.557387,
            25.032435
          ],
          [
            121.557381,
            25.032171
          ],
          [
            121.557381,
            25.032162
          ],
          [
            121.557381,
            25.032138
          ],
          [
            121.557379,
            25.032056
          ],
          [
            121.55737,
            25.031633
          ],
          [
            121.557347,
            25.030577
          ],
          [
            121.557345,
            25.03031
          ]
        ]
      },
      "properties": {
        "routeId": "taipei-3-3223c4-2-9e3cb1",
        "city": "taipei",
        "source_file": "taipei/taipei-3-3223c4-2-9e3cb1.geojson",
        "distance_km": 12.242,
        "duration_min": 16.7925,
        "valhalla_config": "valhalla.json"
      }
    }
  ]
}