{
  "type": "FeatureCollection",
  "features": [
    {
      "type": "Feature",
      "geometry": {
        "type": "LineString",
        "coordinates": [
          [
            121.594139,
            25.084699
          ],
          [
            121.594095,
            25.084712
          ],
          [
            121.593886,
            25.084751
          ],
          [
            121.593724,
            25.084782
          ],
          [
            121.593678,
            25.084689
          ],
          [
            121.593578,
            25.084615
          ],
          [
            121.59342,
            25.08448
          ],
          [
            121.59299,
            25.084135
          ],
          [
            121.592965,
            25.084109
          ],
          [
            121.592814,
            25.084277
          ],
          [
            121.59278,
            25.084442
          ],
          [
            121.59275,
            25.084574
          ],
          [
            121.592512,
            25.084378
          ],
          [
            121.59275,
            25.084574
          ],
          [
            121.59278,
            25.084442
          ],
          [
            121.592814,
            25.084277
          ],
          [
            121.592965,
            25.084109
          ],
          [
            121.59299,
            25.084135
          ],
          [
            121.59342,
            25.08448
          ],
          [
            121.593451,
            25.084452
          ],
          [
            121.593673,
            25.084206
          ],
          [
            121.593807,
            25.08405
          ]
        ]
      },
      "properties": {
        "routeId": "taipei-2-e624bc-3-d9a235",
        "city": "taipei",
        "source_file": "taipei/taipei-2-e624bc-3-d9a235.geojson",
        "distance_km": 0.455,
        "duration_min": 1.2633666666666667,
        "valhalla_config": "valhalla.json"
      }
    }
  ]
}