{
  "type": "FeatureCollection",
  "features": [
    {
      "type": "Feature",
      "geometry": {
        "type": "LineString",
        "coordinates": [
          [
            121.557757,
            25.005979
          ],
          [
            121.557773,
            25.005963
          ],
          [
            121.557802,
            25.005932
          ],
          [
            121.557574,
            25.005756
          ],
          [
            121.557473,
            25.005663
          ],
          [
            121.557383,
            25.005562
          ],
          [
            121.557305,
            25.005461
          ],
          [
            121.557277,
            25.005414
          ],
          [
            121.557229,
            25.005436
          ],
          [
            121.557187,
            25.005455
          ],
          [
            121.557107,
            25.005492
          ],
          [
            121.557187,
            25.005455
          ],
          [
            121.557229,
            25.005436
          ],
          [
            121.557277,
            25.005414
          ],
          [
            121.557258,
            25.00538
          ],
          [
            121.556978,
            25.004851
          ],
          [
            121.556814,
            25.004555
          ],
          [
            121.556762,
            25.004464
          ],
          [
            121.556747,
            25.004438
          ],
          [
            121.556711,
            25.004376
          ],
          [
            121.55662,
            25.004217
          ],
          [
            121.556362,
            25.003762
          ],
          [
            121.556309,
            25.003673
          ],
          [
            121.556277,
            25.003699
          ],
          [
            121.556258,
            25.003724
          ],
          [
            121.556277,
            25.003699
          ],
          [
            121.556309,
            25.003673
          ],
          [
            121.556281,
            25.003621
          ],
          [
            121.555965,
            25.003121
          ],
          [
            121.555912,
            25.003035
          ],
          [
            121.555665,
            25.002643
          ],
          [
            121.555456,
            25.002319
          ],
          [
            121.555419,
            25.002262
          ],
          [
            121.555397,
            25.002226
          ],
          [
            121.555363,
            25.002173
          ],
          [
            121.555169,
            25.001865
          ],
          [
            121.554932,
            25.001498
          ],
          [
            121.554851,
            25.001373
          ],
          [
            121.554716,
            25.001153
          ],
          [
            121.554632,
            25.001023
          ],
          [
            121.554609,
            25.000988
          ],
          [
            121.554563,
            25.000888
          ],
          [
            121.554472,
            25.000914
          ],
          [
            121.553949,
            25.001096
          ],
          [
            121.553851,
            25.001129
          ],
          [
            121.553748,
            25.001164
          ],
          [
            121.553239,
            25.001349
          ],
          [
            121.553081,
            25.001406
          ],
          [
            121.552799,
            25.001508
          ],
          [
            121.552758,
            25.001523
          ],
          [
            121.552681,
            25.001551
          ],
          [
            121.552528,
            25.001606
          ],
          [
            121.552472,
            25.001626
          ],
          [
            121.551867,
            25.001841
          ],
          [
            121.551827,
            25.001855
          ],
          [
            121.551773,
            25.001868
          ],
          [
            121.551715,
            25.001872
          ],
          [
            121.551594,
            25.001872
          ],
          [
            121.551505,
            25.001869
          ],
          [
            121.551376,
            25.00184
          ],
          [
            121.551224,
            25.00178
          ],
          [
            121.551117,
            25.001712
          ],
          [
            121.551037,
            25.001657
          ],
          [
            121.550991,
            25.001625
          ],
          [
            121.550938,
            25.00159
          ],
          [
            121.550863,
            25.001535
          ],
          [
            121.550671,
            25.001388
          ],
          [
            121.550281,
            25.001097
          ],
          [
            121.550113,
            25.000991
          ],
          [
            121.550039,
            25.000952
          ],
          [
            121.549936,
            25.000896
          ],
          [
            121.549891,
            25.000872
          ],
          [
            121.54982,
            25.000844
          ],
          [
            121.549737,
            25.00082
          ],
          [
            121.54948,
            25.000751
          ],
          [
            121.549198,
            25.00068
          ],
          [
            121.549007,
            25.000624
          ],
          [
            121.548849,
            25.00056
          ],
          [
            121.548732,
            25.000503
          ],
          [
            121.548614,
            25.000434
          ],
          [
            121.548563,
            25.000403
          ],
          [
            121.54853,
            25.000374
          ],
          [
            121.548499,
            25.000349
          ],
          [
            121.548379,
            25.00025
          ],
          [
            121.548097,
            25.000015
          ],
          [
            121.547893,
            24.999846
          ],
          [
            121.547752,
            24.999725
          ],
          [
            121.547673,
            24.999664
          ],
          [
            121.547531,
            24.999553
          ],
          [
            121.547458,
            24.999498
          ],
          [
            121.547426,
            24.999474
          ],
          [
            121.54738,
            24.999444
          ],
          [
            121.547264,
            24.999385
          ],
          [
            121.547166,
            24.999351
          ],
          [
            121.547102,
            24.999319
          ],
          [
            121.546837,
            24.999203
          ],
          [
            121.54667,
            24.999154
          ],
          [
            121.546587,
            24.99913
          ],
          [
            121.546512,
            24.999107
          ],
          [
            121.545982,
            24.998956
          ],
          [
            121.545864,
            24.998922
          ],
          [
            121.545772,
            24.998896
          ],
          [
            121.545613,
            24.99885
          ],
          [
            121.545314,
            24.998771
          ],
          [
            121.545037,
            24.998699
          ],
          [
            121.544815,
            24.998644
          ],
          [
            121.544692,
            24.998623
          ],
          [
            121.54465,
            24.998622
          ],
          [
            121.544552,
            24.998636
          ],
          [
            121.544479,
            24.998631
          ],
          [
            121.544379,
            24.99863
          ],
          [
            121.54451,
            24.998411
          ],
          [
            121.5446,
            24.998049
          ],
          [
            121.544656,
            24.997817
          ],
          [
            121.544671,
            24.997696
          ],
          [
            121.544666,
            24.997341
          ],
          [
            121.544665,
            24.997084
          ],
          [
            121.544665,
            24.99706
          ],
          [
            121.544664,
            24.996991
          ],
          [
            121.544658,
            24.996792
          ],
          [
            121.544657,
            24.99673
          ],
          [
            121.544644,
            24.996238
          ],
          [
            121.544645,
            24.996185
          ],
          [
            121.544645,
            24.996114
          ],
          [
            121.544631,
            24.995251
          ],
          [
            121.54463,
            24.995209
          ],
          [
            121.544629,
            24.995125
          ],
          [
            121.544728,
            24.995131
          ],
          [
            121.544733,
            24.995215
          ],
          [
            121.544727,
            24.995465
          ],
          [
            121.544728,
            24.995621
          ],
          [
            121.544729,
            24.995723
          ],
          [
            121.544731,
            24.996005
          ],
          [
            121.544735,
            24.996148
          ],
          [
            121.544735,
            24.996186
          ],
          [
            121.544739,
            24.996381
          ],
          [
            121.54474,
            24.996695
          ],
          [
            121.544742,
            24.996728
          ],
          [
            121.544743,
            24.996794
          ],
          [
            121.544808,
            24.996796
          ],
          [
            121.544843,
            24.996798
          ],
          [
            121.544897,
            24.996801
          ],
          [
            121.544843,
            24.996798
          ],
          [
            121.544808,
            24.996796
          ],
          [
            121.544743,
            24.996794
          ],
          [
            121.54474,
            24.996991
          ],
          [
            121.544742,
            24.997059
          ],
          [
            121.544746,
            24.997697
          ],
          [
            121.544741,
            24.997742
          ],
          [
            121.544708,
            24.997911
          ],
          [
            121.544693,
            24.997979
          ],
          [
            121.544678,
            24.998063
          ],
          [
            121.54467,
            24.998111
          ],
          [
            121.544707,
            24.998295
          ],
          [
            121.54477,
            24.99842
          ],
          [
            121.544789,
            24.998445
          ],
          [
            121.544918,
            24.998594
          ],
          [
            121.545021,
            24.998616
          ],
          [
            121.545354,
            24.998701
          ],
          [
            121.54544,
            24.998723
          ],
          [
            121.545594,
            24.998764
          ],
          [
            121.545642,
            24.998777
          ],
          [
            121.545853,
            24.998835
          ],
          [
            121.546555,
            24.999027
          ],
          [
            121.546622,
            24.999046
          ],
          [
            121.546866,
            24.999115
          ],
          [
            121.547086,
            24.999208
          ],
          [
            121.547143,
            24.999232
          ],
          [
            121.547211,
            24.999266
          ],
          [
            121.547166,
            24.999351
          ],
          [
            121.547102,
            24.999319
          ],
          [
            121.546837,
            24.999203
          ],
          [
            121.54667,
            24.999154
          ],
          [
            121.546587,
            24.99913
          ],
          [
            121.546512,
            24.999107
          ],
          [
            121.545982,
            24.998956
          ],
          [
            121.545864,
            24.998922
          ],
          [
            121.545772,
            24.998896
          ],
          [
            121.545613,
            24.99885
          ],
          [
            121.545314,
            24.998771
          ],
          [
            121.5452,
            24.998741
          ],
          [
            121.545037,
            24.998699
          ],
          [
            121.544815,
            24.998644
          ],
          [
            121.544692,
            24.998623
          ],
          [
            121.54465,
            24.998622
          ],
          [
            121.544552,
            24.998636
          ],
          [
            121.544479,
            24.998631
          ],
          [
            121.544379,
            24.99863
          ],
          [
            121.544513,
            24.998569
          ],
          [
            121.54466,
            24.998534
          ],
          [
            121.544918,
            24.998594
          ],
          [
            121.545021,
            24.998616
          ],
          [
            121.545354,
            24.998701
          ],
          [
            121.54544,
            24.998723
          ],
          [
            121.545594,
            24.998764
          ],
          [
            121.545642,
            24.998777
          ],
          [
            121.545853,
            24.998835
          ],
          [
            121.546555,
            24.999027
          ],
          [
            121.546622,
            24.999046
          ],
          [
            121.546866,
            24.999115
          ],
          [
            121.547086,
            24.999208
          ],
          [
            121.547143,
            24.999232
          ],
          [
            121.547211,
            24.999266
          ],
          [
            121.547304,
            24.999314
          ],
          [
            121.547353,
            24.999251
          ],
          [
            121.547363,
            24.999222
          ],
          [
            121.547365,
            24.999216
          ],
          [
            121.547363,
            24.999222
          ],
          [
            121.547353,
            24.999251
          ],
          [
            121.547304,
            24.999314
          ],
          [
            121.547264,
            24.999385
          ],
          [
            121.547166,
            24.999351
          ],
          [
            121.547102,
            24.999319
          ],
          [
            121.546837,
            24.999203
          ],
          [
            121.546706,
            24.999165
          ]
        ]
      },
      "properties": {
        "routeId": "taipei-1-92cecd-2-9e3cb1",
        "city": "taipei",
        "source_file": "taipei/taipei-1-92cecd-2-9e3cb1.geojson",
        "distance_km": 3.652,
        "duration_min": 6.042483333333333,
        "valhalla_config": "valhalla.json"
      }
    }
  ]
}