{
  "type": "FeatureCollection",
  "features": [
    {
      "type": "Feature",
      "geometry": {
        "type": "LineString",
        "coordinates": [
          [
            121.53612,
            25.057981
          ],
          [
            121.536026,
            25.057981
          ],
          [
            121.536043,
            25.058057
          ],
          [
            121.536048,
            25.058111
          ],
          [
            121.536068,
            25.05832
          ],
          [
            121.534848,
            25.058338
          ],
          [
            121.534797,
            25.058339
          ],
          [
            121.53331,
            25.05837
          ],
          [
            121.533216,
            25.058368
          ],
          [
            121.533225,
            25.058855
          ],
          [
            121.533237,
            25.059594
          ],
          [
            121.533238,
            25.059661
          ],
          [
            121.533247,
            25.060138
          ],
          [
            121.533248,
            25.060197
          ],
          [
            121.533249,
            25.060271
          ],
          [
            121.53325,
            25.060345
          ],
          [
            121.533251,
            25.060413
          ],
          [
            121.533261,
            25.061061
          ],
          [
            121.533263,
            25.06125
          ]
        ]
      },
      "properties": {
        "routeId": "taipei-1-1f1b9b-1-ebe684",
        "city": "taipei",
        "source_file": "taipei/taipei-1-1f1b9b-1-ebe684.geojson",
        "distance_km": 0.655,
        "duration_min": 1.30265,
        "valhalla_config": "valhalla.json"
      }
    }
  ]
}