{
  "type": "FeatureCollection",
  "features": [
    {
      "type": "Feature",
      "geometry": {
        "type": "Point",
        "coordinates": [
          121.50096,
          25.03445
        ]
      },
      "properties": {
        "routeId": "taipei-2-e44e55-3-d9a235",
        "city": "taipei",
        "route_name": "昆明-2",
        "car_seq": "第3車",
        "arrival_time": "2040",
        "leave_time": "2044",
        "district": "萬華區",
        "team": "昆明分隊",
        "car_no": "KEA-1696",
        "route_code": "108-G19",
        "stop_name": "臺北市萬華區康定路360號前"
      }
    },
    {
      "type": "Feature",
      "geometry": {
        "type": "Point",
        "coordinates": [
          121.500204,
          25.0341272
        ]
      },
      "properties": {
        "routeId": "taipei-2-e44e55-3-d9a235",
        "city": "taipei",
        "route_name": "昆明-2",
        "car_seq": "第3車",
        "arrival_time": "2045",
        "leave_time": "2047",
        "district": "萬華區",
        "team": "昆明分隊",
        "car_no": "KEA-1696",
        "route_code": "108-G19",
        "stop_name": "臺北市萬華區大理街42巷7號旁"
      }
    },
    {
      "type": "Feature",
      "geometry": {
        "type": "Point",
        "coordinates": [
          121.49869,
          25.03377
        ]
      },
      "properties": {
        "routeId": "taipei-2-e44e55-3-d9a235",
        "city": "taipei",
        "route_name": "昆明-2",
        "car_seq": "第3車",
        "arrival_time": "2048",
        "leave_time": "2052",
        "district": "萬華區",
        "team": "昆明分隊",
        "car_no": "KEA-1696",
        "route_code": "108-G19",
        "stop_name": "臺北市萬華區西園路1段282巷25號前"
      }
    },
    {
      "type": "Feature",
      "geometry": {
        "type": "Point",
        "coordinates": [
          121.49899,
          25.03424
        ]
      },
      "properties": {
        "routeId": "taipei-2-e44e55-3-d9a235",
        "city": "taipei",
        "route_name": "昆明-2",
        "car_seq": "第3車",
        "arrival_time": "2053",
        "leave_time": "2056",
        "district": "萬華區",
        "team": "昆明分隊",
        "car_no": "KEA-1696",
        "route_code": "108-G19",
        "stop_name": "臺北市萬華區大理街58號前"
      }
    },
    {
      "type": "Feature",
      "geometry": {
        "type": "Point",
        "coordinates": [
          121.50035,
          25.03833
        ]
      },
      "properties": {
        "routeId": "taipei-2-e44e55-3-d9a235",
        "city": "taipei",
        "route_name": "昆明-2",
        "car_seq": "第3車",
        "arrival_time": "2059",
        "leave_time": "2104",
        "district": "萬華區",
        "team": "昆明分隊",
        "car_no": "KEA-1696",
        "route_code": "108-G19",
        "stop_name": "臺北市萬華區桂林路90號(西昌街口)"
      }
    },
    {
      "type": "Feature",
      "geometry": {
        "type": "Point",
        "coordinates": [
          121.50154,
          25.03759
        ]
      },
      "properties": {
        "routeId": "taipei-2-e44e55-3-d9a235",
        "city": "taipei",
        "route_name": "昆明-2",
        "car_seq": "第3車",
        "arrival_time": "2105",
        "leave_time": "2108",
        "district": "萬華區",
        "team": "昆明分隊",
        "car_no": "KEA-1696",
        "route_code": "108-G19",
        "stop_name": "臺北市萬華區康定路248號"
      }
    },
    {
      "type": "Feature",
      "geometry": {
        "type": "Point",
        "coordinates": [
          121.50138,
          25.03694
        ]
      },
      "properties": {
        "routeId": "taipei-2-e44e55-3-d9a235",
        "city": "taipei",
        "route_name": "昆明-2",
        "car_seq": "第3車",
        "arrival_time": "2109",
        "leave_time": "2112",
        "district": "萬華區",
        "team": "昆明分隊",
        "car_no": "KEA-1696",
        "route_code": "108-G19",
        "stop_name": "臺北市萬華區康定路280號"
      }
    },
    {
      "type": "Feature",
      "geometry": {
        "type": "Point",
        "coordinates": [
          121.5011,
          25.03543
        ]
      },
      "properties": {
        "routeId": "taipei-2-e44e55-3-d9a235",
        "city": "taipei",
        "route_name": "昆明-2",
        "car_seq": "第3車",
        "arrival_time": "2113",
        "leave_time": "2116",
        "district": "萬華區",
        "team": "昆明分隊",
        "car_no": "KEA-1696",
        "route_code": "108-G19",
        "stop_name": "臺北市萬華區康定路338號前"
      }
    },
    {
      "type": "Feature",
      "geometry": {
        "type": "Point",
        "coordinates": [
          121.501,
          25.03531
        ]
      },
      "properties": {
        "routeId": "taipei-2-e44e55-3-d9a235",
        "city": "taipei",
        "route_name": "昆明-2",
        "car_seq": "第3車",
        "arrival_time": "2117",
        "leave_time": "2119",
        "district": "萬華區",
        "team": "昆明分隊",
        "car_no": "KEA-1696",
        "route_code": "108-G19",
        "stop_name": "臺北市萬華區和平西路3段89巷"
      }
    },
    {
      "type": "Feature",
      "geometry": {
        "type": "Point",
        "coordinates": [
          121.5005,
          25.03539
        ]
      },
      "properties": {
        "routeId": "taipei-2-e44e55-3-d9a235",
        "city": "taipei",
        "route_name": "昆明-2",
        "car_seq": "第3車",
        "arrival_time": "2120",
        "leave_time": "2125",
        "district": "萬華區",
        "team": "昆明分隊",
        "car_no": "KEA-1696",
        "route_code": "108-G19",
        "stop_name": "臺北市萬華區和平西路3段107號"
      }
    },
    {
      "type": "Feature",
      "geometry": {
        "type": "Point",
        "coordinates": [
          121.49852,
          25.03548
        ]
      },
      "properties": {
        "routeId": "taipei-2-e44e55-3-d9a235",
        "city": "taipei",
        "route_name": "昆明-2",
        "car_seq": "第3車",
        "arrival_time": "2126",
        "leave_time": "2129",
        "district": "萬華區",
        "team": "昆明分隊",
        "car_no": "KEA-1696",
        "route_code": "108-G19",
        "stop_name": "臺北市萬華區和平西路3段157號"
      }
    },
    {
      "type": "Feature",
      "geometry": {
        "type": "Point",
        "coordinates": [
          121.49779,
          25.03549
        ]
      },
      "properties": {
        "routeId": "taipei-2-e44e55-3-d9a235",
        "city": "taipei",
        "route_name": "昆明-2",
        "car_seq": "第3車",
        "arrival_time": "2130",
        "leave_time": "2133",
        "district": "萬華區",
        "team": "昆明分隊",
        "car_no": "KEA-1696",
        "route_code": "108-G19",
        "stop_name": "臺北市萬華區和平西路3段187號"
      }
    },
    {
      "type": "Feature",
      "geometry": {
        "type": "Point",
        "coordinates": [
          121.49692,
          25.03551
        ]
      },
      "properties": {
        "routeId": "taipei-2-e44e55-3-d9a235",
        "city": "taipei",
        "route_name": "昆明-2",
        "car_seq": "第3車",
        "arrival_time": "2134",
        "leave_time": "2136",
        "district": "萬華區",
        "team": "昆明分隊",
        "car_no": "KEA-1696",
        "route_code": "108-G19",
        "stop_name": "臺北市萬華區和平西路3段與211號前"
      }
    }
  ]
}