{
  "type": "FeatureCollection",
  "features": [
    {
      "type": "Feature",
      "geometry": {
        "type": "Point",
        "coordinates": [
          121.50719,
          25.04065
        ]
      },
      "properties": {
        "routeId": "taipei-1-50323c-3-d9a235",
        "city": "taipei",
        "route_name": "漢中-1",
        "car_seq": "第3車",
        "arrival_time": "2105",
        "leave_time": "2110",
        "district": "萬華區",
        "team": "漢中分隊",
        "car_no": "KEJ-0038",
        "route_code": "110-G01",
        "stop_name": "臺北市萬華區長沙街2段7號前"
      }
    },
    {
      "type": "Feature",
      "geometry": {
        "type": "Point",
        "coordinates": [
          121.50256,
          25.03834
        ]
      },
      "properties": {
        "routeId": "taipei-1-50323c-3-d9a235",
        "city": "taipei",
        "route_name": "漢中-1",
        "car_seq": "第3車",
        "arrival_time": "2122",
        "leave_time": "2126",
        "district": "萬華區",
        "team": "漢中分隊",
        "car_no": "KEJ-0038",
        "route_code": "110-G01",
        "stop_name": "臺北市萬華區桂林路65巷2之1號旁"
      }
    },
    {
      "type": "Feature",
      "geometry": {
        "type": "Point",
        "coordinates": [
          121.50204,
          25.03994
        ]
      },
      "properties": {
        "routeId": "taipei-1-50323c-3-d9a235",
        "city": "taipei",
        "route_name": "漢中-1",
        "car_seq": "第3車",
        "arrival_time": "2127",
        "leave_time": "2134",
        "district": "萬華區",
        "team": "漢中分隊",
        "car_no": "KEJ-0038",
        "route_code": "110-G01",
        "stop_name": "臺北市萬華區康定路89號前"
      }
    },
    {
      "type": "Feature",
      "geometry": {
        "type": "Point",
        "coordinates": [
          121.50257,
          25.04165
        ]
      },
      "properties": {
        "routeId": "taipei-1-50323c-3-d9a235",
        "city": "taipei",
        "route_name": "漢中-1",
        "car_seq": "第3車",
        "arrival_time": "2135",
        "leave_time": "2140",
        "district": "萬華區",
        "team": "漢中分隊",
        "car_no": "KEJ-0038",
        "route_code": "110-G01",
        "stop_name": "臺北市萬華區內江街142之1號前"
      }
    },
    {
      "type": "Feature",
      "geometry": {
        "type": "Point",
        "coordinates": [
          121.50343,
          25.04158
        ]
      },
      "properties": {
        "routeId": "taipei-1-50323c-3-d9a235",
        "city": "taipei",
        "route_name": "漢中-1",
        "car_seq": "第3車",
        "arrival_time": "2141",
        "leave_time": "2145",
        "district": "萬華區",
        "team": "漢中分隊",
        "car_no": "KEJ-0038",
        "route_code": "110-G01",
        "stop_name": "臺北市萬華區內江街110號前"
      }
    },
    {
      "type": "Feature",
      "geometry": {
        "type": "Point",
        "coordinates": [
          121.50419,
          25.04149
        ]
      },
      "properties": {
        "routeId": "taipei-1-50323c-3-d9a235",
        "city": "taipei",
        "route_name": "漢中-1",
        "car_seq": "第3車",
        "arrival_time": "2145",
        "leave_time": "2148",
        "district": "萬華區",
        "team": "漢中分隊",
        "car_no": "KEJ-0038",
        "route_code": "110-G01",
        "stop_name": "臺北市萬華區內江街74之1號前"
      }
    },
    {
      "type": "Feature",
      "geometry": {
        "type": "Point",
        "coordinates": [
          121.50461,
          25.04212
        ]
      },
      "properties": {
        "routeId": "taipei-1-50323c-3-d9a235",
        "city": "taipei",
        "route_name": "漢中-1",
        "car_seq": "第3車",
        "arrival_time": "2149",
        "leave_time": "2153",
        "district": "萬華區",
        "team": "漢中分隊",
        "car_no": "KEJ-0038",
        "route_code": "110-G01",
        "stop_name": "臺北市萬華區昆明街160號前"
      }
    },
    {
      "type": "Feature",
      "geometry": {
        "type": "Point",
        "coordinates": [
          121.50472,
          25.04272
        ]
      },
      "properties": {
        "routeId": "taipei-1-50323c-3-d9a235",
        "city": "taipei",
        "route_name": "漢中-1",
        "car_seq": "第3車",
        "arrival_time": "2153",
        "leave_time": "2155",
        "district": "萬華區",
        "team": "漢中分隊",
        "car_no": "KEJ-0038",
        "route_code": "110-G01",
        "stop_name": "臺北市萬華區昆明街134之2號前"
      }
    },
    {
      "type": "Feature",
      "geometry": {
        "type": "Point",
        "coordinates": [
          121.50421,
          25.04324
        ]
      },
      "properties": {
        "routeId": "taipei-1-50323c-3-d9a235",
        "city": "taipei",
        "route_name": "漢中-1",
        "car_seq": "第3車",
        "arrival_time": "2156",
        "leave_time": "2158",
        "district": "萬華區",
        "team": "漢中分隊",
        "car_no": "KEJ-0038",
        "route_code": "110-G01",
        "stop_name": "臺北市萬華區成都路105號前"
      }
    }
  ]
}