{
  "type": "FeatureCollection",
  "features": [
    {
      "type": "Feature",
      "geometry": {
        "type": "Point",
        "coordinates": [
          121.51446,
          25.13761
        ]
      },
      "properties": {
        "routeId": "taipei-3-46efc1-4-57ad9f",
        "city": "taipei",
        "route_name": "光明-3",
        "car_seq": "第4車",
        "arrival_time": "2040",
        "leave_time": "2042",
        "district": "北投區",
        "team": "光明分隊",
        "car_no": "KEJ-0961",
        "route_code": "112-G17",
        "stop_name": "臺北市北投區幽雅路市議會招待所(由回收車收運)"
      }
    },
    {
      "type": "Feature",
      "geometry": {
        "type": "Point",
        "coordinates": [
          121.51564,
          25.13755
        ]
      },
      "properties": {
        "routeId": "taipei-3-46efc1-4-57ad9f",
        "city": "taipei",
        "route_name": "光明-3",
        "car_seq": "第4車",
        "arrival_time": "2043",
        "leave_time": "2045",
        "district": "北投區",
        "team": "光明分隊",
        "car_no": "KEJ-0961",
        "route_code": "112-G17",
        "stop_name": "臺北市北投區幽雅路華南對面(由回收車收運)"
      }
    },
    {
      "type": "Feature",
      "geometry": {
        "type": "Point",
        "coordinates": [
          121.5089,
          25.1362
        ]
      },
      "properties": {
        "routeId": "taipei-3-46efc1-4-57ad9f",
        "city": "taipei",
        "route_name": "光明-3",
        "car_seq": "第4車",
        "arrival_time": "2100",
        "leave_time": "2101",
        "district": "北投區",
        "team": "光明分隊",
        "car_no": "KEJ-0961",
        "route_code": "112-G17",
        "stop_name": "臺北市北投區溫泉路32號前"
      }
    },
    {
      "type": "Feature",
      "geometry": {
        "type": "Point",
        "coordinates": [
          121.50531,
          25.13365
        ]
      },
      "properties": {
        "routeId": "taipei-3-46efc1-4-57ad9f",
        "city": "taipei",
        "route_name": "光明-3",
        "car_seq": "第4車",
        "arrival_time": "2102",
        "leave_time": "2104",
        "district": "北投區",
        "team": "光明分隊",
        "car_no": "KEJ-0961",
        "route_code": "112-G17",
        "stop_name": "臺北市北投區溫泉路58巷口"
      }
    },
    {
      "type": "Feature",
      "geometry": {
        "type": "Point",
        "coordinates": [
          121.50575,
          25.13479
        ]
      },
      "properties": {
        "routeId": "taipei-3-46efc1-4-57ad9f",
        "city": "taipei",
        "route_name": "光明-3",
        "car_seq": "第4車",
        "arrival_time": "2105",
        "leave_time": "2107",
        "district": "北投區",
        "team": "光明分隊",
        "car_no": "KEJ-0961",
        "route_code": "112-G17",
        "stop_name": "臺北市北投區溫泉路68巷口"
      }
    },
    {
      "type": "Feature",
      "geometry": {
        "type": "Point",
        "coordinates": [
          121.50489,
          25.13551
        ]
      },
      "properties": {
        "routeId": "taipei-3-46efc1-4-57ad9f",
        "city": "taipei",
        "route_name": "光明-3",
        "car_seq": "第4車",
        "arrival_time": "2108",
        "leave_time": "2111",
        "district": "北投區",
        "team": "光明分隊",
        "car_no": "KEJ-0961",
        "route_code": "112-G17",
        "stop_name": "臺北市北投區溫泉路71號前"
      }
    },
    {
      "type": "Feature",
      "geometry": {
        "type": "Point",
        "coordinates": [
          121.50879,
          25.13613
        ]
      },
      "properties": {
        "routeId": "taipei-3-46efc1-4-57ad9f",
        "city": "taipei",
        "route_name": "光明-3",
        "car_seq": "第4車",
        "arrival_time": "2112",
        "leave_time": "2113",
        "district": "北投區",
        "team": "光明分隊",
        "car_no": "KEJ-0961",
        "route_code": "112-G17",
        "stop_name": "臺北市北投區溫泉路96號前"
      }
    },
    {
      "type": "Feature",
      "geometry": {
        "type": "Point",
        "coordinates": [
          121.51184,
          25.137
        ]
      },
      "properties": {
        "routeId": "taipei-3-46efc1-4-57ad9f",
        "city": "taipei",
        "route_name": "光明-3",
        "car_seq": "第4車",
        "arrival_time": "2114",
        "leave_time": "2116",
        "district": "北投區",
        "team": "光明分隊",
        "car_no": "KEJ-0961",
        "route_code": "112-G17",
        "stop_name": "臺北市北投區溫泉路幽雅路口"
      }
    },
    {
      "type": "Feature",
      "geometry": {
        "type": "Point",
        "coordinates": [
          121.51296,
          25.14042
        ]
      },
      "properties": {
        "routeId": "taipei-3-46efc1-4-57ad9f",
        "city": "taipei",
        "route_name": "光明-3",
        "car_seq": "第4車",
        "arrival_time": "2117",
        "leave_time": "2119",
        "district": "北投區",
        "team": "光明分隊",
        "car_no": "KEJ-0961",
        "route_code": "112-G17",
        "stop_name": "臺北市北投區溫泉路147號前"
      }
    },
    {
      "type": "Feature",
      "geometry": {
        "type": "Point",
        "coordinates": [
          121.51122,
          25.13839
        ]
      },
      "properties": {
        "routeId": "taipei-3-46efc1-4-57ad9f",
        "city": "taipei",
        "route_name": "光明-3",
        "car_seq": "第4車",
        "arrival_time": "2121",
        "leave_time": "2123",
        "district": "北投區",
        "team": "光明分隊",
        "car_no": "KEJ-0961",
        "route_code": "112-G17",
        "stop_name": "臺北市北投區溫泉路中心街口"
      }
    },
    {
      "type": "Feature",
      "geometry": {
        "type": "Point",
        "coordinates": [
          121.50539,
          25.1423
        ]
      },
      "properties": {
        "routeId": "taipei-3-46efc1-4-57ad9f",
        "city": "taipei",
        "route_name": "光明-3",
        "car_seq": "第4車",
        "arrival_time": "2127",
        "leave_time": "2129",
        "district": "北投區",
        "team": "光明分隊",
        "car_no": "KEJ-0961",
        "route_code": "112-G17",
        "stop_name": "臺北市北投區長壽路翠嶺路口"
      }
    },
    {
      "type": "Feature",
      "geometry": {
        "type": "Point",
        "coordinates": [
          121.50458,
          25.14252
        ]
      },
      "properties": {
        "routeId": "taipei-3-46efc1-4-57ad9f",
        "city": "taipei",
        "route_name": "光明-3",
        "car_seq": "第4車",
        "arrival_time": "2131",
        "leave_time": "2133",
        "district": "北投區",
        "team": "光明分隊",
        "car_no": "KEJ-0961",
        "route_code": "112-G17",
        "stop_name": "臺北市北投區長壽路27號前"
      }
    },
    {
      "type": "Feature",
      "geometry": {
        "type": "Point",
        "coordinates": [
          121.50303,
          25.14451
        ]
      },
      "properties": {
        "routeId": "taipei-3-46efc1-4-57ad9f",
        "city": "taipei",
        "route_name": "光明-3",
        "car_seq": "第4車",
        "arrival_time": "2134",
        "leave_time": "2140",
        "district": "北投區",
        "team": "光明分隊",
        "car_no": "KEJ-0961",
        "route_code": "112-G17",
        "stop_name": "臺北市北投區復興三路47號前"
      }
    },
    {
      "type": "Feature",
      "geometry": {
        "type": "Point",
        "coordinates": [
          121.50114,
          25.1306
        ]
      },
      "properties": {
        "routeId": "taipei-3-46efc1-4-57ad9f",
        "city": "taipei",
        "route_name": "光明-3",
        "car_seq": "第4車",
        "arrival_time": "2155",
        "leave_time": "2158",
        "district": "北投區",
        "team": "光明分隊",
        "car_no": "KEJ-0961",
        "route_code": "112-G17",
        "stop_name": "臺北市北投區中央南路1段大興街口"
      }
    },
    {
      "type": "Feature",
      "geometry": {
        "type": "Point",
        "coordinates": [
          121.50113,
          25.12913
        ]
      },
      "properties": {
        "routeId": "taipei-3-46efc1-4-57ad9f",
        "city": "taipei",
        "route_name": "光明-3",
        "car_seq": "第4車",
        "arrival_time": "2159",
        "leave_time": "2202",
        "district": "北投區",
        "team": "光明分隊",
        "car_no": "KEJ-0961",
        "route_code": "112-G17",
        "stop_name": "臺北市北投區中央南路1段民權街口"
      }
    },
    {
      "type": "Feature",
      "geometry": {
        "type": "Point",
        "coordinates": [
          121.50125,
          25.12842
        ]
      },
      "properties": {
        "routeId": "taipei-3-46efc1-4-57ad9f",
        "city": "taipei",
        "route_name": "光明-3",
        "car_seq": "第4車",
        "arrival_time": "2203",
        "leave_time": "2206",
        "district": "北投區",
        "team": "光明分隊",
        "car_no": "KEJ-0961",
        "route_code": "112-G17",
        "stop_name": "臺北市北投區中央南路1段佑民醫院前"
      }
    },
    {
      "type": "Feature",
      "geometry": {
        "type": "Point",
        "coordinates": [
          121.50095,
          25.1273
        ]
      },
      "properties": {
        "routeId": "taipei-3-46efc1-4-57ad9f",
        "city": "taipei",
        "route_name": "光明-3",
        "car_seq": "第4車",
        "arrival_time": "2207",
        "leave_time": "2210",
        "district": "北投區",
        "team": "光明分隊",
        "car_no": "KEJ-0961",
        "route_code": "112-G17",
        "stop_name": "臺北市北投區崇仁路1段34巷口"
      }
    }
  ]
}