{
  "type": "FeatureCollection",
  "features": [
    {
      "type": "Feature",
      "geometry": {
        "type": "Point",
        "coordinates": [
          121.51475,
          25.06592
        ]
      },
      "properties": {
        "routeId": "taipei-1-c826e9-3-d9a235",
        "city": "taipei",
        "route_name": "大龍-1",
        "car_seq": "第3車",
        "arrival_time": "2126",
        "leave_time": "2133",
        "district": "大同區",
        "team": "大龍分隊",
        "car_no": "AAB-853",
        "route_code": "105-G06",
        "stop_name": "臺北市大同區昌吉街110巷口"
      }
    },
    {
      "type": "Feature",
      "geometry": {
        "type": "Point",
        "coordinates": [
          121.51568,
          25.0659
        ]
      },
      "properties": {
        "routeId": "taipei-1-c826e9-3-d9a235",
        "city": "taipei",
        "route_name": "大龍-1",
        "car_seq": "第3車",
        "arrival_time": "2134",
        "leave_time": "2136",
        "district": "大同區",
        "team": "大龍分隊",
        "car_no": "AAB-853",
        "route_code": "105-G06",
        "stop_name": "臺北市大同區昌吉街78號前"
      }
    },
    {
      "type": "Feature",
      "geometry": {
        "type": "Point",
        "coordinates": [
          121.51666,
          25.06589
        ]
      },
      "properties": {
        "routeId": "taipei-1-c826e9-3-d9a235",
        "city": "taipei",
        "route_name": "大龍-1",
        "car_seq": "第3車",
        "arrival_time": "2137",
        "leave_time": "2142",
        "district": "大同區",
        "team": "大龍分隊",
        "car_no": "AAB-853",
        "route_code": "105-G06",
        "stop_name": "臺北市大同區昌吉街50巷口"
      }
    },
    {
      "type": "Feature",
      "geometry": {
        "type": "Point",
        "coordinates": [
          121.51704,
          25.06303
        ]
      },
      "properties": {
        "routeId": "taipei-1-c826e9-3-d9a235",
        "city": "taipei",
        "route_name": "大龍-1",
        "car_seq": "第3車",
        "arrival_time": "2143",
        "leave_time": "2154",
        "district": "大同區",
        "team": "大龍分隊",
        "car_no": "AAB-853",
        "route_code": "105-G06",
        "stop_name": "臺北市大同區民權西路133巷口"
      }
    },
    {
      "type": "Feature",
      "geometry": {
        "type": "Point",
        "coordinates": [
          121.51565,
          25.06307
        ]
      },
      "properties": {
        "routeId": "taipei-1-c826e9-3-d9a235",
        "city": "taipei",
        "route_name": "大龍-1",
        "car_seq": "第3車",
        "arrival_time": "2155",
        "leave_time": "2156",
        "district": "大同區",
        "team": "大龍分隊",
        "car_no": "AAB-853",
        "route_code": "105-G06",
        "stop_name": "臺北市大同區民權西路187號前"
      }
    },
    {
      "type": "Feature",
      "geometry": {
        "type": "Point",
        "coordinates": [
          121.51375,
          25.06441
        ]
      },
      "properties": {
        "routeId": "taipei-1-c826e9-3-d9a235",
        "city": "taipei",
        "route_name": "大龍-1",
        "car_seq": "第3車",
        "arrival_time": "2157",
        "leave_time": "2201",
        "district": "大同區",
        "team": "大龍分隊",
        "car_no": "AAB-853",
        "route_code": "105-G06",
        "stop_name": "臺北市大同區重慶北路3段9巷口"
      }
    },
    {
      "type": "Feature",
      "geometry": {
        "type": "Point",
        "coordinates": [
          121.51378,
          25.06597
        ]
      },
      "properties": {
        "routeId": "taipei-1-c826e9-3-d9a235",
        "city": "taipei",
        "route_name": "大龍-1",
        "car_seq": "第3車",
        "arrival_time": "2202",
        "leave_time": "2204",
        "district": "大同區",
        "team": "大龍分隊",
        "car_no": "AAB-853",
        "route_code": "105-G06",
        "stop_name": "臺北市大同區重慶北路3段昌吉街口"
      }
    },
    {
      "type": "Feature",
      "geometry": {
        "type": "Point",
        "coordinates": [
          121.51383,
          25.0681
        ]
      },
      "properties": {
        "routeId": "taipei-1-c826e9-3-d9a235",
        "city": "taipei",
        "route_name": "大龍-1",
        "car_seq": "第3車",
        "arrival_time": "2205",
        "leave_time": "2208",
        "district": "大同區",
        "team": "大龍分隊",
        "car_no": "AAB-853",
        "route_code": "105-G06",
        "stop_name": "臺北市大同區重慶北路3段137巷口"
      }
    },
    {
      "type": "Feature",
      "geometry": {
        "type": "Point",
        "coordinates": [
          121.51391,
          25.07459
        ]
      },
      "properties": {
        "routeId": "taipei-1-c826e9-3-d9a235",
        "city": "taipei",
        "route_name": "大龍-1",
        "car_seq": "第3車",
        "arrival_time": "2209",
        "leave_time": "2214",
        "district": "大同區",
        "team": "大龍分隊",
        "car_no": "AAB-853",
        "route_code": "105-G06",
        "stop_name": "臺北市大同區重慶北路3段335巷口"
      }
    }
  ]
}