{
  "type": "FeatureCollection",
  "features": [
    {
      "type": "Feature",
      "geometry": {
        "type": "Point",
        "coordinates": [
          121.60093,
          25.05727
        ]
      },
      "properties": {
        "routeId": "taipei-1-400393-1-ebe684",
        "city": "taipei",
        "route_name": "南港-1",
        "car_seq": "第1車",
        "arrival_time": "1758",
        "leave_time": "1803",
        "district": "南港區",
        "team": "南港分隊",
        "car_no": "KEG-1132",
        "route_code": "109-G15",
        "stop_name": "臺北市南港區重陽路166巷口"
      }
    },
    {
      "type": "Feature",
      "geometry": {
        "type": "Point",
        "coordinates": [
          121.601,
          25.05525
        ]
      },
      "properties": {
        "routeId": "taipei-1-400393-1-ebe684",
        "city": "taipei",
        "route_name": "南港-1",
        "car_seq": "第1車",
        "arrival_time": "1812",
        "leave_time": "1815",
        "district": "南港區",
        "team": "南港分隊",
        "car_no": "KEG-1132",
        "route_code": "109-G15",
        "stop_name": "臺北市南港區東明街123巷24號對面"
      }
    },
    {
      "type": "Feature",
      "geometry": {
        "type": "Point",
        "coordinates": [
          121.60424,
          25.055
        ]
      },
      "properties": {
        "routeId": "taipei-1-400393-1-ebe684",
        "city": "taipei",
        "route_name": "南港-1",
        "car_seq": "第1車",
        "arrival_time": "1817",
        "leave_time": "1822",
        "district": "南港區",
        "team": "南港分隊",
        "car_no": "KEG-1132",
        "route_code": "109-G15",
        "stop_name": "臺北市南港區南港路2段86巷9弄口對面"
      }
    },
    {
      "type": "Feature",
      "geometry": {
        "type": "Point",
        "coordinates": [
          121.60329,
          25.05382
        ]
      },
      "properties": {
        "routeId": "taipei-1-400393-1-ebe684",
        "city": "taipei",
        "route_name": "南港-1",
        "car_seq": "第1車",
        "arrival_time": "1824",
        "leave_time": "1829",
        "district": "南港區",
        "team": "南港分隊",
        "car_no": "KEG-1132",
        "route_code": "109-G15",
        "stop_name": "臺北市南港區南港路2段86巷口"
      }
    },
    {
      "type": "Feature",
      "geometry": {
        "type": "Point",
        "coordinates": [
          121.60432,
          25.05593
        ]
      },
      "properties": {
        "routeId": "taipei-1-400393-1-ebe684",
        "city": "taipei",
        "route_name": "南港-1",
        "car_seq": "第1車",
        "arrival_time": "1833",
        "leave_time": "1838",
        "district": "南港區",
        "team": "南港分隊",
        "car_no": "KEG-1132",
        "route_code": "109-G15",
        "stop_name": "臺北市南港區東明街16號"
      }
    },
    {
      "type": "Feature",
      "geometry": {
        "type": "Point",
        "coordinates": [
          121.60579,
          25.05593
        ]
      },
      "properties": {
        "routeId": "taipei-1-400393-1-ebe684",
        "city": "taipei",
        "route_name": "南港-1",
        "car_seq": "第1車",
        "arrival_time": "1840",
        "leave_time": "1849",
        "district": "南港區",
        "team": "南港分隊",
        "car_no": "KEG-1132",
        "route_code": "109-G15",
        "stop_name": "臺北市南港區興華路84號"
      }
    },
    {
      "type": "Feature",
      "geometry": {
        "type": "Point",
        "coordinates": [
          121.60593,
          25.05521
        ]
      },
      "properties": {
        "routeId": "taipei-1-400393-1-ebe684",
        "city": "taipei",
        "route_name": "南港-1",
        "car_seq": "第1車",
        "arrival_time": "1851",
        "leave_time": "1900",
        "district": "南港區",
        "team": "南港分隊",
        "car_no": "KEG-1132",
        "route_code": "109-G15",
        "stop_name": "臺北市南港區興華路32號"
      }
    },
    {
      "type": "Feature",
      "geometry": {
        "type": "Point",
        "coordinates": [
          121.60304,
          25.05663
        ]
      },
      "properties": {
        "routeId": "taipei-1-400393-1-ebe684",
        "city": "taipei",
        "route_name": "南港-1",
        "car_seq": "第1車",
        "arrival_time": "1904",
        "leave_time": "1906",
        "district": "南港區",
        "team": "南港分隊",
        "car_no": "KEG-1132",
        "route_code": "109-G15",
        "stop_name": "臺北市南港區興南街60巷口"
      }
    },
    {
      "type": "Feature",
      "geometry": {
        "type": "Point",
        "coordinates": [
          121.60141,
          25.0565
        ]
      },
      "properties": {
        "routeId": "taipei-1-400393-1-ebe684",
        "city": "taipei",
        "route_name": "南港-1",
        "car_seq": "第1車",
        "arrival_time": "1908",
        "leave_time": "1911",
        "district": "南港區",
        "team": "南港分隊",
        "car_no": "KEG-1132",
        "route_code": "109-G15",
        "stop_name": "臺北市南港區重陽路166巷16弄口"
      }
    },
    {
      "type": "Feature",
      "geometry": {
        "type": "Point",
        "coordinates": [
          121.60235,
          25.05769
        ]
      },
      "properties": {
        "routeId": "taipei-1-400393-1-ebe684",
        "city": "taipei",
        "route_name": "南港-1",
        "car_seq": "第1車",
        "arrival_time": "1914",
        "leave_time": "1917",
        "district": "南港區",
        "team": "南港分隊",
        "car_no": "KEG-1132",
        "route_code": "109-G15",
        "stop_name": "臺北市南港區重陽路235巷口"
      }
    },
    {
      "type": "Feature",
      "geometry": {
        "type": "Point",
        "coordinates": [
          121.60886,
          25.05875
        ]
      },
      "properties": {
        "routeId": "taipei-1-400393-1-ebe684",
        "city": "taipei",
        "route_name": "南港-1",
        "car_seq": "第1車",
        "arrival_time": "1920",
        "leave_time": "1925",
        "district": "南港區",
        "team": "南港分隊",
        "car_no": "KEG-1132",
        "route_code": "109-G15",
        "stop_name": "臺北市南港區重陽路421號"
      }
    },
    {
      "type": "Feature",
      "geometry": {
        "type": "Point",
        "coordinates": [
          121.60776,
          25.05841
        ]
      },
      "properties": {
        "routeId": "taipei-1-400393-1-ebe684",
        "city": "taipei",
        "route_name": "南港-1",
        "car_seq": "第1車",
        "arrival_time": "1927",
        "leave_time": "1930",
        "district": "南港區",
        "team": "南港分隊",
        "car_no": "KEG-1132",
        "route_code": "109-G15",
        "stop_name": "臺北市南港區重陽路383巷2號"
      }
    },
    {
      "type": "Feature",
      "geometry": {
        "type": "Point",
        "coordinates": [
          121.60627,
          25.05809
        ]
      },
      "properties": {
        "routeId": "taipei-1-400393-1-ebe684",
        "city": "taipei",
        "route_name": "南港-1",
        "car_seq": "第1車",
        "arrival_time": "1932",
        "leave_time": "1937",
        "district": "南港區",
        "team": "南港分隊",
        "car_no": "KEG-1132",
        "route_code": "109-G15",
        "stop_name": "臺北市南港區重陽路335號"
      }
    }
  ]
}