{
  "type": "FeatureCollection",
  "features": [
    {
      "type": "Feature",
      "geometry": {
        "type": "Point",
        "coordinates": [
          121.53109,
          25.01442
        ]
      },
      "properties": {
        "routeId": "taipei-2-a34daf-2-9e3cb1",
        "city": "taipei",
        "route_name": "公館-2",
        "car_seq": "第2車",
        "arrival_time": "1850",
        "leave_time": "1852",
        "district": "中正區",
        "team": "公館分隊",
        "car_no": "KEA-0320",
        "route_code": "106-G24",
        "stop_name": "臺北市中正區思源街16號"
      }
    },
    {
      "type": "Feature",
      "geometry": {
        "type": "Point",
        "coordinates": [
          121.52834,
          25.01212
        ]
      },
      "properties": {
        "routeId": "taipei-2-a34daf-2-9e3cb1",
        "city": "taipei",
        "route_name": "公館-2",
        "car_seq": "第2車",
        "arrival_time": "1853",
        "leave_time": "1855",
        "district": "中正區",
        "team": "公館分隊",
        "car_no": "KEA-0320",
        "route_code": "106-G24",
        "stop_name": "臺北市中正區永春街308號"
      }
    },
    {
      "type": "Feature",
      "geometry": {
        "type": "Point",
        "coordinates": [
          121.52727,
          25.01362
        ]
      },
      "properties": {
        "routeId": "taipei-2-a34daf-2-9e3cb1",
        "city": "taipei",
        "route_name": "公館-2",
        "car_seq": "第2車",
        "arrival_time": "1856",
        "leave_time": "1857",
        "district": "中正區",
        "team": "公館分隊",
        "car_no": "KEA-0320",
        "route_code": "106-G24",
        "stop_name": "臺北市中正區水源路3之3號前"
      }
    },
    {
      "type": "Feature",
      "geometry": {
        "type": "Point",
        "coordinates": [
          121.5268,
          25.01433
        ]
      },
      "properties": {
        "routeId": "taipei-2-a34daf-2-9e3cb1",
        "city": "taipei",
        "route_name": "公館-2",
        "car_seq": "第2車",
        "arrival_time": "1858",
        "leave_time": "1900",
        "district": "中正區",
        "team": "公館分隊",
        "car_no": "KEA-0320",
        "route_code": "106-G24",
        "stop_name": "臺北市中正區水源路5之4號前(永春街240巷底)"
      }
    },
    {
      "type": "Feature",
      "geometry": {
        "type": "Point",
        "coordinates": [
          121.52649,
          25.015
        ]
      },
      "properties": {
        "routeId": "taipei-2-a34daf-2-9e3cb1",
        "city": "taipei",
        "route_name": "公館-2",
        "car_seq": "第2車",
        "arrival_time": "1901",
        "leave_time": "1904",
        "district": "中正區",
        "team": "公館分隊",
        "car_no": "KEA-0320",
        "route_code": "106-G24",
        "stop_name": "臺北市中正區水源路9之3號前"
      }
    },
    {
      "type": "Feature",
      "geometry": {
        "type": "Point",
        "coordinates": [
          121.5252,
          25.01708
        ]
      },
      "properties": {
        "routeId": "taipei-2-a34daf-2-9e3cb1",
        "city": "taipei",
        "route_name": "公館-2",
        "car_seq": "第2車",
        "arrival_time": "1905",
        "leave_time": "1909",
        "district": "中正區",
        "team": "公館分隊",
        "car_no": "KEA-0320",
        "route_code": "106-G24",
        "stop_name": "臺北市中正區水源路23號前"
      }
    },
    {
      "type": "Feature",
      "geometry": {
        "type": "Point",
        "coordinates": [
          121.52469,
          25.01753
        ]
      },
      "properties": {
        "routeId": "taipei-2-a34daf-2-9e3cb1",
        "city": "taipei",
        "route_name": "公館-2",
        "car_seq": "第2車",
        "arrival_time": "1910",
        "leave_time": "1915",
        "district": "中正區",
        "team": "公館分隊",
        "car_no": "KEA-0320",
        "route_code": "106-G24",
        "stop_name": "臺北市中正區水源路27巷2號"
      }
    },
    {
      "type": "Feature",
      "geometry": {
        "type": "Point",
        "coordinates": [
          121.52443,
          25.01792
        ]
      },
      "properties": {
        "routeId": "taipei-2-a34daf-2-9e3cb1",
        "city": "taipei",
        "route_name": "公館-2",
        "car_seq": "第2車",
        "arrival_time": "1916",
        "leave_time": "1920",
        "district": "中正區",
        "team": "公館分隊",
        "car_no": "KEA-0320",
        "route_code": "106-G24",
        "stop_name": "臺北市中正區水源路31巷1號"
      }
    },
    {
      "type": "Feature",
      "geometry": {
        "type": "Point",
        "coordinates": [
          121.52407,
          25.01868
        ]
      },
      "properties": {
        "routeId": "taipei-2-a34daf-2-9e3cb1",
        "city": "taipei",
        "route_name": "公館-2",
        "car_seq": "第2車",
        "arrival_time": "1921",
        "leave_time": "1925",
        "district": "中正區",
        "team": "公館分隊",
        "car_no": "KEA-0320",
        "route_code": "106-G24",
        "stop_name": "臺北市中正區水源路37 巷1弄35號"
      }
    },
    {
      "type": "Feature",
      "geometry": {
        "type": "Point",
        "coordinates": [
          121.52384,
          25.01868
        ]
      },
      "properties": {
        "routeId": "taipei-2-a34daf-2-9e3cb1",
        "city": "taipei",
        "route_name": "公館-2",
        "car_seq": "第2車",
        "arrival_time": "1926",
        "leave_time": "1930",
        "district": "中正區",
        "team": "公館分隊",
        "car_no": "KEA-0320",
        "route_code": "106-G24",
        "stop_name": "臺北市中正區水源路39之4號"
      }
    }
  ]
}