{
  "type": "FeatureCollection",
  "features": [
    {
      "type": "Feature",
      "geometry": {
        "type": "Point",
        "coordinates": [
          121.48561,
          25.13808
        ]
      },
      "properties": {
        "routeId": "taipei-2-ee489b-3-d9a235",
        "city": "taipei",
        "route_name": "關渡-2",
        "car_seq": "第3車",
        "arrival_time": "1945",
        "leave_time": "1948",
        "district": "北投區",
        "team": "關渡分隊",
        "car_no": "KEL-6571",
        "route_code": "111-G16",
        "stop_name": "臺北市北投區中央北路3段41號前"
      }
    },
    {
      "type": "Feature",
      "geometry": {
        "type": "Point",
        "coordinates": [
          121.48658,
          25.13816
        ]
      },
      "properties": {
        "routeId": "taipei-2-ee489b-3-d9a235",
        "city": "taipei",
        "route_name": "關渡-2",
        "car_seq": "第3車",
        "arrival_time": "1949",
        "leave_time": "1951",
        "district": "北投區",
        "team": "關渡分隊",
        "car_no": "KEL-6571",
        "route_code": "111-G16",
        "stop_name": "臺北市北投區中央北路3段3號"
      }
    },
    {
      "type": "Feature",
      "geometry": {
        "type": "Point",
        "coordinates": [
          121.48619,
          25.13849
        ]
      },
      "properties": {
        "routeId": "taipei-2-ee489b-3-d9a235",
        "city": "taipei",
        "route_name": "關渡-2",
        "car_seq": "第3車",
        "arrival_time": "1952",
        "leave_time": "1954",
        "district": "北投區",
        "team": "關渡分隊",
        "car_no": "KEL-6571",
        "route_code": "111-G16",
        "stop_name": "臺北市北投區中央北路3段16巷口"
      }
    },
    {
      "type": "Feature",
      "geometry": {
        "type": "Point",
        "coordinates": [
          121.48555,
          25.13902
        ]
      },
      "properties": {
        "routeId": "taipei-2-ee489b-3-d9a235",
        "city": "taipei",
        "route_name": "關渡-2",
        "car_seq": "第3車",
        "arrival_time": "1955",
        "leave_time": "1956",
        "district": "北投區",
        "team": "關渡分隊",
        "car_no": "KEL-6571",
        "route_code": "111-G16",
        "stop_name": "臺北市北投區中央北路3段40巷20弄口"
      }
    },
    {
      "type": "Feature",
      "geometry": {
        "type": "Point",
        "coordinates": [
          121.48456,
          25.13968
        ]
      },
      "properties": {
        "routeId": "taipei-2-ee489b-3-d9a235",
        "city": "taipei",
        "route_name": "關渡-2",
        "car_seq": "第3車",
        "arrival_time": "1957",
        "leave_time": "2004",
        "district": "北投區",
        "team": "關渡分隊",
        "car_no": "KEL-6571",
        "route_code": "111-G16",
        "stop_name": "臺北市北投區中央北路3段40巷頂（桃源國小門口）"
      }
    },
    {
      "type": "Feature",
      "geometry": {
        "type": "Point",
        "coordinates": [
          121.48592,
          25.14054
        ]
      },
      "properties": {
        "routeId": "taipei-2-ee489b-3-d9a235",
        "city": "taipei",
        "route_name": "關渡-2",
        "car_seq": "第3車",
        "arrival_time": "2005",
        "leave_time": "2008",
        "district": "北投區",
        "team": "關渡分隊",
        "car_no": "KEL-6571",
        "route_code": "111-G16",
        "stop_name": "臺北市北投區崗山路11巷口"
      }
    },
    {
      "type": "Feature",
      "geometry": {
        "type": "Point",
        "coordinates": [
          121.48587,
          25.14034
        ]
      },
      "properties": {
        "routeId": "taipei-2-ee489b-3-d9a235",
        "city": "taipei",
        "route_name": "關渡-2",
        "car_seq": "第3車",
        "arrival_time": "2009",
        "leave_time": "2010",
        "district": "北投區",
        "team": "關渡分隊",
        "car_no": "KEL-6571",
        "route_code": "111-G16",
        "stop_name": "臺北市北投區崗山路9巷口"
      }
    },
    {
      "type": "Feature",
      "geometry": {
        "type": "Point",
        "coordinates": [
          121.48629,
          25.14006
        ]
      },
      "properties": {
        "routeId": "taipei-2-ee489b-3-d9a235",
        "city": "taipei",
        "route_name": "關渡-2",
        "car_seq": "第3車",
        "arrival_time": "2011",
        "leave_time": "2012",
        "district": "北投區",
        "team": "關渡分隊",
        "car_no": "KEL-6571",
        "route_code": "111-G16",
        "stop_name": "臺北市北投區崗山路5巷口"
      }
    },
    {
      "type": "Feature",
      "geometry": {
        "type": "Point",
        "coordinates": [
          121.48692,
          25.13978
        ]
      },
      "properties": {
        "routeId": "taipei-2-ee489b-3-d9a235",
        "city": "taipei",
        "route_name": "關渡-2",
        "car_seq": "第3車",
        "arrival_time": "2013",
        "leave_time": "2015",
        "district": "北投區",
        "team": "關渡分隊",
        "car_no": "KEL-6571",
        "route_code": "111-G16",
        "stop_name": "臺北市北投區新興路140號"
      }
    },
    {
      "type": "Feature",
      "geometry": {
        "type": "Point",
        "coordinates": [
          121.486,
          25.13905
        ]
      },
      "properties": {
        "routeId": "taipei-2-ee489b-3-d9a235",
        "city": "taipei",
        "route_name": "關渡-2",
        "car_seq": "第3車",
        "arrival_time": "2016",
        "leave_time": "2018",
        "district": "北投區",
        "team": "關渡分隊",
        "car_no": "KEL-6571",
        "route_code": "111-G16",
        "stop_name": "臺北市北投區新興路158巷口"
      }
    }
  ]
}