{
  "type": "FeatureCollection",
  "features": [
    {
      "type": "Feature",
      "geometry": {
        "type": "Point",
        "coordinates": [
          121.575098,
          25.056082
        ]
      },
      "properties": {
        "routeId": "taipei-4-a1170e-1-ebe684",
        "city": "taipei",
        "route_name": "文德-4",
        "car_seq": "第1車",
        "arrival_time": "1719",
        "leave_time": "1724",
        "district": "內湖區",
        "team": "文德分隊",
        "car_no": "KEL-6565",
        "route_code": "111-G15",
        "stop_name": "臺北市內湖區行善路15號"
      }
    },
    {
      "type": "Feature",
      "geometry": {
        "type": "Point",
        "coordinates": [
          121.57852,
          25.05405
        ]
      },
      "properties": {
        "routeId": "taipei-4-a1170e-1-ebe684",
        "city": "taipei",
        "route_name": "文德-4",
        "car_seq": "第1車",
        "arrival_time": "1800",
        "leave_time": "1810",
        "district": "內湖區",
        "team": "文德分隊",
        "car_no": "KEL-6565",
        "route_code": "111-G15",
        "stop_name": "臺北市內湖區新明路460巷18弄14號"
      }
    },
    {
      "type": "Feature",
      "geometry": {
        "type": "Point",
        "coordinates": [
          121.58513,
          25.05599
        ]
      },
      "properties": {
        "routeId": "taipei-4-a1170e-1-ebe684",
        "city": "taipei",
        "route_name": "文德-4",
        "car_seq": "第1車",
        "arrival_time": "1813",
        "leave_time": "1818",
        "district": "內湖區",
        "team": "文德分隊",
        "car_no": "KEL-6565",
        "route_code": "111-G15",
        "stop_name": "臺北市內湖區潭美街217號"
      }
    },
    {
      "type": "Feature",
      "geometry": {
        "type": "Point",
        "coordinates": [
          121.60086,
          25.06087
        ]
      },
      "properties": {
        "routeId": "taipei-4-a1170e-1-ebe684",
        "city": "taipei",
        "route_name": "文德-4",
        "car_seq": "第1車",
        "arrival_time": "1820",
        "leave_time": "1822",
        "district": "內湖區",
        "team": "文德分隊",
        "car_no": "KEL-6565",
        "route_code": "111-G15",
        "stop_name": "臺北市內湖區潭美街359號"
      }
    }
  ]
}