{
  "type": "FeatureCollection",
  "features": [
    {
      "type": "Feature",
      "geometry": {
        "type": "Point",
        "coordinates": [
          121.49916,
          25.14161
        ]
      },
      "properties": {
        "routeId": "taipei-1-31ffa2-4-57ad9f",
        "city": "taipei",
        "route_name": "光明-1",
        "car_seq": "第4車",
        "arrival_time": "2100",
        "leave_time": "2104",
        "district": "北投區",
        "team": "光明分隊",
        "car_no": "AAB-858",
        "route_code": "105-G10",
        "stop_name": "臺北市北投區中和街380號前"
      }
    },
    {
      "type": "Feature",
      "geometry": {
        "type": "Point",
        "coordinates": [
          121.4983,
          25.1432
        ]
      },
      "properties": {
        "routeId": "taipei-1-31ffa2-4-57ad9f",
        "city": "taipei",
        "route_name": "光明-1",
        "car_seq": "第4車",
        "arrival_time": "2105",
        "leave_time": "2109",
        "district": "北投區",
        "team": "光明分隊",
        "car_no": "AAB-858",
        "route_code": "105-G10",
        "stop_name": "臺北市北投區中和街390巷口"
      }
    },
    {
      "type": "Feature",
      "geometry": {
        "type": "Point",
        "coordinates": [
          121.49758,
          25.14386
        ]
      },
      "properties": {
        "routeId": "taipei-1-31ffa2-4-57ad9f",
        "city": "taipei",
        "route_name": "光明-1",
        "car_seq": "第4車",
        "arrival_time": "2110",
        "leave_time": "2113",
        "district": "北投區",
        "team": "光明分隊",
        "car_no": "AAB-858",
        "route_code": "105-G10",
        "stop_name": "臺北市北投區中和街441巷1弄1號"
      }
    },
    {
      "type": "Feature",
      "geometry": {
        "type": "Point",
        "coordinates": [
          121.4974,
          25.14361
        ]
      },
      "properties": {
        "routeId": "taipei-1-31ffa2-4-57ad9f",
        "city": "taipei",
        "route_name": "光明-1",
        "car_seq": "第4車",
        "arrival_time": "2114",
        "leave_time": "2116",
        "district": "北投區",
        "team": "光明分隊",
        "car_no": "AAB-858",
        "route_code": "105-G10",
        "stop_name": "臺北市北投區中和街441巷3弄口"
      }
    },
    {
      "type": "Feature",
      "geometry": {
        "type": "Point",
        "coordinates": [
          121.4974,
          25.14361
        ]
      },
      "properties": {
        "routeId": "taipei-1-31ffa2-4-57ad9f",
        "city": "taipei",
        "route_name": "光明-1",
        "car_seq": "第4車",
        "arrival_time": "2117",
        "leave_time": "2118",
        "district": "北投區",
        "team": "光明分隊",
        "car_no": "AAB-858",
        "route_code": "105-G10",
        "stop_name": "臺北市北投區中和街441巷7弄口"
      }
    },
    {
      "type": "Feature",
      "geometry": {
        "type": "Point",
        "coordinates": [
          121.5166,
          25.138
        ]
      },
      "properties": {
        "routeId": "taipei-1-31ffa2-4-57ad9f",
        "city": "taipei",
        "route_name": "光明-1",
        "car_seq": "第4車",
        "arrival_time": "2119",
        "leave_time": "2120",
        "district": "北投區",
        "team": "光明分隊",
        "car_no": "AAB-858",
        "route_code": "105-G10",
        "stop_name": "臺北市北投區杏林二路口"
      }
    },
    {
      "type": "Feature",
      "geometry": {
        "type": "Point",
        "coordinates": [
          121.49609,
          25.14287
        ]
      },
      "properties": {
        "routeId": "taipei-1-31ffa2-4-57ad9f",
        "city": "taipei",
        "route_name": "光明-1",
        "car_seq": "第4車",
        "arrival_time": "2121",
        "leave_time": "2123",
        "district": "北投區",
        "team": "光明分隊",
        "car_no": "AAB-858",
        "route_code": "105-G10",
        "stop_name": "臺北市北投區杏林二路74巷10號前"
      }
    },
    {
      "type": "Feature",
      "geometry": {
        "type": "Point",
        "coordinates": [
          121.49635,
          25.14367
        ]
      },
      "properties": {
        "routeId": "taipei-1-31ffa2-4-57ad9f",
        "city": "taipei",
        "route_name": "光明-1",
        "car_seq": "第4車",
        "arrival_time": "2124",
        "leave_time": "2125",
        "district": "北投區",
        "team": "光明分隊",
        "car_no": "AAB-858",
        "route_code": "105-G10",
        "stop_name": "臺北市北投區中和街455巷7弄口"
      }
    },
    {
      "type": "Feature",
      "geometry": {
        "type": "Point",
        "coordinates": [
          121.49662,
          25.14438
        ]
      },
      "properties": {
        "routeId": "taipei-1-31ffa2-4-57ad9f",
        "city": "taipei",
        "route_name": "光明-1",
        "car_seq": "第4車",
        "arrival_time": "2126",
        "leave_time": "2127",
        "district": "北投區",
        "team": "光明分隊",
        "car_no": "AAB-858",
        "route_code": "105-G10",
        "stop_name": "臺北市北投區中和街455巷1弄口"
      }
    },
    {
      "type": "Feature",
      "geometry": {
        "type": "Point",
        "coordinates": [
          121.49598,
          25.14499
        ]
      },
      "properties": {
        "routeId": "taipei-1-31ffa2-4-57ad9f",
        "city": "taipei",
        "route_name": "光明-1",
        "car_seq": "第4車",
        "arrival_time": "2128",
        "leave_time": "2130",
        "district": "北投區",
        "team": "光明分隊",
        "car_no": "AAB-858",
        "route_code": "105-G10",
        "stop_name": "臺北市北投區中和街458巷口"
      }
    },
    {
      "type": "Feature",
      "geometry": {
        "type": "Point",
        "coordinates": [
          121.49527,
          25.14516
        ]
      },
      "properties": {
        "routeId": "taipei-1-31ffa2-4-57ad9f",
        "city": "taipei",
        "route_name": "光明-1",
        "car_seq": "第4車",
        "arrival_time": "2136",
        "leave_time": "2145",
        "district": "北投區",
        "team": "光明分隊",
        "car_no": "AAB-858",
        "route_code": "105-G10",
        "stop_name": "臺北市北投區中和街474巷口"
      }
    },
    {
      "type": "Feature",
      "geometry": {
        "type": "Point",
        "coordinates": [
          121.49312,
          25.14692
        ]
      },
      "properties": {
        "routeId": "taipei-1-31ffa2-4-57ad9f",
        "city": "taipei",
        "route_name": "光明-1",
        "car_seq": "第4車",
        "arrival_time": "2148",
        "leave_time": "2155",
        "district": "北投區",
        "team": "光明分隊",
        "car_no": "AAB-858",
        "route_code": "105-G10",
        "stop_name": "臺北市北投區秀山路31號前"
      }
    }
  ]
}