{
  "type": "FeatureCollection",
  "features": [
    {
      "type": "Feature",
      "geometry": {
        "type": "Point",
        "coordinates": [
          121.55901,
          24.99107
        ]
      },
      "properties": {
        "routeId": "taipei-3-0baddb-2-9e3cb1",
        "city": "taipei",
        "route_name": "興隆-3",
        "car_seq": "第2車",
        "arrival_time": "1948",
        "leave_time": "1950",
        "district": "文山區",
        "team": "興隆分隊",
        "car_no": "KEP-3602",
        "route_code": "111-G21",
        "stop_name": "臺北市文山區興隆路4段3號前"
      }
    },
    {
      "type": "Feature",
      "geometry": {
        "type": "Point",
        "coordinates": [
          121.56013,
          24.99211
        ]
      },
      "properties": {
        "routeId": "taipei-3-0baddb-2-9e3cb1",
        "city": "taipei",
        "route_name": "興隆-3",
        "car_seq": "第2車",
        "arrival_time": "1954",
        "leave_time": "1957",
        "district": "文山區",
        "team": "興隆分隊",
        "car_no": "KEP-3602",
        "route_code": "111-G21",
        "stop_name": "臺北市文山區興隆路3段255巷56號前"
      }
    },
    {
      "type": "Feature",
      "geometry": {
        "type": "Point",
        "coordinates": [
          121.5604,
          24.99249
        ]
      },
      "properties": {
        "routeId": "taipei-3-0baddb-2-9e3cb1",
        "city": "taipei",
        "route_name": "興隆-3",
        "car_seq": "第2車",
        "arrival_time": "1957",
        "leave_time": "1958",
        "district": "文山區",
        "team": "興隆分隊",
        "car_no": "KEP-3602",
        "route_code": "111-G21",
        "stop_name": "臺北市文山區興隆路3段255巷31號前"
      }
    },
    {
      "type": "Feature",
      "geometry": {
        "type": "Point",
        "coordinates": [
          121.56031,
          24.99323
        ]
      },
      "properties": {
        "routeId": "taipei-3-0baddb-2-9e3cb1",
        "city": "taipei",
        "route_name": "興隆-3",
        "car_seq": "第2車",
        "arrival_time": "1958",
        "leave_time": "2001",
        "district": "文山區",
        "team": "興隆分隊",
        "car_no": "KEP-3602",
        "route_code": "111-G21",
        "stop_name": "臺北市文山區興隆路3段255巷19號前"
      }
    },
    {
      "type": "Feature",
      "geometry": {
        "type": "Point",
        "coordinates": [
          121.55968,
          24.99269
        ]
      },
      "properties": {
        "routeId": "taipei-3-0baddb-2-9e3cb1",
        "city": "taipei",
        "route_name": "興隆-3",
        "car_seq": "第2車",
        "arrival_time": "2001",
        "leave_time": "2002",
        "district": "文山區",
        "team": "興隆分隊",
        "car_no": "KEP-3602",
        "route_code": "111-G21",
        "stop_name": "臺北市文山區興隆路3段255巷5號前"
      }
    },
    {
      "type": "Feature",
      "geometry": {
        "type": "Point",
        "coordinates": [
          121.56103,
          24.99402
        ]
      },
      "properties": {
        "routeId": "taipei-3-0baddb-2-9e3cb1",
        "city": "taipei",
        "route_name": "興隆-3",
        "car_seq": "第2車",
        "arrival_time": "2004",
        "leave_time": "2009",
        "district": "文山區",
        "team": "興隆分隊",
        "car_no": "KEP-3602",
        "route_code": "111-G21",
        "stop_name": "臺北市文山區興隆路3段221巷8弄2號前"
      }
    },
    {
      "type": "Feature",
      "geometry": {
        "type": "Point",
        "coordinates": [
          121.56026,
          24.99412
        ]
      },
      "properties": {
        "routeId": "taipei-3-0baddb-2-9e3cb1",
        "city": "taipei",
        "route_name": "興隆-3",
        "car_seq": "第2車",
        "arrival_time": "2009",
        "leave_time": "2013",
        "district": "文山區",
        "team": "興隆分隊",
        "car_no": "KEP-3602",
        "route_code": "111-G21",
        "stop_name": "臺北市文山區興隆路3段221巷4弄2號旁"
      }
    },
    {
      "type": "Feature",
      "geometry": {
        "type": "Point",
        "coordinates": [
          121.56306,
          24.99547
        ]
      },
      "properties": {
        "routeId": "taipei-3-0baddb-2-9e3cb1",
        "city": "taipei",
        "route_name": "興隆-3",
        "car_seq": "第2車",
        "arrival_time": "2016",
        "leave_time": "2021",
        "district": "文山區",
        "team": "興隆分隊",
        "car_no": "KEP-3602",
        "route_code": "111-G21",
        "stop_name": "臺北市文山區興隆路3段185巷15弄1號旁"
      }
    },
    {
      "type": "Feature",
      "geometry": {
        "type": "Point",
        "coordinates": [
          121.56226,
          24.99551
        ]
      },
      "properties": {
        "routeId": "taipei-3-0baddb-2-9e3cb1",
        "city": "taipei",
        "route_name": "興隆-3",
        "car_seq": "第2車",
        "arrival_time": "2021",
        "leave_time": "2023",
        "district": "文山區",
        "team": "興隆分隊",
        "car_no": "KEP-3602",
        "route_code": "111-G21",
        "stop_name": "臺北市文山區興隆路3段185巷11弄1號旁"
      }
    },
    {
      "type": "Feature",
      "geometry": {
        "type": "Point",
        "coordinates": [
          121.56147,
          24.99559
        ]
      },
      "properties": {
        "routeId": "taipei-3-0baddb-2-9e3cb1",
        "city": "taipei",
        "route_name": "興隆-3",
        "car_seq": "第2車",
        "arrival_time": "2023",
        "leave_time": "2026",
        "district": "文山區",
        "team": "興隆分隊",
        "car_no": "KEP-3602",
        "route_code": "111-G21",
        "stop_name": "臺北市文山區興隆路3段185巷7弄1號旁"
      }
    },
    {
      "type": "Feature",
      "geometry": {
        "type": "Point",
        "coordinates": [
          121.5607,
          24.99568
        ]
      },
      "properties": {
        "routeId": "taipei-3-0baddb-2-9e3cb1",
        "city": "taipei",
        "route_name": "興隆-3",
        "car_seq": "第2車",
        "arrival_time": "2026",
        "leave_time": "2029",
        "district": "文山區",
        "team": "興隆分隊",
        "car_no": "KEP-3602",
        "route_code": "111-G21",
        "stop_name": "臺北市文山區興隆路3段185巷3弄1號旁"
      }
    },
    {
      "type": "Feature",
      "geometry": {
        "type": "Point",
        "coordinates": [
          121.56053,
          24.99583
        ]
      },
      "properties": {
        "routeId": "taipei-3-0baddb-2-9e3cb1",
        "city": "taipei",
        "route_name": "興隆-3",
        "car_seq": "第2車",
        "arrival_time": "2029",
        "leave_time": "2031",
        "district": "文山區",
        "team": "興隆分隊",
        "car_no": "KEP-3602",
        "route_code": "111-G21",
        "stop_name": "臺北市文山區興隆路3段185巷1弄1號旁"
      }
    },
    {
      "type": "Feature",
      "geometry": {
        "type": "Point",
        "coordinates": [
          121.56521,
          24.99834
        ]
      },
      "properties": {
        "routeId": "taipei-3-0baddb-2-9e3cb1",
        "city": "taipei",
        "route_name": "興隆-3",
        "car_seq": "第2車",
        "arrival_time": "2032",
        "leave_time": "2035",
        "district": "文山區",
        "team": "興隆分隊",
        "car_no": "KEP-3602",
        "route_code": "111-G21",
        "stop_name": "臺北市文山區萬芳路63巷1號旁"
      }
    }
  ]
}