{
  "type": "FeatureCollection",
  "features": [
    {
      "type": "Feature",
      "geometry": {
        "type": "Point",
        "coordinates": [
          121.61711,
          25.03871
        ]
      },
      "properties": {
        "routeId": "taipei-3-752683-2-9e3cb1",
        "city": "taipei",
        "route_name": "舊莊-3",
        "car_seq": "第2車",
        "arrival_time": "2012",
        "leave_time": "2016",
        "district": "南港區",
        "team": "舊莊分隊",
        "car_no": "KEL-6575",
        "route_code": "111-G19",
        "stop_name": "臺北市南港區研究院路2段136號右側"
      }
    },
    {
      "type": "Feature",
      "geometry": {
        "type": "Point",
        "coordinates": [
          121.61733,
          25.03664
        ]
      },
      "properties": {
        "routeId": "taipei-3-752683-2-9e3cb1",
        "city": "taipei",
        "route_name": "舊莊-3",
        "car_seq": "第2車",
        "arrival_time": "2018",
        "leave_time": "2022",
        "district": "南港區",
        "team": "舊莊分隊",
        "car_no": "KEL-6575",
        "route_code": "111-G19",
        "stop_name": "臺北市南港區研究院路2段199號前"
      }
    },
    {
      "type": "Feature",
      "geometry": {
        "type": "Point",
        "coordinates": [
          121.61702,
          25.03606
        ]
      },
      "properties": {
        "routeId": "taipei-3-752683-2-9e3cb1",
        "city": "taipei",
        "route_name": "舊莊-3",
        "car_seq": "第2車",
        "arrival_time": "2022",
        "leave_time": "2027",
        "district": "南港區",
        "team": "舊莊分隊",
        "car_no": "KEL-6575",
        "route_code": "111-G19",
        "stop_name": "臺北市南港區研究院路2段225號"
      }
    },
    {
      "type": "Feature",
      "geometry": {
        "type": "Point",
        "coordinates": [
          121.61585,
          25.03721
        ]
      },
      "properties": {
        "routeId": "taipei-3-752683-2-9e3cb1",
        "city": "taipei",
        "route_name": "舊莊-3",
        "car_seq": "第2車",
        "arrival_time": "2030",
        "leave_time": "2032",
        "district": "南港區",
        "team": "舊莊分隊",
        "car_no": "KEL-6575",
        "route_code": "111-G19",
        "stop_name": "臺北市南港區研究院路2段182巷29弄2號後"
      }
    },
    {
      "type": "Feature",
      "geometry": {
        "type": "Point",
        "coordinates": [
          121.61295,
          25.03598
        ]
      },
      "properties": {
        "routeId": "taipei-3-752683-2-9e3cb1",
        "city": "taipei",
        "route_name": "舊莊-3",
        "car_seq": "第2車",
        "arrival_time": "2035",
        "leave_time": "2040",
        "district": "南港區",
        "team": "舊莊分隊",
        "car_no": "KEL-6575",
        "route_code": "111-G19",
        "stop_name": "臺北市南港區研究院路2段182巷109號前"
      }
    },
    {
      "type": "Feature",
      "geometry": {
        "type": "Point",
        "coordinates": [
          121.6141,
          25.03618
        ]
      },
      "properties": {
        "routeId": "taipei-3-752683-2-9e3cb1",
        "city": "taipei",
        "route_name": "舊莊-3",
        "car_seq": "第2車",
        "arrival_time": "2041",
        "leave_time": "2051",
        "district": "南港區",
        "team": "舊莊分隊",
        "car_no": "KEL-6575",
        "route_code": "111-G19",
        "stop_name": "臺北市南港區研究院路2段182巷58弄23號"
      }
    },
    {
      "type": "Feature",
      "geometry": {
        "type": "Point",
        "coordinates": [
          121.61889,
          25.04152
        ]
      },
      "properties": {
        "routeId": "taipei-3-752683-2-9e3cb1",
        "city": "taipei",
        "route_name": "舊莊-3",
        "car_seq": "第2車",
        "arrival_time": "2054",
        "leave_time": "2057",
        "district": "南港區",
        "team": "舊莊分隊",
        "car_no": "KEL-6575",
        "route_code": "111-G19",
        "stop_name": "臺北市南港區合順街8巷7弄口"
      }
    },
    {
      "type": "Feature",
      "geometry": {
        "type": "Point",
        "coordinates": [
          121.61918,
          25.04065
        ]
      },
      "properties": {
        "routeId": "taipei-3-752683-2-9e3cb1",
        "city": "taipei",
        "route_name": "舊莊-3",
        "car_seq": "第2車",
        "arrival_time": "2058",
        "leave_time": "2100",
        "district": "南港區",
        "team": "舊莊分隊",
        "car_no": "KEL-6575",
        "route_code": "111-G19",
        "stop_name": "臺北市南港區舊莊街1段92號前"
      }
    },
    {
      "type": "Feature",
      "geometry": {
        "type": "Point",
        "coordinates": [
          121.62129,
          25.03925
        ]
      },
      "properties": {
        "routeId": "taipei-3-752683-2-9e3cb1",
        "city": "taipei",
        "route_name": "舊莊-3",
        "car_seq": "第2車",
        "arrival_time": "2102",
        "leave_time": "2104",
        "district": "南港區",
        "team": "舊莊分隊",
        "car_no": "KEL-6575",
        "route_code": "111-G19",
        "stop_name": "臺北市南港區舊莊街1段170號"
      }
    },
    {
      "type": "Feature",
      "geometry": {
        "type": "Point",
        "coordinates": [
          121.62358,
          25.03734
        ]
      },
      "properties": {
        "routeId": "taipei-3-752683-2-9e3cb1",
        "city": "taipei",
        "route_name": "舊莊-3",
        "car_seq": "第2車",
        "arrival_time": "2105",
        "leave_time": "2107",
        "district": "南港區",
        "team": "舊莊分隊",
        "car_no": "KEL-6575",
        "route_code": "111-G19",
        "stop_name": "臺北市南港區舊莊街1段264號"
      }
    },
    {
      "type": "Feature",
      "geometry": {
        "type": "Point",
        "coordinates": [
          121.62396,
          25.03678
        ]
      },
      "properties": {
        "routeId": "taipei-3-752683-2-9e3cb1",
        "city": "taipei",
        "route_name": "舊莊-3",
        "car_seq": "第2車",
        "arrival_time": "2108",
        "leave_time": "2110",
        "district": "南港區",
        "team": "舊莊分隊",
        "car_no": "KEL-6575",
        "route_code": "111-G19",
        "stop_name": "臺北市南港區舊莊街1段290巷1弄1號前"
      }
    },
    {
      "type": "Feature",
      "geometry": {
        "type": "Point",
        "coordinates": [
          121.62454,
          25.03749
        ]
      },
      "properties": {
        "routeId": "taipei-3-752683-2-9e3cb1",
        "city": "taipei",
        "route_name": "舊莊-3",
        "car_seq": "第2車",
        "arrival_time": "2111",
        "leave_time": "2113",
        "district": "南港區",
        "team": "舊莊分隊",
        "car_no": "KEL-6575",
        "route_code": "111-G19",
        "stop_name": "臺北市南港區舊莊街2段3號對面"
      }
    },
    {
      "type": "Feature",
      "geometry": {
        "type": "Point",
        "coordinates": [
          121.62973,
          25.03592
        ]
      },
      "properties": {
        "routeId": "taipei-3-752683-2-9e3cb1",
        "city": "taipei",
        "route_name": "舊莊-3",
        "car_seq": "第2車",
        "arrival_time": "2115",
        "leave_time": "2117",
        "district": "南港區",
        "team": "舊莊分隊",
        "car_no": "KEL-6575",
        "route_code": "111-G19",
        "stop_name": "臺北市南港區舊莊街2段100號前30公尺"
      }
    },
    {
      "type": "Feature",
      "geometry": {
        "type": "Point",
        "coordinates": [
          121.63048,
          25.035
        ]
      },
      "properties": {
        "routeId": "taipei-3-752683-2-9e3cb1",
        "city": "taipei",
        "route_name": "舊莊-3",
        "car_seq": "第2車",
        "arrival_time": "2118",
        "leave_time": "2145",
        "district": "南港區",
        "team": "舊莊分隊",
        "car_no": "KEL-6575",
        "route_code": "111-G19",
        "stop_name": "臺北市南港區舊莊街2段128-324號前(週一、週四、週六收運，採沿途沿線播放音樂方式收運)"
      }
    }
  ]
}