{
  "type": "FeatureCollection",
  "features": [
    {
      "type": "Feature",
      "geometry": {
        "type": "Point",
        "coordinates": [
          121.51626,
          25.09041
        ]
      },
      "properties": {
        "routeId": "taipei-1-4404de-2-9e3cb1",
        "city": "taipei",
        "route_name": "後港-1",
        "car_seq": "第2車",
        "arrival_time": "1858",
        "leave_time": "1903",
        "district": "士林區",
        "team": "後港分隊",
        "car_no": "650-BS",
        "route_code": "101-038",
        "stop_name": "臺北市士林區大南路423號前"
      }
    },
    {
      "type": "Feature",
      "geometry": {
        "type": "Point",
        "coordinates": [
          121.51775,
          25.08894
        ]
      },
      "properties": {
        "routeId": "taipei-1-4404de-2-9e3cb1",
        "city": "taipei",
        "route_name": "後港-1",
        "car_seq": "第2車",
        "arrival_time": "1904",
        "leave_time": "1908",
        "district": "士林區",
        "team": "後港分隊",
        "car_no": "650-BS",
        "route_code": "101-038",
        "stop_name": "臺北市士林區大南路325號"
      }
    },
    {
      "type": "Feature",
      "geometry": {
        "type": "Point",
        "coordinates": [
          121.51893,
          25.08875
        ]
      },
      "properties": {
        "routeId": "taipei-1-4404de-2-9e3cb1",
        "city": "taipei",
        "route_name": "後港-1",
        "car_seq": "第2車",
        "arrival_time": "1909",
        "leave_time": "1917",
        "district": "士林區",
        "team": "後港分隊",
        "car_no": "650-BS",
        "route_code": "101-038",
        "stop_name": "臺北市士林區大南路287號"
      }
    },
    {
      "type": "Feature",
      "geometry": {
        "type": "Point",
        "coordinates": [
          121.5207,
          25.08844
        ]
      },
      "properties": {
        "routeId": "taipei-1-4404de-2-9e3cb1",
        "city": "taipei",
        "route_name": "後港-1",
        "car_seq": "第2車",
        "arrival_time": "1918",
        "leave_time": "1925",
        "district": "士林區",
        "team": "後港分隊",
        "car_no": "650-BS",
        "route_code": "101-038",
        "stop_name": "臺北市士林區大南路與後港街口"
      }
    },
    {
      "type": "Feature",
      "geometry": {
        "type": "Point",
        "coordinates": [
          121.51969,
          25.08983
        ]
      },
      "properties": {
        "routeId": "taipei-1-4404de-2-9e3cb1",
        "city": "taipei",
        "route_name": "後港-1",
        "car_seq": "第2車",
        "arrival_time": "1929",
        "leave_time": "1938",
        "district": "士林區",
        "team": "後港分隊",
        "car_no": "650-BS",
        "route_code": "101-038",
        "stop_name": "臺北市士林區承德路4段279號"
      }
    },
    {
      "type": "Feature",
      "geometry": {
        "type": "Point",
        "coordinates": [
          121.51865,
          25.08998
        ]
      },
      "properties": {
        "routeId": "taipei-1-4404de-2-9e3cb1",
        "city": "taipei",
        "route_name": "後港-1",
        "car_seq": "第2車",
        "arrival_time": "1939",
        "leave_time": "1947",
        "district": "士林區",
        "team": "後港分隊",
        "car_no": "650-BS",
        "route_code": "101-038",
        "stop_name": "臺北市士林區承德路4段297巷口"
      }
    },
    {
      "type": "Feature",
      "geometry": {
        "type": "Point",
        "coordinates": [
          121.5177,
          25.09039
        ]
      },
      "properties": {
        "routeId": "taipei-1-4404de-2-9e3cb1",
        "city": "taipei",
        "route_name": "後港-1",
        "car_seq": "第2車",
        "arrival_time": "1948",
        "leave_time": "1953",
        "district": "士林區",
        "team": "後港分隊",
        "car_no": "650-BS",
        "route_code": "101-038",
        "stop_name": "臺北市士林區承德路4段325號"
      }
    },
    {
      "type": "Feature",
      "geometry": {
        "type": "Point",
        "coordinates": [
          121.51871,
          25.09229
        ]
      },
      "properties": {
        "routeId": "taipei-1-4404de-2-9e3cb1",
        "city": "taipei",
        "route_name": "後港-1",
        "car_seq": "第2車",
        "arrival_time": "1954",
        "leave_time": "1957",
        "district": "士林區",
        "team": "後港分隊",
        "car_no": "650-BS",
        "route_code": "101-038",
        "stop_name": "臺北市士林區中正路與士商路口(士商路116號)"
      }
    },
    {
      "type": "Feature",
      "geometry": {
        "type": "Point",
        "coordinates": [
          121.51984,
          25.09092
        ]
      },
      "properties": {
        "routeId": "taipei-1-4404de-2-9e3cb1",
        "city": "taipei",
        "route_name": "後港-1",
        "car_seq": "第2車",
        "arrival_time": "1958",
        "leave_time": "2003",
        "district": "士林區",
        "team": "後港分隊",
        "car_no": "650-BS",
        "route_code": "101-038",
        "stop_name": "臺北市士林區士商路70號前"
      }
    }
  ]
}