{
  "type": "FeatureCollection",
  "features": [
    {
      "type": "Feature",
      "geometry": {
        "type": "Point",
        "coordinates": [
          121.61236,
          25.05538
        ]
      },
      "properties": {
        "routeId": "taipei-3-0ce057-2-9e3cb1",
        "city": "taipei",
        "route_name": "南港-3",
        "car_seq": "第2車",
        "arrival_time": "2056",
        "leave_time": "2100",
        "district": "南港區",
        "team": "南港分隊",
        "car_no": "KEG-1550",
        "route_code": "109-GA08",
        "stop_name": "臺北市南港區南港路1段152之6號"
      }
    },
    {
      "type": "Feature",
      "geometry": {
        "type": "Point",
        "coordinates": [
          121.61132,
          25.05518
        ]
      },
      "properties": {
        "routeId": "taipei-3-0ce057-2-9e3cb1",
        "city": "taipei",
        "route_name": "南港-3",
        "car_seq": "第2車",
        "arrival_time": "2101",
        "leave_time": "2105",
        "district": "南港區",
        "team": "南港分隊",
        "car_no": "KEG-1550",
        "route_code": "109-GA08",
        "stop_name": "臺北市南港區南港路1段188號"
      }
    },
    {
      "type": "Feature",
      "geometry": {
        "type": "Point",
        "coordinates": [
          121.60166,
          25.05346
        ]
      },
      "properties": {
        "routeId": "taipei-3-0ce057-2-9e3cb1",
        "city": "taipei",
        "route_name": "南港-3",
        "car_seq": "第2車",
        "arrival_time": "2110",
        "leave_time": "2115",
        "district": "南港區",
        "team": "南港分隊",
        "car_no": "KEG-1550",
        "route_code": "109-GA08",
        "stop_name": "臺北市南港區南港路2段126號"
      }
    },
    {
      "type": "Feature",
      "geometry": {
        "type": "Point",
        "coordinates": [
          121.5988,
          25.05369
        ]
      },
      "properties": {
        "routeId": "taipei-3-0ce057-2-9e3cb1",
        "city": "taipei",
        "route_name": "南港-3",
        "car_seq": "第2車",
        "arrival_time": "2116",
        "leave_time": "2120",
        "district": "南港區",
        "team": "南港分隊",
        "car_no": "KEG-1550",
        "route_code": "109-GA08",
        "stop_name": "臺北市南港區南港路2段218號"
      }
    },
    {
      "type": "Feature",
      "geometry": {
        "type": "Point",
        "coordinates": [
          121.60085,
          25.05593
        ]
      },
      "properties": {
        "routeId": "taipei-3-0ce057-2-9e3cb1",
        "city": "taipei",
        "route_name": "南港-3",
        "car_seq": "第2車",
        "arrival_time": "2122",
        "leave_time": "2130",
        "district": "南港區",
        "team": "南港分隊",
        "car_no": "KEG-1550",
        "route_code": "109-GA08",
        "stop_name": "臺北市南港區興南街55號"
      }
    },
    {
      "type": "Feature",
      "geometry": {
        "type": "Point",
        "coordinates": [
          121.60832,
          25.05407
        ]
      },
      "properties": {
        "routeId": "taipei-3-0ce057-2-9e3cb1",
        "city": "taipei",
        "route_name": "南港-3",
        "car_seq": "第2車",
        "arrival_time": "2135",
        "leave_time": "2140",
        "district": "南港區",
        "team": "南港分隊",
        "car_no": "KEG-1550",
        "route_code": "109-GA08",
        "stop_name": "臺北市南港區南港路1段287巷2弄1號"
      }
    },
    {
      "type": "Feature",
      "geometry": {
        "type": "Point",
        "coordinates": [
          121.61065,
          25.05501
        ]
      },
      "properties": {
        "routeId": "taipei-3-0ce057-2-9e3cb1",
        "city": "taipei",
        "route_name": "南港-3",
        "car_seq": "第2車",
        "arrival_time": "2140",
        "leave_time": "2144",
        "district": "南港區",
        "team": "南港分隊",
        "car_no": "KEG-1550",
        "route_code": "109-GA08",
        "stop_name": "臺北市南港區南港路1段231號"
      }
    },
    {
      "type": "Feature",
      "geometry": {
        "type": "Point",
        "coordinates": [
          121.61246,
          25.05523
        ]
      },
      "properties": {
        "routeId": "taipei-3-0ce057-2-9e3cb1",
        "city": "taipei",
        "route_name": "南港-3",
        "car_seq": "第2車",
        "arrival_time": "2145",
        "leave_time": "2150",
        "district": "南港區",
        "team": "南港分隊",
        "car_no": "KEG-1550",
        "route_code": "109-GA08",
        "stop_name": "臺北市南港區南港路1段185號"
      }
    },
    {
      "type": "Feature",
      "geometry": {
        "type": "Point",
        "coordinates": [
          121.61332,
          25.05526
        ]
      },
      "properties": {
        "routeId": "taipei-3-0ce057-2-9e3cb1",
        "city": "taipei",
        "route_name": "南港-3",
        "car_seq": "第2車",
        "arrival_time": "2151",
        "leave_time": "2159",
        "district": "南港區",
        "team": "南港分隊",
        "car_no": "KEG-1550",
        "route_code": "109-GA08",
        "stop_name": "臺北市南港區南港路1段167號"
      }
    },
    {
      "type": "Feature",
      "geometry": {
        "type": "Point",
        "coordinates": [
          121.61391,
          25.05523
        ]
      },
      "properties": {
        "routeId": "taipei-3-0ce057-2-9e3cb1",
        "city": "taipei",
        "route_name": "南港-3",
        "car_seq": "第2車",
        "arrival_time": "2200",
        "leave_time": "2208",
        "district": "南港區",
        "team": "南港分隊",
        "car_no": "KEG-1550",
        "route_code": "109-GA08",
        "stop_name": "臺北市南港區南港路1段143號"
      }
    }
  ]
}