{
  "type": "FeatureCollection",
  "features": [
    {
      "type": "Feature",
      "geometry": {
        "type": "Point",
        "coordinates": [
          121.56585,
          25.06439
        ]
      },
      "properties": {
        "routeId": "taipei-3-7d163f-2-9e3cb1",
        "city": "taipei",
        "route_name": "上塔悠-3",
        "car_seq": "第2車",
        "arrival_time": "2040",
        "leave_time": "2110",
        "district": "松山區",
        "team": "上塔悠分隊",
        "car_no": "KEA-0868",
        "route_code": "107-G14",
        "stop_name": "臺北市松山區撫遠街379巷口"
      }
    },
    {
      "type": "Feature",
      "geometry": {
        "type": "Point",
        "coordinates": [
          121.56374,
          25.05866
        ]
      },
      "properties": {
        "routeId": "taipei-3-7d163f-2-9e3cb1",
        "city": "taipei",
        "route_name": "上塔悠-3",
        "car_seq": "第2車",
        "arrival_time": "2120",
        "leave_time": "2140",
        "district": "松山區",
        "team": "上塔悠分隊",
        "car_no": "KEA-0868",
        "route_code": "107-G14",
        "stop_name": "臺北市松山區民生東路5段186號(圓環邊)"
      }
    },
    {
      "type": "Feature",
      "geometry": {
        "type": "Point",
        "coordinates": [
          121.55682,
          25.06005
        ]
      },
      "properties": {
        "routeId": "taipei-3-7d163f-2-9e3cb1",
        "city": "taipei",
        "route_name": "上塔悠-3",
        "car_seq": "第2車",
        "arrival_time": "2145",
        "leave_time": "2155",
        "district": "松山區",
        "team": "上塔悠分隊",
        "car_no": "KEA-0868",
        "route_code": "107-G14",
        "stop_name": "臺北市松山區民生東路5段27巷9弄口"
      }
    },
    {
      "type": "Feature",
      "geometry": {
        "type": "Point",
        "coordinates": [
          121.55494,
          25.06018
        ]
      },
      "properties": {
        "routeId": "taipei-3-7d163f-2-9e3cb1",
        "city": "taipei",
        "route_name": "上塔悠-3",
        "car_seq": "第2車",
        "arrival_time": "2201",
        "leave_time": "2210",
        "district": "松山區",
        "team": "上塔悠分隊",
        "car_no": "KEA-0868",
        "route_code": "107-G14",
        "stop_name": "臺北市松山區光復北路199號"
      }
    }
  ]
}