{
  "type": "FeatureCollection",
  "features": [
    {
      "type": "Feature",
      "geometry": {
        "type": "Point",
        "coordinates": [
          121.61339,
          25.06764
        ]
      },
      "properties": {
        "routeId": "taipei-3-91c7c8-2-9e3cb1",
        "city": "taipei",
        "route_name": "東湖-3",
        "car_seq": "第2車",
        "arrival_time": "1940",
        "leave_time": "1948",
        "district": "內湖區",
        "team": "東湖分隊",
        "car_no": "482-BH",
        "route_code": "94-S385",
        "stop_name": "臺北市內湖區五分街35號對面"
      }
    },
    {
      "type": "Feature",
      "geometry": {
        "type": "Point",
        "coordinates": [
          121.62109,
          25.07021
        ]
      },
      "properties": {
        "routeId": "taipei-3-91c7c8-2-9e3cb1",
        "city": "taipei",
        "route_name": "東湖-3",
        "car_seq": "第2車",
        "arrival_time": "1953",
        "leave_time": "1957",
        "district": "內湖區",
        "team": "東湖分隊",
        "car_no": "482-BH",
        "route_code": "94-S385",
        "stop_name": "臺北市內湖區康樂街61巷73弄34號"
      }
    },
    {
      "type": "Feature",
      "geometry": {
        "type": "Point",
        "coordinates": [
          121.61989,
          25.07071
        ]
      },
      "properties": {
        "routeId": "taipei-3-91c7c8-2-9e3cb1",
        "city": "taipei",
        "route_name": "東湖-3",
        "car_seq": "第2車",
        "arrival_time": "2000",
        "leave_time": "2005",
        "district": "內湖區",
        "team": "東湖分隊",
        "car_no": "482-BH",
        "route_code": "94-S385",
        "stop_name": "臺北市內湖區康樂街111巷12號"
      }
    },
    {
      "type": "Feature",
      "geometry": {
        "type": "Point",
        "coordinates": [
          121.61827,
          25.0704
        ]
      },
      "properties": {
        "routeId": "taipei-3-91c7c8-2-9e3cb1",
        "city": "taipei",
        "route_name": "東湖-3",
        "car_seq": "第2車",
        "arrival_time": "2007",
        "leave_time": "2015",
        "district": "內湖區",
        "team": "東湖分隊",
        "car_no": "482-BH",
        "route_code": "94-S385",
        "stop_name": "臺北市內湖區康樂街110巷16弄20號"
      }
    }
  ]
}